{"type":"FeatureCollection","features":[{"type":"Feature","properties":{"province":"Bagmati Province","district":"Nuwakot","municipality":"Suryagadhi Rural Municipality","ward":"2","wardNumber":2,"sourceMunicipality":"Suryagadhi","sourceType":"Gaunpalika"},"geometry":{"type":"Polygon","coordinates":[[[85.24533443349537,27.981076626580183],[85.24658127260287,27.981008911788493],[85.24757151481896,27.980902874563103],[85.24805882162967,27.980833038529088],[85.24826214728657,27.980828974087512],[85.24853662368564,27.98082415856514],[85.24912202828003,27.98060671642401],[85.2495785087214,27.980345261767827],[85.2499670271007,27.980255983078667],[85.2501634115857,27.98014588726543],[85.25061782993403,27.979981523685364],[85.25146107967659,27.979748137498664],[85.25171998833108,27.979714188644294],[85.25210900768886,27.97960459152922],[85.25243206451727,27.97957226796677],[85.25244237787975,27.979093752777775],[85.25273054424005,27.978678191513183],[85.25284295989202,27.97844918526299],[85.25291467075274,27.978105521935937],[85.25305109395278,27.977763545551102],[85.25312405562673,27.97736342798524],[85.25323634586373,27.97713448485367],[85.25328454940346,27.976906104897736],[85.25332724632847,27.97592850529214],[85.25337357418988,27.97575657880366],[85.25337857479333,27.975528637342215],[85.25315392412735,27.97500710995349],[85.25302856454456,27.974832247554566],[85.2529878601702,27.974715275092937],[85.25286981341326,27.974235635190936],[85.25289407118636,27.974081964953392],[85.25311471328834,27.973818198534907],[85.25346352937727,27.97359381815777],[85.25411345694761,27.9733554317622],[85.25456868727123,27.973152682075078],[85.25535266323104,27.97268966668497],[85.25666533075956,27.971580896083896],[85.25712781222732,27.971073431755322],[85.2579160374184,27.97037790987479],[85.25815993861896,27.97003712060442],[85.25838014353452,27.969791422910376],[85.25879685765442,27.96939717940865],[85.25968099156468,27.96826296613483],[85.25997240826523,27.967693921694657],[85.25995446254487,27.967520245650974],[85.26002361169823,27.96729167854201],[85.26011420593836,27.96710356022381],[85.26033459868117,27.966819413017657],[85.26050434820385,27.966718569865556],[85.26055230334325,27.96668881118851],[85.26099083868634,27.966312385146335],[85.2617781898166,27.965713892313893],[85.2619763873662,27.96548863778092],[85.26220134317417,27.96505107010156],[85.26224823378172,27.964879081473],[85.26225385892509,27.964648889061223],[85.26215131962472,27.96441738419309],[85.26198450623423,27.96422257749058],[85.26185795747067,27.964106357462576],[85.26113818676058,27.963632284361793],[85.26024728846951,27.96313720648904],[85.2597815509237,27.962823305231144],[85.25944173537948,27.962663947217653],[85.2591851393056,27.962621124285203],[85.25934032101908,27.96241212449151],[85.2599758029069,27.961869148112132],[85.26050630770926,27.961207575825625],[85.26133666832528,27.959669932007902],[85.26179070377684,27.95860505370139],[85.26186047852498,27.958376486187266],[85.26193062726844,27.958127600072512],[85.26152216283572,27.95814041907021],[85.26113495714475,27.958170992681477],[85.26081564935329,27.958031704058058],[85.26055949167963,27.957968687024444],[85.26049590445,27.957910607973304],[85.25983508777215,27.956767963639347],[85.25965739105415,27.95607451089396],[85.25966464206455,27.955769795759867],[85.25980356510786,27.9553125987871],[85.2600272080409,27.954931485570835],[85.26010091961565,27.954549435406395],[85.25993998145655,27.95408830100154],[85.2599222241506,27.953935005699844],[85.25999368544075,27.953629665538937],[85.26000087315187,27.953322638186872],[85.25999049147823,27.952862377873227],[85.25991683503005,27.952323720060473],[85.2597930376062,27.9521104705129],[85.2590943361262,27.951697102748977],[85.25871581873261,27.951382387845744],[85.2585708252473,27.95115125839428],[85.25833129278358,27.950379407873285],[85.25820530745673,27.950263186755876],[85.25803580681122,27.95016322159181],[85.25788662571601,27.950121710218696],[85.25769349095475,27.950118960162545],[85.25743770758307,27.95003781262046],[85.2571849251275,27.949823376639415],[85.25691669654591,27.949376809626912],[85.25685742239442,27.94914492922697],[85.25683103261629,27.948454601696078],[85.25674812612704,27.948319937487092],[85.25668478986294,27.94827992610085],[85.25636360783479,27.94825573345134],[85.25597290034011,27.948421846511685],[85.25512146296343,27.949018589755358],[85.25401011745218,27.949726116726428],[85.2537475839793,27.94993386691442],[85.25289814627895,27.950435831540474],[85.25243947900908,27.95077174515611],[85.25178680136825,27.95114329595192],[85.25146168055728,27.951270397366194],[85.25093967605928,27.951568488592994],[85.25052189924492,27.951983050335954],[85.25021972441805,27.9520535097459],[85.25002815228522,27.951973987475576],[85.24977074475933,27.951969550747027],[85.24957923509777,27.951890028173896],[85.24943005456231,27.95184851664131],[85.24919677927215,27.95172873297677],[85.24900233236814,27.951782437403484],[85.24876468159204,27.951836517081095],[85.24863482067467,27.951871528577808],[85.24844312405222,27.951830392404403],[85.2482621815683,27.951789193464354],[85.24820547260798,27.9517761898565],[85.2475250899712,27.951123377301396],[85.24735533745094,27.950892498163626],[85.24699669926221,27.950205173355478],[85.24646587178677,27.94951484822661],[85.24638127585534,27.949344174273612],[85.24604120958409,27.948940994669588],[85.24553376367214,27.948022603385724],[85.24496016963053,27.947314711056052],[85.24472558129537,27.947084394922747],[85.24455482971467,27.94698661668494],[85.24438351548199,27.94694754402323],[85.24412429449606,27.947060453792005],[85.24397167662856,27.947269453539846],[85.24375590996036,27.94740230614707],[85.24280812170495,27.9475869287138],[85.24229036806692,27.947812748379068],[85.24200895250796,27.948038690494617],[85.24172634972595,27.948379792898287],[85.2415098946069,27.94851270787737],[85.24107629889245,27.948929520388084],[85.24085984486977,27.94906012255556],[85.24042562387598,27.949533451326513],[85.23990474701247,27.950102309009758],[85.23962295605887,27.950348633668114],[85.23951472988422,27.950444412423884],[85.23942813529098,27.95048123565799],[85.23925638392626,27.950518935243092],[85.23899859998114,27.95047836285055],[85.23865440964639,27.95049499488442],[85.23820242936578,27.950587086430875],[85.23783479468965,27.950831848524096],[85.23744352727252,27.951286733581718],[85.23716167403124,27.95153299524428],[85.23681667211488,27.951646718134036],[85.23642902749246,27.95169986099435],[85.23599893121387,27.951755629681905],[85.23586950817216,27.951831278372165],[85.23550106045327,27.952114426325455],[85.23526322324652,27.952265471510955],[85.23509065984254,27.952339244273784],[85.23483206430366,27.952395762247114],[85.23448849827653,27.952412394646174],[85.23397043266213,27.952617894788585],[85.23377542396236,27.9527888843172],[85.23306159835973,27.953260213915474],[85.23228631163818,27.95342739281758],[85.23125417732041,27.953459220256743],[85.23065157870347,27.953550375846895],[85.23022141895437,27.953547439977918],[85.2300500429775,27.953508366423275],[85.22962206987962,27.95331581302506],[85.2290666730517,27.95296877617143],[85.22857498713435,27.95264143292345],[85.22827687439873,27.95235297539705],[85.22778562628558,27.952007564017386],[85.2275291556418,27.95191053683661],[85.22684321041937,27.95165940447991],[85.22615732913705,27.951464663442838],[85.22546976060002,27.951459541099357],[85.22478312960243,27.951359578108494],[85.22409574798237,27.951316069732933],[85.22383833926442,27.951257428612024],[85.22353822731947,27.951122390651683],[85.22340986732787,27.9511213283604],[85.22237941933172,27.950963475531857],[85.22169335156303,27.950919904565094],[85.22149953007167,27.950973545885194],[85.22145401508445,27.95122218203871],[85.22135892224236,27.952024231088306],[85.2212490090047,27.952309502584757],[85.22103086720982,27.9526319108004],[85.22098710185293,27.95274513216082],[85.2211156498907,27.952764324876746],[85.22214216088312,27.953305852251997],[85.22291095046002,27.95380674518745],[85.22310377282375,27.95388401694013],[85.2235542536047,27.953999611051124],[85.22381203758646,27.95398372934422],[85.22400623406548,27.953907581505547],[85.22426420537899,27.953909830763447],[85.2244572150572,27.953948716041552],[85.22471518573961,27.9539509021704],[85.22497271928961,27.95402986197943],[85.22535661494989,27.954317568839567],[85.22586968305755,27.954624405744056],[85.2267037464556,27.9550502765435],[85.22708926582683,27.955204819936185],[85.22753980897119,27.95532266416808],[85.22805268914216,27.9556114339791],[85.22863140631577,27.955766475492364],[85.22876039156708,27.955767600309798],[85.2292753971256,27.955905200021718],[85.22946815605833,27.955926018242543],[85.23002567739118,27.95611963443364],[85.23026039085433,27.95625517199904],[85.23036718102483,27.956369330699783],[85.23040694862375,27.956673607021937],[85.2303401753244,27.956902174794166],[85.22992540103509,27.957585127512267],[85.22985875229294,27.957813694845875],[85.2299009567516,27.957948734682812],[85.22994309852032,27.958025068854834],[85.23066905960629,27.958506018999252],[85.23071088883778,27.958659188123608],[85.23066337442381,27.959115385223804],[85.23087445599099,27.959573893578817],[85.23130011769015,27.96001464587163],[85.23185457727485,27.96043845447999],[85.23196011765779,27.96066770902104],[85.23232100617133,27.961165478266707],[85.23255640640858,27.961242311829615],[85.2327277836511,27.96134008985939],[85.23285551948254,27.961454059304852],[85.2335982407218,27.962449347562966],[85.23389679112498,27.962719737892737],[85.23417520816353,27.962834582950222],[85.23434739776519,27.962835332189613],[85.23486196482938,27.96299093713648],[85.23528968832298,27.963165360673127],[85.23554709687049,27.96322393885607],[85.23589153778944,27.96322762575408],[85.23657773115077,27.96338391764235],[85.23692217162579,27.963328961768948],[85.23711555601467,27.963349779529203],[85.23724229315454,27.963596851132195],[85.23732563788735,27.963826292923528],[85.2374071722543,27.964342381965032],[85.23740223631192,27.964856970617323],[85.2374441904623,27.964971691155935],[85.23752959829869,27.965047650998695],[85.23787297580608,27.965069343076983],[85.23813157179379,27.965012887424283],[85.23897331954211,27.964657715235663],[85.2396010500877,27.96420289085903],[85.24003289738727,27.96401627065091],[85.24063287148869,27.964191381551768],[85.24095367928965,27.964346487210374],[85.24127405038683,27.964576053221762],[85.2414444278912,27.96474822757526],[85.24159417194087,27.964843942004315],[85.2419369875676,27.964980730112185],[85.24200101186699,27.965018616024185],[85.24202202050238,27.96507700838713],[85.24199707605199,27.965456370313927],[85.24207804744871,27.965972458310166],[85.2420552284254,27.96614419693958],[85.24202021559846,27.966306994486853],[85.24190235987305,27.96639151992204],[85.24175067933065,27.966465105269105],[85.24123430038084,27.966539755276088],[85.2408058893735,27.9663653317738],[85.2405484809028,27.966306752864604],[85.24020466483967,27.966303066803654],[85.24001084372108,27.966358958760747],[85.23979438936038,27.966491812007483],[85.23959869333494,27.966717004053198],[85.23938042673754,27.967080049111896],[85.23914115155056,27.96732593543696],[85.23862014908227,27.96777975940615],[85.23842532710903,27.967912362227402],[85.23816666922907,27.967968880507698],[85.23773707164167,27.967966006832995],[85.23730597400552,27.96805784914063],[85.23661571986337,27.96832136804517],[85.2364426556992,27.9684154590203],[85.23609534147917,27.968718737750205],[85.23540827255191,27.96865722375235],[85.23489120509205,27.96872955998888],[85.23394122939456,27.96912399367201],[85.23342435044388,27.969216648823735],[85.23290828309524,27.969212275461008],[85.23256590523847,27.96911606170641],[85.23128161085388,27.96855434191051],[85.23102426410027,27.96849570130871],[85.23068032377921,27.968492014366397],[85.23042316570906,27.968453692494506],[85.22933125627154,27.96804601634279],[85.2285587791999,27.96784977602926],[85.22770289641143,27.96752118377902],[85.2271885160924,27.96738358396096],[85.22641447823527,27.967379212365888],[85.22606959992301,27.967452298607775],[85.22572534708281,27.96746886759431],[85.22503646698861,27.967578841445462],[85.22443274351174,27.96774670655893],[85.22410893613251,27.967878246707418],[85.22344100079425,27.96804667531541],[85.22300927963958,27.968194971432574],[85.22261944856085,27.968460238945436],[85.22235860278332,27.96870625017223],[85.22227132155213,27.968858232898864],[85.2221844775038,27.968933505620114],[85.22211676724238,27.969238720793665],[85.22213583860616,27.969468788415238],[85.22230015483446,27.970173681817425],[85.22244971063543,27.970251328803112],[85.2228998789773,27.970387241306558],[85.22347897113674,27.97050621017031],[85.22392870142404,27.970662441117593],[85.22450916851491,27.97068431880309],[85.22470261448841,27.970646493971852],[85.22521861978566,27.97065093012965],[85.22556206063217,27.970729138439097],[85.22573324992503,27.97080653545771],[85.22611614447395,27.971171015325627],[85.22615834810848,27.971247349909568],[85.22619942759076,27.971400457357632],[85.22625326743186,27.972392935857126],[85.22623125935328,27.97246758339148],[85.22627196400082,27.972697400083042],[85.22652293689634,27.973309015789177],[85.22671369766692,27.973596161995548],[85.2267763466467,27.97374908101439],[85.2267944804274,27.974053607873923],[85.22672283416746,27.974740247584375],[85.22678373404166,27.975121109107363],[85.22699219120494,27.975733037488265],[85.22702933472985,27.976267569844914],[85.22688098024736,27.978096858022656],[85.22676900301782,27.978477032438327],[85.22665265329995,27.979315279439714],[85.22682096951353,27.979697453063775],[85.22701066672043,27.980004917637878],[85.22724025754847,27.980691180158004],[85.22745052693571,27.98113162070687],[85.2275565673557,27.981286416032393],[85.22766229534773,27.981418578912468],[85.22804562803869,27.981764991289236],[85.2284295853554,27.98205263583807],[85.22875020645425,27.982246128769237],[85.22932661063008,27.982631363000007],[85.22952024579087,27.982613857148976],[85.2301023982802,27.982446116455623],[85.23074920068112,27.982259808480364],[85.23113753157449,27.982148023088932],[85.23146183820255,27.981996164244407],[85.23191625549272,27.981714516516252],[85.23224056275325,27.981562657680037],[85.23256424493808,27.981413049617633],[85.23295257589794,27.981301264614007],[85.2332750085815,27.981320892886014],[85.233511909158,27.981246557152357],[85.23422167267431,27.981233424804536],[85.23460687937848,27.9813518319104],[85.23499083709038,27.981641727158035],[85.23543794419756,27.982046155855286],[85.23575750239539,27.982257716404835],[85.23633571891192,27.98247365156881],[85.2368495365073,27.982667643041776],[85.23762432486805,27.982559106920682],[85.23839892516166,27.982491144330407],[85.23943218339592,27.982308085156987],[85.23988510049881,27.982177606701708],[85.24106997726862,27.9819185862847],[85.24132807343061,27.981864443790595],[85.24190860169888,27.981888509925852],[85.24255477949603,27.98176078081006],[85.24320070565616,27.981612796302716],[85.2435675909824,27.981462749821745],[85.24389108559237,27.981351527714796],[85.24445141911177,27.981222299011492],[85.24477472607583,27.981147150039067],[85.24507640066163,27.98107450196397],[85.24533443349537,27.981076626580183]]]}},{"type":"Feature","properties":{"province":"Bagmati Province","district":"Nuwakot","municipality":"Suryagadhi Rural Municipality","ward":"3","wardNumber":3,"sourceMunicipality":"Suryagadhi","sourceType":"Gaunpalika"},"geometry":{"type":"Polygon","coordinates":[[[85.22353822731947,27.951122390651683],[85.22351853143745,27.950951090512778],[85.22360799974828,27.950609489321593],[85.223827202411,27.950153979626325],[85.22393767880016,27.9498100029489],[85.22405009188284,27.949296663754282],[85.22405509016114,27.948838467019904],[85.22403576933894,27.948646848248462],[85.22397343279626,27.948473673020267],[85.22367913155533,27.94795721045782],[85.22344897946951,27.947381542754695],[85.22336882073127,27.946921845489058],[85.22337506916456,27.94634855183692],[85.22341889679511,27.94623533098411],[85.22348929479783,27.945720178836535],[85.22368749033708,27.94526254358474],[85.22408063211799,27.94463616978545],[85.22430164752951,27.944065500651018],[85.22441406063079,27.943608615981308],[85.22437398222363,27.943378799122748],[85.22409937655095,27.942975057024064],[85.22397413974254,27.94263089393119],[85.2239143025723,27.942227463505795],[85.22400383368593,27.941885862183913],[85.2245507177327,27.940973778751765],[85.22455696562548,27.94040054792198],[85.22460510518708,27.939941975286374],[85.22487307394447,27.93902783052326],[85.22494409538164,27.938397582532005],[85.22477940453709,27.937767147747753],[85.22478190420827,27.937536954967335],[85.22472087871184,27.937250871357328],[85.22426313647793,27.935984377355272],[85.22411508027368,27.93581195259334],[85.22394382868174,27.93573449287431],[85.22379502283242,27.935656846625324],[85.22364521656928,27.93561752349503],[85.22321680713101,27.935535626866955],[85.22252961482806,27.935607214035794],[85.22192726586404,27.935716311894947],[85.22166998288712,27.935714125162864],[85.2214564652026,27.93565504693216],[85.22113747021973,27.935366776291488],[85.22086317688567,27.93498103905644],[85.22045883728974,27.93467313897989],[85.22035267196762,27.934556793161033],[85.21976438233968,27.933481042782592],[85.21942525416213,27.933095868663262],[85.2192765722619,27.932979835918864],[85.21893475699216,27.932806849002947],[85.2179939675634,27.932530836337303],[85.2172258040725,27.93217879997941],[85.21673611992529,27.931851393694547],[85.21637442045946,27.931599571388023],[85.21631483248873,27.931160068237038],[85.21623342473478,27.930756824808338],[85.21615020430838,27.930527382739566],[85.21594006148112,27.93014333388563],[85.21583395852562,27.930029176419314],[85.21564269860136,27.92985481310209],[85.21557811220859,27.929873443794992],[85.2152534929091,27.93015615392016],[85.21507880513522,27.930385660442475],[85.21486010136591,27.93076445991503],[85.21479339046195,27.930992964821407],[85.21413409262082,27.932361871203575],[85.213698497104,27.932950234101693],[85.21356701294856,27.93317930133343],[85.21311072185878,27.93372946570329],[85.21285043919514,27.9339755394536],[85.21276384525544,27.934012300754855],[85.21248155473344,27.934335335078483],[85.21176685615224,27.934957708914993],[85.21135601684067,27.935202845929624],[85.21103139907231,27.935487806864636],[85.21062074801318,27.935750949089282],[85.20990598555461,27.936316931995258],[85.20973323524538,27.936431278326637],[85.20964701540326,27.936450097646],[85.20938973262193,27.936447848268337],[85.2088759149384,27.936346258970644],[85.20861831937083,27.936382395802667],[85.20835916156967,27.936495242588364],[85.20805567580977,27.93679808312171],[85.20788304930963,27.936871793445725],[85.20762489102549,27.93690793068847],[85.20734872455687,27.93669593242764],[85.20713733209104,27.936426979788155],[85.20705223661844,27.93636908818982],[85.20679614126212,27.93625180507339],[85.20658012282566,27.936249117694143],[85.20628151204411,27.936247181970437],[85.20593650976825,27.9364172338799],[85.20580627447315,27.93652895459221],[85.20533122477869,27.936831045722375],[85.20500660673646,27.937115944105816],[85.20450636250676,27.93777932919036],[85.20431129122521,27.937950318024384],[85.20390151539327,27.938175074262215],[85.20364329460426,27.93826760224235],[85.20347116840306,27.938325433154084],[85.20338513698563,27.93836238144924],[85.20310584615001,27.938437030648938],[85.20295479064687,27.93851055239127],[85.20282436849807,27.938662911012965],[85.20266975057538,27.939043398723392],[85.20259835338462,27.939653327766152],[85.2025549631135,27.939748544119578],[85.20246749429863,27.939882458863348],[85.2019695619117,27.940297520605498],[85.20162474770851,27.940485577552288],[85.20184990060778,27.941424665206714],[85.2021657091764,27.941943252629144],[85.20243425279388,27.942784936383475],[85.20247283242307,27.943168235874005],[85.20244969991354,27.9433196562073],[85.20249040397653,27.943549473228018],[85.20247809408474,27.944619287155383],[85.20240932096513,27.945001274586485],[85.20242939212015,27.945095927430156],[85.2025772607379,27.94530898932753],[85.20276914544306,27.945424647346155],[85.20319486876821,27.945657900709218],[85.20388218611338,27.9455864389642],[85.20439625253242,27.945590936857048],[85.20491344278838,27.945365243248716],[85.20581615196055,27.94512491756399],[85.20613933377831,27.944995689681353],[85.20633184379601,27.94505264320846],[85.2063943057145,27.945187557666536],[85.20634966494502,27.94534135277992],[85.20597840638926,27.945949470870833],[85.20586805511047,27.946252810730204],[85.205943089056,27.947170642255806],[85.20600536351836,27.94740033449773],[85.20595966106997,27.947628651761082],[85.20574083236916,27.948009702432422],[85.20526597040221,27.948329799531937],[85.2046642474682,27.948438897572505],[85.20380349197048,27.948737552604655],[85.20294373521467,27.94890310577846],[85.20251332666419,27.94905127662347],[85.20229705917832,27.9492021347647],[85.20221084060496,27.949277344427152],[85.20212362156025,27.94942932715389],[85.2019905750633,27.949811940643183],[85.2020295292098,27.950116217272342],[85.20217658549667,27.950424057061255],[85.2022822514318,27.950558595298386],[85.20251421542925,27.950904071115378],[85.20259812216065,27.951018416416087],[85.20293681384689,27.951423971129707],[85.20344788038705,27.9517331840732],[85.20363851561665,27.95190754719448],[85.20380801726066,27.952118170045225],[85.20401809829596,27.95250221966474],[85.2043087753671,27.95332564682834],[85.20445683112304,27.95350038553645],[85.20464896617186,27.953577719286965],[85.20541844090869,27.95375601744899],[85.20605693141445,27.954201770071027],[85.20658037744302,27.954361876020076],[85.20669773404171,27.954396948059557],[85.20695383059517,27.954514356470177],[85.20759544566782,27.954729853772463],[85.20797946453779,27.954925096211515],[85.20823662295031,27.954965669044288],[85.20849440720181,27.954947599799688],[85.20892312821744,27.954932592759],[85.20900934853823,27.954913774504686],[85.20918134899352,27.95489645617404],[85.20989092508795,27.954768351935606],[85.21053428982465,27.95479429356288],[85.21111488021789,27.95472370696775],[85.21150083658056,27.95474514819262],[85.21214301354196,27.9548455495989],[85.21291286457046,27.955100494822915],[85.2133610957306,27.95529748763314],[85.21387434960569,27.955453030905996],[85.21426049366461,27.95549485292379],[85.21470959932799,27.955594692686287],[85.21528937740452,27.955562429826607],[85.2157394832232,27.95564195013782],[85.21612331464627,27.955816874692566],[85.21623010479114,27.95587451565073],[85.21671966470602,27.95624262149267],[85.21735815661215,27.956857547999796],[85.21765539458768,27.957240846204353],[85.21812319779286,27.95775793294061],[85.21844288089412,27.95804632863864],[85.21901953639613,27.958469950281213],[85.21927606951732,27.958566977159954],[85.2198535369288,27.958893632313952],[85.22036785480344,27.95903123252847],[85.2206252013299,27.959146264821246],[85.22094575993765,27.95933975731713],[85.22152322587249,27.959609958393205],[85.22233859361178,27.959785505224968],[85.22267965952842,27.960055519924],[85.22276462996477,27.960208251709396],[85.22274155978913,27.96036192171172],[85.22265434158413,27.9605115914085],[85.22228539423516,27.9608714490857],[85.2219397046612,27.96104156322043],[85.22150866900476,27.961133468055863],[85.22064635107951,27.96141411774118],[85.22032123153512,27.961717146650386],[85.22014816802032,27.961811237140967],[85.21939013983231,27.96237765799293],[85.21837576618177,27.962867307385448],[85.21794154527484,27.96330218762524],[85.21785363856416,27.963454170541038],[85.2177836165139,27.964064162968562],[85.2178026879251,27.964291917057135],[85.21792836287761,27.964674466319615],[85.21794705930844,27.964978930760207],[85.21781257527878,27.96551271269603],[85.2176366388347,27.96596790990235],[85.21763082769948,27.966579527294627],[85.21764883627375,27.966717005248487],[85.21767047001106,27.966883804200776],[85.21777388593675,27.967266540825474],[85.21777032474168,27.967571192601998],[85.21768160597787,27.9678744699375],[85.21755005946427,27.968103538490972],[85.21724632251123,27.968329668403882],[85.21683573387683,27.968556738108436],[85.21629309822083,27.96901062441426],[85.21618318345655,27.969239504656546],[85.21622538719934,27.969315902063343],[85.21632461278368,27.96943687445559],[85.21658827381965,27.969547342436186],[85.21671707178366,27.969584603233887],[85.21736256235708,27.969513391141103],[85.21833423329392,27.969118894345197],[85.21872381420823,27.968892012947936],[85.21898265953237,27.96879948444976],[85.21924131792049,27.968743029063422],[85.2196929862471,27.96872770953486],[85.22008038015643,27.96865431016322],[85.22053248583055,27.96861867233366],[85.2209176304686,27.96879353419616],[85.22117360129032,27.969003406594435],[85.22140644119163,27.96931049562012],[85.22157638065184,27.96950311349814],[85.22178808641338,27.969790071809793],[85.22198003429006,27.969962121205587],[85.22230015483446,27.970173681817425],[85.22213583860616,27.969468788415238],[85.22211676724238,27.969238720793665],[85.2221844775038,27.968933505620114],[85.22227132155213,27.968858232898864],[85.22235860278332,27.96870625017223],[85.22261944856085,27.968460238945436],[85.22300927963958,27.968194971432574],[85.22344100079425,27.96804667531541],[85.22410893613251,27.967878246707418],[85.22443274351174,27.96774670655893],[85.22503646698861,27.967578841445462],[85.22572534708281,27.96746886759431],[85.22606959992301,27.967452298607775],[85.22641447823527,27.967379212365888],[85.2271885160924,27.96738358396096],[85.22770289641143,27.96752118377902],[85.2285587791999,27.96784977602926],[85.22933125627154,27.96804601634279],[85.23042316570906,27.968453692494506],[85.23068032377921,27.968492014366397],[85.23102426410027,27.96849570130871],[85.23128161085388,27.96855434191051],[85.23256590523847,27.96911606170641],[85.23290828309524,27.969212275461008],[85.23342435044388,27.969216648823735],[85.23394122939456,27.96912399367201],[85.23489120509205,27.96872955998888],[85.23540827255191,27.96865722375235],[85.23609534147917,27.968718737750205],[85.2364426556992,27.9684154590203],[85.23661571986337,27.96832136804517],[85.23730597400552,27.96805784914063],[85.23773707164167,27.967966006832995],[85.23816666922907,27.967968880507698],[85.23842532710903,27.967912362227402],[85.23862014908227,27.96777975940615],[85.23914115155056,27.96732593543696],[85.23938042673754,27.967080049111896],[85.23959869333494,27.966717004053198],[85.23979438936038,27.966491812007483],[85.24001084372108,27.966358958760747],[85.24020466483967,27.966303066803654],[85.2405484809028,27.966306752864604],[85.2408058893735,27.9663653317738],[85.24123430038084,27.966539755276088],[85.24175067933065,27.966465105269105],[85.24190235987305,27.96639151992204],[85.24202021559846,27.966306994486853],[85.2420552284254,27.96614419693958],[85.24207804744871,27.965972458310166],[85.24199707605199,27.965456370313927],[85.24202202050238,27.96507700838713],[85.24200101186699,27.965018616024185],[85.2419369875676,27.964980730112185],[85.24159417194087,27.964843942004315],[85.2414444278912,27.96474822757526],[85.24127405038683,27.964576053221762],[85.24095367928965,27.964346487210374],[85.24063287148869,27.964191381551768],[85.24003289738727,27.96401627065091],[85.2396010500877,27.96420289085903],[85.23897331954211,27.964657715235663],[85.23813157179379,27.965012887424283],[85.23787297580608,27.965069343076983],[85.23752959829869,27.965047650998695],[85.2374441904623,27.964971691155935],[85.23740223631192,27.964856970617323],[85.2374071722543,27.964342381965032],[85.23732563788735,27.963826292923528],[85.23724229315454,27.963596851132195],[85.23711555601467,27.963349779529203],[85.23692217162579,27.963328961768948],[85.23657773115077,27.96338391764235],[85.23589153778944,27.96322762575408],[85.23554709687049,27.96322393885607],[85.23528968832298,27.963165360673127],[85.23486196482938,27.96299093713648],[85.23434739776519,27.962835332189613],[85.23417520816353,27.962834582950222],[85.23389679112498,27.962719737892737],[85.2335982407218,27.962449347562966],[85.23285551948254,27.961454059304852],[85.2327277836511,27.96134008985939],[85.23255640640858,27.961242311829615],[85.23232100617133,27.961165478266707],[85.23196011765779,27.96066770902104],[85.23185457727485,27.96043845447999],[85.23130011769015,27.96001464587163],[85.23087445599099,27.959573893578817],[85.23066337442381,27.959115385223804],[85.23071088883778,27.958659188123608],[85.23066905960629,27.958506018999252],[85.22994309852032,27.958025068854834],[85.2299009567516,27.957948734682812],[85.22985875229294,27.957813694845875],[85.22992540103509,27.957585127512267],[85.2303401753244,27.956902174794166],[85.23040694862375,27.956673607021937],[85.23036718102483,27.956369330699783],[85.23026039085433,27.95625517199904],[85.23002567739118,27.95611963443364],[85.22946815605833,27.955926018242543],[85.2292753971256,27.955905200021718],[85.22876039156708,27.955767600309798],[85.22863140631577,27.955766475492364],[85.22805268914216,27.9556114339791],[85.22753980897119,27.95532266416808],[85.22708926582683,27.955204819936185],[85.2267037464556,27.9550502765435],[85.22586968305755,27.954624405744056],[85.22535661494989,27.954317568839567],[85.22497271928961,27.95402986197943],[85.22471518573961,27.9539509021704],[85.2244572150572,27.953948716041552],[85.22426420537899,27.953909830763447],[85.22400623406548,27.953907581505547],[85.22381203758646,27.95398372934422],[85.2235542536047,27.953999611051124],[85.22310377282375,27.95388401694013],[85.22291095046002,27.95380674518745],[85.22214216088312,27.953305852251997],[85.2211156498907,27.952764324876746],[85.22098710185293,27.95274513216082],[85.22103086720982,27.9526319108004],[85.2212490090047,27.952309502584757],[85.22135892224236,27.952024231088306],[85.22145401508445,27.95122218203871],[85.22149953007167,27.950973545885194],[85.22169335156303,27.950919904565094],[85.22237941933172,27.950963475531857],[85.22340986732787,27.9511213283604],[85.22353822731947,27.951122390651683]]]}},{"type":"Feature","properties":{"province":"Bagmati Province","district":"Nuwakot","municipality":"Suryagadhi Rural Municipality","ward":"5","wardNumber":5,"sourceMunicipality":"Suryagadhi","sourceType":"Gaunpalika"},"geometry":{"type":"Polygon","coordinates":[[[85.27222276122093,27.923784451224215],[85.27209771300502,27.92362990667314],[85.27150267779281,27.92336914595713],[85.27099486127513,27.923073687335464],[85.27036218550857,27.922585297919376],[85.2689968555407,27.921316057828918],[85.26878771327432,27.92108330282055],[85.26834892101773,27.920559276714556],[85.26799484832512,27.920093142293045],[85.26681634034202,27.919097481455417],[85.2661820390704,27.918683551007604],[85.26567347221044,27.918426416203463],[85.26541987687484,27.91825055388984],[85.26465533987695,27.91789195296836],[85.26423255581071,27.917636379733175],[85.26380783431874,27.917437136906226],[85.26355305067366,27.91731760310709],[85.26329776758547,27.91721613731594],[85.26252954319764,27.91703139985279],[85.2615030348964,27.916860231095104],[85.26133234649042,27.91681897007057],[85.2609071867643,27.916637794132303],[85.26039424516715,27.916552209401303],[85.25979427196457,27.916521641635576],[85.2591058918794,27.91658660193427],[85.25824719725316,27.916589920176083],[85.25722087646399,27.91643906978269],[85.25653430873777,27.916386683043854],[85.25627577521918,27.916440950421695],[85.25514623394685,27.916974864566935],[85.25350087653217,27.917499903272567],[85.25254633708118,27.917903527501483],[85.25177111117904,27.917984993691988],[85.25125610692447,27.917937794591516],[85.25097775355331,27.917874965306936],[85.2508062521457,27.917871965886746],[85.25037890502601,27.917769750767576],[85.2496532583988,27.917525871054313],[85.24941691986379,27.917521245675886],[85.24907360484058,27.917497303443408],[85.24881400907958,27.91756732506149],[85.24845725081023,27.917532192526878],[85.24826161475231,27.917423348807002],[85.24793811828309,27.917241297039205],[85.2472545500504,27.917006044180756],[85.24622704118289,27.916805491780394],[85.24528550183878,27.916567989952775],[85.24477224783836,27.916450771207746],[85.24442936989452,27.91640876018105],[85.24400058563043,27.916405887628578],[85.24305892082364,27.916206771580622],[85.24263076165883,27.916145193536963],[85.24239667284553,27.915953201343154],[85.24233314908228,27.915895122116673],[85.24207811412396,27.915644737658322],[85.24160981258275,27.91529682579554],[85.24067102281367,27.91484944980762],[85.24045838007882,27.914693342617376],[85.23962712989896,27.914208891839102],[85.23887997514419,27.913859106440324],[85.23836647005218,27.91372150598571],[85.2372536796149,27.913501385833214],[85.23622504657338,27.913415803762316],[85.2357966362895,27.913336095390154],[85.23485353587975,27.913290462601314],[85.23442375165273,27.913362048385665],[85.23373624686313,27.913451703701263],[85.23236148655992,27.9136490821598],[85.23193151542736,27.913761243026695],[85.23115735319669,27.91388778450722],[85.2311307843169,27.914402623162633],[85.23106313628784,27.914707838597348],[85.23032900552617,27.917070474351977],[85.23025779565364,27.917680466396675],[85.23025492184372,27.91798743173003],[85.23031563465416,27.91829383353901],[85.23075599302875,27.919212850780024],[85.23077537595695,27.919404531864185],[85.23077431429792,27.919481242395705],[85.2307523065221,27.919558139513217],[85.23068603297814,27.919709997159895],[85.23037417456192,27.92077568696441],[85.23011089306385,27.921308407935335],[85.23000254145174,27.921442509987113],[85.22959139010874,27.92176204392199],[85.22926539695672,27.922141907679045],[85.22915635705928,27.922273821673695],[85.2290243104172,27.92261798570896],[85.22893721716898,27.922731644744328],[85.22887188048728,27.922788599946323],[85.22869975452373,27.92284430420078],[85.22859240156573,27.922842992339756],[85.22803956842178,27.92243725110097],[85.22789088671966,27.92226476406648],[85.22772244676968,27.921975180155194],[85.22751005396641,27.921782999440115],[85.22725464497417,27.92160926276838],[85.22691326721969,27.92147234952765],[85.22562866300568,27.921231035565267],[85.22477290583504,27.92099497126478],[85.22400105577846,27.920988285974904],[85.22357308313634,27.920888259650546],[85.22271901282089,27.920519030856862],[85.2221199140263,27.920341544741994],[85.22160515975168,27.92037543272948],[85.22091884195697,27.920349928601773],[85.22049211980064,27.9201371189471],[85.2200646474248,27.920019023878186],[85.2193807660211,27.919763328100284],[85.21818550471167,27.919218674069498],[85.2168154936582,27.918939725178863],[85.21647455332639,27.918782493282436],[85.21621770673887,27.918703534334803],[85.21527854225586,27.918276288894806],[85.21493672707649,27.91815744395648],[85.21433937713681,27.917846793630353],[85.21414899217854,27.917636357382662],[85.21412992146189,27.917406352312597],[85.21417874831045,27.916947780448822],[85.21409534069085,27.91675666159744],[85.21394622287828,27.916658696461404],[85.21386087855394,27.91663912901127],[85.21360340762169,27.916675265850046],[85.21282780942381,27.917011556985525],[85.21222583654941,27.917197426829443],[85.2117100201536,27.917307962108655],[85.21140740906033,27.917513837230477],[85.21142591813535,27.91774384233685],[85.2114458009031,27.917879068964446],[85.2116982726093,27.918244675575448],[85.21220565291858,27.918802148532524],[85.21233145106291,27.919033528376435],[85.21251846283165,27.91956899715425],[85.21262187804905,27.91989527989184],[85.21272816912321,27.920029755890486],[85.21330144830054,27.92051214440829],[85.21355723126611,27.92066787628104],[85.21376987422371,27.92082173263365],[85.21389717286311,27.92095827265568],[85.21404410500627,27.921263861705707],[85.2141248881207,27.921723558233143],[85.21414145931948,27.92218150538321],[85.21407368654567,27.92248684534296],[85.21413427391931,27.92279318488064],[85.2142401897319,27.922945729654952],[85.21487661823738,27.923562969217745],[85.21498253395134,27.923717701527455],[85.21514947364012,27.924099813544466],[85.21535555580903,27.924867662635254],[85.21543371063996,27.925038462587242],[85.21546040916347,27.925096916951798],[85.2156503569886,27.925384062209737],[85.21586068736796,27.925729787713852],[85.21613916612867,27.925752042457052],[85.21631047983844,27.92579117848455],[85.21656657647719,27.925908586106466],[85.21680097669585,27.9260825737524],[85.21722751165971,27.92627737884305],[85.21757020271433,27.92635783731393],[85.21834161496837,27.92643898169099],[85.21859833610903,27.926499936384328],[85.21902549551596,27.926636036287036],[85.21936662393216,27.926811336071058],[85.2197948466222,27.926929368172846],[85.22030903832936,27.926954122007203],[85.22056713362032,27.926917985586304],[85.22091213612154,27.926750183635406],[85.22136611485575,27.92644827985195],[85.22169110940035,27.92614525149749],[85.2219502672814,27.92603234241037],[85.22246614535467,27.9259216818809],[85.22332733912837,27.925625151971328],[85.22367309121792,27.925416713941974],[85.22393187384846,27.925324122634255],[85.2244471901032,27.92523378059521],[85.22479075557352,27.925217211262282],[85.22522103965449,27.92512536980938],[85.22543668183732,27.925039905186917],[85.22573829237928,27.924919868387796],[85.22616813938701,27.924846094652622],[85.22659886117839,27.924677542198484],[85.2271996475218,27.92466541046032],[85.22762780663834,27.924724737564752],[85.22788552725575,27.924708918942464],[85.2284017813106,27.924580190713723],[85.22891678508277,27.924564308021537],[85.22925966238807,27.924606381559656],[85.22943053937448,27.924665772623854],[85.2296211742074,27.924896526783346],[85.22970670699604,27.925040193564243],[85.22974747284856,27.925107463150198],[85.22983075546271,27.92533696736302],[85.22987146020365,27.925566784708366],[85.22986708533327,27.925909823486435],[85.22992942282512,27.926139452679507],[85.23001333076532,27.926312503230378],[85.23014037887043,27.926428724327874],[85.23054471914327,27.926736499789495],[85.23071522064357,27.92681627195405],[85.23086415174807,27.926950310800507],[85.23126892920038,27.927183626900323],[85.23229500059992,27.92753553726301],[85.23262962673839,27.927749159982294],[85.23288997536862,27.928017675211247],[85.2330170862157,27.928192600260275],[85.23318252706228,27.92876651832422],[85.23341442907005,27.929111930727466],[85.23364807961742,27.929324304669343],[85.23422379602258,27.929673465926186],[85.2344331268878,27.930095839534705],[85.23462320049603,27.930382984817538],[85.23496376551812,27.930614613016434],[85.23545907376324,27.930486073221488],[85.23580401353314,27.93031595824137],[85.23623348594101,27.930262439884945],[85.237177587176,27.930272000359373],[85.23760512148691,27.93039009436414],[85.23820615793916,27.930395905201202],[85.23871953716059,27.930513124042676],[85.2395772310663,27.93052118443164],[85.23974960724196,27.930483547146732],[85.2400065159761,27.930506052436538],[85.24026279965987,27.930641403301358],[85.24043248893936,27.93081589088774],[85.24072803961205,27.931219445632582],[85.24089466736704,27.931678329236675],[85.24104334856804,27.931850754289776],[85.24136221915542,27.932120956641416],[85.24187666154512,27.93227649874846],[85.24239172895358,27.932319258804455],[85.24333745604095,27.932306187154477],[85.24393830460657,27.93240458698585],[85.2448838438244,27.932429839575747],[85.24626135436088,27.932171379782645],[85.24677879587212,27.93198388442277],[85.24740633888565,27.931531372656064],[85.24818337449686,27.931154195109677],[85.24826196596585,27.931137689639638],[85.24846160258889,27.93109523892568],[85.24872119906068,27.93102521643109],[85.24906801416401,27.930857290323992],[85.24989531782015,27.9303758938572],[85.24998184978304,27.930338944900797],[85.25020061763026,27.930188024466624],[85.25061951978397,27.92971707152855],[85.251460262296,27.928639750142914],[85.25165733457207,27.928491267291264],[85.25219609665209,27.928384795531],[85.25245219229865,27.928447874944055],[85.25260006029595,27.928545840917753],[85.25293343836266,27.928973839198864],[85.25307836809824,27.929204968728612],[85.25309687648156,27.929322190654524],[85.25309006365293,27.929608837223924],[85.25295489004668,27.929894422303697],[85.25269066927656,27.930176631856984],[85.25257519146544,27.93051848288828],[85.25257087814902,27.93069228367846],[85.25265166001404,27.930923976393494],[85.25283923194125,27.931156981452748],[85.25287930943972,27.931271702203972],[85.25310883471533,27.931562973741848],[85.25323156927725,27.931796604440972],[85.25337818771439,27.93195096157421],[85.25363184595334,27.932129200016323],[85.2537560184907,27.932322130631903],[85.25436712441825,27.93281302175208],[85.25459915000985,27.932989197156605],[85.25478997157012,27.933068719022305],[85.25495909819573,27.933186752820742],[85.25635818561513,27.933920959742895],[85.25684468235845,27.934236987248195],[85.25697004192145,27.93437352676521],[85.25717599661421,27.93475976452741],[85.25734193476164,27.934992956294444],[85.25738207589993,27.935109991269293],[85.25734431647642,27.935798631075137],[85.2574251614878,27.936030323530424],[85.25771327192142,27.936551225047225],[85.25781793697917,27.936649565810736],[85.25796255547507,27.936901013841684],[85.25804271150886,27.937132705835644],[85.2581179930349,27.937594653681252],[85.25825986129544,27.937940879920355],[85.25835608790757,27.938402639410914],[85.25832020369548,27.939034888451523],[85.25824855412684,27.939322160674582],[85.2583465940844,27.939725215511054],[85.25851259489073,27.939958346220767],[85.25868253358794,27.940038056187547],[85.25902878728628,27.93992883405401],[85.25928613283743,27.939933208659543],[85.25954104136076,27.94005274228378],[85.25974049057,27.940159273106293],[85.25998595770145,27.94029243557492],[85.26041636780131,27.940261361178],[85.26067165085023,27.94036057674356],[85.26109893537478,27.940444660585197],[85.26152228275984,27.940682290851758],[85.26197076284497,27.940786506099222],[85.2628308944704,27.9407266715469],[85.26343161838739,27.940754988038687],[85.26360149470723,27.940834698699064],[85.26378994173105,27.941031567167162],[85.2642040380183,27.941670877923364],[85.26430339022754,27.942017541501418],[85.26429407708167,27.94241934746018],[85.26412851982484,27.943048220322144],[85.26385204790901,27.943847394629117],[85.26380140657342,27.944193121489253],[85.26405237761767,27.944466200326648],[85.26500342305529,27.945114134552945],[85.26582548446811,27.94576100685999],[85.26620275249256,27.946132114296052],[85.26660309099444,27.946464709352508],[85.26683599181978,27.946604749496423],[85.26696191391085,27.946720907266076],[85.26727934581656,27.94691883876513],[85.26759802866924,27.947058065678828],[85.26785456132602,27.947100826541252],[85.26811297052497,27.947087195447846],[85.26871663118092,27.946982286413533],[85.27061827259053,27.946499820725652],[85.27096577557344,27.946334144853665],[85.27139781115982,27.946226361148998],[85.27191769070278,27.94602517379731],[85.2725236019485,27.945843554461543],[85.27278382226326,27.945714764774504],[85.27347307883399,27.945649742065864],[85.27364676755607,27.945557838698413],[85.27382258149979,27.945386974891083],[85.27384796495086,27.94521517461668],[85.27376805853989,27.94496541427946],[85.27349895427339,27.944500778911905],[85.27326974177228,27.944189251101406],[85.27295518459482,27.943858155870547],[85.27194330216881,27.94301672694304],[85.27149882277351,27.94275909210206],[85.27118013991132,27.942619864934326],[85.27094974022404,27.94236698021525],[85.27076379328945,27.942057264757267],[85.27057490950496,27.941880714552585],[85.27006678105103,27.941564874394558],[85.26974772329405,27.94144377874698],[85.26923978201923,27.941148319235428],[85.26911323410948,27.94102991060317],[85.26890590479832,27.940738450963135],[85.26865905919199,27.9402735662104],[85.2686029108566,27.939928777487808],[85.26862622461948,27.938933359964413],[85.26888356345566,27.93801702729407],[85.2690646904862,27.93763847709434],[85.26936298275359,27.936800729567388],[85.26967465818511,27.936346468960217],[85.27007705296063,27.935663515643746],[85.27032882883444,27.934977375701227],[85.27053083797632,27.934598637889216],[85.27070796537615,27.9343713204364],[85.2712798603315,27.933788270523774],[85.27153470476625,27.93363247326369],[85.2716501844392,27.933563701965248],[85.27186945134983,27.93335632735444],[85.27200562494211,27.933052675290163],[85.27199124252783,27.93274589742995],[85.27185400037158,27.932207802372893],[85.27154794329282,27.931511037578026],[85.27138750539103,27.931049902699325],[85.27124969957168,27.930509557974457],[85.27118160580427,27.92974289541299],[85.27119272502385,27.928361614732893],[85.27115902207451,27.927978314895338],[85.27124092190526,27.927214777689148],[85.27141085333143,27.92637371700795],[85.27144130009822,27.92599204181542],[85.27171695936306,27.925228940995392],[85.27180661571266,27.92507695880832],[85.27181887058259,27.925038447458704],[85.27196936061642,27.924545113844253],[85.27203719606538,27.92437293786687],[85.27210884642005,27.9240879157082],[85.27222276122093,27.923784451224215]]]}},{"type":"Feature","properties":{"province":"Bagmati Province","district":"Nuwakot","municipality":"Suryagadhi Rural Municipality","ward":"4","wardNumber":4,"sourceMunicipality":"Suryagadhi","sourceType":"Gaunpalika"},"geometry":{"type":"Polygon","coordinates":[[[85.26193062726844,27.958127600072512],[85.2620392926886,27.958072458271182],[85.26281645564582,27.957914094679037],[85.2634021096959,27.95767627179495],[85.26412206100136,27.95719125023047],[85.26510210918917,27.956613512062873],[85.26510748398739,27.95636525161059],[85.26500813246265,27.956018587854512],[85.26495810907355,27.955384901566827],[85.26508164927567,27.95469776189779],[85.26537731686427,27.953954791340745],[85.2653853793692,27.95361169069294],[85.26531128543272,27.9530911006964],[85.26519036296376,27.952744686962408],[85.26465465624342,27.951758901080986],[85.26459538243594,27.95152702089747],[85.26416402724726,27.95065758010085],[85.26383877598786,27.94990461141132],[85.26359999384968,27.94909437494667],[85.26354384562454,27.94874958610791],[85.26348100234554,27.94777073631588],[85.26360022317921,27.946334376527815],[85.26362872425173,27.94512902170742],[85.26372938275738,27.944498461575034],[85.26380140657342,27.944193121489253],[85.26385204790901,27.943847394629117],[85.26412851982484,27.943048220322144],[85.26429407708167,27.94241934746018],[85.26430339022754,27.942017541501418],[85.2642040380183,27.941670877923364],[85.26378994173105,27.941031567167162],[85.26360149470723,27.940834698699064],[85.26343161838739,27.940754988038687],[85.2628308944704,27.9407266715469],[85.26197076284497,27.940786506099222],[85.26152228275984,27.940682290851758],[85.26109893537478,27.940444660585197],[85.26067165085023,27.94036057674356],[85.26041636780131,27.940261361178],[85.25998595770145,27.94029243557492],[85.25974049057,27.940159273106293],[85.25954104136076,27.94005274228378],[85.25928613283743,27.939933208659543],[85.25902878728628,27.93992883405401],[85.25868253358794,27.940038056187547],[85.25851259489073,27.939958346220767],[85.2583465940844,27.939725215511054],[85.25824855412684,27.939322160674582],[85.25832020369548,27.939034888451523],[85.25835608790757,27.938402639410914],[85.25825986129544,27.937940879920355],[85.2581179930349,27.937594653681252],[85.25804271150886,27.937132705835644],[85.25796255547507,27.936901013841684],[85.25781793697917,27.936649565810736],[85.25771327192142,27.936551225047225],[85.2574251614878,27.936030323530424],[85.25734431647642,27.935798631075137],[85.25738207589993,27.935109991269293],[85.25734193476164,27.934992956294444],[85.25717599661421,27.93475976452741],[85.25697004192145,27.93437352676521],[85.25684468235845,27.934236987248195],[85.25635818561513,27.933920959742895],[85.25495909819573,27.933186752820742],[85.25478997157012,27.933068719022305],[85.25459915000985,27.932989197156605],[85.25436712441825,27.93281302175208],[85.2537560184907,27.932322130631903],[85.25363184595334,27.932129200016323],[85.25337818771439,27.93195096157421],[85.25323156927725,27.931796604440972],[85.25310883471533,27.931562973741848],[85.25287930943972,27.931271702203972],[85.25283923194125,27.931156981452748],[85.25265166001404,27.930923976393494],[85.25257087814902,27.93069228367846],[85.25257519146544,27.93051848288828],[85.25269066927656,27.930176631856984],[85.25295489004668,27.929894422303697],[85.25309006365293,27.929608837223924],[85.25309687648156,27.929322190654524],[85.25307836809824,27.929204968728612],[85.25293343836266,27.928973839198864],[85.25260006029595,27.928545840917753],[85.25245219229865,27.928447874944055],[85.25219609665209,27.928384795531],[85.25165733457207,27.928491267291264],[85.251460262296,27.928639750142914],[85.25061951978397,27.92971707152855],[85.25020061763026,27.930188024466624],[85.24998184978304,27.930338944900797],[85.24989531782015,27.9303758938572],[85.24906801416401,27.930857290323992],[85.24872119906068,27.93102521643109],[85.24846160258889,27.93109523892568],[85.24826196596585,27.931137689639638],[85.24818337449686,27.931154195109677],[85.24740633888565,27.931531372656064],[85.24677879587212,27.93198388442277],[85.24626135436088,27.932171379782645],[85.2448838438244,27.932429839575747],[85.24393830460657,27.93240458698585],[85.24333745604095,27.932306187154477],[85.24239172895358,27.932319258804455],[85.24187666154512,27.93227649874846],[85.24136221915542,27.932120956641416],[85.24104334856804,27.931850754289776],[85.24089466736704,27.931678329236675],[85.24072803961205,27.931219445632582],[85.24043248893936,27.93081589088774],[85.24026279965987,27.930641403301358],[85.2400065159761,27.930506052436538],[85.23974960724196,27.930483547146732],[85.2395772310663,27.93052118443164],[85.23871953716059,27.930513124042676],[85.23820615793916,27.930395905201202],[85.23760512148691,27.93039009436414],[85.237177587176,27.930272000359373],[85.23623348594101,27.930262439884945],[85.23580401353314,27.93031595824137],[85.23545907376324,27.930486073221488],[85.23496376551812,27.930614613016434],[85.23462320049603,27.930382984817538],[85.2344331268878,27.930095839534705],[85.23422379602258,27.929673465926186],[85.23364807961742,27.929324304669343],[85.23341442907005,27.929111930727466],[85.23318252706228,27.92876651832422],[85.2330170862157,27.928192600260275],[85.23288997536862,27.928017675211247],[85.23262962673839,27.927749159982294],[85.23229500059992,27.92753553726301],[85.23126892920038,27.927183626900323],[85.23086415174807,27.926950310800507],[85.23071522064357,27.92681627195405],[85.23054471914327,27.926736499789495],[85.23014037887043,27.926428724327874],[85.23001333076532,27.926312503230378],[85.22992942282512,27.926139452679507],[85.22986708533327,27.925909823486435],[85.22987146020365,27.925566784708366],[85.22983075546271,27.92533696736302],[85.22974747284856,27.925107463150198],[85.22970670699604,27.925040193564243],[85.2296211742074,27.924896526783346],[85.22943053937448,27.924665772623854],[85.22925966238807,27.924606381559656],[85.22891678508277,27.924564308021537],[85.2284017813106,27.924580190713723],[85.22788552725575,27.924708918942464],[85.22762780663834,27.924724737564752],[85.2271996475218,27.92466541046032],[85.22659886117839,27.924677542198484],[85.22616813938701,27.924846094652622],[85.22573829237928,27.924919868387796],[85.22543668183732,27.925039905186917],[85.22522103965449,27.92512536980938],[85.22479075557352,27.925217211262282],[85.2244471901032,27.92523378059521],[85.22393187384846,27.925324122634255],[85.22367309121792,27.925416713941974],[85.22332733912837,27.925625151971328],[85.22246614535467,27.9259216818809],[85.2219502672814,27.92603234241037],[85.22169110940035,27.92614525149749],[85.22136611485575,27.92644827985195],[85.22091213612154,27.926750183635406],[85.22056713362032,27.926917985586304],[85.22030903832936,27.926954122007203],[85.2197948466222,27.926929368172846],[85.21936662393216,27.926811336071058],[85.21902549551596,27.926636036287036],[85.21859833610903,27.926499936384328],[85.21834161496837,27.92643898169099],[85.21757020271433,27.92635783731393],[85.21722751165971,27.92627737884305],[85.21680097669585,27.9260825737524],[85.21656657647719,27.925908586106466],[85.21631047983844,27.92579117848455],[85.21613916612867,27.925752042457052],[85.21586068736796,27.925729787713852],[85.2159854858603,27.926094269387967],[85.21615348814464,27.926401983848777],[85.2162568422281,27.926784720778386],[85.21625378002716,27.927014912809515],[85.2162075777466,27.927320003129626],[85.21613986776467,27.927625217799964],[85.21594360911993,27.927909052412264],[85.21568376407299,27.92813480745635],[85.21551076229899,27.928228836711533],[85.21533876128188,27.92824840526729],[85.21505865819633,27.928359314466874],[85.21494980579905,27.928511423066894],[85.21490516504423,27.928662967722236],[85.2149460575778,27.928854523575968],[85.21498757358717,27.92898950036688],[85.21509242643873,27.929218754765316],[85.21530294461422,27.929526093358938],[85.21564269860136,27.92985481310209],[85.21583395852562,27.930029176419314],[85.21594006148112,27.93014333388563],[85.21615020430838,27.930527382739566],[85.21623342473478,27.930756824808338],[85.21631483248873,27.931160068237038],[85.21637442045946,27.931599571388023],[85.21673611992529,27.931851393694547],[85.2172258040725,27.93217879997941],[85.2179939675634,27.932530836337303],[85.21893475699216,27.932806849002947],[85.2192765722619,27.932979835918864],[85.21942525416213,27.933095868663262],[85.21976438233968,27.933481042782592],[85.22035267196762,27.934556793161033],[85.22045883728974,27.93467313897989],[85.22086317688567,27.93498103905644],[85.22113747021973,27.935366776291488],[85.2214564652026,27.93565504693216],[85.22166998288712,27.935714125162864],[85.22192726586404,27.935716311894947],[85.22252961482806,27.935607214035794],[85.22321680713101,27.935535626866955],[85.22364521656928,27.93561752349503],[85.22379502283242,27.935656846625324],[85.22394382868174,27.93573449287431],[85.22411508027368,27.93581195259334],[85.22426313647793,27.935984377355272],[85.22472087871184,27.937250871357328],[85.22478190420827,27.937536954967335],[85.22477940453709,27.937767147747753],[85.22494409538164,27.938397582532005],[85.22487307394447,27.93902783052326],[85.22460510518708,27.939941975286374],[85.22455696562548,27.94040054792198],[85.2245507177327,27.940973778751765],[85.22400383368593,27.941885862183913],[85.2239143025723,27.942227463505795],[85.22397413974254,27.94263089393119],[85.22409937655095,27.942975057024064],[85.22437398222363,27.943378799122748],[85.22441406063079,27.943608615981308],[85.22430164752951,27.944065500651018],[85.22408063211799,27.94463616978545],[85.22368749033708,27.94526254358474],[85.22348929479783,27.945720178836535],[85.22341889679511,27.94623533098411],[85.22337506916456,27.94634855183692],[85.22336882073127,27.946921845489058],[85.22344897946951,27.947381542754695],[85.22367913155533,27.94795721045782],[85.22397343279626,27.948473673020267],[85.22403576933894,27.948646848248462],[85.22405509016114,27.948838467019904],[85.22405009188284,27.949296663754282],[85.22393767880016,27.9498100029489],[85.223827202411,27.950153979626325],[85.22360799974828,27.950609489321593],[85.22351853143745,27.950951090512778],[85.22353822731947,27.951122390651683],[85.22383833926442,27.951257428612024],[85.22409574798237,27.951316069732933],[85.22478312960243,27.951359578108494],[85.22546976060002,27.951459541099357],[85.22615732913705,27.951464663442838],[85.22684321041937,27.95165940447991],[85.2275291556418,27.95191053683661],[85.22778562628558,27.952007564017386],[85.22827687439873,27.95235297539705],[85.22857498713435,27.95264143292345],[85.2290666730517,27.95296877617143],[85.22962206987962,27.95331581302506],[85.2300500429775,27.953508366423275],[85.23022141895437,27.953547439977918],[85.23065157870347,27.953550375846895],[85.23125417732041,27.953459220256743],[85.23228631163818,27.95342739281758],[85.23306159835973,27.953260213915474],[85.23377542396236,27.9527888843172],[85.23397043266213,27.952617894788585],[85.23448849827653,27.952412394646174],[85.23483206430366,27.952395762247114],[85.23509065984254,27.952339244273784],[85.23526322324652,27.952265471510955],[85.23550106045327,27.952114426325455],[85.23586950817216,27.951831278372165],[85.23599893121387,27.951755629681905],[85.23642902749246,27.95169986099435],[85.23681667211488,27.951646718134036],[85.23716167403124,27.95153299524428],[85.23744352727252,27.951286733581718],[85.23783479468965,27.950831848524096],[85.23820242936578,27.950587086430875],[85.23865440964639,27.95049499488442],[85.23899859998114,27.95047836285055],[85.23925638392626,27.950518935243092],[85.23942813529098,27.95048123565799],[85.23951472988422,27.950444412423884],[85.23962295605887,27.950348633668114],[85.23990474701247,27.950102309009758],[85.24042562387598,27.949533451326513],[85.24085984486977,27.94906012255556],[85.24107629889245,27.948929520388084],[85.2415098946069,27.94851270787737],[85.24172634972595,27.948379792898287],[85.24200895250796,27.948038690494617],[85.24229036806692,27.947812748379068],[85.24280812170495,27.9475869287138],[85.24375590996036,27.94740230614707],[85.24397167662856,27.947269453539846],[85.24412429449606,27.947060453792005],[85.24438351548199,27.94694754402323],[85.24455482971467,27.94698661668494],[85.24472558129537,27.947084394922747],[85.24496016963053,27.947314711056052],[85.24553376367214,27.948022603385724],[85.24604120958409,27.948940994669588],[85.24638127585534,27.949344174273612],[85.24646587178677,27.94951484822661],[85.24699669926221,27.950205173355478],[85.24735533745094,27.950892498163626],[85.2475250899712,27.951123377301396],[85.24820547260798,27.9517761898565],[85.2482621815683,27.951789193464354],[85.24844312405222,27.951830392404403],[85.24863482067467,27.951871528577808],[85.24876468159204,27.951836517081095],[85.24900233236814,27.951782437403484],[85.24919677927215,27.95172873297677],[85.24943005456231,27.95184851664131],[85.24957923509777,27.951890028173896],[85.24977074475933,27.951969550747027],[85.25002815228522,27.951973987475576],[85.25021972441805,27.9520535097459],[85.25052189924492,27.951983050335954],[85.25093967605928,27.951568488592994],[85.25146168055728,27.951270397366194],[85.25178680136825,27.95114329595192],[85.25243947900908,27.95077174515611],[85.25289814627895,27.950435831540474],[85.2537475839793,27.94993386691442],[85.25401011745218,27.949726116726428],[85.25512146296343,27.949018589755358],[85.25597290034011,27.948421846511685],[85.25636360783479,27.94825573345134],[85.25668478986294,27.94827992610085],[85.25674812612704,27.948319937487092],[85.25683103261629,27.948454601696078],[85.25685742239442,27.94914492922697],[85.25691669654591,27.949376809626912],[85.2571849251275,27.949823376639415],[85.25743770758307,27.95003781262046],[85.25769349095475,27.950118960162545],[85.25788662571601,27.950121710218696],[85.25803580681122,27.95016322159181],[85.25820530745673,27.950263186755876],[85.25833129278358,27.950379407873285],[85.2585708252473,27.95115125839428],[85.25871581873261,27.951382387845744],[85.2590943361262,27.951697102748977],[85.2597930376062,27.9521104705129],[85.25991683503005,27.952323720060473],[85.25999049147823,27.952862377873227],[85.26000087315187,27.953322638186872],[85.25999368544075,27.953629665538937],[85.2599222241506,27.953935005699844],[85.25993998145655,27.95408830100154],[85.26010091961565,27.954549435406395],[85.2600272080409,27.954931485570835],[85.25980356510786,27.9553125987871],[85.25966464206455,27.955769795759867],[85.25965739105415,27.95607451089396],[85.25983508777215,27.956767963639347],[85.26049590445,27.957910607973304],[85.26055949167963,27.957968687024444],[85.26081564935329,27.958031704058058],[85.26113495714475,27.958170992681477],[85.26152216283572,27.95814041907021],[85.26193062726844,27.958127600072512]]]}},{"type":"Feature","properties":{"province":"Bagmati Province","district":"Nuwakot","municipality":"Suryagadhi Rural Municipality","ward":"1","wardNumber":1,"sourceMunicipality":"Suryagadhi","sourceType":"Gaunpalika"},"geometry":{"type":"Polygon","coordinates":[[[85.30732767623743,27.961954764256404],[85.30709477526459,27.961778713815338],[85.30692346099768,27.96173745267632],[85.3061804938953,27.961263818531172],[85.30582216945348,27.96089490000556],[85.30573801298976,27.960816689709613],[85.30540625951124,27.96023539638513],[85.305286024522,27.959850595790954],[85.30529308738268,27.959543631061596],[85.3053827449564,27.95939158572011],[85.30566722377152,27.95916545512994],[85.30592794500834,27.959074989592],[85.30610057162566,27.959059796526773],[85.30670292163512,27.959108244208945],[85.30696320537344,27.959035784041923],[85.30709425332202,27.95894200576201],[85.30713908127456,27.95886485735289],[85.30720916806689,27.958618222390353],[85.30701997107464,27.958423666811026],[85.30644719287577,27.95802961701259],[85.30587197668076,27.95775310126097],[85.30516464906971,27.957586056573298],[85.30471766860805,27.957348802112453],[85.30427225105394,27.95703483732118],[85.30410149940893,27.956993577019635],[85.3039054891118,27.95706766220577],[85.30364495538932,27.95717844605056],[85.30312063848214,27.957494854924594],[85.30278914295356,27.957872592667755],[85.3024171938008,27.958115353589847],[85.30215322250324,27.958359302633905],[85.30195777565822,27.958433387906467],[85.30150323163048,27.958521291613028],[85.30098691435315,27.958492223803383],[85.30008970258672,27.958171259228934],[85.29866823689377,27.958166641512708],[85.29738081788783,27.957950898368402],[85.29705844824512,27.957926893227732],[85.29647973128577,27.957783355430088],[85.29527734560217,27.957609623328974],[85.2948919513714,27.957525288481165],[85.29398798930133,27.957490908895046],[85.29321101377742,27.957554620153843],[85.29282718179627,27.957395763221943],[85.29212629281267,27.956962328015283],[85.2919974322444,27.956920628792588],[85.29148073980163,27.956911941964545],[85.29089758545975,27.95697827726805],[85.29070251369409,27.95703210669112],[85.28994429431607,27.95701892000018],[85.2897345908492,27.95701635817427],[85.28915231228349,27.957100823744376],[85.28831737569362,27.956991297138504],[85.28741403930353,27.95701330895544],[85.28695918400592,27.957177796955914],[85.28683076176829,27.95717448463258],[85.28611780980998,27.957334597990126],[85.28572816596703,27.957480455630513],[85.28534033481593,27.95751340578616],[85.28482526791223,27.957484399880695],[85.28456704622498,27.95751841137342],[85.28418109058124,27.95749265597402],[85.2837928209882,27.957543736400922],[85.28353541270455,27.957537048719306],[85.28318990997083,27.957608008626792],[85.28303810331104,27.95766358873729],[85.28286522721584,27.95771710509172],[85.28266871813915,27.957867837725583],[85.28220592422163,27.958377677743115],[85.28174544401439,27.958770171157553],[85.28159069977512,27.95895891488358],[85.2815197387176,27.9592461872591],[85.28149642490659,27.960279928795227],[85.28147110396813,27.960451729338555],[85.28133286842314,27.96085241030369],[85.28095210676994,27.96153523814069],[85.28056884492818,27.96233322456667],[85.2804805635724,27.96244688374011],[85.28018439614897,27.963189853445694],[85.28007216807273,27.963378159607934],[85.27991892490918,27.96352858012443],[85.27969853242585,27.96375402214938],[85.27939385754217,27.963941891765014],[85.27909130808025,27.96399209606667],[85.27883389961222,27.96398772167064],[85.27864195245247,27.963928579671848],[85.27832295843923,27.963769097827544],[85.2779216814291,27.963474951022587],[85.27762700696796,27.963220378425156],[85.27707961263631,27.962710981991282],[85.27674048484452,27.96251323789587],[85.27654853733407,27.962454097390374],[85.27628975400249,27.9624857952162],[85.27551721630145,27.962454665951338],[85.27481263978738,27.962249109264725],[85.27449395835812,27.962109945757554],[85.27424017448617,27.961931707718744],[85.2739842039221,27.96183249209997],[85.27373092041724,27.961636248774457],[85.27309443037421,27.96127883465877],[85.2728375224898,27.961256392213922],[85.27251358981808,27.961327102380473],[85.27238454148797,27.961323789697538],[85.27186585051807,27.96146846061069],[85.27128313433609,27.961573182243654],[85.27076731684011,27.96158243765475],[85.27051028353569,27.961559995639895],[85.26980445720928,27.961413081397378],[85.26910381928211,27.96105391787528],[85.26859643958703,27.960702067048487],[85.26834003144336,27.960618731241976],[85.26756761838301,27.9605874772572],[85.26692069096836,27.960690448449263],[85.26659719646806,27.96074077775164],[85.26640362449051,27.960758409162842],[85.26614559111928,27.960754034635315],[85.26595358104609,27.96069264282007],[85.26563646230815,27.96047439244251],[85.26551141439333,27.960319847973523],[85.26518409926683,27.959605202848792],[85.26514808353359,27.959298612513084],[85.26517627970904,27.958991459691713],[85.26557879954409,27.95830850700583],[85.26573148039915,27.958216791335232],[85.26601895991291,27.957857559586646],[85.2661312498573,27.957628616359802],[85.2663945957375,27.957384730364016],[85.26663674664856,27.957120714256003],[85.26683894408598,27.956741976383384],[85.26717081429366,27.956325915574492],[85.2672405885451,27.956097347371966],[85.2672438384702,27.955943864956136],[85.26716111941664,27.955827268765496],[85.2670545790956,27.95578763287993],[85.26681817865531,27.955783007465364],[85.26623465025806,27.955926052965303],[85.26547205741231,27.95640926191977],[85.26510210918917,27.956613512062873],[85.26412206100136,27.95719125023047],[85.2634021096959,27.95767627179495],[85.26281645564582,27.957914094679037],[85.2620392926886,27.958072458271182],[85.26193062726844,27.958127600072512],[85.26186047852498,27.958376486187266],[85.26179070377684,27.95860505370139],[85.26133666832528,27.959669932007902],[85.26050630770926,27.961207575825625],[85.2599758029069,27.961869148112132],[85.25934032101908,27.96241212449151],[85.2591851393056,27.962621124285203],[85.25944173537948,27.962663947217653],[85.2597815509237,27.962823305231144],[85.26024728846951,27.96313720648904],[85.26113818676058,27.963632284361793],[85.26185795747067,27.964106357462576],[85.26198450623423,27.96422257749058],[85.26215131962472,27.96441738419309],[85.26225385892509,27.964648889061223],[85.26224823378172,27.964879081473],[85.26220134317417,27.96505107010156],[85.2619763873662,27.96548863778092],[85.2617781898166,27.965713892313893],[85.26099083868634,27.966312385146335],[85.26055230334325,27.96668881118851],[85.26050434820385,27.966718569865556],[85.26033459868117,27.966819413017657],[85.26011420593836,27.96710356022381],[85.26002361169823,27.96729167854201],[85.25995446254487,27.967520245650974],[85.25997240826523,27.967693921694657],[85.25968099156468,27.96826296613483],[85.25879685765442,27.96939717940865],[85.25838014353452,27.969791422910376],[85.25815993861896,27.97003712060442],[85.2579160374184,27.97037790987479],[85.25712781222732,27.971073431755322],[85.25666533075956,27.971580896083896],[85.25535266323104,27.97268966668497],[85.25456868727123,27.973152682075078],[85.25411345694761,27.9733554317622],[85.25346352937727,27.97359381815777],[85.25311471328834,27.973818198534907],[85.25289407118636,27.974081964953392],[85.25286981341326,27.974235635190936],[85.2529878601702,27.974715275092937],[85.25302856454456,27.974832247554566],[85.25315392412735,27.97500710995349],[85.25337857479333,27.975528637342215],[85.25337357418988,27.97575657880366],[85.25332724632847,27.97592850529214],[85.25328454940346,27.976906104897736],[85.25323634586373,27.97713448485367],[85.25312405562673,27.97736342798524],[85.25305109395278,27.977763545551102],[85.25291467075274,27.978105521935937],[85.25284295989202,27.97844918526299],[85.25273054424005,27.978678191513183],[85.25244237787975,27.979093752777775],[85.25243206451727,27.97957226796677],[85.25294881885745,27.979524688249604],[85.2537201701562,27.979614710454424],[85.25378475601536,27.979598329919824],[85.25404122681455,27.979679477883977],[85.2542523692714,27.97985584022614],[85.25456348946918,27.980378804724637],[85.25476188116257,27.981148779656994],[85.25504761810058,27.981843481845118],[85.25515172021498,27.98199827717137],[85.25533635496534,27.98240508276191],[85.25552498891732,27.98261764446127],[85.25571574859812,27.98273555269866],[85.25584398437643,27.982777314564057],[85.25599403978458,27.982780439170952],[85.25614672102377,27.982686536293585],[85.256411629039,27.982347809946948],[85.25654811533492,27.98200358304586],[85.2565975686715,27.98171874902523],[85.25673336653736,27.981374459638705],[85.25691924387482,27.980745398850875],[85.25714519977318,27.980233309126007],[85.25743342851199,27.979815435080056],[85.25776192337943,27.979534850384596],[85.25789197166146,27.979461453631167],[85.25823628678016,27.97944707216114],[85.25849269551043,27.979528157256816],[85.25880693976003,27.979879570709713],[85.25891066736281,27.9800546843727],[85.25910536525623,27.98001904729945],[85.25923335061756,27.980040428285374],[85.25948982144934,27.980121512699974],[85.25974354206248,27.980299813775108],[85.25987177716684,27.98033919966051],[85.26012918587892,27.980343636627403],[85.26028149165708,27.980270051422334],[85.26047887653692,27.980083183289047],[85.26060917427134,27.980027729022616],[85.26125372706571,27.980037664847533],[85.2615769725703,27.97996701780254],[85.26185963842575,27.979838040916018],[85.26205658579315,27.979669240171557],[85.26219300937204,27.979327201253113],[85.2622667205678,27.978888696677892],[85.26244328503977,27.978661441241893],[85.26270388114789,27.978550720335186],[85.2632210103839,27.97848275933048],[85.26360996713919,27.978375350320828],[85.26415254169275,27.978135652106918],[85.26506806586774,27.97752021592871],[85.26598815249956,27.976692529905883],[85.26651065668628,27.97637624646143],[85.26715933394543,27.976196502350795],[85.26761481498978,27.97601400813607],[85.26800377119368,27.975906661898904],[85.26926442350462,27.975238270389095],[85.26952551943269,27.975071095128595],[85.26984782623455,27.975077157399696],[85.27010467302817,27.975137985778346],[85.27035883067002,27.97529584344844],[85.2710821650774,27.97563443907679],[85.27140322306799,27.975699205733658],[85.27157609898391,27.975643438255428],[85.2717075846623,27.975531592415805],[85.2719674932823,27.975420870599084],[85.2726799443158,27.975260819670908],[85.27294091615252,27.975131967406167],[85.27313536311794,27.975078262898258],[85.2734612954167,27.974910586628216],[85.27457376562158,27.97412616186105],[85.2748996981603,27.973958423602927],[85.27526889738508,27.973794686139744],[85.27539813294828,27.973757486729482],[85.27598303621205,27.973557924710278],[85.27630790592129,27.973410504480658],[85.27669742558771,27.97330078180674],[85.27682584835723,27.973304157293228],[85.27733760249905,27.973486708201573],[85.27761283199992,27.973700768994053],[85.27780159135686,27.973915643724958],[85.27821856289876,27.974516567598144],[85.27840569783831,27.97480821486431],[85.27857038643772,27.975136184691422],[85.27873826280505,27.975312861071252],[85.27905444545992,27.975605570485065],[85.27926558802248,27.97578187026344],[85.2795199960295,27.975957795464705],[85.27998685965224,27.976215306419146],[85.28028309624509,27.976431367343896],[85.28047185561073,27.976646242601824],[85.28063629366228,27.976953894289903],[85.28065461509605,27.977107189415182],[85.28062973132872,27.977260859481767],[85.28042603441247,27.97771643191073],[85.28042109619882,27.977944310981638],[85.28071921574059,27.97902025092042],[85.28090034982851,27.97956015774811],[85.28094186598588,27.97963649259665],[85.28102058473677,27.9799449576244],[85.28101239729551,27.980326444775006],[85.28115220297366,27.980805772751648],[85.28131870433674,27.981020897499523],[85.28163569955558,27.981273032153073],[85.28203572556674,27.981623507655602],[85.28209912467135,27.981663456265103],[85.28262194935724,27.982283759981293],[85.28295145107978,27.98290131489878],[85.28307231190618,27.983286051629207],[85.28319542161857,27.983535374120187],[85.28342594694357,27.983788260036512],[85.28376388789866,27.984042332947567],[85.28420536779107,27.984451199631632],[85.28426795363765,27.984529597477696],[85.28447240826814,27.984990294454825],[85.2848911929712,27.985476121939147],[85.28493139677161,27.985590842672988],[85.28507732681689,27.985785774051447],[85.2856454174718,27.98631079973454],[85.28627921978908,27.986799064629064],[85.28680816907378,27.98713272237876],[85.28714573458205,27.987404799414776],[85.2879402876532,27.98837451720683],[85.28835325994406,27.98910854308777],[85.28879030228846,27.989727346729573],[85.28916825806617,27.990134464470913],[85.28969483339672,27.990583155419536],[85.28994499080102,27.990826788361286],[85.29009479735271,27.990972079466335],[85.29045362161902,27.991322993318516],[85.2906880842508,27.99142233383535],[85.29083982846232,27.991407391145312],[85.29116757351196,27.991221521677794],[85.29151451425959,27.991112174635195],[85.29194998716943,27.990909487409507],[85.2926665025331,27.9907109255699],[85.29359522294713,27.99061414124423],[85.2941763151377,27.990680907011658],[85.29456208384451,27.99078330974551],[85.29593166049077,27.991246562943523],[85.29638432919337,27.991255812906186],[85.29703494496958,27.991075943220277],[85.29761909879038,27.990971096965733],[85.29865223417798,27.99104711298959],[85.29904144132433,27.99101403830526],[85.29942683584991,27.99113682147473],[85.29974608084598,27.991314309561933],[85.29987437919499,27.991353695624582],[85.30029928970252,27.991649842270313],[85.30055557303189,27.991767062314544],[85.30115061067661,27.99214273190658],[85.30125621306388,27.992259077782105],[85.30165892773034,27.992553161967926],[85.30206426772729,27.992750216921067],[85.30232223850854,27.992792853319973],[85.30277203277282,27.992935267516234],[85.30309215282264,27.99307443122186],[85.30362172833962,27.993504928813433],[85.30406727214849,27.993818893862112],[85.30519532191356,27.994489708660034],[85.3059652987227,27.994768973813137],[85.30660578893986,27.995067557773023],[85.30823314842445,27.995555253235967],[85.3083628844731,27.99555856621137],[85.30926272108118,27.995802694333857],[85.30988645435738,27.99587121109042],[85.30989395446869,27.99554617748903],[85.30992752578138,27.995011020200554],[85.31009014413638,27.994479175407225],[85.31018148898511,27.994250357947717],[85.3103602409649,27.993948517868596],[85.31062502464572,27.993666183645054],[85.31091731674091,27.993135276144308],[85.31124249198652,27.992069272948346],[85.31137872759912,27.991765620729964],[85.31164513722642,27.991406513336827],[85.31175805199315,27.99117975902516],[85.3120352115946,27.990342135905717],[85.31206715688506,27.989883688864165],[85.31179229552579,27.988656455224117],[85.31170907577713,27.988501535298994],[85.3115880903278,27.988116734838254],[85.31140289292709,27.987730373038534],[85.31118192991771,27.98696071054157],[85.3106299636156,27.985573556808585],[85.31023374895645,27.984974820519454],[85.31014846650629,27.984914741269286],[85.30974981409857,27.984428788708133],[85.30954235916668,27.984042613641247],[85.30914351933663,27.983538655119077],[85.30906092483444,27.983383735456407],[85.30889511068425,27.983076209168477],[85.30879413330727,27.98276793104602],[85.30821415925598,27.98168574181217],[85.30802677396352,27.981376089975527],[85.30771109119509,27.981026989421107],[85.30748212818143,27.980641127493044],[85.30725853991007,27.980024884641495],[85.30722502417925,27.97956487543982],[85.3072779780475,27.979106302441025],[85.3073708851733,27.97880071206763],[85.30749355032097,27.978115760405785],[85.30747516739649,27.977962464968126],[85.30758101194849,27.97704525784775],[85.3076507243017,27.97681662787248],[85.30785267134641,27.976437827530724],[85.30796289900002,27.976303662726636],[85.3084164970305,27.975240910291358],[85.30868653028843,27.97471037808479],[85.30884852437235,27.97417615764915],[85.30885658648816,27.97379473257094],[85.30881882084904,27.973562602026227],[85.30825672202153,27.971640790843455],[85.3082415258126,27.971334013393648],[85.3082992927629,27.97064512386509],[85.30869030431914,27.96950403587876],[85.30912395637861,27.968364761001883],[85.30919523016938,27.968059420618456],[85.30922005137788,27.96790575042458],[85.30929070037476,27.967600410525662],[85.30927944246567,27.9671424014745],[85.30926105955496,27.966989106061906],[85.30917133612363,27.966716902193824],[85.3091396989118,27.966622436394722],[85.30879062563132,27.965869780655453],[85.3085207094145,27.965405207884398],[85.30843973972519,27.9651735155145],[85.30817201022921,27.964632232684387],[85.30813268229798,27.964479125651057],[85.30782493788816,27.963782485672773],[85.30754276303914,27.962934488495627],[85.30733599629062,27.96254818838353],[85.30732473819177,27.96208792825113],[85.30732767623743,27.961954764256404]]]}}]}