{"type":"FeatureCollection","features":[{"type":"Feature","properties":{"province":"Bagmati Province","district":"Sindhupalchok","municipality":"Sunkoshi Rural Municipality","ward":"3","wardNumber":3,"sourceMunicipality":"Sunkoshi","sourceType":"Gaunpalika"},"geometry":{"type":"Polygon","coordinates":[[[85.79443820012516,27.71695522591478],[85.79502491372777,27.716556353939907],[85.79591130005322,27.716148788922485],[85.79684545564797,27.715895082031345],[85.79713875015109,27.71569452033475],[85.7973022462043,27.715461200145867],[85.79762567222711,27.714877276374615],[85.7980473258265,27.714673213016667],[85.79886062698267,27.714653263024584],[85.79911509543858,27.714569673445272],[85.79949129446828,27.71429083890003],[85.79969386642324,27.71394048420857],[85.79980852851014,27.713514983003385],[85.79928839728723,27.713336685479213],[85.79880871638248,27.713079739053516],[85.79836535996921,27.712631360758035],[85.79778219764887,27.711840883275084],[85.79716264948492,27.711244213808797],[85.79637691612257,27.710804090881602],[85.79571691632736,27.71028606877099],[85.79517770904019,27.70953441536734],[85.79468889680733,27.709011141016084],[85.7941650123447,27.708717621034268],[85.79313350438208,27.708631917257406],[85.79261981359176,27.708645550933404],[85.79192205205,27.70828063651701],[85.79084876491993,27.70693068721359],[85.79022627698028,27.706257244406746],[85.78951062722525,27.705357298614476],[85.78946279616713,27.70520569175843],[85.78933174683603,27.705132358480093],[85.78878353233998,27.70411200080325],[85.78854668786902,27.703428364866063],[85.78809551342746,27.70274960702289],[85.78764846687835,27.702188258376143],[85.78694044804196,27.701516317053496],[85.78528650109857,27.699454912451486],[85.78511268606897,27.699381142201517],[85.78463156650838,27.69908806015006],[85.78403234529502,27.699105382749774],[85.7828285855361,27.69898423208567],[85.78128857785697,27.699063206012212],[85.78025606974045,27.698939115387454],[85.77946896025294,27.698462731759193],[85.77871704919754,27.697754280135634],[85.777880794736,27.697085652674804],[85.77718716097588,27.696838086194948],[85.77597708376518,27.696525003799383],[85.77494839063573,27.696513634504786],[85.774090885434,27.69649932489759],[85.7728822471284,27.69622456622699],[85.7715084877001,27.696146992111554],[85.77082717375761,27.696280912474883],[85.7704028924628,27.696408015294118],[85.76933024490388,27.69636013569464],[85.76898030069748,27.696138135545063],[85.76827359450775,27.695506705999033],[85.76782786198518,27.69498143078274],[85.7669567217749,27.694544934058147],[85.76643665234295,27.694368761542723],[85.76609164949419,27.69430024460029],[85.76489295553529,27.69433251409725],[85.76352826389915,27.69452345641513],[85.7623382642273,27.69482205352784],[85.76199582493237,27.694832497088445],[85.7604636981162,27.69514153784611],[85.75909494129802,27.69521738363804],[85.75773025094266,27.695406012893955],[85.75669661639394,27.695243285757392],[85.75634898557449,27.695097995552405],[85.75586686636375,27.69476646544072],[85.75529389907572,27.694285078341334],[85.7549413899314,27.693986306143465],[85.7538999375742,27.693593324209907],[85.75214877784367,27.69245144017564],[85.75153304479049,27.691969679208498],[85.74997921562758,27.691628466808904],[85.74898428039782,27.69118846986946],[85.748024736527,27.69117978791443],[85.74725682386027,27.690816312223188],[85.74653248812825,27.690299729482973],[85.74627745340972,27.690069475692386],[85.74591625268299,27.689666735627622],[85.74508987083229,27.688348042534965],[85.74481351621061,27.688099597198082],[85.74438666837781,27.687926486879643],[85.74430132384167,27.68790754507334],[85.74387297870626,27.687982758197055],[85.74327238374026,27.688230085222948],[85.74318685193913,27.688229273179278],[85.74275788210454,27.688381133506105],[85.74250060122746,27.688514237752518],[85.74207200615623,27.6886073934247],[85.74181534818862,27.688607333209326],[85.7416446594721,27.68856738480483],[85.74121681389536,27.688568013202595],[85.7407038722449,27.688470864225696],[85.74006419424288,27.68814458610014],[85.73974463658743,27.687934088929328],[85.73923250784712,27.687742099950086],[85.73897609944409,27.687683334231902],[85.73846240930767,27.68773960537623],[85.73769231162646,27.687737110113535],[85.7364077128384,27.687885664326636],[85.73606539872132,27.6878847921872],[85.73521095593033,27.687748321345477],[85.73472152083065,27.687400910715084],[85.7342340841148,27.68682324471727],[85.73361822483778,27.686226262019016],[85.73336393987188,27.6858809749413],[85.7331961851936,27.68541902846174],[85.73309045726867,27.685246540896053],[85.73294389837025,27.684787157227525],[85.73299609188595,27.683447013841846],[85.73299908812632,27.68302501469206],[85.73246445262505,27.683022393142814],[85.73233646743292,27.683021206043296],[85.7324420090391,27.683214011878544],[85.73244019862841,27.683482528787426],[85.73230902919539,27.683865016317178],[85.73204981146978,27.68424631810942],[85.73170368964603,27.684857000066582],[85.73148761258115,27.68518003482549],[85.73129216976243,27.68563860792159],[85.73113668397335,27.686478981372957],[85.73115600579459,27.686786071564583],[85.73121828141107,27.68701682595429],[85.73147156814291,27.687477334139217],[85.73170490728099,27.687745724063316],[85.73185377544445,27.68786213174449],[85.73232076562512,27.68834489505461],[85.73249039305085,27.688556330280363],[85.73287297637951,27.68888254839744],[85.73312832224289,27.68905640966217],[85.73357524090366,27.689326797821032],[85.73383114887437,27.689426137919853],[85.7341507073219,27.68963669677277],[85.73447051403551,27.689770546550385],[85.73466227373665,27.689905396888665],[85.73504610587153,27.690096261970595],[85.7355582970123,27.690288189666404],[85.73600733968553,27.69034645272276],[85.73639260693784,27.690329632181356],[85.73664889005569,27.690368078998468],[85.73718246469299,27.690542188803043],[85.73754472631522,27.69079157150639],[85.73773611137229,27.690962495079127],[85.73788466875558,27.691191811429167],[85.73824025126643,27.692490439785463],[85.73847271631455,27.692948447577066],[85.73859745612111,27.693484415901946],[85.73872419354912,27.693790254639595],[85.73908501875766,27.694249386654594],[85.73923301368004,27.694496770493792],[85.73953043989472,27.694842495320913],[85.73997742236428,27.69522341528509],[85.74048961440816,27.695415405634627],[85.74093915461039,27.6953788287863],[85.74138782258787,27.695475478131602],[85.74170850403362,27.695476100602708],[85.74215742114373,27.695554620713402],[85.74260658743452,27.695574497067806],[85.74324757594087,27.6956728334407],[85.74395271380332,27.69582593525894],[85.74420874763867,27.69596141050858],[85.74446384399164,27.696189350744888],[85.74454862669809,27.696343582802395],[85.74469549904939,27.696800840702473],[85.74475740036247,27.69718276443677],[85.74494710011744,27.697642648827177],[85.74513754946875,27.697946736243445],[85.74526403697304,27.698252574795784],[85.7453481332976,27.69852196557087],[85.7454963777384,27.698751156550863],[85.74560185625776,27.69898009835551],[85.74594136191746,27.699418724240015],[85.74621752988101,27.699743942583517],[85.74666426250407,27.70014743295676],[85.74670684172646,27.700222266710377],[85.7470896111227,27.700566427123437],[85.74753715504673,27.700872951134976],[85.74804903514227,27.70112352066531],[85.74816370548034,27.701411291668325],[85.748389105888,27.701857858580077],[85.74869659754778,27.702126934622523],[85.74953278913208,27.702793436569543],[85.74979970406802,27.70309377260146],[85.74998634021628,27.703549092264286],[85.75034873063716,27.704152641735785],[85.75074675705925,27.704524059742372],[85.75100616650136,27.70459414046393],[85.75178564519203,27.704840331865018],[85.75307762563784,27.70503706596389],[85.75415902999268,27.70535365083848],[85.75450791140527,27.705535076244015],[85.75503692446851,27.70597995191418],[85.75526607659084,27.706433333636532],[85.75545759064791,27.707042135380526],[85.75567931358401,27.70856977052234],[85.75597418478006,27.709712103015487],[85.75606472007452,27.709861833708946],[85.75672597105498,27.71041842990009],[85.75751533151943,27.71097389849622],[85.75812368424934,27.71122534244507],[85.75877217632248,27.71139813789347],[85.75992710319153,27.711329483614858],[85.76069388637048,27.711194187443475],[85.76172151660305,27.711167233346494],[85.76275646533018,27.71136828381431],[85.76327916144766,27.71162347940106],[85.76398330258884,27.712178137237917],[85.76433831298553,27.712551431380856],[85.76456765297048,27.713007063196525],[85.76466844540593,27.713463883493755],[85.76463437224827,27.71373215012647],[85.76447450414325,27.714082691981226],[85.76343450425543,27.71503035389946],[85.7633162763379,27.71533850770747],[85.76316541334175,27.71595556543955],[85.7634952326132,27.71686801851441],[85.76385931237728,27.717509891050078],[85.76438845004239,27.717954704675464],[85.76478628906433,27.718328374223898],[85.76601056274656,27.71906145404902],[85.7664010840951,27.719204867702697],[85.76709365570795,27.719414111287364],[85.76856720665933,27.719912433470196],[85.76905320348308,27.720359060010203],[85.7693733908483,27.720962234734138],[85.76980969408726,27.722484990934706],[85.77003884551699,27.722938309688963],[85.77027068742595,27.72346846358969],[85.77117535040408,27.724900563939865],[85.77140337628376,27.725315559073646],[85.77180496747242,27.725804323836076],[85.77202699019253,27.72602745030055],[85.77307455808285,27.725310043796874],[85.77340567752013,27.724956374635763],[85.77350113990828,27.72395745523347],[85.77366369730827,27.723683560643696],[85.77387020890554,27.723448428005643],[85.77412173719226,27.723288190842545],[85.7746331765109,27.723197910623515],[85.77510791563321,27.72329912361234],[85.77558409399323,27.723440974078674],[85.7762300843012,27.7235369969176],[85.77764579644716,27.723576559678925],[85.77855507418533,27.72385757147401],[85.77920100213116,27.72395584567306],[85.77996553359043,27.723743652124398],[85.78021743756175,27.723583352378256],[85.78099066181213,27.72363980004356],[85.78176013384527,27.723578900666308],[85.78264658307533,27.723173649683336],[85.78302434596932,27.722933263068352],[85.78404834905729,27.722791025603158],[85.78434420670851,27.722667237114102],[85.78454915499319,27.722393655233628],[85.78509698024489,27.722109629697854],[85.7855515187446,27.721599038645948],[85.78580454799477,27.721477125526025],[85.78631567429531,27.72138678234205],[85.78690739139998,27.721141455512473],[85.78727746121638,27.72067300228596],[85.78773431292663,27.720239182917243],[85.78818509881695,27.71961349610005],[85.788513778361,27.71918311707004],[85.78917970611738,27.718588499439555],[85.78968313980766,27.7182702136161],[85.7903631398283,27.71809784537731],[85.79151869271648,27.71806726418558],[85.79228166009405,27.717816684346843],[85.79380252911307,27.71716410446461],[85.79443820012516,27.71695522591478]]]}},{"type":"Feature","properties":{"province":"Bagmati Province","district":"Sindhupalchok","municipality":"Sunkoshi Rural Municipality","ward":"7","wardNumber":7,"sourceMunicipality":"Sunkoshi","sourceType":"Gaunpalika"},"geometry":{"type":"Polygon","coordinates":[[[85.86158233770118,27.763413297021142],[85.86163141173726,27.762775047353657],[85.86197952369437,27.761168759600224],[85.8620194739492,27.760984017788694],[85.86309816899895,27.759444681184753],[85.86378879275738,27.758757474123968],[85.8641362832316,27.75756643322864],[85.8643310420642,27.757502600527005],[85.86497127841895,27.757408567312787],[85.86526488602159,27.757207818581357],[85.8655859973546,27.756546933579333],[85.86609512153524,27.75637956826089],[85.86686747100315,27.756397191519955],[85.86755922901487,27.756569798557397],[85.86789829123914,27.756443945936173],[85.86813874949465,27.755940358825452],[85.86909897219824,27.75514474155475],[85.8692262685769,27.755102915551173],[85.87004294671978,27.75515698713935],[85.87021144662384,27.75507708695801],[85.87041583090866,27.754765056082768],[85.87035774143538,27.754306484594682],[85.87067016028891,27.753376896151025],[85.87065489982088,27.75291638619534],[85.87063576119944,27.752340779793723],[85.8709244893647,27.751988736640516],[85.87112843615311,27.751676705376283],[85.87140940898246,27.75109221930358],[85.87109047206312,27.750525430624304],[85.87047186143924,27.749967459199315],[85.86975977648822,27.74918073468409],[85.86952655849996,27.74861238235004],[85.86949991474133,27.747808708786735],[85.86961707966215,27.747459856104857],[85.86960957454268,27.74722960091658],[85.86929069986039,27.74666281164068],[85.86906880236175,27.74643981081065],[85.8688434033202,27.746099463166093],[85.86830769736667,27.74546315546573],[85.86715850988313,27.744420109193566],[85.86671358965661,27.74393353329697],[85.86614643853373,27.743642264845317],[85.8651499404467,27.74332493023102],[85.8642301555758,27.74273739039174],[85.8635649019173,27.74206388638334],[85.86297004378982,27.740930620785413],[85.86256945358654,27.74048042970612],[85.86220393494517,27.739800420590015],[85.86180065537411,27.739273520065094],[85.86153361493803,27.738975684319495],[85.8607878334603,27.738457226745904],[85.86039199569679,27.738162831030024],[85.85970155099534,27.738028547460168],[85.85882966017097,27.73759255220108],[85.85831315528141,27.73752960001875],[85.85764178682639,27.737968672875926],[85.85730278793912,27.73809452522756],[85.8569587223094,27.73806464412181],[85.8565695762496,27.73795986664533],[85.85619037561288,27.738162117147333],[85.85500106360826,27.73850210213412],[85.854318311387,27.738598011193883],[85.85346293243941,27.738658661545635],[85.85087015289704,27.738079763103343],[85.85001671296074,27.738217123954318],[85.8493310214043,27.738236260129607],[85.84762532987878,27.738551617518628],[85.84575576861226,27.739100294987733],[85.8444072142082,27.73982933276239],[85.84254922232493,27.740723298391863],[85.84216739484833,27.740848775920416],[85.84123717888488,27.741258529386958],[85.8406861020913,27.741466032357188],[85.84062102181818,27.74208165108773],[85.84080915947109,27.742572919186546],[85.84112227984681,27.74295021498644],[85.841735136189,27.743316442154114],[85.84270675503696,27.744132485483522],[85.84306232861685,27.744507842658127],[85.84346110531216,27.74487901100608],[85.84475372568963,27.74634092900751],[85.84567113357691,27.74685188378629],[85.84624291294311,27.747296696876727],[85.84629080724795,27.747448303418143],[85.84604509439546,27.747800596416962],[85.84536859703991,27.748088374343286],[85.84332734581807,27.74860398143572],[85.84281465680775,27.7486561261615],[85.84221218255807,27.74859692591903],[85.84127715110014,27.74885313411057],[85.8400742042565,27.748809256577456],[85.83947792214315,27.748939675012732],[85.83935187689141,27.749019887130025],[85.83923346065852,27.749330291538786],[85.83938271078571,27.74994090782587],[85.83940854055218,27.750706194555928],[85.83921929119433,27.7514787349417],[85.83912101531966,27.752403195146243],[85.83904899251156,27.75282688251247],[85.83850473317469,27.753224066836363],[85.83781660190753,27.753166367657524],[85.8371349757686,27.753300600444618],[85.83527460797747,27.75411773130995],[85.83424053554279,27.753993953956417],[85.8338910910302,27.753810465656212],[85.8333727733007,27.753709065263163],[85.83285051436393,27.753494756336362],[85.832329506579,27.753316646614408],[85.83167375987877,27.752949982156036],[85.83101107068158,27.75235537563054],[85.8295257604169,27.751512327874654],[85.82899499564486,27.751027127856656],[85.82864505169707,27.75080525259227],[85.82795341795617,27.750632458027642],[85.82765361971116,27.750641150793626],[85.82744835900827,27.75091479516244],[85.82702853270705,27.752459501986763],[85.82700102753466,27.752921825571576],[85.82688680133205,27.753345138695384],[85.82667885170618,27.753544261630427],[85.82582391061183,27.75360472417717],[85.82496477863515,27.753549965284595],[85.8237568910353,27.753314093527766],[85.82268130356088,27.753189878160242],[85.82203775183406,27.75316856543462],[85.82173532667899,27.753098360142328],[85.82002125356333,27.75310637690054],[85.81898580553074,27.752903450520957],[85.8182902942774,27.752615434627756],[85.81673984237953,27.752387818540427],[85.81622096040365,27.752247968912656],[85.8153633920789,27.752231596477714],[85.81432531741656,27.75195189780983],[85.81367682439766,27.75177710246372],[85.81250638624137,27.751385684636475],[85.80888409935389,27.750715893249556],[85.80802646811476,27.750699520751763],[85.80682095757462,27.750540171972407],[85.8059633893557,27.75052379931868],[85.80442669674981,27.750718244083767],[85.80349116416434,27.750933502548055],[85.80371787732358,27.75131236223857],[85.80416142128246,27.751760802797673],[85.80483430537937,27.75266256198791],[85.80507127606373,27.753346198397825],[85.80513330547838,27.75391992848733],[85.80537796777708,27.75483607048805],[85.80578218665201,27.755399232537282],[85.80604941367152,27.755699505589263],[85.8066982809226,27.7558743016034],[85.80789315978272,27.75572887372645],[85.80869038721669,27.755207589412635],[85.80920163881746,27.75511718353864],[85.80987676088593,27.75479351985008],[85.81055663589935,27.75462102631396],[85.81107201446079,27.754645779249998],[85.8115935852863,27.754862401192185],[85.81307758133599,27.755667249679274],[85.81452106336117,27.7565507469736],[85.81491946533762,27.756924291082655],[85.81519144589771,27.757375733627324],[85.81542472633181,27.757946399552043],[85.81594917770806,27.758569264811424],[85.8178053115011,27.75939530426742],[85.81824760171756,27.759464571237732],[85.81902413943996,27.7594486227634],[85.81936576104216,27.758939220071237],[85.81988026162877,27.75869758222315],[85.82047272961984,27.758598798169505],[85.82237031011401,27.758730070108403],[85.82243114495672,27.758735071710426],[85.82248241460975,27.758744511173386],[85.82300554658833,27.75885053844811],[85.82461759106585,27.759701523960196],[85.82671706739227,27.760615274341983],[85.82786962763815,27.761349480305093],[85.82862972973227,27.762159337117758],[85.82988758228936,27.76310654205277],[85.83120201121083,27.763505772653748],[85.83212541859432,27.763786660053736],[85.83244166099489,27.763780280664378],[85.83357532753969,27.763406160902694],[85.83556105306798,27.762445674750452],[85.8356607780768,27.76243291955422],[85.83607524304438,27.762379963534933],[85.83629007368071,27.76239534127671],[85.83693043632192,27.76244359974129],[85.83713801312679,27.762458914712347],[85.83794256534924,27.76279738192794],[85.83878562960754,27.762939792400882],[85.84045305871548,27.762773291125136],[85.8421325003812,27.763331191051485],[85.84218914642364,27.763340693026507],[85.84310273612691,27.763501794770143],[85.84392110269569,27.763488346628165],[85.84508515409475,27.76299700508441],[85.84537788620736,27.762873090803698],[85.84608602441288,27.76293766603585],[85.84863654021697,27.76369230344942],[85.85026702863115,27.764509279504278],[85.85143783824947,27.764487387494036],[85.8516340351603,27.764439372191426],[85.85292563526026,27.764122830666416],[85.85432008515927,27.763610793108025],[85.85493212403266,27.763554896777283],[85.85864950252567,27.76364195228174],[85.86004895690664,27.76340749654365],[85.86158233770118,27.763413297021142]]]}},{"type":"Feature","properties":{"province":"Bagmati Province","district":"Sindhupalchok","municipality":"Sunkoshi Rural Municipality","ward":"5","wardNumber":5,"sourceMunicipality":"Sunkoshi","sourceType":"Gaunpalika"},"geometry":{"type":"Polygon","coordinates":[[[85.84199570769877,27.70632870363707],[85.841631002952,27.705686955880424],[85.8413583975944,27.705233325302277],[85.84115631260877,27.70431987143337],[85.84096930134692,27.703864738950408],[85.84095891948883,27.703557649319663],[85.84062809886683,27.702645383862162],[85.83999241486578,27.701588391635024],[85.83972481186179,27.70128824264871],[85.83932766202804,27.700955399049864],[85.83876169933411,27.700702391729642],[85.83811483331779,27.700604493588283],[85.83721118535472,27.700513411701607],[85.83618386803302,27.700579252436917],[85.83527634188542,27.700375325612143],[85.83463366640802,27.700392461302798],[85.83412204085664,27.70048299156686],[85.83378285383648,27.70060653062626],[85.83230555023862,27.70003437530942],[85.83217831620702,27.70007620110827],[85.83192885171486,27.70031333598491],[85.8312953692574,27.700599112196635],[85.83104008790868,27.700644378402046],[85.83039303427479,27.70050803133951],[85.82973559816998,27.700064656263816],[85.82937896181556,27.69965097506433],[85.82802401426805,27.69884506232011],[85.82705696069416,27.698103353224383],[85.82574715444053,27.697370148456603],[85.82496404800004,27.697006923701203],[85.82342909376489,27.695935497042914],[85.82290395766886,27.69560377938837],[85.8223800108345,27.69531044735675],[85.82181098338903,27.694942282142186],[85.82114973250833,27.69438374863362],[85.82092683428215,27.694122298643713],[85.82019986433838,27.692874876133473],[85.81945189334206,27.692281707965826],[85.81928602114064,27.692438254884323],[85.81911720969458,27.692520343075703],[85.81775677147466,27.6928247569938],[85.81724552108994,27.692915162361345],[85.81658140602546,27.69354591600441],[85.81628798676721,27.693746539545508],[85.81527374138433,27.694157668652036],[85.81443306011055,27.694640255275374],[85.81413970309806,27.69483856572172],[85.81355198923048,27.695199177277978],[85.81304749286289,27.695481513814993],[85.81237036989788,27.69572852983818],[85.81186061990104,27.695857259146937],[85.81100574078056,27.69591990960665],[85.8098123006935,27.696103786265027],[85.80926209988421,27.69631116408125],[85.80901294696535,27.69654829840399],[85.80786422479885,27.69807306873613],[85.80707394031133,27.698786221777844],[85.80662221669759,27.699373648808184],[85.8063004792623,27.699993770766714],[85.80603639283524,27.70107477816584],[85.80587546141113,27.70138705847025],[85.80558973454507,27.701815686265878],[85.80532564889937,27.70289669424206],[85.80499962236765,27.70597447559362],[85.80454902502088,27.706600288290627],[85.80386683518375,27.706693696400123],[85.80302571663714,27.70717622004263],[85.80277650206658,27.70741329166439],[85.80236754420794,27.70800103031137],[85.8013745626434,27.70906222452238],[85.80121363116449,27.70937225518821],[85.80106264441997,27.70999156288979],[85.80110348426113,27.711217422236935],[85.80095868940796,27.71202634920576],[85.80042656265094,27.71276875836714],[85.80001378954924,27.71324140097535],[85.79980852851014,27.713514983003385],[85.79969386642324,27.71394048420857],[85.79949129446828,27.71429083890003],[85.79911509543858,27.714569673445272],[85.79886062698267,27.714653263024584],[85.7980473258265,27.714673213016667],[85.79762567222711,27.714877276374615],[85.7973022462043,27.715461200145867],[85.79713875015109,27.71569452033475],[85.79684545564797,27.715895082031345],[85.79591130005322,27.716148788922485],[85.79502491372777,27.716556353939907],[85.79443820012516,27.71695522591478],[85.79492207133396,27.717325079935996],[85.79578432973274,27.717494998000472],[85.79617991697528,27.717791831747505],[85.79680209232703,27.718465274384812],[85.7973096663805,27.71956421796389],[85.79860072317871,27.721026574101707],[85.79934231473065,27.721430186171855],[85.80064073727458,27.72181603845519],[85.80167931345986,27.72213424818177],[85.80376978605786,27.72315428089103],[85.80411760389573,27.72329719446016],[85.80499255872179,27.723850912009905],[85.80568900827005,27.724177377504603],[85.80818520106699,27.725798957760894],[85.81119664629492,27.727445165626218],[85.81232506988937,27.72787690765435],[85.81267495121683,27.728096532339457],[85.81333632706406,27.728655128353896],[85.81460743225173,27.72950324161008],[85.81547894754718,27.72994180068607],[85.81775599539743,27.73141458810256],[85.81875874749409,27.731926418224802],[85.8197221734083,27.732553031564922],[85.82090124288301,27.73321302751916],[85.82125150004174,27.73343265127268],[85.82155498794378,27.733539055637735],[85.82184196499512,27.73314875104487],[85.82216908187067,27.732679859991457],[85.82246350126913,27.732517622591637],[85.8228878454303,27.732392581886085],[85.82301245204226,27.732274108936437],[85.82337739364596,27.731649734957347],[85.82380548940748,27.731639791243193],[85.82432587213799,27.731818026274112],[85.82518062552826,27.731755250722532],[85.8253052329119,27.73163671532343],[85.82533029877466,27.731099807144066],[85.82552899248618,27.730634293956243],[85.82598071657912,27.73004686701295],[85.82642093185991,27.729113964776793],[85.82679356598568,27.728722159230653],[85.82721784648402,27.728594868279757],[85.82876298259752,27.72866887668591],[85.82910279512467,27.728583723991505],[85.829776228105,27.728219298085694],[85.83035531059465,27.727589983730883],[85.83063303146545,27.726931037639336],[85.83100560334819,27.726536981116354],[85.8310873827502,27.726420321583504],[85.83167903683005,27.726174806565012],[85.83193087847036,27.72601444472469],[85.8323971119756,27.725849079871704],[85.83329356765938,27.725709906617634],[85.83397807010101,27.72565250864727],[85.835495436579,27.724843758625074],[85.83594891144502,27.724294593656936],[85.83611009254939,27.72398225067522],[85.83648416440644,27.72362658059301],[85.83686474203347,27.723462779015637],[85.83715734783728,27.72322595722773],[85.83749628449316,27.723100166531047],[85.83801185042184,27.723124794435016],[85.83851847347243,27.722880781002715],[85.83876681235077,27.72260526086171],[85.83988146116442,27.72131012105992],[85.84085050220277,27.72078333284236],[85.84238588106386,27.720511802505992],[85.842724817504,27.720388263124597],[85.84401490723367,27.71920059158288],[85.844519153644,27.718879805357876],[85.8452154014377,27.717901637031588],[85.8451895701695,27.717136350239507],[85.84533023802743,27.716212265299024],[85.84516553966907,27.715141077197604],[85.84468034227248,27.71346696417001],[85.84397074522431,27.7114930780925],[85.84390709060195,27.71088096188202],[85.84318717363591,27.70859773461963],[85.84259413036855,27.70754111749896],[85.84249809119952,27.70723565369254],[85.84200071126277,27.7064821862667],[85.84199570769877,27.70632870363707]]]}},{"type":"Feature","properties":{"province":"Bagmati Province","district":"Sindhupalchok","municipality":"Sunkoshi Rural Municipality","ward":"1","wardNumber":1,"sourceMunicipality":"Sunkoshi","sourceType":"Gaunpalika"},"geometry":{"type":"Polygon","coordinates":[[[85.78463156650838,27.69908806015006],[85.78486939941789,27.698507888329907],[85.78577415997788,27.697371609092166],[85.786054757784,27.69678949858062],[85.78644094960039,27.695513246007362],[85.78647233302875,27.69516826921381],[85.78598313225268,27.6933404237906],[85.78578880295775,27.692657162314898],[85.78657090905094,27.692979938356068],[85.78696111743902,27.69312328897038],[85.78816362614347,27.693205991055073],[85.78850487684151,27.693157099005447],[85.78937113819563,27.69343998750716],[85.79019719856377,27.693801586644494],[85.79105201410663,27.69374124917425],[85.79172688554087,27.693415335622156],[85.79224163921614,27.693440088666158],[85.79258933238579,27.693583127419796],[85.79315867230143,27.693951418843017],[85.79351249350688,27.694286263680322],[85.79405426596102,27.69511469052672],[85.79438083264039,27.695911921993343],[85.7948745226217,27.69658874119627],[85.79544655147413,27.697031553670694],[85.79622340354287,27.697203035073894],[85.79649169406596,27.697539382305084],[85.79670833806104,27.69761121419398],[85.79717794839591,27.697561132611344],[85.79739578101403,27.697669099683413],[85.7982597903996,27.697875090838416],[85.79898243109544,27.697703158986354],[85.79957402262806,27.69745551955939],[85.80020337652634,27.697056959362108],[85.80040857470931,27.69678337717686],[85.80123518371977,27.695878729934577],[85.8016013758754,27.69529286730026],[85.80181731810904,27.694060253794877],[85.80174897226476,27.693296841851467],[85.8009801740658,27.692091807152345],[85.79950110576094,27.690138183631444],[85.79917597816929,27.689381588699728],[85.79803473432067,27.688568234749518],[85.7972713777575,27.68751674481355],[85.7966088138928,27.686919699946504],[85.79620690945144,27.686433248007287],[85.79577592257282,27.685066350262762],[85.79575803547459,27.6845290675356],[85.79560522176247,27.683805543826743],[85.79557476279375,27.682886712147447],[85.7958007116985,27.681961125681934],[85.79608506214478,27.68149192288627],[85.79708311036306,27.6805842730389],[85.79766932283883,27.680185401496313],[85.79812248487212,27.67963642361718],[85.79844572390745,27.679052436455862],[85.79875726682984,27.6781230993054],[85.79911714190041,27.677347492797217],[85.79922992887231,27.676883605583335],[85.79978324412876,27.67548912930236],[85.80010529370107,27.674866756682626],[85.80013461324192,27.674445007657397],[85.79974684365708,27.674378428315602],[85.79940452941172,27.674388996691388],[85.79855334150493,27.674564493402237],[85.79682901171441,27.674229034018982],[85.7954593794394,27.674264555854897],[85.79494199951343,27.674165280989723],[85.794464007269,27.67394678326404],[85.7929352444923,27.673030714861333],[85.79276405634151,27.673036029882283],[85.79229457004321,27.673086111350155],[85.79145445208738,27.673606896375574],[85.79077094934944,27.67366416819794],[85.78802780851807,27.673624429354998],[85.78734812159873,27.6737946102058],[85.78616531315784,27.674325838057985],[85.78553802347973,27.674803358882993],[85.78443918445195,27.675254125670488],[85.7835454798513,27.675431309690723],[85.78286691837214,27.67564206455317],[85.78152261663733,27.676444998826035],[85.78071713291605,27.676697455215464],[85.77973026760209,27.67664594790896],[85.77871051745628,27.67690553292716],[85.77819320023951,27.67680394437071],[85.7778455697094,27.67665871765619],[85.77705633406215,27.676105623500074],[85.77636520074515,27.675932516603655],[85.77551051043457,27.675994854136],[85.77482056602044,27.675860132753876],[85.77412299097747,27.675495218357003],[85.77377686249133,27.675390628742758],[85.77275217081676,27.67549441723156],[85.77190129578904,27.675669662849018],[85.77121622924956,27.67568842405367],[85.77069897428737,27.675586836018187],[85.77035778625472,27.675635728794045],[85.76976244202375,27.67576583388297],[85.76943263598706,27.676157952398018],[85.76902999488897,27.676935183812855],[85.76891677080692,27.67739907080014],[85.76847517903542,27.678293399437845],[85.76836451832223,27.678831808633518],[85.76820208640575,27.67910570239727],[85.76795293332287,27.679340461531492],[85.76744693663258,27.679584224493937],[85.76642337092076,27.67972858770738],[85.76608099496036,27.679736842943335],[85.76556105042805,27.679558419800696],[85.76504635959472,27.679535792737088],[85.76369173782756,27.68003151167582],[85.76295783942798,27.67986027956147],[85.76235724115932,27.679836840001975],[85.76106551059864,27.679642480996733],[85.76076977774191,27.679764019685223],[85.7606087214626,27.680076237753667],[85.76075221666113,27.68053118237391],[85.76071701852958,27.68076331307234],[85.76051207082311,27.6810368324924],[85.75984357854028,27.681552177226127],[85.75848657962518,27.68197337461849],[85.75797914412729,27.682178689144536],[85.75780914428302,27.682220076928136],[85.75513153356427,27.682868601773986],[85.75384768376225,27.68290224729176],[85.75341070722618,27.682645550456588],[85.75309983877844,27.68230876653224],[85.75307688492535,27.68162018981493],[85.7529864131941,27.68146820829207],[85.7526803599929,27.681284907265297],[85.75216429321905,27.68122158001754],[85.75178290360145,27.681346806960658],[85.7514893587487,27.68154724372204],[85.75111434789844,27.681864339384777],[85.75091052632214,27.682176245424017],[85.75087757919297,27.682482835653122],[85.75110698197791,27.68293634203875],[85.75103758630833,27.683436677160653],[85.75101620991678,27.68408880676151],[85.75068515302704,27.684442288073967],[85.7503477176316,27.68460627650571],[85.74983527849966,27.684658108177548],[85.74931539688522,27.684479622287594],[85.74859531191751,27.683981169192375],[85.74778595769703,27.68478634980016],[85.74765622464368,27.685015355309673],[85.74705250889023,27.68579527711082],[85.74681604815221,27.68596689238785],[85.74655895384869,27.68602328575035],[85.74638845240673,27.685947264213997],[85.74617618286848,27.685660995214988],[85.74587807045859,27.68543036692725],[85.74553687996028,27.685278325122717],[85.74502450083358,27.685104402941477],[85.7442545908989,27.685063584670395],[85.7439129000834,27.68498606482723],[85.74339958496734,27.6849475575007],[85.74297255104621,27.684851157761766],[85.74263042354757,27.684811961577367],[85.74228892085368,27.68471631169808],[85.74194679393908,27.684677114695333],[85.74109060311051,27.684750581050828],[85.74066219457536,27.684825731469086],[85.74040572463663,27.684805352636126],[85.74008597889889,27.68461511199771],[85.73978942747284,27.68419267814983],[85.73953401802659,27.683964675658647],[85.7393635170726,27.683886340792213],[85.73855446182442,27.68338476253641],[85.73829842908134,27.683326059957622],[85.73821289696717,27.683325248323737],[85.73795542860675,27.68347635713634],[85.7377190302467,27.683666039437345],[85.73763324910178,27.68368554665109],[85.73675167978654,27.684426833309555],[85.73649414900083,27.684577942122907],[85.735894116293,27.68478463314713],[85.73546714455458,27.68470630125015],[85.73523361793163,27.684455916367412],[85.73514852360475,27.684416781324074],[85.7349148728667,27.68420472068257],[85.73436060187754,27.683953713729395],[85.73421173369725,27.683837243610906],[85.73382827717478,27.683644189853485],[85.73331833375597,27.683237824139095],[85.73299908812632,27.68302501469206],[85.73299609188595,27.683447013841846],[85.73294389837025,27.684787157227525],[85.73309045726867,27.685246540896053],[85.7331961851936,27.68541902846174],[85.73336393987188,27.6858809749413],[85.73361822483778,27.686226262019016],[85.7342340841148,27.68682324471727],[85.73472152083065,27.687400910715084],[85.73521095593033,27.687748321345477],[85.73606539872132,27.6878847921872],[85.7364077128384,27.687885664326636],[85.73769231162646,27.687737110113535],[85.73846240930767,27.68773960537623],[85.73897609944409,27.687683334231902],[85.73923250784712,27.687742099950086],[85.73974463658743,27.687934088929328],[85.74006419424288,27.68814458610014],[85.7407038722449,27.688470864225696],[85.74121681389536,27.688568013202595],[85.7416446594721,27.68856738480483],[85.74181534818862,27.688607333209326],[85.74207200615623,27.6886073934247],[85.74250060122746,27.688514237752518],[85.74275788210454,27.688381133506105],[85.74318685193913,27.688229273179278],[85.74327238374026,27.688230085222948],[85.74387297870626,27.687982758197055],[85.74430132384167,27.68790754507334],[85.74438666837781,27.687926486879643],[85.74481351621061,27.688099597198082],[85.74508987083229,27.688348042534965],[85.74591625268299,27.689666735627622],[85.74627745340972,27.690069475692386],[85.74653248812825,27.690299729482973],[85.74725682386027,27.690816312223188],[85.748024736527,27.69117978791443],[85.74898428039782,27.69118846986946],[85.74997921562758,27.691628466808904],[85.75153304479049,27.691969679208498],[85.75214877784367,27.69245144017564],[85.7538999375742,27.693593324209907],[85.7549413899314,27.693986306143465],[85.75529389907572,27.694285078341334],[85.75586686636375,27.69476646544072],[85.75634898557449,27.695097995552405],[85.75669661639394,27.695243285757392],[85.75773025094266,27.695406012893955],[85.75909494129802,27.69521738363804],[85.7604636981162,27.69514153784611],[85.76199582493237,27.694832497088445],[85.7623382642273,27.69482205352784],[85.76352826389915,27.69452345641513],[85.76489295553529,27.69433251409725],[85.76609164949419,27.69430024460029],[85.76643665234295,27.694368761542723],[85.7669567217749,27.694544934058147],[85.76782786198518,27.69498143078274],[85.76827359450775,27.695506705999033],[85.76898030069748,27.696138135545063],[85.76933024490388,27.69636013569464],[85.7704028924628,27.696408015294118],[85.77082717375761,27.696280912474883],[85.7715084877001,27.696146992111554],[85.7728822471284,27.69622456622699],[85.774090885434,27.69649932489759],[85.77494839063573,27.696513634504786],[85.77597708376518,27.696525003799383],[85.77718716097588,27.696838086194948],[85.777880794736,27.697085652674804],[85.77871704919754,27.697754280135634],[85.77946896025294,27.698462731759193],[85.78025606974045,27.698939115387454],[85.78128857785697,27.699063206012212],[85.7828285855361,27.69898423208567],[85.78403234529502,27.699105382749774],[85.78463156650838,27.69908806015006]]]}},{"type":"Feature","properties":{"province":"Bagmati Province","district":"Sindhupalchok","municipality":"Sunkoshi Rural Municipality","ward":"2","wardNumber":2,"sourceMunicipality":"Sunkoshi","sourceType":"Gaunpalika"},"geometry":{"type":"Polygon","coordinates":[[[85.81945189334206,27.692281707965826],[85.81909419368928,27.691829578321364],[85.8186951041619,27.691419961530077],[85.81859919034122,27.691114434498278],[85.81858386726567,27.69065392507453],[85.81920427729744,27.68998666079725],[85.81960654280955,27.689209179209268],[85.81976240889226,27.688743353390308],[85.81974708577536,27.688285094275646],[85.81937399983411,27.687372392067072],[85.81944958757079,27.687063862982384],[85.81977895502958,27.686671620314264],[85.81981671770667,27.68651851231127],[85.81980639769831,27.686211547436027],[85.81961450734569,27.685602807572035],[85.81955635657063,27.68514642396654],[85.8196785871166,27.68495111612357],[85.82013131125964,27.684402013095593],[85.82029218029587,27.68408966987241],[85.82010560627008,27.68363672649714],[85.81944297900677,27.68303980676928],[85.81900468898397,27.682744910896943],[85.81829160369465,27.6819218631427],[85.81767680822261,27.681478800498276],[85.81655113844572,27.68112620684793],[85.81603757297496,27.68113990241276],[85.81514393170372,27.68131733732424],[85.81450313227998,27.68137504726998],[85.81440190271236,27.680916037506638],[85.81431310442237,27.679538571315543],[85.81453892913422,27.678612923267774],[85.81426175731272,27.67800799749568],[85.81337341788782,27.67707510655054],[85.81234760112427,27.67714082121465],[85.8106267118983,27.67691845788586],[85.81014796935493,27.676702210920997],[85.8094556487701,27.676490904794314],[85.80884504434907,27.67616293845009],[85.80848709468985,27.675712997139573],[85.80800603805808,27.675419977911176],[85.80749253534576,27.675433673449934],[85.80714634376055,27.675326832401257],[85.80575751133276,27.67479131168665],[85.80506669106654,27.674618392253223],[85.8043708672761,27.67429192681861],[85.80374400904039,27.674121756963608],[85.80333354257202,27.674012166101758],[85.80265623179686,27.674261369608413],[85.80167780929919,27.674480880296148],[85.80099430719905,27.674535901887083],[85.80013461324192,27.674445007657397],[85.80010529370107,27.674866756682626],[85.79978324412876,27.67548912930236],[85.79922992887231,27.676883605583335],[85.79911714190041,27.677347492797217],[85.79875726682984,27.6781230993054],[85.79844572390745,27.679052436455862],[85.79812248487212,27.67963642361718],[85.79766932283883,27.680185401496313],[85.79708311036306,27.6805842730389],[85.79608506214478,27.68149192288627],[85.7958007116985,27.681961125681934],[85.79557476279375,27.682886712147447],[85.79560522176247,27.683805543826743],[85.79575803547459,27.6845290675356],[85.79577592257282,27.685066350262762],[85.79620690945144,27.686433248007287],[85.7966088138928,27.686919699946504],[85.7972713777575,27.68751674481355],[85.79803473432067,27.688568234749518],[85.79917597816929,27.689381588699728],[85.79950110576094,27.690138183631444],[85.8009801740658,27.692091807152345],[85.80174897226476,27.693296841851467],[85.80181731810904,27.694060253794877],[85.8016013758754,27.69529286730026],[85.80123518371977,27.695878729934577],[85.80040857470931,27.69678337717686],[85.80020337652634,27.697056959362108],[85.79957402262806,27.69745551955939],[85.79898243109544,27.697703158986354],[85.7982597903996,27.697875090838416],[85.79739578101403,27.697669099683413],[85.79717794839591,27.697561132611344],[85.79670833806104,27.69761121419398],[85.79649169406596,27.697539382305084],[85.79622340354287,27.697203035073894],[85.79544655147413,27.697031553670694],[85.7948745226217,27.69658874119627],[85.79438083264039,27.695911921993343],[85.79405426596102,27.69511469052672],[85.79351249350688,27.694286263680322],[85.79315867230143,27.693951418843017],[85.79258933238579,27.693583127419796],[85.79224163921614,27.693440088666158],[85.79172688554087,27.693415335622156],[85.79105201410663,27.69374124917425],[85.79019719856377,27.693801586644494],[85.78937113819563,27.69343998750716],[85.78850487684151,27.693157099005447],[85.78816362614347,27.693205991055073],[85.78696111743902,27.69312328897038],[85.78657090905094,27.692979938356068],[85.78578880295775,27.692657162314898],[85.78598313225268,27.6933404237906],[85.78647233302875,27.69516826921381],[85.78644094960039,27.695513246007362],[85.786054757784,27.69678949858062],[85.78577415997788,27.697371609092166],[85.78486939941789,27.698507888329907],[85.78463156650838,27.69908806015006],[85.78511268606897,27.699381142201517],[85.78528650109857,27.699454912451486],[85.78694044804196,27.701516317053496],[85.78764846687835,27.702188258376143],[85.78809551342746,27.70274960702289],[85.78854668786902,27.703428364866063],[85.78878353233998,27.70411200080325],[85.78933174683603,27.705132358480093],[85.78946279616713,27.70520569175843],[85.78951062722525,27.705357298614476],[85.79022627698028,27.706257244406746],[85.79084876491993,27.70693068721359],[85.79192205205,27.70828063651701],[85.79261981359176,27.708645550933404],[85.79313350438208,27.708631917257406],[85.7941650123447,27.708717621034268],[85.79468889680733,27.709011141016084],[85.79517770904019,27.70953441536734],[85.79571691632736,27.71028606877099],[85.79637691612257,27.710804090881602],[85.79716264948492,27.711244213808797],[85.79778219764887,27.711840883275084],[85.79836535996921,27.712631360758035],[85.79880871638248,27.713079739053516],[85.79928839728723,27.713336685479213],[85.79980852851014,27.713514983003385],[85.80001378954924,27.71324140097535],[85.80042656265094,27.71276875836714],[85.80095868940796,27.71202634920576],[85.80110348426113,27.711217422236935],[85.80106264441997,27.70999156288979],[85.80121363116449,27.70937225518821],[85.8013745626434,27.70906222452238],[85.80236754420794,27.70800103031137],[85.80277650206658,27.70741329166439],[85.80302571663714,27.70717622004263],[85.80386683518375,27.706693696400123],[85.80454902502088,27.706600288290627],[85.80499962236765,27.70597447559362],[85.80532564889937,27.70289669424206],[85.80558973454507,27.701815686265878],[85.80587546141113,27.70138705847025],[85.80603639283524,27.70107477816584],[85.8063004792623,27.699993770766714],[85.80662221669759,27.699373648808184],[85.80707394031133,27.698786221777844],[85.80786422479885,27.69807306873613],[85.80901294696535,27.69654829840399],[85.80926209988421,27.69631116408125],[85.8098123006935,27.696103786265027],[85.81100574078056,27.69591990960665],[85.81186061990104,27.695857259146937],[85.81237036989788,27.69572852983818],[85.81304749286289,27.695481513814993],[85.81355198923048,27.695199177277978],[85.81413970309806,27.69483856572172],[85.81443306011055,27.694640255275374],[85.81527374138433,27.694157668652036],[85.81628798676721,27.693746539545508],[85.81658140602546,27.69354591600441],[85.81724552108994,27.692915162361345],[85.81775677147466,27.6928247569938],[85.81911720969458,27.692520343075703],[85.81928602114064,27.692438254884323],[85.81945189334206,27.692281707965826]]]}},{"type":"Feature","properties":{"province":"Bagmati Province","district":"Sindhupalchok","municipality":"Sunkoshi Rural Municipality","ward":"6","wardNumber":6,"sourceMunicipality":"Sunkoshi","sourceType":"Gaunpalika"},"geometry":{"type":"Polygon","coordinates":[[[85.8565695762496,27.73795986664533],[85.85625464237201,27.737508174284674],[85.8556447880931,27.737218782519925],[85.85555556679786,27.737105186787243],[85.85552904788327,27.736301513857274],[85.85538899196808,27.735959601815733],[85.8548484081581,27.735169749456485],[85.85491886695218,27.734707676337646],[85.85572965207106,27.733303819139632],[85.85587407214935,27.732494767610458],[85.85650935364018,27.730981067979553],[85.85657981192008,27.73051905639347],[85.85652891550941,27.73029074037563],[85.85651340521754,27.72983016725096],[85.85666833166711,27.729325955241567],[85.85680887375338,27.72840174547761],[85.85675409947369,27.728058270376156],[85.85638026417855,27.727147943960293],[85.85643908908435,27.726340455778384],[85.85614703269687,27.72531353222446],[85.8561820430753,27.725081275657548],[85.85653284913734,27.724036965922103],[85.856817636562,27.72356763834677],[85.857129429536,27.722640363318362],[85.85762054158761,27.721935777528202],[85.85786612877997,27.721583484071044],[85.85694396805717,27.720957496340837],[85.85658188975066,27.72039027014762],[85.8553312235504,27.718928789409233],[85.85514833921187,27.718588753784495],[85.8550823072985,27.71789980133574],[85.85516014617743,27.7176680458526],[85.8552031483493,27.71640004741035],[85.85542983339415,27.714208277141193],[85.85528558781199,27.713751206889246],[85.85487674093882,27.713073011014938],[85.85441318344958,27.712049089042193],[85.85434344771862,27.709978982352464],[85.8541956988,27.709409003135566],[85.85331047287197,27.707323148660606],[85.85295077225086,27.706835008837405],[85.85268736043437,27.706649956594987],[85.8523419190389,27.706581627040407],[85.85079515707604,27.70651018146681],[85.84856676958621,27.706570655583825],[85.84770582479219,27.706480012102144],[85.84736276070423,27.706488454235963],[85.84651107210983,27.70666645136594],[85.84478005098181,27.706214146429375],[85.84255166292454,27.70627468325566],[85.84199570769877,27.70632870363707],[85.84200071126277,27.7064821862667],[85.84249809119952,27.70723565369254],[85.84259413036855,27.70754111749896],[85.84318717363591,27.70859773461963],[85.84390709060195,27.71088096188202],[85.84397074522431,27.7114930780925],[85.84468034227248,27.71346696417001],[85.84516553966907,27.715141077197604],[85.84533023802743,27.716212265299024],[85.8451895701695,27.717136350239507],[85.8452154014377,27.717901637031588],[85.844519153644,27.718879805357876],[85.84401490723367,27.71920059158288],[85.842724817504,27.720388263124597],[85.84238588106386,27.720511802505992],[85.84085050220277,27.72078333284236],[85.83988146116442,27.72131012105992],[85.83876681235077,27.72260526086171],[85.83851847347243,27.722880781002715],[85.83801185042184,27.723124794435016],[85.83749628449316,27.723100166531047],[85.83715734783728,27.72322595722773],[85.83686474203347,27.723462779015637],[85.83648416440644,27.72362658059301],[85.83611009254939,27.72398225067522],[85.83594891144502,27.724294593656936],[85.835495436579,27.724843758625074],[85.83397807010101,27.72565250864727],[85.83329356765938,27.725709906617634],[85.8323971119756,27.725849079871704],[85.83193087847036,27.72601444472469],[85.83167903683005,27.726174806565012],[85.8310873827502,27.726420321583504],[85.83100560334819,27.726536981116354],[85.83063303146545,27.726931037639336],[85.83035531059465,27.727589983730883],[85.829776228105,27.728219298085694],[85.82910279512467,27.728583723991505],[85.82876298259752,27.72866887668591],[85.82721784648402,27.728594868279757],[85.82679356598568,27.728722159230653],[85.82642093185991,27.729113964776793],[85.82598071657912,27.73004686701295],[85.82552899248618,27.730634293956243],[85.82533029877466,27.731099807144066],[85.8253052329119,27.73163671532343],[85.82518062552826,27.731755250722532],[85.82432587213799,27.731818026274112],[85.82380548940748,27.731639791243193],[85.82337739364596,27.731649734957347],[85.82301245204226,27.732274108936437],[85.8228878454303,27.732392581886085],[85.82246350126913,27.732517622591637],[85.82216908187067,27.732679859991457],[85.82184196499512,27.73314875104487],[85.82155498794378,27.733539055637735],[85.82122393177336,27.73389503772874],[85.82063721824264,27.734294034401252],[85.81981048453909,27.735196494115474],[85.81957509150864,27.73585575232158],[85.81937133234517,27.736167720582323],[85.8188663975997,27.73645005797541],[85.81818133171271,27.736469069009786],[85.81750008043261,27.73660092656046],[85.81687085104757,27.737001799616703],[85.81653216498677,27.737125275734826],[85.81601684864879,27.73710058552476],[85.81465440924654,27.73736642463606],[85.8137945268403,27.73727340477389],[85.812425582636,27.737349689104512],[85.81156426129567,27.737218220284376],[85.81113347638924,27.73715357939911],[85.81037188503163,27.73744041996969],[85.81000031372224,27.737872799965167],[85.80924610244972,27.73839220910818],[85.80856253737275,27.738447231558602],[85.8080032044787,27.738386030240257],[85.80770997298252,27.73858659152299],[85.80716865239755,27.739060422889608],[85.80647140304113,27.74000001674103],[85.80631272365562,27.740386819666274],[85.8060608197283,27.740547243375726],[85.8055484426251,27.74059913854623],[85.80468680966693,27.74046760719908],[85.80434806011755,27.740593334103437],[85.80384456447412,27.740911744804528],[85.80180606441125,27.74146511108632],[85.80146731477817,27.741588588192347],[85.80074936457116,27.741914127005344],[85.80016283967335,27.742312999094366],[85.79929915591684,27.743411391745017],[85.79841520838238,27.743893477614996],[85.7977515318244,27.744564742992857],[85.79819495107098,27.745013183938294],[85.79991685548468,27.746540179861473],[85.80032282431827,27.747144041832502],[85.80046244230797,27.74748376484351],[85.8007334845602,27.747899072070993],[85.80122242146832,27.748422347239725],[85.8022451256916,27.749548356579965],[85.80281596673319,27.749955033315665],[85.80349116416434,27.750933502548055],[85.80442669674981,27.750718244083767],[85.8059633893557,27.75052379931868],[85.80682095757462,27.750540171972407],[85.80802646811476,27.750699520751763],[85.80888409935389,27.750715893249556],[85.81250638624137,27.751385684636475],[85.81367682439766,27.75177710246372],[85.81432531741656,27.75195189780983],[85.8153633920789,27.752231596477714],[85.81622096040365,27.752247968912656],[85.81673984237953,27.752387818540427],[85.8182902942774,27.752615434627756],[85.81898580553074,27.752903450520957],[85.82002125356333,27.75310637690054],[85.82173532667899,27.753098360142328],[85.82203775183406,27.75316856543462],[85.82268130356088,27.753189878160242],[85.8237568910353,27.753314093527766],[85.82496477863515,27.753549965284595],[85.82582391061183,27.75360472417717],[85.82667885170618,27.753544261630427],[85.82688680133205,27.753345138695384],[85.82700102753466,27.752921825571576],[85.82702853270705,27.752459501986763],[85.82744835900827,27.75091479516244],[85.82765361971116,27.750641150793626],[85.82795341795617,27.750632458027642],[85.82864505169707,27.75080525259227],[85.82899499564486,27.751027127856656],[85.8295257604169,27.751512327874654],[85.83101107068158,27.75235537563054],[85.83167375987877,27.752949982156036],[85.832329506579,27.753316646614408],[85.83285051436393,27.753494756336362],[85.8333727733007,27.753709065263163],[85.8338910910302,27.753810465656212],[85.83424053554279,27.753993953956417],[85.83527460797747,27.75411773130995],[85.8371349757686,27.753300600444618],[85.83781660190753,27.753166367657524],[85.83850473317469,27.753224066836363],[85.83904899251156,27.75282688251247],[85.83912101531966,27.752403195146243],[85.83921929119433,27.7514787349417],[85.83940854055218,27.750706194555928],[85.83938271078571,27.74994090782587],[85.83923346065852,27.749330291538786],[85.83935187689141,27.749019887130025],[85.83947792214315,27.748939675012732],[85.8400742042565,27.748809256577456],[85.84127715110014,27.74885313411057],[85.84221218255807,27.74859692591903],[85.84281465680775,27.7486561261615],[85.84332734581807,27.74860398143572],[85.84536859703991,27.748088374343286],[85.84604509439546,27.747800596416962],[85.84629080724795,27.747448303418143],[85.84624291294311,27.747296696876727],[85.84567113357691,27.74685188378629],[85.84475372568963,27.74634092900751],[85.84346110531216,27.74487901100608],[85.84306232861685,27.744507842658127],[85.84270675503696,27.744132485483522],[85.841735136189,27.743316442154114],[85.84112227984681,27.74295021498644],[85.84080915947109,27.742572919186546],[85.84062102181818,27.74208165108773],[85.8406861020913,27.741466032357188],[85.84123717888488,27.741258529386958],[85.84216739484833,27.740848775920416],[85.84254922232493,27.740723298391863],[85.8444072142082,27.73982933276239],[85.84575576861226,27.739100294987733],[85.84762532987878,27.738551617518628],[85.8493310214043,27.738236260129607],[85.85001671296074,27.738217123954318],[85.85087015289704,27.738079763103343],[85.85346293243941,27.738658661545635],[85.854318311387,27.738598011193883],[85.85500106360826,27.73850210213412],[85.85619037561288,27.738162117147333],[85.8565695762496,27.73795986664533]]]}},{"type":"Feature","properties":{"province":"Bagmati Province","district":"Sindhupalchok","municipality":"Sunkoshi Rural Municipality","ward":"4","wardNumber":4,"sourceMunicipality":"Sunkoshi","sourceType":"Gaunpalika"},"geometry":{"type":"Polygon","coordinates":[[[85.82155498794378,27.733539055637735],[85.82125150004174,27.73343265127268],[85.82090124288301,27.73321302751916],[85.8197221734083,27.732553031564922],[85.81875874749409,27.731926418224802],[85.81775599539743,27.73141458810256],[85.81547894754718,27.72994180068607],[85.81460743225173,27.72950324161008],[85.81333632706406,27.728655128353896],[85.81267495121683,27.728096532339457],[85.81232506988937,27.72787690765435],[85.81119664629492,27.727445165626218],[85.80818520106699,27.725798957760894],[85.80568900827005,27.724177377504603],[85.80499255872179,27.723850912009905],[85.80411760389573,27.72329719446016],[85.80376978605786,27.72315428089103],[85.80167931345986,27.72213424818177],[85.80064073727458,27.72181603845519],[85.79934231473065,27.721430186171855],[85.79860072317871,27.721026574101707],[85.7973096663805,27.71956421796389],[85.79680209232703,27.718465274384812],[85.79617991697528,27.717791831747505],[85.79578432973274,27.717494998000472],[85.79492207133396,27.717325079935996],[85.79443820012516,27.71695522591478],[85.79380252911307,27.71716410446461],[85.79228166009405,27.717816684346843],[85.79151869271648,27.71806726418558],[85.7903631398283,27.71809784537731],[85.78968313980766,27.7182702136161],[85.78917970611738,27.718588499439555],[85.788513778361,27.71918311707004],[85.78818509881695,27.71961349610005],[85.78773431292663,27.720239182917243],[85.78727746121638,27.72067300228596],[85.78690739139998,27.721141455512473],[85.78631567429531,27.72138678234205],[85.78580454799477,27.721477125526025],[85.7855515187446,27.721599038645948],[85.78509698024489,27.722109629697854],[85.78454915499319,27.722393655233628],[85.78434420670851,27.722667237114102],[85.78404834905729,27.722791025603158],[85.78302434596932,27.722933263068352],[85.78264658307533,27.723173649683336],[85.78176013384527,27.723578900666308],[85.78099066181213,27.72363980004356],[85.78021743756175,27.723583352378256],[85.77996553359043,27.723743652124398],[85.77920100213116,27.72395584567306],[85.77855507418533,27.72385757147401],[85.77764579644716,27.723576559678925],[85.7762300843012,27.7235369969176],[85.77558409399323,27.723440974078674],[85.77510791563321,27.72329912361234],[85.7746331765109,27.723197910623515],[85.77412173719226,27.723288190842545],[85.77387020890554,27.723448428005643],[85.77366369730827,27.723683560643696],[85.77350113990828,27.72395745523347],[85.77340567752013,27.724956374635763],[85.77307455808285,27.725310043796874],[85.77202699019253,27.72602745030055],[85.77254824769669,27.726244259758513],[85.77357844268457,27.726291702308558],[85.77460100740552,27.726111204012273],[85.77499040229779,27.7262161692738],[85.77552198013832,27.726737692366278],[85.77602354983419,27.727644830267526],[85.77616454424171,27.728022939342473],[85.77638619082973,27.728248379191594],[85.77743677519643,27.728909814791216],[85.77796610079548,27.72935456602274],[85.7783222372377,27.729768434114458],[85.7788034187199,27.73006157909229],[85.77911453743533,27.730398300805046],[85.77926916556868,27.731200847132037],[85.77924685059894,27.731814527694095],[85.77906279269756,27.732740426447318],[85.77866502927856,27.733671265137897],[85.77864233994978,27.734284945844596],[85.77918411195368,27.73511568479362],[85.77969043571863,27.73617636787617],[85.78002019320317,27.737088757863077],[85.78007066466571,27.738621582579466],[85.7803579683275,27.73953359751282],[85.78033527922148,27.74014952882538],[85.78010870490617,27.741075052735596],[85.78016673066766,27.74153374937965],[85.78044759231716,27.742256146856224],[85.78087343756789,27.74216736658019],[85.78138581430902,27.74211540976076],[85.78267035242742,27.742081576911765],[85.78318904644902,27.742221551095493],[85.78439330650896,27.742344952542396],[85.785585808067,27.742120689316135],[85.78661462764043,27.742131934259408],[85.788143502572,27.7417097349089],[85.79050731877541,27.741915400798103],[85.79089496235888,27.74198191696951],[85.79331067597926,27.742456661174685],[85.79416824383728,27.742470907802492],[85.79485712535882,27.7425694309736],[85.7961593003597,27.743070442794686],[85.79700105851445,27.743892489447962],[85.7977515318244,27.744564742992857],[85.79841520838238,27.743893477614996],[85.79929915591684,27.743411391745017],[85.80016283967335,27.742312999094366],[85.80074936457116,27.741914127005344],[85.80146731477817,27.741588588192347],[85.80180606441125,27.74146511108632],[85.80384456447412,27.740911744804528],[85.80434806011755,27.740593334103437],[85.80468680966693,27.74046760719908],[85.8055484426251,27.74059913854623],[85.8060608197283,27.740547243375726],[85.80631272365562,27.740386819666274],[85.80647140304113,27.74000001674103],[85.80716865239755,27.739060422889608],[85.80770997298252,27.73858659152299],[85.8080032044787,27.738386030240257],[85.80856253737275,27.738447231558602],[85.80924610244972,27.73839220910818],[85.81000031372224,27.737872799965167],[85.81037188503163,27.73744041996969],[85.81113347638924,27.73715357939911],[85.81156426129567,27.737218220284376],[85.812425582636,27.737349689104512],[85.8137945268403,27.73727340477389],[85.81465440924654,27.73736642463606],[85.81601684864879,27.73710058552476],[85.81653216498677,27.737125275734826],[85.81687085104757,27.737001799616703],[85.81750008043261,27.73660092656046],[85.81818133171271,27.736469069009786],[85.8188663975997,27.73645005797541],[85.81937133234517,27.736167720582323],[85.81957509150864,27.73585575232158],[85.81981048453909,27.735196494115474],[85.82063721824264,27.734294034401252],[85.82122393177336,27.73389503772874],[85.82155498794378,27.733539055637735]]]}}]}