{"type":"FeatureCollection","features":[{"type":"Feature","properties":{"province":"Bagmati Province","district":"Dolakha","municipality":"Tamakoshi Rural Municipality","ward":"5","wardNumber":5,"sourceMunicipality":"Tamakoshi","sourceType":"Gaunpalika"},"geometry":{"type":"Polygon","coordinates":[[[86.14328995033392,27.517135563321354],[86.14322635705747,27.516521258451643],[86.14326136391483,27.51608581764299],[86.14346862291882,27.515640247751534],[86.1435702796222,27.5152165596729],[86.1435705876663,27.514846388612323],[86.14316636414934,27.51387792048802],[86.14316716923166,27.51324367161745],[86.14327426646636,27.512908010019892],[86.14381264112788,27.51194078313517],[86.14404409053263,27.5110213236695],[86.14407253006699,27.51036475516846],[86.14372558030765,27.509651611991448],[86.14365160883892,27.50906887870881],[86.1434722194162,27.508241700496026],[86.1434510234251,27.508158050701848],[86.14325850528137,27.50739395340017],[86.14310869620185,27.507088365604062],[86.14298026668367,27.50655264681095],[86.14298025943879,27.5059387163638],[86.14293736455492,27.50563375247918],[86.14295861644992,27.505173429995867],[86.14291565787717,27.50471510779109],[86.14293690824965,27.504177949972185],[86.14285124871114,27.50387273671654],[86.1427445816817,27.50371862997406],[86.14257364285766,27.503643046353943],[86.14240264249264,27.50362398055101],[86.14229566573745,27.503661679998494],[86.14212504058122,27.503719323376256],[86.1415481442502,27.50400916413622],[86.14129186178415,27.504048240854523],[86.14103557994713,27.5040105449025],[86.14065106047534,27.503856940879885],[86.14026629155109,27.503646946097728],[86.13975366359627,27.503571553514],[86.13949706902434,27.50357224423659],[86.13917670129192,27.503631201582806],[86.138728035909,27.503632957225985],[86.13853596398545,27.503593384601604],[86.13821546881576,27.503422150320205],[86.13776655098636,27.503252354265825],[86.13718983337341,27.50290794670748],[86.1367409076854,27.502047511259036],[86.13669813946349,27.501893778626183],[86.13657002724347,27.501723730440784],[86.13629204903287,27.50162720467751],[86.13603570324061,27.501589508286536],[86.13558709754295,27.501381326797695],[86.13533056409946,27.501246539457032],[86.13501006774759,27.500998595254657],[86.13424115311975,27.5005220878902],[86.13415549583557,27.500465134483196],[86.13394185149834,27.500235818680157],[86.13379241870402,27.500006940625912],[86.13360002637573,27.49931736530383],[86.13347166163373,27.49893512920323],[86.13332185257988,27.498629478386015],[86.13300197898984,27.498187352220175],[86.13285254844656,27.498111956471565],[86.1322760202934,27.49795941743882],[86.13189175368723,27.49793897708335],[86.13125127025184,27.49815167129898],[86.13086687769467,27.498151550212604],[86.13054694684904,27.498075030871334],[86.13035474888274,27.497940680476724],[86.13012003283498,27.497557820217015],[86.13007726459442,27.497404025439934],[86.13016316563346,27.496944139977717],[86.12999265761171,27.496331398784143],[86.12913926153502,27.494798082332213],[86.12894725068699,27.494607277915666],[86.12858455131304,27.494338703207323],[86.12773085460896,27.493821059116332],[86.12721853657983,27.493553736045097],[86.12689854092031,27.49332379675745],[86.12679175006495,27.493189945959333],[86.12659998606206,27.492710244417104],[86.12649319138745,27.49232588228141],[86.12570413429465,27.491043451039058],[86.12549116965765,27.490123495400404],[86.12525638565582,27.489356897651515],[86.12512852298507,27.48912589360025],[86.12495808257185,27.488914895798274],[86.12431777819151,27.488475273300548],[86.1241043842412,27.488207634361835],[86.12399784156554,27.48795868698085],[86.12391255384235,27.487420967577215],[86.12372084749849,27.48657790990014],[86.12357191159742,27.486127841477195],[86.12223172129097,27.485460345802114],[86.1222197164662,27.485451218687473],[86.12162243074613,27.485217280564136],[86.12110880322119,27.48515533007686],[86.12076698882169,27.48509675363842],[86.12025411035964,27.484978411623757],[86.11914550743741,27.48447264888155],[86.11869808928155,27.484239585188632],[86.11863431573778,27.48418275609633],[86.11854959541682,27.48410548460565],[86.11812518422218,27.483680739019107],[86.11791391516704,27.4833927809674],[86.11757747021025,27.482776728460315],[86.11736576475246,27.48250909003791],[86.11711060587483,27.48233366583675],[86.11668425808341,27.482121044823206],[86.11582831647713,27.48205697192666],[86.11520739932571,27.48205303952493],[86.11510048556048,27.482052353124576],[86.11505746874113,27.48205210330359],[86.11490741401197,27.482069172346126],[86.11430594467193,27.48227530114165],[86.11396213120646,27.482388212818147],[86.11344575627383,27.482633227010187],[86.11340199139467,27.482727692594167],[86.11342237473055,27.482824970794866],[86.11344363325385,27.482863420011995],[86.11348558811798,27.482958446951752],[86.1136766596202,27.483113178361926],[86.11399590542507,27.483307044068642],[86.11433603444534,27.4835778085496],[86.11446295836916,27.483729726580208],[86.11469398591623,27.4841917345561],[86.11492676345942,27.484479817259473],[86.11520236842814,27.484750144098577],[86.11556132007611,27.485287360329544],[86.11608996059759,27.485961052924363],[86.11623470827344,27.486496897044393],[86.11625284383011,27.48680386123004],[86.11618488600426,27.48718722515739],[86.11602977264026,27.48772113267798],[86.11579037654198,27.48810105943516],[86.11533496520029,27.4886714811596],[86.1149026857063,27.48908854580124],[86.11464409283975,27.489260723306423],[86.11412821733032,27.489447033403458],[86.11387087257383,27.489501802110745],[86.11318686778438,27.489344012100158],[86.1130157420464,27.48934288821662],[86.11232880384115,27.48951006949577],[86.11140278074872,27.490020978649582],[86.11127298443607,27.490153393069722],[86.11109892324832,27.490438916918237],[86.11094599499059,27.49072462681523],[86.11094056222986,27.49127979032048],[86.11082690386233,27.4919674933015],[86.11065084515295,27.492424503968955],[86.11019293601092,27.493263504164183],[86.10993340550705,27.49351007917928],[86.10963135986387,27.493738399395717],[86.10894242267236,27.494115454025547],[86.1084044767102,27.494360281892796],[86.10808011043547,27.494683254076534],[86.10788341755642,27.495063430569683],[86.10789662104234,27.495905302593947],[86.1079365138363,27.496212580062707],[86.10789075067953,27.496516981746584],[86.10775920659964,27.49682313582457],[86.10713023324014,27.497602245418538],[86.10686839114383,27.49797979668085],[86.1065216445913,27.498478634296514],[86.10598207550163,27.49893333515872],[86.10499046735544,27.499574783019145],[86.10477401584093,27.499803601945125],[86.104491104252,27.500241921241763],[86.10355921036268,27.501344129252832],[86.10336326772118,27.50166785119449],[86.10281651751967,27.502810942251102],[86.10259856575694,27.503193243521984],[86.10212077343061,27.503858256229123],[86.10114755026042,27.504788663851425],[86.10062905108906,27.505243426891987],[86.09952528308501,27.506382959965922],[86.09926712672642,27.506496370835556],[86.09866771717914,27.506472182321037],[86.09841124725445,27.506414105137726],[86.09781414862024,27.50614165525606],[86.09755786488287,27.506063260467833],[86.09721517643104,27.506061075640602],[86.09704323835194,27.50611640566009],[86.09648322235961,27.50641743692812],[86.09598773142297,27.506739285902427],[86.0956203486675,27.507043816363378],[86.09542577925151,27.50723218621709],[86.09542153285328,27.507633866709025],[86.09539759378801,27.508243108643807],[86.09555109581635,27.50889642402758],[86.09556998587375,27.509535298677665],[86.09616140150226,27.510308769945272],[86.09780145156232,27.51089036223465],[86.09803504033044,27.511081478641593],[86.09788455680075,27.511879527337655],[86.09803880726436,27.512408680648534],[86.09840838553734,27.512758593025225],[86.09867192248403,27.51288443902574],[86.09905525091209,27.512871119023757],[86.09969573491247,27.512626979269015],[86.10015621583977,27.51251031517737],[86.10046983311008,27.512661293972428],[86.10102204376463,27.513211074776187],[86.10114615539662,27.513512036872402],[86.10103449268847,27.51378443091513],[86.10108226313857,27.513978925293927],[86.10131803947125,27.514129341986436],[86.10167692366927,27.514239995903587],[86.1022375120434,27.51476945858314],[86.10244752801928,27.514899494206333],[86.10256657212848,27.51485510486073],[86.10275657629722,27.514612594970355],[86.10301173073273,27.514397528872234],[86.10336936227404,27.5143524496609],[86.1037284955779,27.51439539609238],[86.10407781453257,27.51458944993156],[86.10426038100564,27.5145928864316],[86.10452134772322,27.5141363750365],[86.10469059616823,27.514065227898346],[86.1052231732494,27.51446140174583],[86.1054638272977,27.51471353545923],[86.10583672133893,27.515207864904685],[86.10615809907871,27.51593444974006],[86.10669092534489,27.516375761280646],[86.10750154374541,27.516900095364907],[86.10778896555806,27.517125283098],[86.10791851427427,27.517227687384366],[86.10799785723617,27.517277889040102],[86.10833779848734,27.517582474701953],[86.1083437383081,27.517593790605506],[86.10863679213854,27.51819377670735],[86.10896355039111,27.519263462020877],[86.10921152179203,27.51967808172446],[86.10945367665556,27.51990758379524],[86.10981906351299,27.5200814438968],[86.1105005665498,27.520176090316088],[86.1111067340797,27.520635844244467],[86.11125329096079,27.52087603875733],[86.11157829698016,27.52178092641762],[86.11210762625812,27.522535892728715],[86.11274243136269,27.523138000575745],[86.11448701945464,27.52370658820086],[86.11522360870626,27.52408369108964],[86.1163896064523,27.524463478954427],[86.11685721821624,27.524565691683506],[86.11736284565112,27.5248149480106],[86.11799126961884,27.525186801165045],[86.118269441271,27.52574377422954],[86.11844701152569,27.526099251979222],[86.11960276376973,27.527097408026354],[86.12012458479641,27.527428000113748],[86.12134517319927,27.528392646194757],[86.12358957021019,27.52888977022774],[86.12401397841904,27.529012052337812],[86.1250531781813,27.529232981730377],[86.12547001918912,27.529269489074235],[86.12678450302259,27.5290948618328],[86.12810974437055,27.529243079739643],[86.12873647585158,27.52926958140682],[86.12915481961545,27.529394051444374],[86.12941435525137,27.5295582223247],[86.12985839438547,27.529558655408014],[86.13001593890726,27.528478586615613],[86.1303405531135,27.52801338457325],[86.1307447607942,27.527724733035516],[86.13190918714216,27.527418256487827],[86.13318177337909,27.526688154621212],[86.13327118050056,27.52662776132628],[86.13438195701026,27.52587402876008],[86.13489183067205,27.52574404853246],[86.13527928369898,27.525525230291876],[86.13606644588765,27.52524120190323],[86.13633791713268,27.524962992644706],[86.13672655333492,27.524353747629753],[86.1368008245162,27.523837344841446],[86.13700220665416,27.523416532183454],[86.13758966473054,27.52275208098875],[86.13775916229766,27.522559022208878],[86.13797629942064,27.52211345178902],[86.13822819607404,27.521340848054017],[86.13863671311002,27.520652766604723],[86.13863745534664,27.519991447347234],[86.13872967373594,27.519770819933694],[86.13909667987329,27.51940971017489],[86.13941329531309,27.519267165206077],[86.14055733895009,27.518980819463955],[86.14078485566964,27.51857369735615],[86.14106033021581,27.518385827095948],[86.14156219701428,27.517905869062535],[86.14186086740476,27.517704619146333],[86.14278933025125,27.51730174221072],[86.14298708893132,27.51721946607071],[86.1430436095865,27.517195020435217],[86.14328995033392,27.517135563321354]]]}},{"type":"Feature","properties":{"province":"Bagmati Province","district":"Dolakha","municipality":"Tamakoshi Rural Municipality","ward":"1","wardNumber":1,"sourceMunicipality":"Tamakoshi","sourceType":"Gaunpalika"},"geometry":{"type":"Polygon","coordinates":[[[86.12590646849894,27.58793902108585],[86.1258402557876,27.587825738145686],[86.12513923720836,27.58709459272903],[86.12466537108995,27.586834271721067],[86.12393972973284,27.58698094657552],[86.12358991483194,27.58708710576581],[86.12231332023661,27.58727092255663],[86.1214777621457,27.58737396115453],[86.1210692987318,27.58733751693076],[86.12080538789428,27.58730876111175],[86.11992399925425,27.58729195215892],[86.11977375636161,27.58726844638134],[86.11967528154324,27.58722718547764],[86.11928619691857,27.586980930062204],[86.11830007914985,27.58671067265858],[86.1172834523226,27.586611653348573],[86.11562384320439,27.587007411145407],[86.11504519202394,27.587024046575866],[86.11417443064886,27.586822182694586],[86.1130885293169,27.586880710556215],[86.11223371799312,27.587207064718505],[86.11217213253494,27.587231447440303],[86.11202889353166,27.58728696513333],[86.11063870101907,27.588043200852873],[86.11011781876356,27.587884159459886],[86.10948433012318,27.58751224405245],[86.1092236663737,27.587086246594428],[86.10866707925663,27.586604235590713],[86.10842929893668,27.586205433101785],[86.1084082839625,27.585632015441576],[86.10853720364516,27.585350743255283],[86.10905488467759,27.584532498546874],[86.10883335699306,27.58384723683049],[86.10881109811689,27.583777091689218],[86.10884492179345,27.58366899671931],[86.10849040517479,27.582824878030237],[86.10815721417296,27.582369059402954],[86.10815565067658,27.58236680883513],[86.10801522300525,27.58226884389741],[86.10767522112765,27.58218313503865],[86.10745032585221,27.58222683674619],[86.1070599974448,27.58253355555726],[86.10684648189985,27.582620208283284],[86.1065588770829,27.58267704076501],[86.1063878748864,27.582596956230713],[86.10614972106012,27.582324628587514],[86.10612102160889,27.582231851793857],[86.10601429036024,27.581888127081452],[86.10562370285713,27.581355224062175],[86.10499664351651,27.58019789014009],[86.10499382854805,27.58007597951346],[86.10500420642406,27.580010585437932],[86.10516989148124,27.579846910906806],[86.10542304578624,27.579742440023892],[86.1060434616116,27.579683228801954],[86.10690158919508,27.579440461956835],[86.1069343491553,27.57931198668826],[86.10689414554032,27.57923508945918],[86.1064792398079,27.57897051565433],[86.1061397980732,27.578697501277855],[86.10525014763034,27.57798086194007],[86.1050877740526,27.577894025386595],[86.10374433120309,27.57719026998835],[86.10271231487489,27.57635078290583],[86.10201398317027,27.57547734647498],[86.10151610719677,27.575063354102497],[86.10066184876833,27.574678687172046],[86.10001366527342,27.574137284359683],[86.09957425055063,27.573978742434566],[86.0992602600426,27.573969930228067],[86.09846890663307,27.574140863121105],[86.09785130344946,27.57416168761567],[86.09779265857577,27.57425390320375],[86.09651601151727,27.575261211157184],[86.09648968909816,27.5752700891102],[86.09646399201121,27.57527446576809],[86.09602739265618,27.57523777152847],[86.09539341205651,27.575515734124657],[86.09438410413651,27.575703298826102],[86.09403178799694,27.575886043164363],[86.0939897103237,27.575924179962225],[86.09342138169693,27.57642383227225],[86.09287362450506,27.577038643148043],[86.09258546055723,27.57745883203561],[86.09236725585957,27.57754998545626],[86.09169276402203,27.578141415405813],[86.09107785673461,27.57876260435622],[86.09083914381515,27.57883550258858],[86.09050764407425,27.578639261278465],[86.09007916689876,27.578106046121555],[86.08993886420163,27.578039715084653],[86.08896725245967,27.577868611703753],[86.0870855002954,27.57833701771608],[86.08688005036119,27.578443988756238],[86.08657581518688,27.57863385961435],[86.08530135760824,27.579744947998574],[86.08563561505353,27.580451340081527],[86.08553739972483,27.58111653648288],[86.0851852226223,27.58242098511842],[86.08517360236982,27.58317476851703],[86.08540976668729,27.58440412795471],[86.08552119339993,27.585208362578033],[86.08556633932139,27.585614919403344],[86.08532038646288,27.586633470723765],[86.08504604563451,27.587489287085628],[86.08465578186987,27.58800362868337],[86.08446439859219,27.58798656387083],[86.08399929470619,27.58843263667848],[86.08304088753147,27.589220814146415],[86.08267713339458,27.58970589786728],[86.08261567674123,27.589942405472026],[86.0824671909652,27.590510260875703],[86.08249489472466,27.591020535988818],[86.0825929478161,27.592377620439258],[86.08270443166003,27.592834253524444],[86.08289414199001,27.594090432904892],[86.08335538959102,27.595285154301866],[86.08358141458736,27.595566484757594],[86.08358847982669,27.595593617559544],[86.08391005122733,27.59683260324227],[86.0838301571259,27.597723553611022],[86.08371355891836,27.598307413350348],[86.08321600649614,27.59884801438157],[86.08215238246837,27.600429926177817],[86.08187078162614,27.600667311462292],[86.0816820307391,27.601270990756348],[86.0814050138817,27.60316955089131],[86.08129779222554,27.603613431529883],[86.08134532053866,27.604491751605817],[86.08135595253304,27.60469043535563],[86.08106304697483,27.60594561850087],[86.0807720704822,27.60650797455357],[86.08052973500787,27.60681556640699],[86.08027022368994,27.60863072761735],[86.08023834887315,27.609668719612127],[86.07996895912869,27.611519953202727],[86.07982391266594,27.61205161110546],[86.07951399044622,27.61245135610243],[86.07929853826937,27.61272750150741],[86.07905470425071,27.613211083625863],[86.0789269149649,27.61387846822185],[86.07893129990276,27.61453065952583],[86.07904978945918,27.615213046461847],[86.07952742216175,27.616766810397927],[86.07952398482308,27.616877343090454],[86.0793611785197,27.617214818202168],[86.07886075029108,27.617750855939423],[86.07840608497209,27.618027816673816],[86.0775662786539,27.61838336611261],[86.0767810580006,27.618955916776574],[86.07651877778937,27.619265635564194],[86.07617715825083,27.61988857140863],[86.0760868800231,27.62030325715554],[86.0761599745099,27.620658110638107],[86.07635711224881,27.620864793810743],[86.0764865998503,27.62110036226982],[86.076546057272,27.620922434456766],[86.07664784457381,27.620875732217083],[86.07696308596097,27.62086653919274],[86.07739005378339,27.62063465379736],[86.07847689338348,27.620635081258218],[86.0804570594045,27.62030058932826],[86.08184825501537,27.61976810680821],[86.08355713374809,27.61953558447177],[86.08466297371761,27.61895615398605],[86.08626461066365,27.617476953655803],[86.0864569285079,27.617241257778392],[86.08671802123415,27.616920223520246],[86.0869454132582,27.616501911327166],[86.08845094742347,27.61467911193291],[86.08912662358696,27.613751394895765],[86.08957659698076,27.613266811170057],[86.09189005387817,27.611331907961954],[86.09274536231453,27.610694212442105],[86.09368269802361,27.6098268864835],[86.09433662167375,27.60937293414106],[86.09536162023073,27.60885370891456],[86.09583272753653,27.60852954665549],[86.09748689088953,27.60764420898301],[86.09874228688692,27.607146800017425],[86.10023520164977,27.6061453041389],[86.10105930856494,27.605358440613937],[86.1013367838241,27.60516388012736],[86.10336588312691,27.603014729871745],[86.10368561887192,27.602407423285793],[86.10371331594112,27.60231502141434],[86.10384448406755,27.601878016185793],[86.10403967657153,27.601552043663943],[86.10443319370144,27.601218254107476],[86.10558273584522,27.600632133689306],[86.10580594160625,27.600443889226767],[86.10686488424017,27.599554679529877],[86.10813465531355,27.598669032242405],[86.10989673312153,27.597687227052635],[86.11018489856127,27.597409205349148],[86.111077161237,27.597037962651605],[86.1129042633816,27.596146808016005],[86.11379333419411,27.595534057239593],[86.11442175049272,27.595204016531703],[86.11607504476595,27.594821763372444],[86.11615144739382,27.59480419491266],[86.11684488710466,27.594463274909216],[86.11776784920968,27.594119290539606],[86.11794635184546,27.59405270652713],[86.1191852384842,27.59337443229054],[86.11956181405121,27.593243640897455],[86.12016959530118,27.592805131146083],[86.12049446161711,27.59244152080118],[86.1208021302888,27.5918228358322],[86.12140503000829,27.59095313721328],[86.1223795684318,27.590257361519082],[86.12327307557675,27.589360151199305],[86.12356761968294,27.589147585849442],[86.12385447483297,27.589070435455945],[86.12415621112015,27.589112945723013],[86.12457649153484,27.589065927720966],[86.12487172194507,27.58877433912863],[86.1251215000877,27.58862247889728],[86.12558485168738,27.588092694226578],[86.12586876780445,27.58794552318548],[86.12590646849894,27.58793902108585]]]}},{"type":"Feature","properties":{"province":"Bagmati Province","district":"Dolakha","municipality":"Tamakoshi Rural Municipality","ward":"6","wardNumber":6,"sourceMunicipality":"Tamakoshi","sourceType":"Gaunpalika"},"geometry":{"type":"Polygon","coordinates":[[[86.15627309213183,27.54492209210392],[86.155852494329,27.544501972852157],[86.15552855749642,27.544102796348785],[86.15506362495344,27.54326936852656],[86.15503029717325,27.54302767309993],[86.1550925030006,27.542639871030786],[86.15556860477075,27.54176023268473],[86.15542216870253,27.541158995561002],[86.1549344835343,27.540736188745903],[86.15452345338657,27.540514814983226],[86.15417857391695,27.540329889857137],[86.15388971457891,27.540104701224095],[86.15338558498259,27.539679581411608],[86.15328223202945,27.539493840132376],[86.15321469952464,27.53888403677596],[86.15343508569424,27.538291798370533],[86.1542548111941,27.53705986595892],[86.15428025643946,27.536960711899354],[86.15436309618039,27.536640804572034],[86.1543635911591,27.536284137232578],[86.15427830753626,27.536130155948378],[86.15394380664578,27.53588208634094],[86.15336871719208,27.535754492144992],[86.15296944208262,27.535524053371322],[86.15288134323357,27.535207586314012],[86.15287083868283,27.535169137351808],[86.1528710863102,27.534977268237768],[86.15302469827806,27.534427480921043],[86.15359027581653,27.533887003750852],[86.15364053956871,27.533483260288357],[86.15354880709539,27.532640763726924],[86.1528868558329,27.531086251087807],[86.15270596234903,27.529911470607598],[86.15267525956861,27.529667524708017],[86.15266300421133,27.529570433657263],[86.1520279427017,27.528433481065132],[86.15197785806629,27.528117200707317],[86.1518890687227,27.527559163016118],[86.15160658136341,27.52696161590666],[86.15090275108746,27.526291488610198],[86.15075037522158,27.525780465208438],[86.15087166404354,27.52527337705621],[86.15108236291083,27.524990292201952],[86.1513537111452,27.52480686084307],[86.15175891746011,27.524296957174577],[86.15180149187141,27.524069327088405],[86.15176441322808,27.523868143635674],[86.15122702047294,27.52329160455789],[86.15108209115978,27.523204955348],[86.15074846628418,27.523092363597303],[86.15028904553323,27.523035351248655],[86.14985594891711,27.523100437052204],[86.14865257377947,27.523616725253305],[86.14833895839652,27.52361710351876],[86.14831694942042,27.523596660151483],[86.14811168385488,27.52341254615611],[86.14805378480006,27.52320454823413],[86.14808879605853,27.52301743037703],[86.14849587723856,27.522509839751667],[86.14871888928839,27.521897344848387],[86.1484737925503,27.521385634351393],[86.14794865694685,27.52103266118147],[86.1470973434374,27.52111094297513],[86.14687006965877,27.52095833788788],[86.14661209721869,27.520758156448725],[86.14605901039258,27.52017242749797],[86.14543927623359,27.519769190375793],[86.14529665782575,27.519513241571435],[86.14526007901576,27.519248977049468],[86.14535147988369,27.51859722173022],[86.14535347999488,27.51858371817996],[86.14512370513697,27.51837916036368],[86.14469735818945,27.518186920897634],[86.14374700353935,27.517903534481487],[86.14346083286168,27.517712168830105],[86.14332415394992,27.517465284640828],[86.14328995033392,27.517135563321354],[86.1430436095865,27.517195020435217],[86.14298708893132,27.51721946607071],[86.14278933025125,27.51730174221072],[86.14186086740476,27.517704619146333],[86.14156219701428,27.517905869062535],[86.14106033021581,27.518385827095948],[86.14078485566964,27.51857369735615],[86.14055733895009,27.518980819463955],[86.13941329531309,27.519267165206077],[86.13909667987329,27.51940971017489],[86.13872967373594,27.519770819933694],[86.13863745534664,27.519991447347234],[86.13863671311002,27.520652766604723],[86.13822819607404,27.521340848054017],[86.13797629942064,27.52211345178902],[86.13775916229766,27.522559022208878],[86.13758966473054,27.52275208098875],[86.13700220665416,27.523416532183454],[86.1368008245162,27.523837344841446],[86.13672655333492,27.524353747629753],[86.13633791713268,27.524962992644706],[86.13606644588765,27.52524120190323],[86.13527928369898,27.525525230291876],[86.13489183067205,27.52574404853246],[86.13438195701026,27.52587402876008],[86.13327118050056,27.52662776132628],[86.13318177337909,27.526688154621212],[86.13190918714216,27.527418256487827],[86.1307447607942,27.527724733035516],[86.1303405531135,27.52801338457325],[86.13001593890726,27.528478586615613],[86.12985839438547,27.529558655408014],[86.12987959127746,27.52971907686973],[86.12987928207103,27.529998971671958],[86.12977175042728,27.530675421995205],[86.12954167203925,27.531154689974077],[86.1290846993741,27.53183576886724],[86.12894796685539,27.532324663955627],[86.12834994272309,27.533063511834413],[86.1282746719462,27.533663313534838],[86.12785021253829,27.534432668909623],[86.12775043213848,27.534966888555722],[86.12749934189459,27.535141442418706],[86.12611052041285,27.535502874679665],[86.1259212646472,27.53561678479123],[86.12576452206325,27.53582797336107],[86.12581823243241,27.536119495899875],[86.12607977309665,27.536588318597193],[86.1268515034512,27.537218371504633],[86.12700274893508,27.537429181875954],[86.12704714333223,27.537700323301273],[86.1268854052227,27.53838096238361],[86.1268432044847,27.538558952768224],[86.1263927336804,27.539251347622283],[86.12626175241827,27.539602576889475],[86.12610638882003,27.54015686591129],[86.12605562525884,27.54057630212364],[86.12600411192565,27.541004866080193],[86.12600355383331,27.541354718495434],[86.12614917981779,27.54219746493616],[86.126513327087,27.54318156241132],[86.12662637433277,27.54366976758317],[86.12668890826339,27.54455721486519],[86.12665721672924,27.545170895400492],[86.12652523520481,27.54548605147629],[86.12627864556707,27.545653790540694],[86.12591257430434,27.54578464514144],[86.12549285719554,27.545786524566292],[86.12514122813924,27.545824976963015],[86.12466917920258,27.545876184187904],[86.12439758054792,27.545998597816958],[86.12426915878542,27.54610388037604],[86.12423714852935,27.54622779167418],[86.12433281116091,27.546420284822343],[86.12455664640329,27.54662027881256],[86.12595992284605,27.547294900982614],[86.12625140958889,27.54761499184179],[86.12634763526367,27.547816424961468],[86.1264619307179,27.54805636930784],[86.12649263608228,27.548618596227914],[86.12671891518798,27.54922939852292],[86.12678331953511,27.54969478462633],[86.12659827850344,27.551919064642426],[86.12662078999944,27.55215844663835],[86.12741034659814,27.553359604574094],[86.12775085137025,27.5536866968118],[86.12899950625723,27.55419783470641],[86.12920802570059,27.554571504871934],[86.12908829752126,27.55485971573306],[86.12919865804415,27.555435946820065],[86.12933664880349,27.555601556458345],[86.12966540021561,27.555994105917538],[86.12991030491428,27.55613101854295],[86.13038855280698,27.556822404587038],[86.13092194010486,27.55710110597602],[86.13118247685532,27.557305850598564],[86.13176870921701,27.558605038952376],[86.13176921292208,27.558866866287808],[86.13187631947876,27.559251227450947],[86.13196841855748,27.55941652562284],[86.1332992767156,27.558772572723818],[86.1335816283382,27.55849667640319],[86.13499562327969,27.556320649157232],[86.13544484662945,27.555917213277535],[86.13600616952505,27.555139729817938],[86.13650841538197,27.554912658599882],[86.13673330791416,27.554733478448973],[86.13801088375544,27.553005771208166],[86.13883073729875,27.552065111662234],[86.13920649721858,27.551735636461824],[86.1395545562425,27.5511825327097],[86.13981439602624,27.55061761455022],[86.14021441337522,27.550225120738425],[86.14068483463274,27.549975292175027],[86.1417810506526,27.54988944367215],[86.14353207101564,27.549782833058753],[86.14408964992762,27.549567326808365],[86.14499610744643,27.54937651173523],[86.14636810428831,27.54858370293112],[86.14687429030904,27.54849873480548],[86.14715476680435,27.54837182033704],[86.14810260894201,27.54774562675444],[86.14829911663502,27.547509867994947],[86.1490606412941,27.54701565274937],[86.14984805301799,27.54666841879529],[86.15131414905372,27.546022776480854],[86.15185697379677,27.545899672414663],[86.15215583128305,27.545727744271048],[86.15292955150986,27.545468347968427],[86.15325117027373,27.545468032028108],[86.15351827018358,27.545555429893493],[86.15371309705846,27.545906468840194],[86.15451370779331,27.54610089250886],[86.15532619029882,27.54573565216118],[86.15571720642927,27.545433309720078],[86.15605169993924,27.545074201437497],[86.15627309213183,27.54492209210392]]]}},{"type":"Feature","properties":{"province":"Bagmati Province","district":"Dolakha","municipality":"Tamakoshi Rural Municipality","ward":"7","wardNumber":7,"sourceMunicipality":"Tamakoshi","sourceType":"Gaunpalika"},"geometry":{"type":"Polygon","coordinates":[[[86.18731813204892,27.570155062652727],[86.18684976452892,27.56961966055765],[86.1863235558505,27.568494835501284],[86.1857789128462,27.568112478801837],[86.1856798108019,27.56793586533625],[86.18550692747598,27.567350257813175],[86.18535630611082,27.56711250156254],[86.18447428512893,27.566549783327073],[86.18419343056654,27.56646688689653],[86.18375601470778,27.566150611096294],[86.18309401611315,27.565855530753293],[86.1821787311521,27.565123387565254],[86.18151635709005,27.564749347033867],[86.18098378337638,27.564581490965224],[86.18077820617036,27.564514848105393],[86.18037611969885,27.564512476103705],[86.17890375808759,27.56406142167195],[86.17743839476374,27.563332785067548],[86.17680927657882,27.562484916905944],[86.17672323672531,27.561836665543748],[86.17661125389523,27.561571900692854],[86.17627143840885,27.5613735339725],[86.17512432227944,27.561012439614068],[86.17483396293039,27.560800817754956],[86.1746305707985,27.560438463048463],[86.17449457373938,27.55969962306048],[86.17426198417205,27.559434172106343],[86.17388652571073,27.558874449016074],[86.17371864886753,27.558724469022835],[86.1734053445995,27.558621066699686],[86.17321283660895,27.558626695604094],[86.17265381907634,27.558749799821914],[86.17196144075967,27.559002943472727],[86.17109218152827,27.558952687157486],[86.17092455507564,27.558804958656854],[86.17015438674983,27.558123265904914],[86.16943517900327,27.55773528426102],[86.16894574226612,27.557231328356497],[86.16845073363028,27.556251045671246],[86.16819688855381,27.55611863509427],[86.16697530461009,27.55547714603628],[86.1666758166513,27.55535117433152],[86.16641928279503,27.555243583076837],[86.16586082467177,27.555077727817753],[86.1652871705094,27.554708686956815],[86.16481080188026,27.55428375487835],[86.16394346198736,27.552761816470827],[86.16191817922495,27.54995770140842],[86.16158473882672,27.549637485328663],[86.16120797306856,27.549517829696487],[86.16083027068932,27.54948394768503],[86.16018766272875,27.549818677466305],[86.15969060283008,27.549745723556438],[86.15940605794246,27.549576989318346],[86.15920122970894,27.54933198212618],[86.15916421570812,27.549284343675115],[86.1590838060801,27.54890917139752],[86.1592264094891,27.5480004663795],[86.15921614919417,27.54744517808697],[86.15929648354495,27.546874635064256],[86.15922276649272,27.546653007611763],[86.15896616823163,27.546394122323502],[86.15806370571983,27.54605915813707],[86.15736175450243,27.545668987975553],[86.15633192782687,27.544981108739243],[86.15627309213183,27.54492209210392],[86.15605169993924,27.545074201437497],[86.15571720642927,27.545433309720078],[86.15532619029882,27.54573565216118],[86.15451370779331,27.54610089250886],[86.15371309705846,27.545906468840194],[86.15351827018358,27.545555429893493],[86.15325117027373,27.545468032028108],[86.15292955150986,27.545468347968427],[86.15215583128305,27.545727744271048],[86.15185697379677,27.545899672414663],[86.15131414905372,27.546022776480854],[86.14984805301799,27.54666841879529],[86.1490606412941,27.54701565274937],[86.14829911663502,27.547509867994947],[86.14810260894201,27.54774562675444],[86.14715476680435,27.54837182033704],[86.14687429030904,27.54849873480548],[86.14636810428831,27.54858370293112],[86.14499610744643,27.54937651173523],[86.14408964992762,27.549567326808365],[86.14353207101564,27.549782833058753],[86.1417810506526,27.54988944367215],[86.14068483463274,27.549975292175027],[86.14021441337522,27.550225120738425],[86.13981439602624,27.55061761455022],[86.1395545562425,27.5511825327097],[86.13920649721858,27.551735636461824],[86.13883073729875,27.552065111662234],[86.13801088375544,27.553005771208166],[86.13673330791416,27.554733478448973],[86.13650841538197,27.554912658599882],[86.13600616952505,27.555139729817938],[86.13544484662945,27.555917213277535],[86.13499562327969,27.556320649157232],[86.1335816283382,27.55849667640319],[86.1332992767156,27.558772572723818],[86.13196841855748,27.55941652562284],[86.13255039682359,27.560456137528558],[86.13274297058007,27.560685328025823],[86.1331282462441,27.561376089429462],[86.13324373164583,27.561787646447982],[86.13317321295331,27.562392011519947],[86.1331144441518,27.562648963032334],[86.13301391252307,27.563083966278466],[86.13312477382355,27.563675951591716],[86.13361978496135,27.564947507586847],[86.13389107693963,27.565312550034193],[86.13412460460744,27.56562545192022],[86.13423490173007,27.566165608966234],[86.13439427916127,27.56659323336339],[86.13522722771734,27.5678938565657],[86.13536484444788,27.56810916845737],[86.13541167508913,27.568195193835514],[86.13541198895861,27.568353177355913],[86.13541255552998,27.56861050313837],[86.13574612834175,27.569553776929826],[86.13578095957195,27.570043732249367],[86.13559740085182,27.570762570136203],[86.13522789724637,27.57141707866186],[86.13439060227078,27.57256973823174],[86.1342810633121,27.572733849719278],[86.1341184465489,27.573204551628844],[86.13411888778084,27.57350695321244],[86.13419398108675,27.573708323913984],[86.13455249884169,27.574577262755707],[86.13488206480204,27.575107415513568],[86.13509740449351,27.575876138898632],[86.13518444312989,27.576416109530953],[86.13499337761614,27.576830232660758],[86.13463868895444,27.577245545561315],[86.13442918242781,27.57787623295222],[86.13440324421545,27.578602821100045],[86.13448765950213,27.57931209110458],[86.13453905797192,27.579743467716053],[86.13426615372282,27.580468558098737],[86.13428272837714,27.580933569196123],[86.13442722601494,27.58144909392027],[86.13445662182382,27.58230690819936],[86.13422380219427,27.58357390749985],[86.13414940170784,27.58374277060171],[86.13321731958195,27.58476614206582],[86.13296423143183,27.585222779225155],[86.1329647348443,27.585439405381482],[86.1329650498005,27.58564484065095],[86.13309266447877,27.586004507117117],[86.13314499768343,27.58615380047437],[86.13326072820843,27.586179307293715],[86.13415906902425,27.586902635523998],[86.13484232492384,27.587116753701334],[86.13547975285177,27.587481854794174],[86.1363056271384,27.588048950431777],[86.1366813301499,27.588193489639185],[86.13743055158159,27.588757897462788],[86.13810167956645,27.589150256046004],[86.13840079890139,27.58981788638972],[86.13884840890653,27.59036235477892],[86.1392937086865,27.591206972823112],[86.14015535716638,27.592561987114696],[86.140422027429,27.5933671587375],[86.14048574236814,27.593672247887728],[86.14052625852743,27.593765024102176],[86.14065574604854,27.593935073284495],[86.14124640913514,27.594493980993153],[86.14195661291762,27.594796250966176],[86.14225366233313,27.594994430586013],[86.14260186059967,27.59550895351342],[86.14284664841983,27.5963206891267],[86.14290023142526,27.596400024620866],[86.14297713642539,27.59648854983268],[86.1432985706314,27.596731993036308],[86.1436824036086,27.59697137222316],[86.14440736300593,27.597294084832708],[86.1450904898777,27.59729145222869],[86.14536021544968,27.59734052658853],[86.1455620420018,27.59745236973299],[86.14585365466388,27.597824225566246],[86.14623511182165,27.598135876452915],[86.14670672684315,27.598371190030402],[86.14707336294727,27.598452460325447],[86.1473781002362,27.59845658351141],[86.14780969828426,27.59846151835813],[86.14879512100528,27.598146978628808],[86.14921702874135,27.59830302034814],[86.14941547957059,27.59848032037707],[86.1496513848765,27.598973775705975],[86.15015351386074,27.599446284062754],[86.15112200242157,27.599811068821346],[86.1513291425316,27.599931977383864],[86.15170522357305,27.600279576227464],[86.15207536814795,27.600868682432505],[86.1522718839316,27.601341569611684],[86.1526447071483,27.601172328760065],[86.1529970824724,27.600813344935002],[86.15355527902167,27.60000416394311],[86.1536491245379,27.599903196550795],[86.15386082506879,27.599640429335555],[86.15402844662286,27.599417987186165],[86.15439707673181,27.59892140013006],[86.15507807137233,27.598372607710445],[86.15632902882952,27.597910709398775],[86.15704985101141,27.59744337760537],[86.15737928016085,27.597021000006553],[86.15745743140661,27.59677774054795],[86.15749599882102,27.596037648358983],[86.1572468366326,27.595410966060008],[86.15727090161505,27.594910068803024],[86.15740475900047,27.59455196260276],[86.15822261864473,27.5941100126],[86.16003109262384,27.593615411822356],[86.1602542367208,27.593508378047115],[86.16050438980116,27.59338352651887],[86.16075279302956,27.593242795349134],[86.16097993752804,27.593102001637572],[86.16123871841951,27.592932011431543],[86.16195648018132,27.59265192187793],[86.1620606418978,27.592528447136928],[86.16206094845394,27.592031864217255],[86.16214666584281,27.59187894345496],[86.16275244872494,27.59158241293389],[86.16287836786248,27.591429678684996],[86.16296433313751,27.59111864911126],[86.1629336894699,27.59048202521129],[86.16305779323754,27.590108101367072],[86.1632808084625,27.58980476069208],[86.16394304906933,27.58941601482429],[86.16419882621804,27.589051905511567],[86.16424133863059,27.58878132557711],[86.16418174010757,27.58770888612899],[86.16419167986118,27.587564468964498],[86.16419124021327,27.58741780053138],[86.16419073627884,27.587142469794745],[86.16396345735095,27.586547484935608],[86.16393306706678,27.586215512460736],[86.16403478745889,27.585787261328456],[86.16435934006608,27.585448407961437],[86.16450857757575,27.58502040579543],[86.1644489860854,27.5844806853885],[86.16444635980064,27.584455866247744],[86.16451569293675,27.584036367348062],[86.1647603402461,27.58359329759739],[86.16531178519591,27.582942038300914],[86.16533291855355,27.58291284200163],[86.1656934831599,27.58241844262705],[86.16625187166808,27.582058394189914],[86.16660949940089,27.58170616253066],[86.16718382612152,27.580831649875496],[86.16772058018582,27.580275106322702],[86.16822363610713,27.57991018101617],[86.16882723078683,27.579602334846445],[86.16947721808525,27.579357944025062],[86.17033765496032,27.578911679474935],[86.17099458206145,27.57867629111725],[86.17319026152637,27.578100287570223],[86.17434693697602,27.577926537623675],[86.1750240005967,27.578000552227177],[86.17541276916822,27.57796441252145],[86.17672787299944,27.577396670369865],[86.17746439350647,27.577256621969823],[86.17845894717996,27.577172212255878],[86.17961593694652,27.57716994966913],[86.1796920278734,27.57715463165372],[86.18032363427461,27.577036466266474],[86.18075428963876,27.576727495551705],[86.18147736660269,27.576483479388617],[86.18159334475631,27.576344250098675],[86.18155344806009,27.575791025668465],[86.18161578182874,27.57562209987409],[86.18173882629527,27.57551225453237],[86.1821752374386,27.575539633045242],[86.18230390879282,27.575481676713235],[86.18248209573747,27.575105815129334],[86.18249215739847,27.57481472919131],[86.18232357851255,27.57346402181836],[86.18242279758167,27.573105728836314],[86.18256303466596,27.57289441522691],[86.18294154527206,27.572526490685586],[86.18331161718595,27.572359375731683],[86.18412541512046,27.57217681357784],[86.18501192684613,27.571877279444102],[86.18683496043056,27.5707210461965],[86.18731813204892,27.570155062652727]]]}},{"type":"Feature","properties":{"province":"Bagmati Province","district":"Dolakha","municipality":"Tamakoshi Rural Municipality","ward":"3","wardNumber":3,"sourceMunicipality":"Tamakoshi","sourceType":"Gaunpalika"},"geometry":{"type":"Polygon","coordinates":[[[86.09785130344946,27.57416168761567],[86.09797097045137,27.57397063022319],[86.09805018620708,27.57384471743024],[86.098225749245,27.573714990652455],[86.0989103113537,27.573430525663014],[86.09956849047998,27.573321924418018],[86.10076124685241,27.573510155643007],[86.10138766536532,27.57352778006732],[86.10298450374114,27.57335746435647],[86.1033728972447,27.57336677527844],[86.10463142215802,27.573131068850707],[86.10567061502668,27.57281271545992],[86.10636524363771,27.5725418170628],[86.10672331185525,27.572467416880425],[86.10746614650542,27.572219398912303],[86.10867708710327,27.57164484330638],[86.10882726476838,27.571395269144354],[86.10886096389841,27.571339064379572],[86.1097147514427,27.5691055252865],[86.11021167478069,27.568217197574832],[86.11041430179904,27.567433027710045],[86.11043480727785,27.567205210565714],[86.11044806022575,27.567054103847966],[86.11028493168591,27.566628729920517],[86.10997762708246,27.56633783489352],[86.10982806804003,27.565998362018348],[86.10974715996262,27.565785675465722],[86.10972802148558,27.565264210354872],[86.10981210242166,27.56420846183882],[86.10978496154108,27.563761455871774],[86.10985235810107,27.563411977614145],[86.11014882625796,27.562131848940933],[86.11030156751141,27.561877834798064],[86.11062380878548,27.561697029068696],[86.11079662241278,27.561650763382584],[86.11240234126598,27.561692572420426],[86.11275209523097,27.56165643408045],[86.11438319846215,27.561732315070486],[86.11476959105899,27.561707616743604],[86.11500461582243,27.561731683636022],[86.11606226061446,27.562016007326726],[86.11620437608154,27.562055266933697],[86.11697141104852,27.56218879875181],[86.11835429835759,27.562296879609228],[86.11921611781878,27.56236326577707],[86.12021586012747,27.56225216081001],[86.12066208722291,27.562151188994136],[86.1215814840357,27.56174393539722],[86.1221082364857,27.56138838890441],[86.12242178527845,27.560977326940776],[86.12271463709455,27.560464549294654],[86.12262616302559,27.560152520854],[86.12242996237444,27.559905325134096],[86.12234217846799,27.559794167971614],[86.11954780921506,27.557837745873794],[86.11825269718307,27.55712086066287],[86.11664740860661,27.556490003718984],[86.11535436409632,27.556154543351997],[86.11449522859914,27.555717985749133],[86.11434204444032,27.555513927273747],[86.11422393703896,27.55535744546836],[86.11405205633525,27.55499971676297],[86.11400840902063,27.5545232027394],[86.1135251462744,27.552766441439875],[86.11169813417504,27.55077543702363],[86.11165086292917,27.55046815978151],[86.11169174971546,27.55019082777077],[86.11176221190436,27.55004453431296],[86.11186512467569,27.550002333389152],[86.1130797616408,27.550116104933444],[86.11374131570024,27.549883342802083],[86.1158909087985,27.548784248961724],[86.11669220582324,27.548805122837795],[86.11699412837626,27.548737099793865],[86.11830654940223,27.548609924213682],[86.11882655455167,27.548658433254158],[86.11983593440458,27.549188391834893],[86.1204280895389,27.549160565409984],[86.12083655201499,27.54906609613702],[86.12191638667102,27.54893517162848],[86.12324938179688,27.549090266784393],[86.12362689495406,27.549024931213903],[86.12406799567688,27.549005171270867],[86.12536090591409,27.5486227968576],[86.12616894526177,27.54791689375489],[86.12634763526367,27.547816424961468],[86.12625140958889,27.54761499184179],[86.12595992284605,27.547294900982614],[86.12455664640329,27.54662027881256],[86.12433281116091,27.546420284822343],[86.12423714852935,27.54622779167418],[86.12426915878542,27.54610388037604],[86.12439758054792,27.545998597816958],[86.12466917920258,27.545876184187904],[86.12514122813924,27.545824976963015],[86.12510227184207,27.545468123255137],[86.12492188421145,27.54478086055373],[86.12472368402662,27.544623879133493],[86.1238659891334,27.54441082430408],[86.12326776751136,27.544325805746755],[86.12297653471259,27.544328496977663],[86.12133279421104,27.543652314302918],[86.12020819050952,27.543647510925755],[86.11981885831115,27.543566053337507],[86.11879922534267,27.543022404073543],[86.11789144876558,27.542698442671053],[86.11697428995676,27.542090023290644],[86.11671069026474,27.541964238825102],[86.11531079472466,27.54167548051356],[86.11449317683615,27.541358833098368],[86.11213380117405,27.541043638583712],[86.11156283804003,27.540879783479095],[86.11027998233459,27.540366019877066],[86.10898437066678,27.539635505514916],[86.10834757039277,27.53947346448575],[86.10764305636592,27.539191325925586],[86.10672727366955,27.538609914096668],[86.10630449095221,27.538446932890782],[86.10571752230672,27.5383122737395],[86.10537345490313,27.538115907177286],[86.1053106191084,27.53809527635615],[86.10474909647097,27.537899787071524],[86.10328423858573,27.53751800219664],[86.10262493107258,27.53740316190284],[86.10216488606734,27.537379909834296],[86.09990949324681,27.537647447207696],[86.09966465438487,27.53774747946033],[86.09890656059562,27.537634203026016],[86.09811001693346,27.537660656281055],[86.0980052269433,27.537623896303458],[86.09706681390439,27.537297309456413],[86.09620368023563,27.53707956719738],[86.09542751568078,27.536814996982017],[86.09265441205955,27.535485632920697],[86.09108295219434,27.535100722731077],[86.08897428831983,27.534301571074362],[86.08795296682031,27.533764485455873],[86.08684929700895,27.53276420275331],[86.08653611805848,27.53263573095515],[86.08618556011747,27.53338501617499],[86.08576122476613,27.53414736932514],[86.08567156979429,27.534431141389465],[86.08558748539416,27.535137036512772],[86.08574155471992,27.53622366700508],[86.08625007113031,27.537499973536924],[86.08640469361546,27.53774698271656],[86.08663709892085,27.53831270867061],[86.08676552831103,27.538936578322488],[86.08658171715797,27.53946573537762],[86.08618783185585,27.540289230721253],[86.08607416800788,27.54052548838646],[86.08517973105204,27.542092770289223],[86.0844171446452,27.542760348180604],[86.0841738717496,27.54311532958806],[86.08395210831526,27.543599161843968],[86.08383976731058,27.544706612636254],[86.08368877958891,27.545159247487963],[86.08322887291114,27.546198994684786],[86.08306306768274,27.54672602552825],[86.08303444061572,27.547432296115538],[86.08300274876281,27.548045976405025],[86.08313411487903,27.548428212129746],[86.08333119137228,27.54875011747633],[86.08353133711023,27.54950071073859],[86.08344224603782,27.549904142673952],[86.08318928202961,27.550256873888756],[86.08214740543434,27.55096096562611],[86.08192395284571,27.55137252631625],[86.08197478968779,27.55177464342978],[86.08234274596616,27.55248347329553],[86.0830209446026,27.55330270663229],[86.08390928275341,27.55417520470757],[86.08441622960622,27.554961742877175],[86.08445812194886,27.55506352225716],[86.0845385287839,27.5552582039276],[86.08456360189098,27.55532834970288],[86.08487822794432,27.556208417120384],[86.08499565564256,27.556976516552908],[86.0848256613123,27.557404268420807],[86.08466429351759,27.557811702825074],[86.08463597193331,27.557904042382404],[86.08417213152899,27.559408675834753],[86.08416826562564,27.560255049652486],[86.08453147390567,27.561205387804144],[86.08475575696549,27.562294767630327],[86.08478858352524,27.5624258687562],[86.08494177241965,27.563038484631406],[86.08505145351228,27.564327986644795],[86.08507471741443,27.564729855029206],[86.08516356763005,27.565199991899238],[86.08552677649169,27.566188591056246],[86.08603585126062,27.567144428852497],[86.0863788589354,27.56762512956223],[86.08643650593504,27.567700025769103],[86.08646802021286,27.567876327222827],[86.08642306891834,27.568103894976957],[86.08628570953485,27.56840548489649],[86.08625601096689,27.568436869145447],[86.08602999184174,27.568620487634593],[86.08569818419575,27.56877853766687],[86.08559458424767,27.568827490423985],[86.08515367450302,27.569118017436956],[86.08475209252832,27.56943586443554],[86.08443235444753,27.569853552367146],[86.0843800290831,27.570399463003895],[86.08450358540361,27.571273718534478],[86.08465189560752,27.571714783976272],[86.08535260896272,27.573089368896476],[86.08545577715589,27.573512116431058],[86.08541357718984,27.573753375299106],[86.08527909231822,27.573975942296645],[86.08436057694554,27.574971993535925],[86.08407228894922,27.575450824582905],[86.083922489747,27.57591252386031],[86.08387979051501,27.576257562892078],[86.0838769825475,27.57678121657377],[86.08414821910716,27.577678978059158],[86.08493164945746,27.578963847231815],[86.08530135760824,27.579744947998574],[86.08657581518688,27.57863385961435],[86.08688005036119,27.578443988756238],[86.0870855002954,27.57833701771608],[86.08896725245967,27.577868611703753],[86.08993886420163,27.578039715084653],[86.09007916689876,27.578106046121555],[86.09050764407425,27.578639261278465],[86.09083914381515,27.57883550258858],[86.09107785673461,27.57876260435622],[86.09169276402203,27.578141415405813],[86.09236725585957,27.57754998545626],[86.09258546055723,27.57745883203561],[86.09287362450506,27.577038643148043],[86.09342138169693,27.57642383227225],[86.0939897103237,27.575924179962225],[86.09403178799694,27.575886043164363],[86.09438410413651,27.575703298826102],[86.09539341205651,27.575515734124657],[86.09602739265618,27.57523777152847],[86.09646399201121,27.57527446576809],[86.09648968909816,27.5752700891102],[86.09651601151727,27.575261211157184],[86.09779265857577,27.57425390320375],[86.09785130344946,27.57416168761567]]]}},{"type":"Feature","properties":{"province":"Bagmati Province","district":"Dolakha","municipality":"Tamakoshi Rural Municipality","ward":"2","wardNumber":2,"sourceMunicipality":"Tamakoshi","sourceType":"Gaunpalika"},"geometry":{"type":"Polygon","coordinates":[[[86.13314499768343,27.58615380047437],[86.13309266447877,27.586004507117117],[86.1329650498005,27.58564484065095],[86.1329647348443,27.585439405381482],[86.13296423143183,27.585222779225155],[86.13321731958195,27.58476614206582],[86.13414940170784,27.58374277060171],[86.13422380219427,27.58357390749985],[86.13445662182382,27.58230690819936],[86.13442722601494,27.58144909392027],[86.13428272837714,27.580933569196123],[86.13426615372282,27.580468558098737],[86.13453905797192,27.579743467716053],[86.13448765950213,27.57931209110458],[86.13440324421545,27.578602821100045],[86.13442918242781,27.57787623295222],[86.13463868895444,27.577245545561315],[86.13499337761614,27.576830232660758],[86.13518444312989,27.576416109530953],[86.13509740449351,27.575876138898632],[86.13488206480204,27.575107415513568],[86.13455249884169,27.574577262755707],[86.13419398108675,27.573708323913984],[86.13411888778084,27.57350695321244],[86.1341184465489,27.573204551628844],[86.1342810633121,27.572733849719278],[86.13439060227078,27.57256973823174],[86.13522789724637,27.57141707866186],[86.13559740085182,27.570762570136203],[86.13578095957195,27.570043732249367],[86.13574612834175,27.569553776929826],[86.13541255552998,27.56861050313837],[86.13541198895861,27.568353177355913],[86.13541167508913,27.568195193835514],[86.13536484444788,27.56810916845737],[86.13522722771734,27.5678938565657],[86.13439427916127,27.56659323336339],[86.13423490173007,27.566165608966234],[86.13412460460744,27.56562545192022],[86.13389107693963,27.565312550034193],[86.13361978496135,27.564947507586847],[86.13312477382355,27.563675951591716],[86.13301391252307,27.563083966278466],[86.1331144441518,27.562648963032334],[86.13317321295331,27.562392011519947],[86.13324373164583,27.561787646447982],[86.1331282462441,27.561376089429462],[86.13274297058007,27.560685328025823],[86.13255039682359,27.560456137528558],[86.13196841855748,27.55941652562284],[86.13187631947876,27.559251227450947],[86.13176921292208,27.558866866287808],[86.13176870921701,27.558605038952376],[86.13118247685532,27.557305850598564],[86.13092194010486,27.55710110597602],[86.13038855280698,27.556822404587038],[86.12991030491428,27.55613101854295],[86.12966540021561,27.555994105917538],[86.12933664880349,27.555601556458345],[86.12919865804415,27.555435946820065],[86.12908829752126,27.55485971573306],[86.12920802570059,27.554571504871934],[86.12899950625723,27.55419783470641],[86.12775085137025,27.5536866968118],[86.12741034659814,27.553359604574094],[86.12662078999944,27.55215844663835],[86.12659827850344,27.551919064642426],[86.12678331953511,27.54969478462633],[86.12671891518798,27.54922939852292],[86.12649263608228,27.548618596227914],[86.1264619307179,27.54805636930784],[86.12634763526367,27.547816424961468],[86.12616894526177,27.54791689375489],[86.12536090591409,27.5486227968576],[86.12406799567688,27.549005171270867],[86.12362689495406,27.549024931213903],[86.12324938179688,27.549090266784393],[86.12191638667102,27.54893517162848],[86.12083655201499,27.54906609613702],[86.1204280895389,27.549160565409984],[86.11983593440458,27.549188391834893],[86.11882655455167,27.548658433254158],[86.11830654940223,27.548609924213682],[86.11699412837626,27.548737099793865],[86.11669220582324,27.548805122837795],[86.1158909087985,27.548784248961724],[86.11374131570024,27.549883342802083],[86.1130797616408,27.550116104933444],[86.11186512467569,27.550002333389152],[86.11176221190436,27.55004453431296],[86.11169174971546,27.55019082777077],[86.11165086292917,27.55046815978151],[86.11169813417504,27.55077543702363],[86.1135251462744,27.552766441439875],[86.11400840902063,27.5545232027394],[86.11405205633525,27.55499971676297],[86.11422393703896,27.55535744546836],[86.11434204444032,27.555513927273747],[86.11449522859914,27.555717985749133],[86.11535436409632,27.556154543351997],[86.11664740860661,27.556490003718984],[86.11825269718307,27.55712086066287],[86.11954780921506,27.557837745873794],[86.12234217846799,27.559794167971614],[86.12242996237444,27.559905325134096],[86.12262616302559,27.560152520854],[86.12271463709455,27.560464549294654],[86.12242178527845,27.560977326940776],[86.1221082364857,27.56138838890441],[86.1215814840357,27.56174393539722],[86.12066208722291,27.562151188994136],[86.12021586012747,27.56225216081001],[86.11921611781878,27.56236326577707],[86.11835429835759,27.562296879609228],[86.11697141104852,27.56218879875181],[86.11620437608154,27.562055266933697],[86.11606226061446,27.562016007326726],[86.11500461582243,27.561731683636022],[86.11476959105899,27.561707616743604],[86.11438319846215,27.561732315070486],[86.11275209523097,27.56165643408045],[86.11240234126598,27.561692572420426],[86.11079662241278,27.561650763382584],[86.11062380878548,27.561697029068696],[86.11030156751141,27.561877834798064],[86.11014882625796,27.562131848940933],[86.10985235810107,27.563411977614145],[86.10978496154108,27.563761455871774],[86.10981210242166,27.56420846183882],[86.10972802148558,27.565264210354872],[86.10974715996262,27.565785675465722],[86.10982806804003,27.565998362018348],[86.10997762708246,27.56633783489352],[86.11028493168591,27.566628729920517],[86.11044806022575,27.567054103847966],[86.11043480727785,27.567205210565714],[86.11041430179904,27.567433027710045],[86.11021167478069,27.568217197574832],[86.1097147514427,27.5691055252865],[86.10886096389841,27.571339064379572],[86.10882726476838,27.571395269144354],[86.10867708710327,27.57164484330638],[86.10746614650542,27.572219398912303],[86.10672331185525,27.572467416880425],[86.10636524363771,27.5725418170628],[86.10567061502668,27.57281271545992],[86.10463142215802,27.573131068850707],[86.1033728972447,27.57336677527844],[86.10298450374114,27.57335746435647],[86.10138766536532,27.57352778006732],[86.10076124685241,27.573510155643007],[86.09956849047998,27.573321924418018],[86.0989103113537,27.573430525663014],[86.098225749245,27.573714990652455],[86.09805018620708,27.57384471743024],[86.09797097045137,27.57397063022319],[86.09785130344946,27.57416168761567],[86.09846890663307,27.574140863121105],[86.0992602600426,27.573969930228067],[86.09957425055063,27.573978742434566],[86.10001366527342,27.574137284359683],[86.10066184876833,27.574678687172046],[86.10151610719677,27.575063354102497],[86.10201398317027,27.57547734647498],[86.10271231487489,27.57635078290583],[86.10374433120309,27.57719026998835],[86.1050877740526,27.577894025386595],[86.10525014763034,27.57798086194007],[86.1061397980732,27.578697501277855],[86.1064792398079,27.57897051565433],[86.10689414554032,27.57923508945918],[86.1069343491553,27.57931198668826],[86.10690158919508,27.579440461956835],[86.1060434616116,27.579683228801954],[86.10542304578624,27.579742440023892],[86.10516989148124,27.579846910906806],[86.10500420642406,27.580010585437932],[86.10499382854805,27.58007597951346],[86.10499664351651,27.58019789014009],[86.10562370285713,27.581355224062175],[86.10601429036024,27.581888127081452],[86.10612102160889,27.582231851793857],[86.10614972106012,27.582324628587514],[86.1063878748864,27.582596956230713],[86.1065588770829,27.58267704076501],[86.10684648189985,27.582620208283284],[86.1070599974448,27.58253355555726],[86.10745032585221,27.58222683674619],[86.10767522112765,27.58218313503865],[86.10801522300525,27.58226884389741],[86.10815565067658,27.58236680883513],[86.10815721417296,27.582369059402954],[86.10849040517479,27.582824878030237],[86.10884492179345,27.58366899671931],[86.10881109811689,27.583777091689218],[86.10883335699306,27.58384723683049],[86.10905488467759,27.584532498546874],[86.10853720364516,27.585350743255283],[86.1084082839625,27.585632015441576],[86.10842929893668,27.586205433101785],[86.10866707925663,27.586604235590713],[86.1092236663737,27.587086246594428],[86.10948433012318,27.58751224405245],[86.11011781876356,27.587884159459886],[86.11063870101907,27.588043200852873],[86.11202889353166,27.58728696513333],[86.11217213253494,27.587231447440303],[86.11223371799312,27.587207064718505],[86.1130885293169,27.586880710556215],[86.11417443064886,27.586822182694586],[86.11504519202394,27.587024046575866],[86.11562384320439,27.587007411145407],[86.1172834523226,27.586611653348573],[86.11830007914985,27.58671067265858],[86.11928619691857,27.586980930062204],[86.11967528154324,27.58722718547764],[86.11977375636161,27.58726844638134],[86.11992399925425,27.58729195215892],[86.12080538789428,27.58730876111175],[86.1210692987318,27.58733751693076],[86.1214777621457,27.58737396115453],[86.12231332023661,27.58727092255663],[86.12358991483194,27.58708710576581],[86.12393972973284,27.58698094657552],[86.12466537108995,27.586834271721067],[86.12513923720836,27.58709459272903],[86.1258402557876,27.587825738145686],[86.12590646849894,27.58793902108585],[86.12688188944827,27.587769023929305],[86.12727572368003,27.58781890968694],[86.12782005235708,27.587980327150575],[86.12867293025936,27.588046588104334],[86.12906757541313,27.587988129244295],[86.12988049667601,27.5876614004916],[86.1304105042444,27.58755867717914],[86.13077688807631,27.58742550961312],[86.13127525656527,27.587144234600576],[86.13242936408476,27.58664357646409],[86.13293254604297,27.58631947637644],[86.13314499768343,27.58615380047437]]]}},{"type":"Feature","properties":{"province":"Bagmati Province","district":"Dolakha","municipality":"Tamakoshi Rural Municipality","ward":"4","wardNumber":4,"sourceMunicipality":"Tamakoshi","sourceType":"Gaunpalika"},"geometry":{"type":"Polygon","coordinates":[[[86.12985839438547,27.529558655408014],[86.12941435525137,27.5295582223247],[86.12915481961545,27.529394051444374],[86.12873647585158,27.52926958140682],[86.12810974437055,27.529243079739643],[86.12678450302259,27.5290948618328],[86.12547001918912,27.529269489074235],[86.1250531781813,27.529232981730377],[86.12401397841904,27.529012052337812],[86.12358957021019,27.52888977022774],[86.12134517319927,27.528392646194757],[86.12012458479641,27.527428000113748],[86.11960276376973,27.527097408026354],[86.11844701152569,27.526099251979222],[86.118269441271,27.52574377422954],[86.11799126961884,27.525186801165045],[86.11736284565112,27.5248149480106],[86.11685721821624,27.524565691683506],[86.1163896064523,27.524463478954427],[86.11522360870626,27.52408369108964],[86.11448701945464,27.52370658820086],[86.11274243136269,27.523138000575745],[86.11210762625812,27.522535892728715],[86.11157829698016,27.52178092641762],[86.11125329096079,27.52087603875733],[86.1111067340797,27.520635844244467],[86.1105005665498,27.520176090316088],[86.10981906351299,27.5200814438968],[86.10945367665556,27.51990758379524],[86.10921152179203,27.51967808172446],[86.10896355039111,27.519263462020877],[86.10863679213854,27.51819377670735],[86.1083437383081,27.517593790605506],[86.10833779848734,27.517582474701953],[86.10799785723617,27.517277889040102],[86.10791851427427,27.517227687384366],[86.10778896555806,27.517125283098],[86.10750154374541,27.516900095364907],[86.10669092534489,27.516375761280646],[86.10615809907871,27.51593444974006],[86.10583672133893,27.515207864904685],[86.1054638272977,27.51471353545923],[86.1052231732494,27.51446140174583],[86.10469059616823,27.514065227898346],[86.10452134772322,27.5141363750365],[86.10426038100564,27.5145928864316],[86.10407781453257,27.51458944993156],[86.1037284955779,27.51439539609238],[86.10336936227404,27.5143524496609],[86.10301173073273,27.514397528872234],[86.10275657629722,27.514612594970355],[86.10256657212848,27.51485510486073],[86.10244752801928,27.514899494206333],[86.1022375120434,27.51476945858314],[86.10167692366927,27.514239995903587],[86.10131803947125,27.514129341986436],[86.10108226313857,27.513978925293927],[86.10103449268847,27.51378443091513],[86.10114615539662,27.513512036872402],[86.10102204376463,27.513211074776187],[86.10046983311008,27.512661293972428],[86.10015621583977,27.51251031517737],[86.09969573491247,27.512626979269015],[86.09905525091209,27.512871119023757],[86.09867192248403,27.51288443902574],[86.09840838553734,27.512758593025225],[86.09803880726436,27.512408680648534],[86.09788455680075,27.511879527337655],[86.09803504033044,27.511081478641593],[86.09780145156232,27.51089036223465],[86.09616140150226,27.510308769945272],[86.09556998587375,27.509535298677665],[86.09555109581635,27.50889642402758],[86.09539759378801,27.508243108643807],[86.09542153285328,27.507633866709025],[86.09542577925151,27.50723218621709],[86.09516618674904,27.50747876120187],[86.09477623527849,27.50791633125344],[86.09444611783039,27.508241491892377],[86.09391511469742,27.508709760226914],[86.09378775799097,27.508921073380552],[86.09367141213271,27.509764446396332],[86.09368504589943,27.509992513566843],[86.09400992505951,27.510818440934333],[86.09431742902605,27.512027917994068],[86.09442122450879,27.5126492861421],[86.09433157766522,27.5135921267183],[86.09419234318247,27.51389596684584],[86.09395769672025,27.5141900556968],[86.09350966171644,27.51460024318487],[86.0906320584629,27.51644581248873],[86.09029862501775,27.516583544003897],[86.08965438763965,27.51665382109731],[86.08858731000328,27.516931287564955],[86.08785810764654,27.517285336336766],[86.08764365619605,27.517543538625695],[86.08730422556286,27.518107832439096],[86.08714485795853,27.518472316495124],[86.08709253340182,27.51906111463089],[86.08715231178081,27.519531002267513],[86.0870870487755,27.52046046281176],[86.08712438058595,27.520930163306414],[86.08743450876631,27.52207649647521],[86.08800442441562,27.52354729845847],[86.08815874027712,27.524214117590905],[86.08855327290341,27.52522778599424],[86.08845224047907,27.52561990222326],[86.0874059393459,27.52754960382287],[86.08711127930627,27.528432427959068],[86.08711096657296,27.528436929954484],[86.08709371218686,27.528644428576815],[86.08684619259697,27.52934244790711],[86.08682756684989,27.529908927561195],[86.0869908232706,27.53057130796651],[86.08691292600231,27.531114718131214],[86.08682058693967,27.531759595329415],[86.08666497443565,27.532361211319042],[86.08653611805848,27.53263573095515],[86.08684929700895,27.53276420275331],[86.08795296682031,27.533764485455873],[86.08897428831983,27.534301571074362],[86.09108295219434,27.535100722731077],[86.09265441205955,27.535485632920697],[86.09542751568078,27.536814996982017],[86.09620368023563,27.53707956719738],[86.09706681390439,27.537297309456413],[86.0980052269433,27.537623896303458],[86.09811001693346,27.537660656281055],[86.09890656059562,27.537634203026016],[86.09966465438487,27.53774747946033],[86.09990949324681,27.537647447207696],[86.10216488606734,27.537379909834296],[86.10262493107258,27.53740316190284],[86.10328423858573,27.53751800219664],[86.10474909647097,27.537899787071524],[86.1053106191084,27.53809527635615],[86.10537345490313,27.538115907177286],[86.10571752230672,27.5383122737395],[86.10630449095221,27.538446932890782],[86.10672727366955,27.538609914096668],[86.10764305636592,27.539191325925586],[86.10834757039277,27.53947346448575],[86.10898437066678,27.539635505514916],[86.11027998233459,27.540366019877066],[86.11156283804003,27.540879783479095],[86.11213380117405,27.541043638583712],[86.11449317683615,27.541358833098368],[86.11531079472466,27.54167548051356],[86.11671069026474,27.541964238825102],[86.11697428995676,27.542090023290644],[86.11789144876558,27.542698442671053],[86.11879922534267,27.543022404073543],[86.11981885831115,27.543566053337507],[86.12020819050952,27.543647510925755],[86.12133279421104,27.543652314302918],[86.12297653471259,27.544328496977663],[86.12326776751136,27.544325805746755],[86.1238659891334,27.54441082430408],[86.12472368402662,27.544623879133493],[86.12492188421145,27.54478086055373],[86.12510227184207,27.545468123255137],[86.12514122813924,27.545824976963015],[86.12549285719554,27.545786524566292],[86.12591257430434,27.54578464514144],[86.12627864556707,27.545653790540694],[86.12652523520481,27.54548605147629],[86.12665721672924,27.545170895400492],[86.12668890826339,27.54455721486519],[86.12662637433277,27.54366976758317],[86.126513327087,27.54318156241132],[86.12614917981779,27.54219746493616],[86.12600355383331,27.541354718495434],[86.12600411192565,27.541004866080193],[86.12605562525884,27.54057630212364],[86.12610638882003,27.54015686591129],[86.12626175241827,27.539602576889475],[86.1263927336804,27.539251347622283],[86.1268432044847,27.538558952768224],[86.1268854052227,27.53838096238361],[86.12704714333223,27.537700323301273],[86.12700274893508,27.537429181875954],[86.1268515034512,27.537218371504633],[86.12607977309665,27.536588318597193],[86.12581823243241,27.536119495899875],[86.12576452206325,27.53582797336107],[86.1259212646472,27.53561678479123],[86.12611052041285,27.535502874679665],[86.12749934189459,27.535141442418706],[86.12775043213848,27.534966888555722],[86.12785021253829,27.534432668909623],[86.1282746719462,27.533663313534838],[86.12834994272309,27.533063511834413],[86.12894796685539,27.532324663955627],[86.1290846993741,27.53183576886724],[86.12954167203925,27.531154689974077],[86.12977175042728,27.530675421995205],[86.12987928207103,27.529998971671958],[86.12987959127746,27.52971907686973],[86.12985839438547,27.529558655408014]]]}}]}