{"type":"FeatureCollection","features":[{"type":"Feature","properties":{"province":"Bagmati Province","district":"Dolakha","municipality":"Kalinchok Rural Municipality","ward":"9","wardNumber":9,"sourceMunicipality":"Kalinchok","sourceType":"Gaunpalika"},"geometry":{"type":"Polygon","coordinates":[[[86.09121658990824,27.72662732490217],[86.09061754130526,27.725461113417705],[86.08983679966109,27.724216943432094],[86.08967060423606,27.72357031816348],[86.0894877840618,27.723361508114955],[86.08908219273832,27.723029289573336],[86.08848971500576,27.722334779118842],[86.08676980894523,27.720797782345496],[86.08650595547032,27.720353716623098],[86.08621084219925,27.720040314995476],[86.08582131311483,27.719261340002475],[86.08509778790084,27.718626973395402],[86.0848665128633,27.71848993544169],[86.08398923895217,27.717545291779203],[86.0834532222364,27.717151368346034],[86.08338469676433,27.717080848605576],[86.08305469528801,27.716742377346264],[86.08246084643004,27.716481181282283],[86.08190438542711,27.71603061740964],[86.08172325132152,27.715668325029842],[86.0813654270217,27.715318350683845],[86.08113708775726,27.714942180004627],[86.08115852829081,27.714504488870002],[86.0812636894238,27.71428398585178],[86.08194712275075,27.71372431477392],[86.08251551118266,27.712956146135035],[86.08366448695936,27.711893948128573],[86.08433041147859,27.711140032377774],[86.08462364011578,27.71071984452362],[86.08472872546163,27.709411521226833],[86.08475204288698,27.709118310243664],[86.08461560893448,27.708370403982013],[86.08458927470849,27.707462888530664],[86.08479033692832,27.706380881002296],[86.08456280251207,27.705350205752246],[86.08456054735993,27.70500935592914],[86.08463644545232,27.704608112389213],[86.08478762213728,27.70430896000773],[86.08484645340347,27.70406107436828],[86.08477861133234,27.703631824475877],[86.08475128671681,27.70345783567839],[86.08496298047054,27.70266478882128],[86.08534198449456,27.701800531310795],[86.08543019857945,27.701254995356614],[86.08545307643905,27.7007879206042],[86.08528938456384,27.700315157842716],[86.08543055164611,27.69949454088029],[86.08548019337817,27.69931886342444],[86.0857289060698,27.698950315482307],[86.08578998825482,27.698693427293975],[86.08577804213051,27.698418033588574],[86.08558490620187,27.698202347119945],[86.08485106691846,27.697784481578992],[86.0843204992837,27.698160160065626],[86.08359761681247,27.698943146330073],[86.08315776837377,27.699118452141306],[86.08255942033409,27.69899492200341],[86.08221003712279,27.698737537510798],[86.08185796370216,27.698231954404417],[86.08155622435653,27.698080976081815],[86.08143868161356,27.69807566243854],[86.08124798850004,27.698324925130425],[86.08113069926831,27.698676279566744],[86.08119185289354,27.699123535063787],[86.08109000416079,27.699287647002212],[86.08088055320191,27.699430690814836],[86.08050922867116,27.699448512468397],[86.08017935934697,27.699635945602324],[86.08004637436818,27.699797556865935],[86.0798129187614,27.70030833444341],[86.0793947660242,27.700510959830776],[86.07933737103583,27.700585044516362],[86.07923846157962,27.700773976102393],[86.07918588307777,27.70107606543604],[86.079067654287,27.701264872254754],[86.07883581971511,27.701389722995202],[86.07797043824458,27.701510391892366],[86.07721984781683,27.701471513394164],[86.07652346581966,27.701543665918066],[86.07605079272513,27.701732350578073],[86.07557555510824,27.701792373072294],[86.07462570851055,27.702217131622717],[86.0741117681896,27.702229515863227],[86.07406387510652,27.70223145445452],[86.07314578107736,27.701909367869582],[86.07273106479947,27.70184791649583],[86.0720478124739,27.701938199755723],[86.07158226881963,27.702262299383833],[86.07128622721841,27.70267329759349],[86.07108178475703,27.70338963515121],[86.07081800485417,27.70376706130835],[86.07031819900254,27.704131610023847],[86.07015763962939,27.704130549299677],[86.06999727238403,27.704558301251847],[86.06997589488176,27.704993741975898],[86.07026964058974,27.705943642498447],[86.07052286324512,27.706315436831936],[86.07054356316736,27.70664509643889],[86.07024821218928,27.707385691083203],[86.0702500887695,27.707430829248676],[86.07029649480066,27.70857991691801],[86.07023272396042,27.70884805809911],[86.06999495369553,27.709230172920396],[86.06996300437926,27.70925255437649],[86.06967946402871,27.709455992184],[86.06952966272883,27.70976871004448],[86.06938693424065,27.710796951516386],[86.06913303589435,27.71146783806064],[86.068731017813,27.711925538983994],[86.06810022728908,27.712402059317785],[86.0671925247145,27.713088832367816],[86.06701496059551,27.713279453121356],[86.06709706311523,27.714022545361544],[86.06700534655037,27.71440790917786],[86.06651635946517,27.71498914654331],[86.0660612647311,27.715911422062273],[86.06572820698847,27.716152933276316],[86.06546148704918,27.71646258954426],[86.06517164249674,27.71758911024196],[86.06512606612816,27.717764849940817],[86.06488141800425,27.718212359330504],[86.06451578694465,27.71858678488853],[86.06437073753908,27.71890631758794],[86.0637676400497,27.7190286715565],[86.06369792727767,27.71906430760649],[86.06346478014143,27.719184595460963],[86.06294502965659,27.719612163788813],[86.0628763809362,27.71970875470782],[86.06267706050669,27.71999177777445],[86.06252694875093,27.720494051364497],[86.0616464535733,27.72202963584165],[86.06058563545841,27.723105774318945],[86.05885463216572,27.7242044884376],[86.05848956808778,27.72493095476332],[86.05747920647262,27.725953327646714],[86.05681822049623,27.726722935091548],[86.05646903587453,27.727293855527734],[86.05518176643422,27.728916843959787],[86.05475930520947,27.72959779841804],[86.05436254415139,27.7304933777416],[86.053823290046,27.73118483577115],[86.05331529526214,27.73166885794721],[86.05084314751446,27.733245406527224],[86.05040236489684,27.733655405709065],[86.0493683641831,27.734280287185396],[86.04829229005163,27.735297533429463],[86.04557617218919,27.73642770386191],[86.04539735597436,27.73646259012525],[86.04444776024098,27.736934488210302],[86.04378995649047,27.737171376511952],[86.04274970462035,27.73788872129259],[86.04177872683738,27.738475653426317],[86.04085914007266,27.738839456386586],[86.04051651445138,27.738974749150902],[86.03943055720082,27.73957662359558],[86.03873399648728,27.740438445601693],[86.03854355261561,27.74056798600023],[86.0378553002389,27.740806999637055],[86.0375012346348,27.741009938143556],[86.03704738591485,27.741629686889084],[86.03656077370108,27.742088951073733],[86.03590528591963,27.74248838727603],[86.03548013276091,27.742882693871138],[86.03491862118594,27.743664179380627],[86.03410488833748,27.744211472800075],[86.03361633780005,27.7446346641243],[86.03280116611815,27.745125502582344],[86.03224002942422,27.745794142183815],[86.03143536124176,27.74623990547816],[86.03089197627358,27.74662202268064],[86.02997057758802,27.74704209266931],[86.02954935912986,27.747088859936145],[86.02902641918516,27.74740795892973],[86.02893663804446,27.747522430560785],[86.02895326914695,27.74755187651916],[86.02894432914485,27.747583448093746],[86.02891188043813,27.747702796797377],[86.02879365357431,27.748058589123634],[86.02888656810505,27.748526413787218],[86.02909264711371,27.74874003678007],[86.02949117159736,27.748860131079056],[86.02976321189836,27.749010984492866],[86.03076284552817,27.75007878940283],[86.03118950629587,27.750350302205625],[86.03120419929067,27.750375246593737],[86.03351911655821,27.75009345480077],[86.0340573769852,27.74994140527649],[86.03475726034902,27.749867376395166],[86.03573368504745,27.74990350281008],[86.03601128751923,27.749853548402044],[86.03663507797857,27.749562206795176],[86.0374042289101,27.74878209542421],[86.03779505783866,27.74851626346619],[86.03812111585607,27.748505007572962],[86.03936876948671,27.748820588046943],[86.03954727355683,27.74882633845091],[86.04053801520575,27.748745117162496],[86.04270794002784,27.748358420438635],[86.04338256177786,27.74812384564686],[86.04370086618596,27.748060573698098],[86.04563026817128,27.748012916450033],[86.0460284142825,27.74785311576463],[86.04765963216086,27.746866810961382],[86.04826153762164,27.74642404996789],[86.04949648886844,27.745931456023406],[86.05025914097169,27.745417610248857],[86.05196132420855,27.74457834808354],[86.05243605954537,27.74438978853542],[86.05292030121832,27.744314073730585],[86.05423934647146,27.74381072631369],[86.05466150092143,27.74365567639453],[86.05500331351136,27.74351344394744],[86.05669549732475,27.74306235804255],[86.05728471518817,27.74297157539526],[86.05838218444343,27.74301288979827],[86.05892951081337,27.742899225687115],[86.05970435809935,27.742658460715347],[86.06047213541615,27.742092661503552],[86.06077199121609,27.741663720849896],[86.06103127232234,27.741450968069184],[86.06171527248753,27.74115093590814],[86.06281224132563,27.741137984079145],[86.06390733117958,27.740822630898734],[86.06520843535743,27.740583173769185],[86.06633566431186,27.740518518917728],[86.06678514301844,27.7405012591491],[86.0677641897575,27.740180593275223],[86.06887159696477,27.739942012178258],[86.06995318098322,27.739531694422528],[86.07057484644615,27.739364326385214],[86.07197767009507,27.73861090429467],[86.07254168708027,27.738249042453173],[86.07385523001473,27.73774094288178],[86.07578612624029,27.737189575785496],[86.07605441270078,27.737152999235363],[86.07764093883954,27.737170301431686],[86.07803745937227,27.737114281236323],[86.07849994364767,27.73709477122755],[86.08016112074469,27.73702229614979],[86.08144515369821,27.73661553935939],[86.08195033818463,27.73635026931268],[86.08255036484736,27.735717765184337],[86.08285090843418,27.73527744533453],[86.08313726004324,27.734857257180213],[86.08316614471305,27.73481455643094],[86.08353140092646,27.734514527857563],[86.08524308880516,27.733738158420067],[86.0854916151463,27.733482518252302],[86.08594534143931,27.73314016375421],[86.08622681521304,27.732686152547068],[86.08692944120422,27.731887286165893],[86.08795450077827,27.73128466155677],[86.08870452019828,27.7305718203474],[86.0891108552136,27.73032180562087],[86.08918000559535,27.730279291868005],[86.08986549812859,27.729365204437833],[86.09002649060878,27.72898709223772],[86.08998359475002,27.728609919378105],[86.09007837252899,27.727971793522315],[86.09027400284666,27.727654885767212],[86.09071972602783,27.727289899355323],[86.09098613256343,27.726858332523907],[86.09118257710551,27.726642954740058],[86.09121658990824,27.72662732490217]]]}},{"type":"Feature","properties":{"province":"Bagmati Province","district":"Dolakha","municipality":"Kalinchok Rural Municipality","ward":"8","wardNumber":8,"sourceMunicipality":"Kalinchok","sourceType":"Gaunpalika"},"geometry":{"type":"Polygon","coordinates":[[[86.09680578255386,27.72124937963008],[86.0968105310682,27.721016936581698],[86.0968781055985,27.719970128077225],[86.09699495566828,27.719524058507556],[86.09716451684125,27.719340065613267],[86.09752696149455,27.71917088694031],[86.09792885528957,27.71879658613429],[86.09862679240338,27.718017975617744],[86.09868700044379,27.71789193760174],[86.09867705683,27.71767524970395],[86.09858683397992,27.71754821329581],[86.09825889998511,27.71759122870679],[86.09805263578758,27.717508644508666],[86.09805751129949,27.717411677802726],[86.09907180920067,27.71620400108815],[86.09934302812326,27.715636957032103],[86.09939772911255,27.715115991442172],[86.09995392808625,27.714519248523256],[86.10052068910234,27.713559210395374],[86.10095551864535,27.712061141401193],[86.10127519494223,27.7116545815495],[86.10191523227202,27.710686103527298],[86.10222240310515,27.71022090134159],[86.10284868793214,27.709457546235942],[86.10311003144665,27.709204157144903],[86.10350948695255,27.708816289089533],[86.10390593947483,27.7082456178867],[86.1045322924385,27.707942710344547],[86.10456005350495,27.70795640107941],[86.10508700178018,27.708217097588587],[86.10552960557328,27.708368888342726],[86.1062232995032,27.708395951734776],[86.10676850437468,27.708634203430496],[86.10711450805464,27.708616069743925],[86.10724843258363,27.7086350748379],[86.10747476487523,27.708480714125844],[86.10794881104948,27.708192563055256],[86.10871933781806,27.707461778024367],[86.10889746189076,27.707108610291588],[86.10911834705414,27.70633363013012],[86.1096696678198,27.705660052613318],[86.10986467381808,27.705345332635385],[86.11015245864547,27.704645249420235],[86.11035689874281,27.70373698102437],[86.11039772400517,27.70355667732836],[86.11060292028186,27.70322851702726],[86.11078898794527,27.703076219957115],[86.11130067575056,27.702982437410693],[86.11154982852683,27.702830578574375],[86.11175865378941,27.702603947598803],[86.11200392580592,27.702136057511098],[86.11209389622606,27.702100546206793],[86.11250586096922,27.702042212097165],[86.11314196807974,27.70181832833889],[86.11352348435878,27.701791441185257],[86.11412695856251,27.701844951217776],[86.1146633427542,27.701674583670936],[86.11492762443058,27.70140994061831],[86.1154718850683,27.70106127014324],[86.11612324705325,27.70077430506271],[86.11691615999129,27.70033473083288],[86.11715099675554,27.70026170632522],[86.11748155302124,27.700024571076664],[86.11756827121812,27.699885216855265],[86.11774220399576,27.699308546271045],[86.118016425169,27.69886560051353],[86.11832453525386,27.698592204625037],[86.1184955331324,27.698369888158144],[86.11957949207597,27.69791180587764],[86.12061061163317,27.696952388695944],[86.12075085072816,27.696896808477007],[86.12150087790549,27.69684966213273],[86.12177823022685,27.69685141045157],[86.12178235315106,27.69657382838746],[86.12187080943552,27.695412049191876],[86.12202923561937,27.69486913798382],[86.12201247485167,27.694496591533277],[86.12182659155282,27.694319353774777],[86.12091468052436,27.693451482911723],[86.12022716996383,27.69293702589156],[86.11927668541657,27.69237355785637],[86.11851108802655,27.692228773011884],[86.11804097567229,27.692200893932952],[86.11700165375423,27.69220109199853],[86.11639868214232,27.69230106464973],[86.11580833776732,27.692277000529543],[86.11517147614539,27.692171414007618],[86.11380621580632,27.691783563185133],[86.11338862109994,27.69157550613933],[86.11259175604127,27.69103097876564],[86.11145656857359,27.68963795629793],[86.11129231661705,27.689300608590273],[86.11102483852349,27.68897614086491],[86.11062843715573,27.68861703981281],[86.11030331490797,27.68848631658496],[86.10965094811857,27.688461815962473],[86.10938222481032,27.688568412379336],[86.10914895494886,27.688882882550534],[86.10898765088663,27.689315198577045],[86.10899878464154,27.689703436927175],[86.10940081589655,27.690310923751564],[86.10931216355206,27.69073242387199],[86.10917386403086,27.690903037297737],[86.10884224337757,27.691070214940336],[86.10788457899199,27.69128066087228],[86.10732849722517,27.691259097539174],[86.10676566203095,27.691092991598296],[86.10649949820738,27.69089037241871],[86.10626215758072,27.690611230035895],[86.10620394183974,27.690087264949515],[86.10628421673755,27.689686020625533],[86.1064290784027,27.689373240668804],[86.10695376391774,27.68858444144205],[86.10721541455618,27.687929308648787],[86.10719296611431,27.687683111153945],[86.10709236208426,27.687389151551873],[86.10609849776932,27.687617477990425],[86.1040867510879,27.687516467796076],[86.10322493751934,27.687984863714934],[86.10294977782088,27.68830358551925],[86.1026482930256,27.6884663860084],[86.10228190759962,27.68854522495791],[86.1019759837016,27.688667451723934],[86.10185431590295,27.688863009725836],[86.1018013636818,27.689253125134957],[86.10171908561938,27.68942642707606],[86.10141472341877,27.689480883358524],[86.10124784995112,27.689576850369708],[86.10058173008636,27.689678574361093],[86.0998677830625,27.690125337899527],[86.09969765903213,27.6901942339958],[86.0992637487584,27.69020492951237],[86.09863858437662,27.690598113277705],[86.0982963951849,27.6905846122798],[86.09808925658835,27.69063744293728],[86.09782878406672,27.69059737054297],[86.0976290209487,27.690451642936132],[86.09769291449118,27.690002947925244],[86.09746301346647,27.689746374623024],[86.09722586140036,27.689645534488847],[86.09702353895956,27.689811273430813],[86.09660164137424,27.6904743464527],[86.0960187405182,27.690705232911935],[86.09529159612174,27.690677919141176],[86.09501411868888,27.690728061794488],[86.09500186458665,27.69075506991025],[86.09487225722603,27.691027276049926],[86.09430749234193,27.691549497090293],[86.0939514851143,27.69156750625119],[86.09384225722577,27.69151261601357],[86.09366925152813,27.69124066255968],[86.09326134799895,27.691001034239857],[86.09284788231314,27.690984782694073],[86.09254508406043,27.691073061815448],[86.09235514110918,27.691317822789646],[86.09228386926725,27.691694309850174],[86.09228474974944,27.69212987466033],[86.09250165110609,27.69280613349801],[86.09241037203134,27.693191498000083],[86.09210813971217,27.69351903429603],[86.09211520829035,27.69385306991269],[86.09192313987198,27.694086577639645],[86.09154250002128,27.694156289058668],[86.09125683025991,27.694014500248112],[86.09091794951567,27.693637643081033],[86.09065728875468,27.693455342112603],[86.09033823193687,27.69332686977457],[86.08976658128124,27.69326898387517],[86.08972956749729,27.693264232793094],[86.08943358468703,27.693413529334958],[86.08939838456457,27.693447101955112],[86.08912903867146,27.69370718088437],[86.08892703149635,27.694179821768145],[86.08868450956794,27.69456868794426],[86.08808648186192,27.69509509872183],[86.0879022285058,27.695335420841424],[86.08767308379745,27.69548965594121],[86.08646214220272,27.696036890376515],[86.08597196560959,27.696480588512646],[86.0857084968239,27.696792557179233],[86.08547560181277,27.697086645900296],[86.08529141277417,27.697473636065446],[86.08485106691846,27.697784481578992],[86.08558490620187,27.698202347119945],[86.08577804213051,27.698418033588574],[86.08578998825482,27.698693427293975],[86.0857289060698,27.698950315482307],[86.08548019337817,27.69931886342444],[86.08543055164611,27.69949454088029],[86.08528938456384,27.700315157842716],[86.08545307643905,27.7007879206042],[86.08543019857945,27.701254995356614],[86.08534198449456,27.701800531310795],[86.08496298047054,27.70266478882128],[86.08475128671681,27.70345783567839],[86.08477861133234,27.703631824475877],[86.08484645340347,27.70406107436828],[86.08478762213728,27.70430896000773],[86.08463644545232,27.704608112389213],[86.08456054735993,27.70500935592914],[86.08456280251207,27.705350205752246],[86.08479033692832,27.706380881002296],[86.08458927470849,27.707462888530664],[86.08461560893448,27.708370403982013],[86.08475204288698,27.709118310243664],[86.08472872546163,27.709411521226833],[86.08462364011578,27.71071984452362],[86.08433041147859,27.711140032377774],[86.08366448695936,27.711893948128573],[86.08251551118266,27.712956146135035],[86.08194712275075,27.71372431477392],[86.0812636894238,27.71428398585178],[86.08115852829081,27.714504488870002],[86.08113708775726,27.714942180004627],[86.0813654270217,27.715318350683845],[86.08172325132152,27.715668325029842],[86.08190438542711,27.71603061740964],[86.08246084643004,27.716481181282283],[86.08305469528801,27.716742377346264],[86.08338469676433,27.717080848605576],[86.0834532222364,27.717151368346034],[86.08398923895217,27.717545291779203],[86.0848665128633,27.71848993544169],[86.08509778790084,27.718626973395402],[86.08582131311483,27.719261340002475],[86.08621084219925,27.720040314995476],[86.08650595547032,27.720353716623098],[86.08676980894523,27.720797782345496],[86.08848971500576,27.722334779118842],[86.08908219273832,27.723029289573336],[86.0894877840618,27.723361508114955],[86.08967060423606,27.72357031816348],[86.08983679966109,27.724216943432094],[86.09061754130526,27.725461113417705],[86.09121658990824,27.72662732490217],[86.09160054290909,27.726440266983175],[86.09188070572314,27.72618256353891],[86.09212866629764,27.72571923687109],[86.0922842223707,27.725548748081167],[86.09262297153957,27.72544940303377],[86.09300855146138,27.725406761595213],[86.09339969262298,27.725111421421232],[86.09340256856464,27.725109170333177],[86.09371817971211,27.724630526995806],[86.09412199484393,27.72287269461622],[86.09435156901634,27.721980492696193],[86.09441265320653,27.721836387559183],[86.09459878415569,27.721801500848386],[86.09460553602234,27.721783495559976],[86.09479047313802,27.721270092295438],[86.09499192009733,27.721023143674532],[86.09532160278901,27.720919234313477],[86.09600085652909,27.721013943000337],[86.09640350759092,27.72124000589855],[86.09664259720681,27.721275388907394],[86.09680578255386,27.72124937963008]]]}},{"type":"Feature","properties":{"province":"Bagmati Province","district":"Dolakha","municipality":"Kalinchok Rural Municipality","ward":"7","wardNumber":7,"sourceMunicipality":"Kalinchok","sourceType":"Gaunpalika"},"geometry":{"type":"Polygon","coordinates":[[[86.15160682225014,27.72033100653452],[86.1516482643451,27.719478130707557],[86.15147488250156,27.71903243914684],[86.15126992850205,27.71879424615793],[86.15027117299283,27.717986894155707],[86.14843715696837,27.71609567027032],[86.14787368979393,27.71537665202056],[86.14705974665532,27.714085218990803],[86.14688555154987,27.71366434676789],[86.14645457291395,27.713142510525945],[86.14558893025396,27.712347348128542],[86.14546138118486,27.712238192701967],[86.14536309382537,27.712163108601267],[86.14474710937851,27.711633459117795],[86.1441647596849,27.710939199055712],[86.14379636569905,27.710334337474308],[86.14351044384775,27.710045943259857],[86.14344948359381,27.7100162480405],[86.1432991772815,27.70994310235105],[86.14262548319272,27.709417517381237],[86.14045010586881,27.708693202040816],[86.13894935701865,27.708257338412544],[86.13820401213597,27.70777870536218],[86.13682136681584,27.70707951418713],[86.1353497538025,27.70668672555205],[86.13442878578593,27.706536441152313],[86.13402100864556,27.706427850335313],[86.13321295483014,27.706025615037944],[86.13258696248731,27.705175309322588],[86.13244509363791,27.704912608601393],[86.13235368237143,27.704688606382472],[86.1318813053065,27.703536835095615],[86.131783131497,27.702549984216397],[86.13186065642864,27.702245768741815],[86.13184476247562,27.701169078431075],[86.13177591766421,27.70061791670863],[86.13162554449865,27.700267190214294],[86.13142096706656,27.700125963655978],[86.13104632638245,27.699994928741777],[86.1298123064483,27.69995786786701],[86.12906534488447,27.700104418071625],[86.12847475461477,27.70042576859264],[86.12758492773702,27.700598453177435],[86.12677957032092,27.700900361762272],[86.12575537877203,27.700943634848276],[86.12387123558601,27.70030652877014],[86.12382128009426,27.700290399506386],[86.12360594981386,27.700268707423803],[86.12318979248198,27.700022326664588],[86.1225650532759,27.699424845136146],[86.12175461512315,27.698381484697528],[86.12177823022685,27.69685141045157],[86.12150087790549,27.69684966213273],[86.12075085072816,27.696896808477007],[86.12061061163317,27.696952388695944],[86.11957949207597,27.69791180587764],[86.1184955331324,27.698369888158144],[86.11832453525386,27.698592204625037],[86.118016425169,27.69886560051353],[86.11774220399576,27.699308546271045],[86.11756827121812,27.699885216855265],[86.11748155302124,27.700024571076664],[86.11715099675554,27.70026170632522],[86.11691615999129,27.70033473083288],[86.11612324705325,27.70077430506271],[86.1154718850683,27.70106127014324],[86.11492762443058,27.70140994061831],[86.1146633427542,27.701674583670936],[86.11412695856251,27.701844951217776],[86.11352348435878,27.701791441185257],[86.11314196807974,27.70181832833889],[86.11250586096922,27.702042212097165],[86.11209389622606,27.702100546206793],[86.11200392580592,27.702136057511098],[86.11175865378941,27.702603947598803],[86.11154982852683,27.702830578574375],[86.11130067575056,27.702982437410693],[86.11078898794527,27.703076219957115],[86.11060292028186,27.70322851702726],[86.11039772400517,27.70355667732836],[86.11035689874281,27.70373698102437],[86.11015245864547,27.704645249420235],[86.10986467381808,27.705345332635385],[86.1096696678198,27.705660052613318],[86.10911834705414,27.70633363013012],[86.10889746189076,27.707108610291588],[86.10871933781806,27.707461778024367],[86.10794881104948,27.708192563055256],[86.10747476487523,27.708480714125844],[86.10724843258363,27.7086350748379],[86.10711450805464,27.708616069743925],[86.10676850437468,27.708634203430496],[86.1062232995032,27.708395951734776],[86.10552960557328,27.708368888342726],[86.10508700178018,27.708217097588587],[86.10456005350495,27.70795640107941],[86.1045322924385,27.707942710344547],[86.10390593947483,27.7082456178867],[86.10350948695255,27.708816289089533],[86.10311003144665,27.709204157144903],[86.10284868793214,27.709457546235942],[86.10222240310515,27.71022090134159],[86.10191523227202,27.710686103527298],[86.10127519494223,27.7116545815495],[86.10095551864535,27.712061141401193],[86.10052068910234,27.713559210395374],[86.09995392808625,27.714519248523256],[86.09939772911255,27.715115991442172],[86.09934302812326,27.715636957032103],[86.09907180920067,27.71620400108815],[86.09805751129949,27.717411677802726],[86.09805263578758,27.717508644508666],[86.09825889998511,27.71759122870679],[86.09858683397992,27.71754821329581],[86.09867705683,27.71767524970395],[86.09868700044379,27.71789193760174],[86.09862679240338,27.718017975617744],[86.09792885528957,27.71879658613429],[86.09752696149455,27.71917088694031],[86.09716451684125,27.719340065613267],[86.09699495566828,27.719524058507556],[86.0968781055985,27.719970128077225],[86.0968105310682,27.721016936581698],[86.09680578255386,27.72124937963008],[86.0971334029815,27.721195110556614],[86.09777489303164,27.721373030954297],[86.09802073377841,27.721358837506966],[86.09839274717758,27.721458300678975],[86.09857781711314,27.72150687555721],[86.09891350559687,27.72167160816573],[86.09918904658778,27.72174331386127],[86.0996086387949,27.721727992816103],[86.10138804146898,27.72120013249464],[86.10211168217698,27.720985874998146],[86.10267251363126,27.720912723060938],[86.10421670268737,27.72022757002754],[86.10501574595655,27.720013811301058],[86.10568173944206,27.719717906169173],[86.10677945500872,27.71946319548392],[86.10738442854355,27.71937904003191],[86.10784078376697,27.71931426622109],[86.10925962013552,27.71914957883515],[86.1098057600194,27.719202714395056],[86.11021935264944,27.719336312161367],[86.11278086758206,27.719589673737186],[86.11344179734837,27.719408801244793],[86.11372684011371,27.71940160947218],[86.11440996982603,27.719494004825542],[86.11467900916932,27.719664989513102],[86.11461961812222,27.720115997822912],[86.11466744908788,27.720233656479206],[86.11518695962361,27.720679345206474],[86.11591198402401,27.721164667601997],[86.1162514901622,27.721561780781148],[86.11660718743222,27.72183717086698],[86.11711513265242,27.7223865775229],[86.11757806273049,27.72305526876169],[86.11770561359758,27.72331796940407],[86.11787637107028,27.72389001139312],[86.11775871646846,27.725001963231254],[86.11790703332736,27.72594636461556],[86.11835058306131,27.726824867923263],[86.11844981016836,27.727062562151794],[86.118581051643,27.727501126530544],[86.11877969777827,27.72831492626129],[86.11904642997305,27.72897567968296],[86.11968423592452,27.72955071746269],[86.11986668475318,27.730005599613097],[86.11998304147399,27.730123632341297],[86.12012396923214,27.730142574065685],[86.120240074598,27.730138759280514],[86.1207222499685,27.729868737853113],[86.12099072044488,27.72956127015473],[86.12168572594751,27.72944604225306],[86.12217134372624,27.729453601739028],[86.12320978941881,27.729295420424982],[86.12373885692254,27.729066285035255],[86.12378005984183,27.729068848416908],[86.1248588934393,27.72872579935522],[86.12558109444517,27.72838050295425],[86.12634430608969,27.72773530637859],[86.12862277039223,27.727327539054727],[86.12918047458808,27.72717755216588],[86.1293671057987,27.727097463864798],[86.12954048060364,27.726945105042272],[86.12990667635248,27.726787180509554],[86.13037960095392,27.726686270767484],[86.13065082573539,27.726627063512332],[86.13254845570316,27.725779045480103],[86.13286538167269,27.725469514383526],[86.13365773268463,27.7250682008665],[86.13389612755071,27.72458443142727],[86.13442957346793,27.724443322729734],[86.13544482456587,27.72444512557645],[86.13594919719698,27.724324147251984],[86.13625511929047,27.72400330018957],[86.13639041494606,27.723654321661673],[86.13660330188188,27.723346353823622],[86.13680193610192,27.723171675396088],[86.13743154145962,27.722933974369173],[86.13833437443972,27.722835811706563],[86.13962272302686,27.722561655612854],[86.14090250341276,27.7220053547209],[86.1451596421846,27.721941356767463],[86.1454499984734,27.721866393558347],[86.1457941848333,27.721595435837557],[86.14627861129571,27.72131403642512],[86.14700318877901,27.721052139558488],[86.14760315712718,27.720746606095382],[86.1480057429715,27.72071978229503],[86.14819781545538,27.720808993228438],[86.14844134732651,27.721126459332577],[86.14934974395966,27.720913074999537],[86.14994345883807,27.72055558891149],[86.15118291641751,27.720373586105627],[86.15145239103875,27.720377459893943],[86.15160682225014,27.72033100653452]]]}},{"type":"Feature","properties":{"province":"Bagmati Province","district":"Dolakha","municipality":"Kalinchok Rural Municipality","ward":"2","wardNumber":2,"sourceMunicipality":"Kalinchok","sourceType":"Gaunpalika"},"geometry":{"type":"Polygon","coordinates":[[[86.11900144443742,27.796745011982747],[86.11918694722968,27.79640084658738],[86.12139811384515,27.79412634499945],[86.12209918034321,27.793618439106524],[86.12248494491296,27.793338790194106],[86.12324828591659,27.79302312773802],[86.12487918878232,27.791873336662203],[86.12527896002332,27.791672773323082],[86.12776781244632,27.791070010136018],[86.12842180594028,27.791085444819714],[86.12905729617366,27.79143929298331],[86.12935152821382,27.791301124451692],[86.12942672621195,27.78994291194199],[86.1299427847085,27.7892713349779],[86.13011672376223,27.78921825524075],[86.1311716816592,27.78956797245112],[86.13185193217899,27.789434551494878],[86.13226920985237,27.789263371889756],[86.13297064959109,27.788656124859187],[86.13283265791544,27.788370854780947],[86.13275955800998,27.787551114597214],[86.13301264503384,27.787074285175418],[86.133065227468,27.78704521291588],[86.13457203303838,27.786806378298724],[86.13535744274571,27.78629446987855],[86.13601330142943,27.785506356985614],[86.13707036544902,27.784332564785444],[86.13832669076807,27.78306292894894],[86.1393845071819,27.781992916942823],[86.14134975850615,27.77881827798193],[86.14149462143038,27.77858445815004],[86.14201267604093,27.77760585368359],[86.14264590074868,27.77682886912766],[86.14378955734095,27.775425320650328],[86.14531592332533,27.77445076952236],[86.14620630760082,27.77374980418761],[86.14704078901367,27.772495490763514],[86.1471887102613,27.771868992158034],[86.14720209008587,27.771812663299848],[86.147954456254,27.768838095019998],[86.14805336328185,27.7684459788139],[86.14901626376955,27.76696903577356],[86.14895749193502,27.766941591054408],[86.14943008708339,27.765549740062987],[86.14995001060312,27.764067799770878],[86.14922111025318,27.763620988356177],[86.14823722609756,27.76211180570936],[86.14723858540789,27.760469395980724],[86.14619588949844,27.76074054780379],[86.14230869146893,27.760186236436205],[86.13938817422432,27.76040964369239],[86.1354395898959,27.76077103961603],[86.13349318265712,27.76085589586885],[86.1294391168841,27.76087794222278],[86.12830482063141,27.76077379859613],[86.12684609034136,27.7606675315821],[86.12566027047617,27.760229039346132],[86.12338692591776,27.760067952083414],[86.12198721839184,27.75996206025797],[86.121065005944,27.76030604534551],[86.12016642680469,27.76059826476743],[86.12006338819737,27.760631462898797],[86.116995257624,27.76113332821168],[86.11597175554387,27.761300637033635],[86.11533502253914,27.761565158583405],[86.11490655675954,27.761995726407964],[86.1140659499403,27.763387393118542],[86.11318069891747,27.764568936238238],[86.11154478488811,27.765039215328546],[86.11049758842773,27.76534169007771],[86.11032527585445,27.765428591606458],[86.1086824891278,27.76626891742002],[86.10741571898816,27.76720195378591],[86.1073390044271,27.76728041438799],[86.10664844375562,27.767986878609136],[86.10483690784174,27.768785506532097],[86.10337905797212,27.76910561446934],[86.10276514333712,27.769130940051298],[86.10215910644371,27.769156391142545],[86.10072695455656,27.769438237670457],[86.0951117411366,27.76895483790346],[86.09294693799094,27.768852704823278],[86.09200233815098,27.768932299932242],[86.09159324926974,27.76896118735056],[86.09154317594538,27.769570241244665],[86.09122569763358,27.770714705129645],[86.0898917338755,27.7732653423791],[86.08975637899933,27.77390540620308],[86.09036530267716,27.774719638944408],[86.09105525285118,27.7753222470056],[86.09307483931522,27.777323815194254],[86.09413524758558,27.778587863492664],[86.09448438587513,27.779253680610044],[86.09450646305896,27.779770706513098],[86.09451759503956,27.78003484645283],[86.09434722646577,27.780575382323427],[86.09396096604834,27.781213823269827],[86.09282717547711,27.781682659377537],[86.09239977165912,27.782040956044227],[86.09223984412436,27.78254548060754],[86.09247169006754,27.783354966723554],[86.09289379155213,27.783982896970933],[86.09392824879836,27.784869772036497],[86.09391168612979,27.785379796743854],[86.09294553030315,27.786587723731756],[86.09288913514678,27.78665955772151],[86.09279335334368,27.786963647312813],[86.09290071028684,27.78737057845786],[86.09381100714843,27.78911664500253],[86.09382920178125,27.789137088421985],[86.09509681503775,27.790569496540115],[86.09579507785337,27.790912590273],[86.09800784790411,27.791838778175503],[86.09970711640852,27.792948962685674],[86.10022550347388,27.793527876861837],[86.10131680614323,27.795385662079067],[86.10153376447013,27.7955901573758],[86.10256165702229,27.796553742216098],[86.10291835689385,27.796962296871413],[86.10302271524407,27.797513707327564],[86.10291632802627,27.799699975481214],[86.10246798498596,27.80055698116922],[86.10216256604186,27.80116209981203],[86.10378978260107,27.80019992566038],[86.10535824240542,27.80045154661583],[86.1064467755355,27.800801576983122],[86.10770499539912,27.80100831218194],[86.1085436797719,27.800907711922815],[86.10946070180285,27.800430563242884],[86.10982832984244,27.799749046762955],[86.1103644640082,27.799585493341006],[86.11276491841484,27.79966405541731],[86.11430454249417,27.798972024713557],[86.11472112972852,27.798572903609045],[86.11516835003854,27.79792127020768],[86.11558898952755,27.79659012572391],[86.115928610327,27.796138614440586],[86.11622359187307,27.795953181789248],[86.11690234364646,27.795894283516727],[86.11765424950525,27.796093208938416],[86.11804552058165,27.796197235682886],[86.11864043370169,27.79654408179457],[86.11900144443742,27.796745011982747]]]}},{"type":"Feature","properties":{"province":"Bagmati Province","district":"Dolakha","municipality":"Kalinchok Rural Municipality","ward":"1","wardNumber":1,"sourceMunicipality":"Kalinchok","sourceType":"Gaunpalika"},"geometry":{"type":"Polygon","coordinates":[[[86.07122705201154,27.818517119673782],[86.07217121136821,27.818209770723623],[86.0755793333143,27.81673167884481],[86.0764010090342,27.816376065812857],[86.07667385722797,27.816156686769652],[86.07675182239969,27.816087227767227],[86.07718772865724,27.815575573518686],[86.07722010231835,27.81454664619953],[86.07719377441991,27.81407031945403],[86.07690846335109,27.81260357854712],[86.07601298656573,27.811026812388196],[86.07607262490349,27.810316290075964],[86.07613664787361,27.810210633657018],[86.07643619006839,27.809711609477567],[86.07746574983281,27.808899173847454],[86.07779624029641,27.808348445965983],[86.07840637967155,27.806316718891654],[86.07892325322946,27.805862018101283],[86.07995131778992,27.80550771650343],[86.08055910614739,27.805523027578072],[86.082273433303,27.80585942177956],[86.0838221385267,27.8063413613274],[86.08451439256591,27.806095407065957],[86.08624038634859,27.80431030377973],[86.08766715148529,27.8031370700726],[86.08839729300983,27.802816781866245],[86.0904022723578,27.801656421717627],[86.0908366192295,27.801539695701383],[86.09098354899818,27.80149999518255],[86.09261160253047,27.802524030281916],[86.09363836116131,27.802704510074786],[86.09364567579306,27.802706823155955],[86.09390421070991,27.8028259188731],[86.0948533842436,27.803497919316246],[86.09546167141194,27.803447710412307],[86.09578797778443,27.80331216758202],[86.09659232425076,27.802109932375537],[86.0970091628106,27.80181021540679],[86.09771116964266,27.801521373483013],[86.09864613944235,27.80140783122207],[86.09962506729083,27.801542860511965],[86.10097194187763,27.801576420092314],[86.10180368485143,27.801324525248102],[86.10216069040436,27.801162099515007],[86.10216187891226,27.801162099453233],[86.10216256604186,27.80116209981203],[86.10246798498596,27.80055698116922],[86.10291632802627,27.799699975481214],[86.10302271524407,27.797513707327564],[86.10291835689385,27.796962296871413],[86.10256165702229,27.796553742216098],[86.10153376447013,27.7955901573758],[86.10131680614323,27.795385662079067],[86.10022550347388,27.793527876861837],[86.09970711640852,27.792948962685674],[86.09800784790411,27.791838778175503],[86.09579507785337,27.790912590273],[86.09509681503775,27.790569496540115],[86.09382920178125,27.789137088421985],[86.09381100714843,27.78911664500253],[86.09290071028684,27.78737057845786],[86.09279335334368,27.786963647312813],[86.09288913514678,27.78665955772151],[86.09294553030315,27.786587723731756],[86.09391168612979,27.785379796743854],[86.09392824879836,27.784869772036497],[86.09289379155213,27.783982896970933],[86.09247169006754,27.783354966723554],[86.09223984412436,27.78254548060754],[86.09239977165912,27.782040956044227],[86.09282717547711,27.781682659377537],[86.09396096604834,27.781213823269827],[86.09434722646577,27.780575382323427],[86.09451759503956,27.78003484645283],[86.09450646305896,27.779770706513098],[86.09448438587513,27.779253680610044],[86.09413524758558,27.778587863492664],[86.09307483931522,27.777323815194254],[86.09105525285118,27.7753222470056],[86.09036530267716,27.774719638944408],[86.08975637899933,27.77390540620308],[86.0898917338755,27.7732653423791],[86.09122569763358,27.770714705129645],[86.09154317594538,27.769570241244665],[86.09159324926974,27.76896118735056],[86.08944564216723,27.769114128087253],[86.08786230724141,27.76922792613287],[86.08512210857556,27.769656703690167],[86.08369070689217,27.769992628747424],[86.07780371572629,27.770307841239333],[86.07067858139338,27.77090802308387],[86.06794550061912,27.770530876081878],[86.06720497698566,27.770584587132202],[86.06473650637852,27.771204354622597],[86.06293040723614,27.77187381885189],[86.06073897667095,27.772434504703924],[86.0587201010344,27.772247030972313],[86.05614369935083,27.77153434642267],[86.05395638627712,27.77135018889319],[86.05280589371664,27.77106255299879],[86.05121079070985,27.770076591063145],[86.04993580211345,27.768781410005346],[86.04812673029504,27.766582032033472],[86.04764103953661,27.76575942017278],[86.04633572823394,27.764459487968235],[86.0458319707916,27.76377673013624],[86.04431902022907,27.76262428091884],[86.04367753137569,27.762536386936326],[86.04301666313285,27.762667244129034],[86.0410401886922,27.76331707789998],[86.03959396881075,27.763679511155775],[86.03841028203256,27.763863138865503],[86.03560156446764,27.76475992884554],[86.03499077433618,27.764678972534742],[86.03468547921533,27.765168807415964],[86.0318610895977,27.767834866314466],[86.03037937103592,27.76944047659995],[86.02887733784995,27.771393502336718],[86.02795081535633,27.772116035729926],[86.02586599273123,27.773220817260366],[86.02417731748938,27.7743215931016],[86.02262752006814,27.77663297454206],[86.02220074847592,27.777609515050717],[86.02203400957184,27.778524722952618],[86.0210681046214,27.779808796481408],[86.02091173706252,27.78001767138593],[86.02068071933907,27.780523697500183],[86.02195909545429,27.782762592800186],[86.02295016102299,27.783643029113147],[86.02411456358695,27.786436275560632],[86.0247575135122,27.788440420957475],[86.02546648422536,27.790194491511066],[86.02649238472311,27.791876350147994],[86.02659179880307,27.792039522731436],[86.02699421073243,27.79309864245317],[86.02702097785259,27.79365399225645],[86.02667554543825,27.79436476674837],[86.02339211800492,27.79780374523084],[86.02271125593009,27.79912826524502],[86.02246855695577,27.80043783928674],[86.02249601817681,27.801591303003914],[86.02282186131573,27.8045095311695],[86.02331493878738,27.806142505831343],[86.02357411786726,27.807823434466194],[86.02346139976655,27.808826980084834],[86.02207240627835,27.81063402445068],[86.02150897386247,27.81282148443295],[86.02121239417166,27.815399055672874],[86.02080482530577,27.817050481876944],[86.02425717954063,27.818009168648494],[86.02501715061707,27.818084496255782],[86.02943549418946,27.81944485345242],[86.03074529464155,27.81967065755329],[86.0339780093726,27.820878106155217],[86.03495606472404,27.821334168471992],[86.03692537078872,27.822419843948104],[86.03777931862973,27.822890661512925],[86.04209475372072,27.824635820192963],[86.04756185171578,27.825208436233293],[86.04961530546379,27.82554076375707],[86.05121896283588,27.82549079662011],[86.05275516452443,27.82608364370339],[86.05327042069969,27.826281259085725],[86.05444204703565,27.826571333022805],[86.05620351514023,27.82673455119776],[86.05787932627143,27.826888206071434],[86.05872745132346,27.826720148574875],[86.05995333842084,27.826277131436992],[86.06073499669462,27.82572721241381],[86.06275520951577,27.8226399120734],[86.06351641987133,27.821904750779694],[86.06608347683226,27.82021135443634],[86.06787513243573,27.81946511794435],[86.06950279459932,27.819078800989484],[86.07122705201154,27.818517119673782]]]}},{"type":"Feature","properties":{"province":"Bagmati Province","district":"Dolakha","municipality":"Kalinchok Rural Municipality","ward":"4","wardNumber":4,"sourceMunicipality":"Kalinchok","sourceType":"Gaunpalika"},"geometry":{"type":"Polygon","coordinates":[[[86.16155061436899,27.738729370128762],[86.16149590435725,27.738546254824442],[86.16147500922979,27.73758691053091],[86.16136952900584,27.73731995850681],[86.16098593749503,27.73635161583861],[86.16066516725755,27.734304893422767],[86.1599929673216,27.733179069102807],[86.15946263775808,27.73254395042775],[86.15904541735283,27.732286379264963],[86.15828938291696,27.731968043242194],[86.15767296406044,27.731779244461652],[86.1569622628508,27.731704979329486],[86.1567296119376,27.73156812968561],[86.15636672343292,27.731180018911683],[86.15614719866294,27.730734014926107],[86.15580812046625,27.729558360742935],[86.15516905922256,27.728586207344026],[86.15401861761721,27.727419126235326],[86.1528629346671,27.727037400285003],[86.1524762916192,27.72705534681474],[86.15173489399207,27.727195270305813],[86.15105908036867,27.727096373516858],[86.15081767628473,27.726952708373773],[86.15018555991558,27.726357540435046],[86.15003093294361,27.725808130202942],[86.14997447182182,27.725606884557127],[86.15000903339285,27.724505685649273],[86.15010118817953,27.72419027933213],[86.15048394841148,27.723646428638357],[86.1508191844808,27.722641880754782],[86.15121894988896,27.72203263494979],[86.15145227793555,27.721332177546238],[86.15160113402573,27.720450604802263],[86.15160682225014,27.72033100653452],[86.15145239103875,27.720377459893943],[86.15118291641751,27.720373586105627],[86.14994345883807,27.72055558891149],[86.14934974395966,27.720913074999537],[86.14844134732651,27.721126459332577],[86.14819781545538,27.720808993228438],[86.1480057429715,27.72071978229503],[86.14760315712718,27.720746606095382],[86.14700318877901,27.721052139558488],[86.14627861129571,27.72131403642512],[86.1457941848333,27.721595435837557],[86.1454499984734,27.721866393558347],[86.1451596421846,27.721941356767463],[86.14090250341276,27.7220053547209],[86.13962272302686,27.722561655612854],[86.13833437443972,27.722835811706563],[86.13743154145962,27.722933974369173],[86.13680193610192,27.723171675396088],[86.13660330188188,27.723346353823622],[86.13639041494606,27.723654321661673],[86.13625511929047,27.72400330018957],[86.13594919719698,27.724324147251984],[86.13544482456587,27.72444512557645],[86.13442957346793,27.724443322729734],[86.13389612755071,27.72458443142727],[86.13365773268463,27.7250682008665],[86.13286538167269,27.725469514383526],[86.13254845570316,27.725779045480103],[86.13065082573539,27.726627063512332],[86.13037960095392,27.726686270767484],[86.12990667635248,27.726787180509554],[86.12954048060364,27.726945105042272],[86.1293671057987,27.727097463864798],[86.12918047458808,27.72717755216588],[86.12862277039223,27.727327539054727],[86.12634430608969,27.72773530637859],[86.12558109444517,27.72838050295425],[86.1248588934393,27.72872579935522],[86.12378005984183,27.729068848416908],[86.12373885692254,27.729066285035255],[86.12320978941881,27.729295420424982],[86.12217134372624,27.729453601739028],[86.12168572594751,27.72944604225306],[86.12099072044488,27.72956127015473],[86.1207222499685,27.729868737853113],[86.120240074598,27.730138759280514],[86.12012396923214,27.730142574065685],[86.11998304147399,27.730123632341297],[86.11942358685053,27.730336762936975],[86.11906176913828,27.730657173405092],[86.11887764295776,27.73101259251302],[86.11863217778499,27.73108780413872],[86.11838927630949,27.731169768211043],[86.11755334736988,27.731622597104394],[86.11652590736989,27.73191625590437],[86.11608662372502,27.73224748250019],[86.11601791247946,27.732314752651117],[86.11599509209337,27.732398152441107],[86.11596465157167,27.73306597317316],[86.11526846768896,27.733995940737866],[86.11493653528315,27.73422863766802],[86.11487232421369,27.73424845651719],[86.114532824541,27.734356866584875],[86.1143628255148,27.734473151928775],[86.11435488626661,27.734525042370382],[86.114337755358,27.73463545048964],[86.11449794291829,27.734866766139888],[86.11468038879464,27.73512746638561],[86.11504428266991,27.735847486185207],[86.11550145925605,27.736410146994025],[86.11554610121827,27.73645328497335],[86.11589379292853,27.736511923090433],[86.11638747910013,27.736754301951372],[86.11731589869092,27.737775843285533],[86.11773212230472,27.738347256684705],[86.11835205035817,27.739253954214057],[86.11862697048831,27.739686766399284],[86.11879597683385,27.74015959084291],[86.11917593669745,27.740708248342475],[86.12009041291356,27.741707032524673],[86.12038633698836,27.741891708148106],[86.1212108442633,27.742998337312528],[86.12153222229186,27.743686474401976],[86.1218057031077,27.744112534283634],[86.1220158480242,27.744438877290808],[86.12211907924579,27.74489769849951],[86.12270568693133,27.746126928833377],[86.12280897812151,27.746344241639083],[86.12329966564565,27.746767173498355],[86.12351574631373,27.746865575074768],[86.12482624711708,27.74806778992413],[86.12510460307148,27.748245527171953],[86.12517562947852,27.748291164403966],[86.12596992684028,27.748499280139225],[86.12665937305752,27.748772166383745],[86.12706583900811,27.749020735211204],[86.12809178360011,27.74913782220584],[86.1288521906377,27.749144816151194],[86.12910828591205,27.74920514391193],[86.12921470095505,27.749255470584313],[86.12947086227074,27.74954824165232],[86.12960467357816,27.750512772772993],[86.12955653479438,27.750826177704873],[86.12911382243992,27.751942822419178],[86.12911614426417,27.752613207509402],[86.12952524247272,27.753371863661133],[86.12996285576463,27.75446467958369],[86.13025771526618,27.754466552773188],[86.13174507531211,27.75414856944643],[86.13217066846916,27.753986517880325],[86.13301272461977,27.753497490678605],[86.13350433878658,27.753087552765074],[86.13422534599782,27.75230206521439],[86.13474484057326,27.751452185823727],[86.13497247838593,27.750738160903932],[86.13534865215493,27.748474493073214],[86.13539452858983,27.747235691678],[86.1352752203395,27.746077165043346],[86.13533466943787,27.745296622479092],[86.13584184038032,27.743945596050818],[86.13607754253364,27.743132292215734],[86.13633836638931,27.741296751004658],[86.13636668707659,27.741080249424527],[86.13658395304617,27.74095070983716],[86.13738124409156,27.74061260207731],[86.14005146565474,27.739123763369612],[86.14039933990296,27.73875802759836],[86.1410580144937,27.738218175519304],[86.14205762753562,27.73767819433835],[86.14215366285548,27.737595231597012],[86.14248784063568,27.736956353024937],[86.14330232004973,27.736155610121823],[86.14375004062293,27.735506102302516],[86.14471425821255,27.734406144976404],[86.14514641510186,27.734122181793953],[86.14545215288345,27.73403827950881],[86.14553918742817,27.73421939426943],[86.14556145571585,27.73502750631914],[86.14572183379165,27.7355227126898],[86.14651676903826,27.736789326205624],[86.14676286339565,27.737030082115027],[86.14684839461889,27.737039646955918],[86.14737827556068,27.736744930216208],[86.14776035388401,27.736713479708158],[86.14817663481865,27.736880774735294],[86.14829380376214,27.736897340077928],[86.148770856694,27.736963417806137],[86.1496933898431,27.737314386482662],[86.15102144497051,27.73734957146966],[86.1518950224025,27.737630269939313],[86.1522675999406,27.737801816679433],[86.15243003744749,27.73794954574697],[86.15246642791776,27.738087397918864],[86.1523907797249,27.73852252701705],[86.15180676255041,27.739417232457512],[86.15129783012718,27.73990394271087],[86.15099985350633,27.740635598189648],[86.15069343500286,27.74117763578146],[86.15070512977921,27.74143277325311],[86.15087613215698,27.74158956690144],[86.15134512117217,27.741752672510195],[86.15181542070957,27.741782614665663],[86.1519171460388,27.74178999082081],[86.15228296885363,27.74176516723175],[86.15297434642446,27.741464697085828],[86.15405380522829,27.74117110006007],[86.15495763750476,27.740996039141997],[86.15578794446854,27.740974024498964],[86.15620428844002,27.74110293313712],[86.15671435046156,27.740993208194475],[86.1571230625344,27.740792520955868],[86.15819626920243,27.74052593160632],[86.15970326826425,27.740767549581108],[86.1600802196002,27.74072922269561],[86.16041534106063,27.74048752274002],[86.16072907669408,27.74001088015834],[86.16088687632674,27.739321238060683],[86.16101692001023,27.738985700806357],[86.1612470031001,27.73883365456796],[86.16155061436899,27.738729370128762]]]}},{"type":"Feature","properties":{"province":"Bagmati Province","district":"Dolakha","municipality":"Kalinchok Rural Municipality","ward":"3","wardNumber":3,"sourceMunicipality":"Kalinchok","sourceType":"Gaunpalika"},"geometry":{"type":"Polygon","coordinates":[[[86.16622209581465,27.743657395340165],[86.16613793858178,27.743600504373006],[86.16534213293261,27.74277639548301],[86.16446297974717,27.741583928829705],[86.16340207448428,27.740643164011615],[86.16298866858399,27.740392406677945],[86.16191350888083,27.739541855788882],[86.16176101261551,27.739376121107814],[86.16167679156332,27.739154431865956],[86.16155061436899,27.738729370128762],[86.1612470031001,27.73883365456796],[86.16101692001023,27.738985700806357],[86.16088687632674,27.739321238060683],[86.16072907669408,27.74001088015834],[86.16041534106063,27.74048752274002],[86.1600802196002,27.74072922269561],[86.15970326826425,27.740767549581108],[86.15819626920243,27.74052593160632],[86.1571230625344,27.740792520955868],[86.15671435046156,27.740993208194475],[86.15620428844002,27.74110293313712],[86.15578794446854,27.740974024498964],[86.15495763750476,27.740996039141997],[86.15405380522829,27.74117110006007],[86.15297434642446,27.741464697085828],[86.15228296885363,27.74176516723175],[86.1519171460388,27.74178999082081],[86.15181542070957,27.741782614665663],[86.15134512117217,27.741752672510195],[86.15087613215698,27.74158956690144],[86.15070512977921,27.74143277325311],[86.15069343500286,27.74117763578146],[86.15099985350633,27.740635598189648],[86.15129783012718,27.73990394271087],[86.15180676255041,27.739417232457512],[86.1523907797249,27.73852252701705],[86.15246642791776,27.738087397918864],[86.15243003744749,27.73794954574697],[86.1522675999406,27.737801816679433],[86.1518950224025,27.737630269939313],[86.15102144497051,27.73734957146966],[86.1496933898431,27.737314386482662],[86.148770856694,27.736963417806137],[86.14829380376214,27.736897340077928],[86.14817663481865,27.736880774735294],[86.14776035388401,27.736713479708158],[86.14737827556068,27.736744930216208],[86.14684839461889,27.737039646955918],[86.14676286339565,27.737030082115027],[86.14651676903826,27.736789326205624],[86.14572183379165,27.7355227126898],[86.14556145571585,27.73502750631914],[86.14553918742817,27.73421939426943],[86.14545215288345,27.73403827950881],[86.14514641510186,27.734122181793953],[86.14471425821255,27.734406144976404],[86.14375004062293,27.735506102302516],[86.14330232004973,27.736155610121823],[86.14248784063568,27.736956353024937],[86.14215366285548,27.737595231597012],[86.14205762753562,27.73767819433835],[86.1410580144937,27.738218175519304],[86.14039933990296,27.73875802759836],[86.14005146565474,27.739123763369612],[86.13738124409156,27.74061260207731],[86.13658395304617,27.74095070983716],[86.13636668707659,27.741080249424527],[86.13633836638931,27.741296751004658],[86.13607754253364,27.743132292215734],[86.13584184038032,27.743945596050818],[86.13533466943787,27.745296622479092],[86.1352752203395,27.746077165043346],[86.13539452858983,27.747235691678],[86.13534865215493,27.748474493073214],[86.13497247838593,27.750738160903932],[86.13474484057326,27.751452185823727],[86.13422534599782,27.75230206521439],[86.13350433878658,27.753087552765074],[86.13301272461977,27.753497490678605],[86.13217066846916,27.753986517880325],[86.13174507531211,27.75414856944643],[86.13025771526618,27.754466552773188],[86.12996285576463,27.75446467958369],[86.13019632497041,27.755048473654934],[86.13054583576361,27.75556749775031],[86.13063612370755,27.755940481038948],[86.13087540239397,27.756122469582397],[86.13290378534239,27.756606904453044],[86.1343426319693,27.756699417389793],[86.13512855205663,27.75693441574761],[86.1358980257627,27.757002491005988],[86.13624903110687,27.75709495231497],[86.13679355005844,27.757461741421285],[86.13715055974357,27.757592651676752],[86.13729623843525,27.7576205959706],[86.13862523008254,27.757479854210526],[86.13984899290273,27.75725271294071],[86.14162470999749,27.75692066009221],[86.14303867036614,27.75686844326214],[86.14530513279963,27.756688367248646],[86.14658122758784,27.756368948976277],[86.14695004934894,27.756210961248186],[86.14701544868338,27.75620458373072],[86.14721646149131,27.756250970333756],[86.14732712778617,27.756330617336857],[86.14761236128436,27.756524234120025],[86.14775704305413,27.756764365339198],[86.14798713303493,27.757144974855834],[86.14810925011645,27.757879188972698],[86.14833346350778,27.75829137039229],[86.14835672216925,27.758316315022206],[86.14826232270667,27.759166627931066],[86.14771631776662,27.759883219196446],[86.14727922513632,27.76045832951082],[86.14723858540789,27.760469395980724],[86.14823722609756,27.76211180570936],[86.14922111025318,27.763620988356177],[86.14995001060312,27.764067799770878],[86.15015883046871,27.763473248305342],[86.15152412455012,27.761558672773184],[86.15247502763113,27.760575937518965],[86.15311775530036,27.75971767889797],[86.15466575446041,27.758779200050377],[86.15551662689866,27.758369133997803],[86.15583580697395,27.75831686502113],[86.15609833969785,27.758126619001715],[86.15657388875307,27.757971506889078],[86.15678427732773,27.75783290157805],[86.15698847456169,27.75754750254401],[86.15730169784337,27.756159091830476],[86.15759867318913,27.75536191802361],[86.15760154890272,27.75535516587262],[86.15822476633242,27.75427559243204],[86.15924650749577,27.753293231042367],[86.15970035735245,27.752790391390974],[86.15979220259429,27.752720995769653],[86.15982890399721,27.75269417503193],[86.16001897153471,27.75251249463688],[86.16112556003111,27.75174957202495],[86.16251105422859,27.750299944499304],[86.1633360775583,27.747736434450506],[86.16368876225374,27.74707054746862],[86.1639891762921,27.746302694555236],[86.16415904962206,27.74606449732315],[86.16538505829907,27.745439926741675],[86.1655458019957,27.745230988598024],[86.16551622402692,27.744824557845313],[86.16590485721477,27.743971490820826],[86.16622209581465,27.743657395340165]]]}},{"type":"Feature","properties":{"province":"Bagmati Province","district":"Dolakha","municipality":"Kalinchok Rural Municipality","ward":"5","wardNumber":5,"sourceMunicipality":"Kalinchok","sourceType":"Gaunpalika"},"geometry":{"type":"Polygon","coordinates":[[[86.14723858540789,27.760469395980724],[86.14727922513632,27.76045832951082],[86.14771631776662,27.759883219196446],[86.14826232270667,27.759166627931066],[86.14835672216925,27.758316315022206],[86.14833346350778,27.75829137039229],[86.14810925011645,27.757879188972698],[86.14798713303493,27.757144974855834],[86.14775704305413,27.756764365339198],[86.14761236128436,27.756524234120025],[86.14732712778617,27.756330617336857],[86.14721646149131,27.756250970333756],[86.14701544868338,27.75620458373072],[86.14695004934894,27.756210961248186],[86.14658122758784,27.756368948976277],[86.14530513279963,27.756688367248646],[86.14303867036614,27.75686844326214],[86.14162470999749,27.75692066009221],[86.13984899290273,27.75725271294071],[86.13862523008254,27.757479854210526],[86.13729623843525,27.7576205959706],[86.13715055974357,27.757592651676752],[86.13679355005844,27.757461741421285],[86.13624903110687,27.75709495231497],[86.1358980257627,27.757002491005988],[86.13512855205663,27.75693441574761],[86.1343426319693,27.756699417389793],[86.13290378534239,27.756606904453044],[86.13087540239397,27.756122469582397],[86.13063612370755,27.755940481038948],[86.13054583576361,27.75556749775031],[86.13019632497041,27.755048473654934],[86.12996285576463,27.75446467958369],[86.12952524247272,27.753371863661133],[86.12911614426417,27.752613207509402],[86.12911382243992,27.751942822419178],[86.12955653479438,27.750826177704873],[86.12960467357816,27.750512772772993],[86.12947086227074,27.74954824165232],[86.12921470095505,27.749255470584313],[86.12910828591205,27.74920514391193],[86.1288521906377,27.749144816151194],[86.12809178360011,27.74913782220584],[86.12706583900811,27.749020735211204],[86.12665937305752,27.748772166383745],[86.12596992684028,27.748499280139225],[86.12517562947852,27.748291164403966],[86.12510460307148,27.748245527171953],[86.12482624711708,27.74806778992413],[86.12351574631373,27.746865575074768],[86.12329966564565,27.746767173498355],[86.12280897812151,27.746344241639083],[86.12270568693133,27.746126928833377],[86.12211907924579,27.74489769849951],[86.1220158480242,27.744438877290808],[86.1218057031077,27.744112534283634],[86.12153222229186,27.743686474401976],[86.1212108442633,27.742998337312528],[86.12038633698836,27.741891708148106],[86.12009041291356,27.741707032524673],[86.11917593669745,27.740708248342475],[86.11879597683385,27.74015959084291],[86.11862697048831,27.739686766399284],[86.11835205035817,27.739253954214057],[86.11773212230472,27.738347256684705],[86.11731589869092,27.737775843285533],[86.11638747910013,27.736754301951372],[86.11589379292853,27.736511923090433],[86.11554610121827,27.73645328497335],[86.11550145925605,27.736410146994025],[86.11504428266991,27.735847486185207],[86.11468038879464,27.73512746638561],[86.11449794291829,27.734866766139888],[86.114337755358,27.73463545048964],[86.11435488626661,27.734525042370382],[86.11357691085995,27.734617077211205],[86.11319145665146,27.734725237625717],[86.11257041943041,27.73513880300145],[86.11189755578253,27.735965051800925],[86.11146840345798,27.73649046065442],[86.1108443640484,27.73683856875378],[86.11019394332801,27.737486703278247],[86.10926060334526,27.73800642723657],[86.10795982536605,27.739311698268345],[86.10779658063244,27.739574714683354],[86.10774944297285,27.739949137167688],[86.10778796005319,27.74016601338971],[86.10813922236396,27.740800196255194],[86.10825795966976,27.74121400387348],[86.1082272623454,27.741326661726124],[86.10813079316766,27.741682642780816],[86.10782193076825,27.74183862875682],[86.10698643562817,27.742029630334315],[86.10632175160877,27.74203663869562],[86.10609272990662,27.7420802790307],[86.10593480538408,27.742754103209233],[86.10576068285098,27.74313890569354],[86.10574486479987,27.743174916403433],[86.10545275977138,27.74341455251173],[86.10493707138397,27.743621118073513],[86.10399378612183,27.743840691512528],[86.10223826328016,27.744037016013344],[86.10185205988574,27.744190252069775],[86.10152694199466,27.7443912520774],[86.10187582706186,27.74492615593633],[86.10225347870595,27.745820102241755],[86.10235895922101,27.746188646547886],[86.10281576498022,27.74705827216278],[86.10343912656401,27.747500145956018],[86.1045318606142,27.748854658453986],[86.10494947144612,27.750344653521342],[86.1054568573226,27.75120108820095],[86.10564375132202,27.752204380817048],[86.10568296291113,27.752960665161428],[86.10564939090216,27.753229055984043],[86.1057867129016,27.75493618162534],[86.10574332614023,27.755281220351392],[86.10433319239296,27.75635092328402],[86.1039645615642,27.75682481577558],[86.10395537007739,27.756829254406405],[86.1035654777306,27.757000496365734],[86.101754934068,27.757225767476104],[86.10105129936049,27.757252845434873],[86.09972755413546,27.756937265073507],[86.0960974584622,27.756875345380436],[86.09545084493242,27.756986196281886],[86.09426327938567,27.75696951597237],[86.0939260916221,27.756935634042435],[86.09307939872782,27.756659248585954],[86.09276678042828,27.756451878296737],[86.0918346751921,27.755651277581197],[86.09171549729164,27.754946384166416],[86.09162464949137,27.75477877321971],[86.09151842392555,27.754893182915282],[86.09125164746479,27.75574681109685],[86.09072227039273,27.756280472991325],[86.09045636145109,27.756425455659855],[86.089626180211,27.756526055787972],[86.08940009774656,27.756635152355447],[86.08813744653176,27.75703315636604],[86.08723336362279,27.75721228006334],[86.08597483343846,27.75706856307789],[86.08480621354104,27.75714209576695],[86.08467028988638,27.757274386146772],[86.08421994400229,27.757998102478453],[86.0841224106651,27.758243487671763],[86.08409740190554,27.758315571676746],[86.08413937158022,27.759645149644392],[86.08543449860969,27.761400590009305],[86.0874427047934,27.76342697740999],[86.0887916105436,27.765871119428834],[86.08925330349963,27.7676752068485],[86.08947965476297,27.769107562936313],[86.08944564216723,27.769114128087253],[86.09159324926974,27.76896118735056],[86.09200233815098,27.768932299932242],[86.09294693799094,27.768852704823278],[86.0951117411366,27.76895483790346],[86.10072695455656,27.769438237670457],[86.10215910644371,27.769156391142545],[86.10276514333712,27.769130940051298],[86.10337905797212,27.76910561446934],[86.10483690784174,27.768785506532097],[86.10664844375562,27.767986878609136],[86.1073390044271,27.76728041438799],[86.10741571898816,27.76720195378591],[86.1086824891278,27.76626891742002],[86.11032527585445,27.765428591606458],[86.11049758842773,27.76534169007771],[86.11154478488811,27.765039215328546],[86.11318069891747,27.764568936238238],[86.1140659499403,27.763387393118542],[86.11490655675954,27.761995726407964],[86.11533502253914,27.761565158583405],[86.11597175554387,27.761300637033635],[86.116995257624,27.76113332821168],[86.12006338819737,27.760631462898797],[86.12016642680469,27.76059826476743],[86.121065005944,27.76030604534551],[86.12198721839184,27.75996206025797],[86.12338692591776,27.760067952083414],[86.12566027047617,27.760229039346132],[86.12684609034136,27.7606675315821],[86.12830482063141,27.76077379859613],[86.1294391168841,27.76087794222278],[86.13349318265712,27.76085589586885],[86.1354395898959,27.76077103961603],[86.13938817422432,27.76040964369239],[86.14230869146893,27.760186236436205],[86.14619588949844,27.76074054780379],[86.14723858540789,27.760469395980724]]]}},{"type":"Feature","properties":{"province":"Bagmati Province","district":"Dolakha","municipality":"Kalinchok Rural Municipality","ward":"6","wardNumber":6,"sourceMunicipality":"Kalinchok","sourceType":"Gaunpalika"},"geometry":{"type":"Polygon","coordinates":[[[86.08944564216723,27.769114128087253],[86.08947965476297,27.769107562936313],[86.08925330349963,27.7676752068485],[86.0887916105436,27.765871119428834],[86.0874427047934,27.76342697740999],[86.08543449860969,27.761400590009305],[86.08413937158022,27.759645149644392],[86.08409740190554,27.758315571676746],[86.0841224106651,27.758243487671763],[86.08421994400229,27.757998102478453],[86.08467028988638,27.757274386146772],[86.08480621354104,27.75714209576695],[86.08597483343846,27.75706856307789],[86.08723336362279,27.75721228006334],[86.08813744653176,27.75703315636604],[86.08940009774656,27.756635152355447],[86.089626180211,27.756526055787972],[86.09045636145109,27.756425455659855],[86.09072227039273,27.756280472991325],[86.09125164746479,27.75574681109685],[86.09151842392555,27.754893182915282],[86.09162464949137,27.75477877321971],[86.09171549729164,27.754946384166416],[86.0918346751921,27.755651277581197],[86.09276678042828,27.756451878296737],[86.09307939872782,27.756659248585954],[86.0939260916221,27.756935634042435],[86.09426327938567,27.75696951597237],[86.09545084493242,27.756986196281886],[86.0960974584622,27.756875345380436],[86.09972755413546,27.756937265073507],[86.10105129936049,27.757252845434873],[86.101754934068,27.757225767476104],[86.1035654777306,27.757000496365734],[86.10395537007739,27.756829254406405],[86.1039645615642,27.75682481577558],[86.10433319239296,27.75635092328402],[86.10574332614023,27.755281220351392],[86.1057867129016,27.75493618162534],[86.10564939090216,27.753229055984043],[86.10568296291113,27.752960665161428],[86.10564375132202,27.752204380817048],[86.1054568573226,27.75120108820095],[86.10494947144612,27.750344653521342],[86.1045318606142,27.748854658453986],[86.10343912656401,27.747500145956018],[86.10281576498022,27.74705827216278],[86.10235895922101,27.746188646547886],[86.10225347870595,27.745820102241755],[86.10187582706186,27.74492615593633],[86.10152694199466,27.7443912520774],[86.10185205988574,27.744190252069775],[86.10223826328016,27.744037016013344],[86.10399378612183,27.743840691512528],[86.10493707138397,27.743621118073513],[86.10545275977138,27.74341455251173],[86.10574486479987,27.743174916403433],[86.10576068285098,27.74313890569354],[86.10593480538408,27.742754103209233],[86.10609272990662,27.7420802790307],[86.10632175160877,27.74203663869562],[86.10698643562817,27.742029630334315],[86.10782193076825,27.74183862875682],[86.10813079316766,27.741682642780816],[86.1082272623454,27.741326661726124],[86.10825795966976,27.74121400387348],[86.10813922236396,27.740800196255194],[86.10778796005319,27.74016601338971],[86.10774944297285,27.739949137167688],[86.10779658063244,27.739574714683354],[86.10795982536605,27.739311698268345],[86.10926060334526,27.73800642723657],[86.11019394332801,27.737486703278247],[86.1108443640484,27.73683856875378],[86.11146840345798,27.73649046065442],[86.11189755578253,27.735965051800925],[86.11257041943041,27.73513880300145],[86.11319145665146,27.734725237625717],[86.11357691085995,27.734617077211205],[86.11435488626661,27.734525042370382],[86.1143628255148,27.734473151928775],[86.114532824541,27.734356866584875],[86.11487232421369,27.73424845651719],[86.11493653528315,27.73422863766802],[86.11526846768896,27.733995940737866],[86.11596465157167,27.73306597317316],[86.11599509209337,27.732398152441107],[86.11601791247946,27.732314752651117],[86.11608662372502,27.73224748250019],[86.11652590736989,27.73191625590437],[86.11755334736988,27.731622597104394],[86.11838927630949,27.731169768211043],[86.11863217778499,27.73108780413872],[86.11887764295776,27.73101259251302],[86.11906176913828,27.730657173405092],[86.11942358685053,27.730336762936975],[86.11998304147399,27.730123632341297],[86.11986668475318,27.730005599613097],[86.11968423592452,27.72955071746269],[86.11904642997305,27.72897567968296],[86.11877969777827,27.72831492626129],[86.118581051643,27.727501126530544],[86.11844981016836,27.727062562151794],[86.11835058306131,27.726824867923263],[86.11790703332736,27.72594636461556],[86.11775871646846,27.725001963231254],[86.11787637107028,27.72389001139312],[86.11770561359758,27.72331796940407],[86.11757806273049,27.72305526876169],[86.11711513265242,27.7223865775229],[86.11660718743222,27.72183717086698],[86.1162514901622,27.721561780781148],[86.11591198402401,27.721164667601997],[86.11518695962361,27.720679345206474],[86.11466744908788,27.720233656479206],[86.11461961812222,27.720115997822912],[86.11467900916932,27.719664989513102],[86.11440996982603,27.719494004825542],[86.11372684011371,27.71940160947218],[86.11344179734837,27.719408801244793],[86.11278086758206,27.719589673737186],[86.11021935264944,27.719336312161367],[86.1098057600194,27.719202714395056],[86.10925962013552,27.71914957883515],[86.10784078376697,27.71931426622109],[86.10738442854355,27.71937904003191],[86.10677945500872,27.71946319548392],[86.10568173944206,27.719717906169173],[86.10501574595655,27.720013811301058],[86.10421670268737,27.72022757002754],[86.10267251363126,27.720912723060938],[86.10211168217698,27.720985874998146],[86.10138804146898,27.72120013249464],[86.0996086387949,27.721727992816103],[86.09918904658778,27.72174331386127],[86.09891350559687,27.72167160816573],[86.09857781711314,27.72150687555721],[86.09839274717758,27.721458300678975],[86.09802073377841,27.721358837506966],[86.09777489303164,27.721373030954297],[86.0971334029815,27.721195110556614],[86.09680578255386,27.72124937963008],[86.09664259720681,27.721275388907394],[86.09640350759092,27.72124000589855],[86.09600085652909,27.721013943000337],[86.09532160278901,27.720919234313477],[86.09499192009733,27.721023143674532],[86.09479047313802,27.721270092295438],[86.09460553602234,27.721783495559976],[86.09459878415569,27.721801500848386],[86.09441265320653,27.721836387559183],[86.09435156901634,27.721980492696193],[86.09412199484393,27.72287269461622],[86.09371817971211,27.724630526995806],[86.09340256856464,27.725109170333177],[86.09339969262298,27.725111421421232],[86.09300855146138,27.725406761595213],[86.09262297153957,27.72544940303377],[86.0922842223707,27.725548748081167],[86.09212866629764,27.72571923687109],[86.09188070572314,27.72618256353891],[86.09160054290909,27.726440266983175],[86.09121658990824,27.72662732490217],[86.09118257710551,27.726642954740058],[86.09098613256343,27.726858332523907],[86.09071972602783,27.727289899355323],[86.09027400284666,27.727654885767212],[86.09007837252899,27.727971793522315],[86.08998359475002,27.728609919378105],[86.09002649060878,27.72898709223772],[86.08986549812859,27.729365204437833],[86.08918000559535,27.730279291868005],[86.0891108552136,27.73032180562087],[86.08870452019828,27.7305718203474],[86.08795450077827,27.73128466155677],[86.08692944120422,27.731887286165893],[86.08622681521304,27.732686152547068],[86.08594534143931,27.73314016375421],[86.0854916151463,27.733482518252302],[86.08524308880516,27.733738158420067],[86.08353140092646,27.734514527857563],[86.08316614471305,27.73481455643094],[86.08313726004324,27.734857257180213],[86.08285090843418,27.73527744533453],[86.08255036484736,27.735717765184337],[86.08195033818463,27.73635026931268],[86.08144515369821,27.73661553935939],[86.08016112074469,27.73702229614979],[86.07849994364767,27.73709477122755],[86.07803745937227,27.737114281236323],[86.07764093883954,27.737170301431686],[86.07605441270078,27.737152999235363],[86.07578612624029,27.737189575785496],[86.07385523001473,27.73774094288178],[86.07254168708027,27.738249042453173],[86.07197767009507,27.73861090429467],[86.07057484644615,27.739364326385214],[86.06995318098322,27.739531694422528],[86.06887159696477,27.739942012178258],[86.0677641897575,27.740180593275223],[86.06678514301844,27.7405012591491],[86.06633566431186,27.740518518917728],[86.06520843535743,27.740583173769185],[86.06390733117958,27.740822630898734],[86.06281224132563,27.741137984079145],[86.06171527248753,27.74115093590814],[86.06103127232234,27.741450968069184],[86.06077199121609,27.741663720849896],[86.06047213541615,27.742092661503552],[86.05970435809935,27.742658460715347],[86.05892951081337,27.742899225687115],[86.05838218444343,27.74301288979827],[86.05728471518817,27.74297157539526],[86.05669549732475,27.74306235804255],[86.05500331351136,27.74351344394744],[86.05466150092143,27.74365567639453],[86.05423934647146,27.74381072631369],[86.05292030121832,27.744314073730585],[86.05243605954537,27.74438978853542],[86.05196132420855,27.74457834808354],[86.05025914097169,27.745417610248857],[86.04949648886844,27.745931456023406],[86.04826153762164,27.74642404996789],[86.04765963216086,27.746866810961382],[86.0460284142825,27.74785311576463],[86.04563026817128,27.748012916450033],[86.04370086618596,27.748060573698098],[86.04338256177786,27.74812384564686],[86.04270794002784,27.748358420438635],[86.04053801520575,27.748745117162496],[86.03954727355683,27.74882633845091],[86.03936876948671,27.748820588046943],[86.03812111585607,27.748505007572962],[86.03779505783866,27.74851626346619],[86.0374042289101,27.74878209542421],[86.03663507797857,27.749562206795176],[86.03601128751923,27.749853548402044],[86.03573368504745,27.74990350281008],[86.03475726034902,27.749867376395166],[86.0340573769852,27.74994140527649],[86.03351911655821,27.75009345480077],[86.03120419929067,27.750375246593737],[86.03147636826662,27.75083531700726],[86.03153552499035,27.751605354675874],[86.03164132005534,27.75208680753304],[86.0315997448605,27.752307685557668],[86.03171404407111,27.752940432627046],[86.03191062020245,27.753228390361162],[86.03226563017138,27.753501780036775],[86.03242925635693,27.753757916091015],[86.03252148530791,27.75433858573256],[86.0325489962819,27.754381660629118],[86.0327466984009,27.75469225000032],[86.0328029109972,27.75511237222655],[86.03256864862712,27.756076720542723],[86.03266938199928,27.756808683960347],[86.03335165289536,27.758312056908643],[86.03335421628475,27.758316557931348],[86.03410128526299,27.761779379719208],[86.03455164967328,27.762642379427607],[86.03499077433618,27.764678972534742],[86.03560156446764,27.76475992884554],[86.03841028203256,27.763863138865503],[86.03959396881075,27.763679511155775],[86.0410401886922,27.76331707789998],[86.04301666313285,27.762667244129034],[86.04367753137569,27.762536386936326],[86.04431902022907,27.76262428091884],[86.0458319707916,27.76377673013624],[86.04633572823394,27.764459487968235],[86.04764103953661,27.76575942017278],[86.04812673029504,27.766582032033472],[86.04993580211345,27.768781410005346],[86.05121079070985,27.770076591063145],[86.05280589371664,27.77106255299879],[86.05395638627712,27.77135018889319],[86.05614369935083,27.77153434642267],[86.0587201010344,27.772247030972313],[86.06073897667095,27.772434504703924],[86.06293040723614,27.77187381885189],[86.06473650637852,27.771204354622597],[86.06720497698566,27.770584587132202],[86.06794550061912,27.770530876081878],[86.07067858139338,27.77090802308387],[86.07780371572629,27.770307841239333],[86.08369070689217,27.769992628747424],[86.08512210857556,27.769656703690167],[86.08786230724141,27.76922792613287],[86.08944564216723,27.769114128087253]]]}}]}