{"type":"FeatureCollection","features":[{"type":"Feature","properties":{"province":"Bagmati Province","district":"Ramechap","municipality":"Sunapati Rural Municipality","ward":"4","wardNumber":4,"sourceMunicipality":"Sunapati","sourceType":"Gaunpalika"},"geometry":{"type":"Polygon","coordinates":[[[85.83821734186628,27.51715843565208],[85.83837464564853,27.516733121464004],[85.83882574394076,27.516145570804014],[85.83900911412888,27.515221797634705],[85.83925038544785,27.514754345509807],[85.83935841873016,27.51413685084322],[85.83921010802354,27.51352848583011],[85.83932314455949,27.513064536778902],[85.83957329710896,27.5128657257829],[85.84004096864217,27.512777133231673],[85.84037777896864,27.512615145508736],[85.84156915494262,27.512428705909898],[85.84270412954835,27.511824268553948],[85.8431123990958,27.511238592903155],[85.84330590228446,27.51061953476767],[85.84339373345362,27.509390235185105],[85.84371027948009,27.50861419260155],[85.84353727390032,27.50824489756616],[85.8437030221005,27.508128924393635],[85.84376554422286,27.508018829643035],[85.84384901051455,27.50787284817671],[85.84389214932395,27.507710675757316],[85.84391378184444,27.50758219964343],[85.84395654577749,27.50745391149081],[85.8440605830408,27.507308118092116],[85.84416368271428,27.507252538075903],[85.84418531402682,27.507144381404412],[85.84429053773961,27.50688793068216],[85.84439538803062,27.506726319831344],[85.8445200571114,27.506578400054728],[85.84464460148878,27.506432731124807],[85.84495446425711,27.506272806771733],[85.8451623505105,27.5059969110335],[85.8454538920198,27.505653995519495],[85.84570279370999,27.505419111960407],[85.84590649558812,27.50554721021914],[85.84607061879292,27.505584657409553],[85.846480146337,27.505698625102244],[85.84670554200174,27.505718566155267],[85.84693062722664,27.50582872183755],[85.84713507752369,27.50588686178304],[85.84719685066925,27.505869294406722],[85.84742299678419,27.505853099340463],[85.84773229645563,27.505745065421138],[85.84789692009909,27.505710303498656],[85.84810262038184,27.505675916515187],[85.84822635315555,27.505638592304138],[85.84832926576142,27.505603331242433],[85.848514771586,27.505532621642093],[85.84874216650695,27.505387827298073],[85.84911342661138,27.505226088568175],[85.84925760395562,27.505206956832826],[85.84973115267513,27.50506647417023],[85.85010160118206,27.50497694481307],[85.8503691998859,27.504924989630613],[85.85078041337874,27.504874221249946],[85.85319786810284,27.504799366279126],[85.85320937137298,27.50475879154582],[85.85354030049552,27.504181494457413],[85.85416214894472,27.503649457570862],[85.85561811437196,27.502740553494046],[85.85694028149507,27.501916362470457],[85.85727102452502,27.501569257744137],[85.85740219623717,27.501367196887724],[85.85752523987703,27.501187643570102],[85.85763877831292,27.500883865685427],[85.85805259987461,27.499192303304714],[85.85922150087441,27.496288189847327],[85.85942837544297,27.495026004977483],[85.85928462595854,27.49421007910459],[85.85906685344652,27.493759135898458],[85.8590261481853,27.49353088232013],[85.85927955071227,27.49313119987753],[85.85949831289373,27.492627424811413],[85.85951900626908,27.49245606223874],[85.8595245709129,27.49241098670408],[85.85969238027852,27.49224306030987],[85.86025683060208,27.491435256326426],[85.8610880031046,27.490624948340162],[85.8624356069781,27.48888004929964],[85.86250744528165,27.488754262105136],[85.86137539928717,27.48851932755153],[85.8605610949901,27.48821024366313],[85.85957123052249,27.488236010326496],[85.85901708905912,27.488348860175712],[85.85809756218543,27.488305230213303],[85.85716096053743,27.487773895244054],[85.8567996970499,27.487279002367135],[85.85634459041725,27.487205297656033],[85.85527956684531,27.486672962929898],[85.85432146305182,27.486662843251917],[85.85419341502354,27.48662339453828],[85.85369728899109,27.486170203353453],[85.85332470862842,27.485614168211615],[85.8530929341259,27.485542336785276],[85.852825960619,27.485540150782988],[85.85214865290232,27.48593402280904],[85.85181996962419,27.486028365936765],[85.85128152438608,27.486301575536206],[85.85004869802285,27.486733775339324],[85.84970425897576,27.48672865209682],[85.84893578634814,27.48660724801306],[85.8482328988621,27.48638925235918],[85.8469046560029,27.486078172406025],[85.84597412021107,27.48569581744852],[85.84508097367848,27.4852573211268],[85.84447637395803,27.485162048363517],[85.84378324023756,27.48489447595306],[85.84312536792123,27.484478297149405],[85.84170665446796,27.484292754284503],[85.8410208367463,27.484081635419784],[85.840371974276,27.484295204335588],[85.83968215754676,27.484253322310337],[85.8390522965837,27.4840111315934],[85.83842225016754,27.483881724216292],[85.83819760464876,27.4838572811523],[85.83806399315827,27.483835901499074],[85.83651448032668,27.483599532424158],[85.83571587320128,27.483556777007053],[85.83485943330874,27.48368732176496],[85.83408777515548,27.483908768397676],[85.83344591425595,27.483998237533168],[85.83297692878274,27.48401462146026],[85.83263405158047,27.483944041656653],[85.8325488948886,27.483925286161977],[85.83254845809898,27.483968174107666],[85.83247430458036,27.483893028144585],[85.83205858812796,27.483801566639293],[85.83107703328089,27.48335100538278],[85.82957747514888,27.48296828068075],[85.82915488003862,27.482786418369965],[85.82860830172557,27.482657697929287],[85.82835495855113,27.482655574178672],[85.82780025573383,27.482883395783727],[85.82705404946473,27.48347520037248],[85.82642263098661,27.48368658023937],[85.82621105271525,27.483682518362844],[85.8260092883772,27.483498028326302],[85.82573149233734,27.482902106156157],[85.82553448000093,27.482686044466167],[85.82529595297063,27.482539565860012],[85.82474612346384,27.48245148223686],[85.82420448622655,27.482485308833034],[85.82371862097813,27.482575964956997],[85.82174871404487,27.483358335695215],[85.82129048354531,27.48339953983532],[85.820703703455,27.483367535455972],[85.8202443476896,27.483462942131023],[85.8186573853866,27.483302845942205],[85.81748007519481,27.48331992266711],[85.81705898325345,27.483356999685917],[85.81632052523567,27.483603515776533],[85.81511151743071,27.483688051198307],[85.81450272932682,27.483644481029124],[85.81384373250243,27.483300385239197],[85.81357100507269,27.48309263930297],[85.81352448666246,27.48303355974644],[85.81346877824582,27.482978919094062],[85.81286143099047,27.48317917035459],[85.81121845390795,27.48361656283746],[85.8107292147651,27.483919343266226],[85.80992930369784,27.48480173410682],[85.80918741345836,27.485691376216668],[85.80792821817244,27.487562936495966],[85.80785231936818,27.48793917300223],[85.80796624006027,27.48831253143257],[85.80880831726444,27.48980027373135],[85.80928725410294,27.49077030467555],[85.80932778007639,27.49183367906238],[85.80929508320075,27.49214033224169],[85.80910214295572,27.492635229226458],[85.80865554659331,27.493215903340754],[85.80837870244139,27.493983193036566],[85.80826672383249,27.49404089863445],[85.80830898963616,27.494079597168994],[85.80767951707524,27.494952170832114],[85.80682052297766,27.496019178968375],[85.80570955851076,27.49682655035738],[85.80532335583364,27.496994853077375],[85.80470600863636,27.49761697880773],[85.80435163384394,27.498209780404355],[85.8036508252037,27.499384131635118],[85.80345044408038,27.499865399339882],[85.80341399649883,27.500194559111442],[85.80320525761869,27.502621210110142],[85.80324297292707,27.504018558317718],[85.80309342535048,27.50474402255773],[85.80282777207368,27.505403030773106],[85.80266221293179,27.505647666562208],[85.80178264533436,27.506319371057945],[85.80033592945426,27.506886924608594],[85.79969444418936,27.507012341334253],[85.79828699980115,27.508246028064512],[85.79857266812971,27.50828009800877],[85.79901477249908,27.508678836692948],[85.79980794793182,27.50938753851839],[85.80029563341407,27.50991087531412],[85.80056692642839,27.510362318260345],[85.80058218641635,27.510822828425564],[85.80083110177814,27.511888014135124],[85.80080828817677,27.5125016946401],[85.80128991990777,27.514137546403468],[85.80151238041454,27.514398996297],[85.80203626428224,27.51473083882055],[85.80242509657246,27.514833428740182],[85.80357258056945,27.514610791264268],[85.80421356755177,27.514593718236988],[85.8050518855964,27.5153750026806],[85.8054944908064,27.515823443487715],[85.80577116231902,27.516430682000433],[85.80584388561145,27.517347575756514],[85.80572585965064,27.518960237785112],[85.80590561573477,27.51922362594744],[85.8061684645359,27.519408678349738],[85.8064236834518,27.519363475717434],[85.80680063335821,27.51912290197917],[85.80718139772529,27.518997548808933],[85.80809797847371,27.518244820923133],[85.80898036116949,27.517760358458933],[85.80923676900092,27.51775347931122],[85.80962516276821,27.517858381980446],[85.81010021461128,27.517997793852796],[85.81073769885185,27.517865624420864],[85.8118086577616,27.51791312980365],[85.81246227768239,27.518277543357947],[85.81272131171953,27.518347436792926],[85.81310589128421,27.51833718055551],[85.81349434804422,27.51844208310603],[85.81427732945835,27.51884138143482],[85.81518385388365,27.519086071175497],[85.81570667558701,27.51937715221984],[85.81627751601074,27.519822027546134],[85.8166659736136,27.51992692992956],[85.81871748019329,27.51986989623058],[85.82011793165513,27.519525158385132],[85.8203743389374,27.519518279322565],[85.8211935812061,27.519726083193515],[85.82195011975881,27.52062621651113],[85.82234239270225,27.52084621493737],[85.8228587092115,27.520947615660152],[85.82368333008483,27.5213089019468],[85.82386283650229,27.521572227801435],[85.82395831313976,27.521875441328667],[85.82395107174096,27.522949694598136],[85.82404654774356,27.523255158174997],[85.8242298694873,27.523633580053605],[85.82436191892998,27.52374304859847],[85.82462070323825,27.52381294220697],[85.82513107803693,27.523722473860907],[85.82575555298209,27.523208630289943],[85.82626217556492,27.52300300272177],[85.82639034787273,27.522999563269938],[85.8267873736432,27.523370793906597],[85.82717970820038,27.5235906678768],[85.82747881839539,27.52358422621543],[85.82760430141917,27.523504013522025],[85.8278884022097,27.52303474832443],[85.82792372496755,27.522804805934847],[85.8279010216024,27.522114040426445],[85.82775033348811,27.521428902863207],[85.82790225893912,27.520850169517512],[85.82802549013172,27.52069318498691],[85.82840125057245,27.520414224283257],[85.83012914433301,27.52094336521814],[85.83063570437209,27.52073767618081],[85.8316361907508,27.51994262173161],[85.83214124950639,27.519700921451992],[85.83341227766175,27.519321048480915],[85.83443784423646,27.519293532410046],[85.83494709292016,27.519164614436935],[85.83528121407373,27.51892591697533],[85.83565222146426,27.518493411761074],[85.83665527156923,27.51777738087038],[85.8376268144567,27.517406263267834],[85.83821734186628,27.51715843565208]]]}},{"type":"Feature","properties":{"province":"Bagmati Province","district":"Ramechap","municipality":"Sunapati Rural Municipality","ward":"2","wardNumber":2,"sourceMunicipality":"Sunapati","sourceType":"Gaunpalika"},"geometry":{"type":"Polygon","coordinates":[[[85.90724168777733,27.531835836300115],[85.90739836559658,27.5314104604103],[85.9076445781252,27.53109642812131],[85.90806166597086,27.530779206060814],[85.90894917775238,27.530447601059503],[85.90995704411381,27.52988223836563],[85.91063598056657,27.52970924448825],[85.91092877395289,27.5295107463222],[85.91105306858492,27.52939202292009],[85.91108945467793,27.52919821584534],[85.91101948308416,27.528396417647347],[85.91125500013514,27.527777609625378],[85.91154935700011,27.527615184023308],[85.91214764089645,27.527597298659284],[85.91256354004199,27.527241627524425],[85.91264381785639,27.52708658171402],[85.91275028750708,27.52643282645535],[85.91311397801806,27.525808264225617],[85.91328122600925,27.525689977978104],[85.91352230914862,27.52522240161811],[85.91363478306853,27.524758326622045],[85.91334203841356,27.523695267126893],[85.91302197633703,27.52309015487416],[85.91296901559458,27.522787316740953],[85.91292235816938,27.52140797417586],[85.91302451165457,27.520639184994483],[85.9132979166275,27.519864892851732],[85.91394558194442,27.518775317120024],[85.91406987610202,27.518656656417644],[85.91444932733909,27.518492604178483],[85.9151724679452,27.51835605771165],[85.91541549028352,27.51796750453942],[85.91561374652585,27.517501865941636],[85.91619706801855,27.515797860023966],[85.91653505194269,27.514410200000363],[85.91661625368685,27.51302954401165],[85.91672897775622,27.51256553188392],[85.9171301797944,27.51178773667222],[85.91740327242805,27.511013444484703],[85.91795965106802,27.50977195014905],[85.91815753156376,27.50930624948899],[85.91830751839984,27.50868900459983],[85.91826443493149,27.508241810712065],[85.91824479363754,27.507496842145624],[85.9178700913515,27.507338236332064],[85.91707954392707,27.506837846660627],[85.91665350681545,27.506394407860608],[85.91638321607257,27.506112452420727],[85.91610404531671,27.505672450870133],[85.91583062619547,27.5051557390008],[85.91533930450878,27.503788716126206],[85.91497066250267,27.503239621320876],[85.91448722966197,27.502813812667306],[85.91335455427749,27.502204644137937],[85.9126034607653,27.501876053664397],[85.91199798567594,27.50170207099972],[85.91010815056575,27.50064233839002],[85.90826683819012,27.49991926782062],[85.90768793435073,27.49975222344362],[85.90704306724336,27.499374805960333],[85.90695296947574,27.49913936317517],[85.90710177003784,27.498811014639077],[85.9073768061265,27.498510674375176],[85.90777769668085,27.49786835717786],[85.90789535356065,27.496840116597554],[85.90821046353807,27.496262569719065],[85.90831456217816,27.495974483673574],[85.90831243373822,27.495771362016477],[85.90789827376437,27.49512711418011],[85.90717874248377,27.49375377972992],[85.90652224159535,27.492965491530736],[85.90547684612793,27.492065798850927],[85.9051437826362,27.4918306698676],[85.90473443992234,27.491414488960853],[85.90454768007979,27.491169230761372],[85.9040296012176,27.489971258407667],[85.903630071859,27.4893587071816],[85.90333170776694,27.48900879492467],[85.9025344677153,27.488305219877905],[85.9016738943192,27.48773862340032],[85.90137340613649,27.487605399802497],[85.90103596705032,27.487368020976334],[85.90005028496245,27.48691564649204],[85.89936627987812,27.486664203243333],[85.89916076500958,27.486531666074693],[85.89874598804721,27.486623197356703],[85.89822373483436,27.486777058869936],[85.89731246548962,27.48720775617318],[85.89590319950308,27.487611887265334],[85.89445629935058,27.488394879882925],[85.89402163955087,27.488529110191415],[85.8928303896409,27.488695669405526],[85.89206498472473,27.488931120581555],[85.89139767544167,27.48890774435886],[85.89084678622383,27.489045539561186],[85.8905981956138,27.489197086705726],[85.89000361129784,27.490065784558755],[85.8897499563653,27.490219456175918],[85.8891533635504,27.490402078180058],[85.88898255144305,27.49055868762612],[85.88866245019044,27.492099892770515],[85.88828869464425,27.492774094668206],[85.88797283266557,27.49316196079105],[85.88767736672463,27.494836517911875],[85.88747017333392,27.495527722903645],[85.88728635764585,27.49580836928055],[85.88650526416738,27.496436372692912],[85.88602472009293,27.49718859773016],[85.88556423987363,27.497399351479135],[85.88530777016717,27.49744017809818],[85.88512107606948,27.497413859555213],[85.88462564563565,27.497628864499966],[85.88408432473587,27.498039739339646],[85.88353656659385,27.4986447971201],[85.88329836075951,27.499304117793898],[85.88246424441839,27.49962703286768],[85.8823366979312,27.499722998989785],[85.88205634882428,27.500106676481757],[85.88177693516516,27.500266914122857],[85.88159411841953,27.500321931836083],[85.88137272280714,27.500191457580225],[85.88084927323635,27.49969750436798],[85.88063732065618,27.499698068964918],[85.88035996920124,27.499777094607577],[85.88018997004386,27.499884065539355],[85.87960538802687,27.500689619667487],[85.87922180842837,27.5006639898944],[85.8788204085538,27.500532080123822],[85.87834929895871,27.500749522808587],[85.87714730789318,27.502096241572964],[85.87650695573129,27.50293518047976],[85.87610294021256,27.503742171470435],[85.87548371771629,27.504305967411405],[85.87463078814739,27.50526731869887],[85.8743343093135,27.505768218475623],[85.87429960849978,27.505783723906802],[85.87436844915166,27.50598515738821],[85.87449649849803,27.50618477741899],[85.87455145760431,27.50628455626523],[85.87449362524376,27.506464609500863],[85.874343821329,27.50661234145523],[85.87410098258607,27.506711997815433],[85.8738400757768,27.506824908412323],[85.87361499429664,27.507021780553686],[85.87333457963865,27.50718426854134],[85.87320134688456,27.5074991742626],[85.87304991911695,27.50779582556386],[85.8730282269515,27.508061966302858],[85.87323080281912,27.508244205865953],[85.87373417990788,27.50853034780015],[85.87361851628741,27.50891764978158],[85.87341119182112,27.509114584580733],[85.87286355490095,27.509360661651826],[85.87265854453722,27.50963436889116],[85.87275921135888,27.510091064438566],[85.87307902392659,27.51069623913283],[85.87336589027719,27.511608129960496],[85.87342510487811,27.512105087203484],[85.87340153993456,27.51268044387411],[85.87347595294212,27.513637975095467],[85.8737530611682,27.514242837095185],[85.8741086349161,27.51465639318437],[85.87438061471931,27.51510777321044],[85.87457187995051,27.515716450635253],[85.87497440912168,27.51624328969992],[85.87516567385929,27.516851966034704],[85.87515349237903,27.517772674077946],[85.87480450030728,27.51885543290354],[85.87478218555985,27.51946917585431],[85.87511694585599,27.520532609736424],[85.87508944060265,27.52099505834988],[85.87501416637971,27.521303650199346],[85.874655042635,27.522079443767733],[85.87428960083783,27.522665556584283],[85.87387482712788,27.523059425270954],[85.87307816352825,27.5235404487924],[85.87279425092238,27.52400983854719],[85.87260606453764,27.524780191744274],[85.87213359128951,27.52601999699551],[85.87170245878295,27.528485537505848],[85.8713794079684,27.529069774145373],[85.87067953361989,27.529894647849527],[85.87047871422749,27.530283451195604],[85.87095626785363,27.530501698961704],[85.87187167354352,27.5310124034275],[85.87291174979292,27.531406759601655],[85.87367590510686,27.531232390087933],[85.8748273922125,27.53112434794755],[85.87590754443065,27.531439931238996],[85.87634120634327,27.53161954244162],[85.87665951844703,27.532186331814565],[85.87705466677316,27.53248291467723],[85.87752984422133,27.532622139129185],[85.87813206802893,27.532721788569408],[85.878766862938,27.532512471286],[85.87928361713199,27.532613683868657],[85.88004777304567,27.53243931365803],[85.88030568093305,27.532470696228575],[85.88133018393115,27.532404417298725],[85.88179791751945,27.532315699754477],[85.88239864017538,27.53237464949092],[85.88332898093266,27.5320435441033],[85.88371749992709,27.532148258570167],[85.88441538752595,27.532551059093638],[85.88497728416759,27.532727042700166],[85.88530078659869,27.53344737713789],[85.88552349694238,27.53370870154108],[85.88578497024135,27.53385524190511],[85.8860402516712,27.533809851510366],[85.8864161994973,27.533530766075568],[85.88704936905775,27.53328531357532],[85.88820091783984,27.53317708446883],[85.88841612246398,27.533208154375153],[85.88903947152077,27.532655674471485],[85.88994904750082,27.531710513702194],[85.89070175796473,27.531190603955693],[85.89311007478297,27.530282129202238],[85.89361269393808,27.5299611554422],[85.89386672450368,27.529877378346292],[85.89394644250865,27.529902885728823],[85.89442893452048,27.530053425028438],[85.89483158897154,27.530577951027617],[85.89522017082199,27.53068260336793],[85.89600659238158,27.531158235689905],[85.89694718897181,27.531131845360918],[85.89758855096396,27.531112020843068],[85.89809504774523,27.530906206103197],[85.89873522117071,27.53085030897433],[85.90002795248907,27.531120064632486],[85.90054107863571,27.53110605560108],[85.9019453452467,27.53087566344348],[85.90283560846629,27.53062083126518],[85.9033536145657,27.530758054484714],[85.90352849301942,27.53086777256825],[85.9039248929909,27.531202679700822],[85.90470624739794,27.531524767572815],[85.90492902037998,27.53178609189351],[85.9052086933493,27.532467602337267],[85.90533961730024,27.53254087271995],[85.90559246028057,27.53241870909252],[85.90621812287019,27.53194062649752],[85.90659913702434,27.531814961124113],[85.90724168777733,27.531835836300115]]]}},{"type":"Feature","properties":{"province":"Bagmati Province","district":"Ramechap","municipality":"Sunapati Rural Municipality","ward":"1","wardNumber":1,"sourceMunicipality":"Sunapati","sourceType":"Gaunpalika"},"geometry":{"type":"Polygon","coordinates":[[[85.84786370509842,27.556700590765427],[85.84808990355204,27.555772691300366],[85.84859000751405,27.55407281251693],[85.84928125172083,27.552981673847214],[85.84935671395824,27.55267314456646],[85.8493740869922,27.551905919551327],[85.85007321084834,27.551042785336396],[85.85055068796328,27.549956649777783],[85.85057325278787,27.54934290648397],[85.85036191081412,27.548120174437837],[85.85079662254745,27.54703591440563],[85.85067575389971,27.54596516416892],[85.8509119592466,27.545344229270306],[85.85111671926131,27.54507052188747],[85.85190744247289,27.544397755480606],[85.85261651095753,27.543841585799363],[85.85286015932566,27.543450969532955],[85.85298326512216,27.543296109917197],[85.8531390675147,27.542830284398732],[85.85359435569545,27.542357829472454],[85.85438620459672,27.541723386341936],[85.85496703818754,27.541170657033756],[85.85592200662978,27.540302831398908],[85.85718546676566,27.539692578277556],[85.85712875355719,27.539272330917697],[85.85656521683948,27.537753264531677],[85.85629354848167,27.53730194631351],[85.85576403545912,27.53681687125716],[85.8550044318695,27.535840153176522],[85.85490876832118,27.535536940437392],[85.8547328262,27.535386522609695],[85.85450392448793,27.534933266880497],[85.85440832397455,27.534630052841557],[85.85439312589534,27.5341695428134],[85.85498088791742,27.532542497366276],[85.8550033891032,27.531928880215766],[85.8548621935249,27.530246324806825],[85.85493252784022,27.529784313616958],[85.85516867072637,27.5291632539895],[85.85557074864569,27.528385647300613],[85.85568641182834,27.528000658110344],[85.85517209659655,27.527976155509105],[85.85412970591851,27.52750490044801],[85.85386710698862,27.52731997353194],[85.85348088762586,27.5259897117757],[85.85329981737856,27.525688062196828],[85.85294511988236,27.525312705047167],[85.85250764307797,27.52501799659903],[85.8520144596846,27.524943979187263],[85.85186277829969,27.524920161533036],[85.85088617034835,27.52513779575466],[85.85037185455151,27.525113230624047],[85.84932715003559,27.52456745412645],[85.84867722008296,27.524316010668056],[85.84819047318808,27.523831372930186],[85.8477868802935,27.523266022700934],[85.8471746495988,27.52286153381691],[85.84681995173752,27.522488427154098],[85.84625048717407,27.52208200038787],[85.84611218328536,27.521778412451695],[85.8458005017642,27.521403430379692],[85.84475329557965,27.5207786310157],[85.84426041855468,27.520101998886254],[85.8439057204196,27.519728892103956],[85.84313392159663,27.518368374029496],[85.84291252425602,27.518145372903145],[85.84260834841656,27.518000645990643],[85.84171451930149,27.518137630854465],[85.84146317841288,27.518298054861035],[85.84120795995416,27.518343320390837],[85.84055928028137,27.51813257643752],[85.84016725770583,27.517912640564063],[85.83978005137448,27.51784624879666],[85.83873666078176,27.51733648364339],[85.83821734186628,27.51715843565208],[85.8376268144567,27.517406263267834],[85.83665527156923,27.51777738087038],[85.83565222146426,27.518493411761074],[85.83528121407373,27.51892591697533],[85.83494709292016,27.519164614436935],[85.83443784423646,27.519293532410046],[85.83341227766175,27.519321048480915],[85.83214124950639,27.519700921451992],[85.8316361907508,27.51994262173161],[85.83063570437209,27.52073767618081],[85.83012914433301,27.52094336521814],[85.82840125057245,27.520414224283257],[85.82802549013172,27.52069318498691],[85.82790225893912,27.520850169517512],[85.82775033348811,27.521428902863207],[85.8279010216024,27.522114040426445],[85.82792372496755,27.522804805934847],[85.8278884022097,27.52303474832443],[85.82760430141917,27.523504013522025],[85.82747881839539,27.52358422621543],[85.82717970820038,27.5235906678768],[85.8267873736432,27.523370793906597],[85.82639034787273,27.522999563269938],[85.82626217556492,27.52300300272177],[85.82575555298209,27.523208630289943],[85.82513107803693,27.523722473860907],[85.82462070323825,27.52381294220697],[85.82436191892998,27.52374304859847],[85.8242298694873,27.523633580053605],[85.82404654774356,27.523255158174997],[85.82395107174096,27.522949694598136],[85.82395831313976,27.521875441328667],[85.82386283650229,27.521572227801435],[85.82368333008483,27.5213089019468],[85.8228587092115,27.520947615660152],[85.82234239270225,27.52084621493737],[85.82195011975881,27.52062621651113],[85.8211935812061,27.519726083193515],[85.8203743389374,27.519518279322565],[85.82011793165513,27.519525158385132],[85.81871748019329,27.51986989623058],[85.8166659736136,27.51992692992956],[85.81627751601074,27.519822027546134],[85.81570667558701,27.51937715221984],[85.81518385388365,27.519086071175497],[85.81427732945835,27.51884138143482],[85.81349434804422,27.51844208310603],[85.81310589128421,27.51833718055551],[85.81272131171953,27.518347436792926],[85.81246227768239,27.518277543357947],[85.8118086577616,27.51791312980365],[85.81073769885185,27.517865624420864],[85.81010021461128,27.517997793852796],[85.81053900589762,27.518331075419695],[85.81084580849634,27.51855263780148],[85.81189551680167,27.519252209422653],[85.81259071386113,27.519578612080434],[85.81311853832676,27.520023175852618],[85.81369826075222,27.52073681822573],[85.81451282537732,27.522093272146673],[85.81504978182205,27.522806602084035],[85.81567076834783,27.523479919342282],[85.81610574322264,27.52369804208324],[85.81623397883807,27.523694603015414],[85.81688497209305,27.52398449494894],[85.81727224090885,27.52405094850915],[85.81774973202145,27.524267196180197],[85.81968277489577,27.525825011915018],[85.81973054408266,27.52597661842474],[85.81981071071117,27.527126080459517],[85.81968993260485,27.528662032625537],[85.8194284733349,27.529819811999214],[85.81923484616844,27.530438870907357],[85.81903002272743,27.530712453215887],[85.81873854314372,27.530951463168833],[85.81755429688839,27.53136571944386],[85.81662677090166,27.531775410184665],[85.81681384561995,27.53226674004041],[85.81707650727286,27.53245179295717],[85.8174650269174,27.532556632761214],[85.81789237153285,27.532544437869742],[85.81905630525924,27.53282063440952],[85.81944595003907,27.53296386076892],[85.82001541490155,27.533370412864258],[85.8202364365434,27.53359347631206],[85.82028420612147,27.533747333438107],[85.82030428277166,27.53435913791378],[85.82016336517158,27.535283285560034],[85.81997123862953,27.535940667528884],[85.82002519995373,27.53628414312635],[85.8208118847708,27.538103107917184],[85.82108336434818,27.538556802062597],[85.82174336484155,27.539113084771266],[85.82205610961925,27.539526453595887],[85.82262557443744,27.53993300574209],[85.82328676210112,27.540529862363368],[85.82351053607249,27.540829699044433],[85.82396802642292,27.54173858673624],[85.82441820046137,27.542414906297545],[85.82464691493875,27.542870475850584],[85.82564749071643,27.54468218692676],[85.82572540676239,27.545754875956476],[85.82571510009116,27.546752356689137],[85.82574293270466,27.547594416704328],[85.82601441231886,27.548048109940545],[85.82681008973739,27.54883108348767],[85.82757069397618,27.549846375238758],[85.82844822719342,27.551815008482084],[85.82877748356287,27.552727335606576],[85.8291546961592,27.5537912700526],[85.8293558435366,27.554704724240242],[85.82928926213575,27.555281956571932],[85.82895484258651,27.556825099957052],[85.82852982500663,27.558216325070397],[85.82813131204837,27.559108902558208],[85.8278295268365,27.560345455446573],[85.82744258363036,27.561581196977734],[85.82731935301368,27.561738181809467],[85.82708295915808,27.562359053922656],[85.82689433569334,27.56313159486008],[85.8265358367691,27.563945586836027],[85.8264831400143,27.564944942835705],[85.826035433442,27.56694978568234],[85.82593234075162,27.567718574679144],[85.82594735127847,27.568179084266905],[85.82564056196675,27.569262030240836],[85.82561812316824,27.569875773146567],[85.82542449579277,27.57049476927216],[85.82510257050804,27.571114954248003],[85.8241895059314,27.573287412546495],[85.82403858184598,27.573904532009248],[85.82404858824283,27.57421156013503],[85.82403596850715,27.575132267404662],[85.82491118763495,27.577026379038017],[85.8251651697771,27.578244984523813],[85.82564808818644,27.5773124571205],[85.82601897057592,27.57688001394492],[85.82683000587146,27.575516919734895],[85.82732412029848,27.574929805647383],[85.8288731819418,27.57389111190454],[85.82904305611873,27.573847410745017],[85.83008024212178,27.572860737287566],[85.8324531111373,27.572145006492498],[85.83295604363353,27.57182422052324],[85.8334967385192,27.57135026492736],[85.8348461686548,27.57073863624713],[85.83535566802885,27.570609781693953],[85.83638048338192,27.57054387849507],[85.83740035839726,27.5703244304667],[85.83790835700697,27.57015712678244],[85.83875091439242,27.569751188147162],[85.83970775853115,27.56892181122873],[85.84036686904021,27.568137388185974],[85.84073775129016,27.567704883013104],[85.84102185181627,27.567237805603032],[85.84118784896653,27.567078944520695],[85.84168959330636,27.566719772853872],[85.8429270356931,27.565305972199408],[85.84365109992544,27.56390592950434],[85.84380071159002,27.56325048626659],[85.84408331040984,27.56274495977936],[85.84555221854345,27.56186112507774],[85.84592416436656,27.56146925691239],[85.84653781936515,27.560607686239557],[85.84685961871963,27.55998518860036],[85.8470908211901,27.559212959325393],[85.8474677562132,27.557670191094502],[85.84750038992435,27.557361162482508],[85.84786370509842,27.556700590765427]]]}},{"type":"Feature","properties":{"province":"Bagmati Province","district":"Ramechap","municipality":"Sunapati Rural Municipality","ward":"3","wardNumber":3,"sourceMunicipality":"Sunapati","sourceType":"Gaunpalika"},"geometry":{"type":"Polygon","coordinates":[[[85.89916076500958,27.486531666074693],[85.89694517602733,27.48456873474071],[85.89672908965912,27.48400275765512],[85.89605939740912,27.483266234201174],[85.8933803844361,27.481096370962014],[85.89237425857162,27.48067087953956],[85.89220900789336,27.48052508815337],[85.89150573917694,27.479641584868276],[85.89080066126343,27.479227469662185],[85.89046334734928,27.479080304707143],[85.88966442602153,27.478936331021227],[85.88870932315561,27.478912895216947],[85.88831417700767,27.478857819916445],[85.88670495852055,27.478924040674052],[85.88561212058698,27.479170310104337],[85.88515801549374,27.479184756456448],[85.88328276054428,27.47919008622529],[85.88084142067636,27.479023809222845],[85.87837175811926,27.47899726010864],[85.87804082436186,27.47909847991345],[85.8776171713089,27.479356809395206],[85.87709748441992,27.4798176373147],[85.87620009451538,27.48018950356971],[85.87519942315608,27.481133852138118],[85.87477101777449,27.481394494915474],[85.87370269044293,27.481866580414536],[85.87279010991165,27.48236254651407],[85.87163155821744,27.482526917224963],[85.87045618669214,27.48251517353118],[85.86940542496178,27.482621776546715],[85.86808462272441,27.482423730119102],[85.86756874652788,27.48253014045041],[85.86727539100914,27.482852737798748],[85.86627784360904,27.48360753096369],[85.86620150490658,27.483742320606716],[85.86572608400024,27.484167261888196],[85.86551738504673,27.484531183286403],[85.86494717960123,27.484948623596953],[85.86461562272052,27.485261906180824],[85.8641665884588,27.485833765246657],[85.86385453816592,27.486059146351188],[85.86332903773457,27.486592057448785],[85.86305125242129,27.48705469593437],[85.86286463431313,27.48831706794476],[85.86278629545362,27.48852181634738],[85.86247399460444,27.488744946919955],[85.86250744528165,27.488754262105136],[85.8624356069781,27.48888004929964],[85.8610880031046,27.490624948340162],[85.86025683060208,27.491435256326426],[85.85969238027852,27.49224306030987],[85.8595245709129,27.49241098670408],[85.85951900626908,27.49245606223874],[85.85949831289373,27.492627424811413],[85.85927955071227,27.49313119987753],[85.8590261481853,27.49353088232013],[85.85906685344652,27.493759135898458],[85.85928462595854,27.49421007910459],[85.85942837544297,27.495026004977483],[85.85922150087441,27.496288189847327],[85.85805259987461,27.499192303304714],[85.85763877831292,27.500883865685427],[85.85752523987703,27.501187643570102],[85.85740219623717,27.501367196887724],[85.85727102452502,27.501569257744137],[85.85694028149507,27.501916362470457],[85.85561811437196,27.502740553494046],[85.85416214894472,27.503649457570862],[85.85354030049552,27.504181494457413],[85.85320937137298,27.50475879154582],[85.85319786810284,27.504799366279126],[85.85078041337874,27.504874221249946],[85.8503691998859,27.504924989630613],[85.85010160118206,27.50497694481307],[85.84973115267513,27.50506647417023],[85.84925760395562,27.505206956832826],[85.84911342661138,27.505226088568175],[85.84874216650695,27.505387827298073],[85.848514771586,27.505532621642093],[85.84832926576142,27.505603331242433],[85.84822635315555,27.505638592304138],[85.84810262038184,27.505675916515187],[85.84789692009909,27.505710303498656],[85.84773229645563,27.505745065421138],[85.84742299678419,27.505853099340463],[85.84719685066925,27.505869294406722],[85.84713507752369,27.50588686178304],[85.84693062722664,27.50582872183755],[85.84670554200174,27.505718566155267],[85.846480146337,27.505698625102244],[85.84607061879292,27.505584657409553],[85.84590649558812,27.50554721021914],[85.84570279370999,27.505419111960407],[85.8454538920198,27.505653995519495],[85.8451623505105,27.5059969110335],[85.84495446425711,27.506272806771733],[85.84464460148878,27.506432731124807],[85.8445200571114,27.506578400054728],[85.84439538803062,27.506726319831344],[85.84429053773961,27.50688793068216],[85.84418531402682,27.507144381404412],[85.84416368271428,27.507252538075903],[85.8440605830408,27.507308118092116],[85.84395654577749,27.50745391149081],[85.84391378184444,27.50758219964343],[85.84389214932395,27.507710675757316],[85.84384901051455,27.50787284817671],[85.84376554422286,27.508018829643035],[85.8437030221005,27.508128924393635],[85.84353727390032,27.50824489756616],[85.84371027948009,27.50861419260155],[85.84339373345362,27.509390235185105],[85.84330590228446,27.51061953476767],[85.8431123990958,27.511238592903155],[85.84270412954835,27.511824268553948],[85.84156915494262,27.512428705909898],[85.84037777896864,27.512615145508736],[85.84004096864217,27.512777133231673],[85.83957329710896,27.5128657257829],[85.83932314455949,27.513064536778902],[85.83921010802354,27.51352848583011],[85.83935841873016,27.51413685084322],[85.83925038544785,27.514754345509807],[85.83900911412888,27.515221797634705],[85.83882574394076,27.516145570804014],[85.83837464564853,27.516733121464004],[85.83821734186628,27.51715843565208],[85.83873666078176,27.51733648364339],[85.83978005137448,27.51784624879666],[85.84016725770583,27.517912640564063],[85.84055928028137,27.51813257643752],[85.84120795995416,27.518343320390837],[85.84146317841288,27.518298054861035],[85.84171451930149,27.518137630854465],[85.84260834841656,27.518000645990643],[85.84291252425602,27.518145372903145],[85.84313392159663,27.518368374029496],[85.8439057204196,27.519728892103956],[85.84426041855468,27.520101998886254],[85.84475329557965,27.5207786310157],[85.8458005017642,27.521403430379692],[85.84611218328536,27.521778412451695],[85.84625048717407,27.52208200038787],[85.84681995173752,27.522488427154098],[85.8471746495988,27.52286153381691],[85.8477868802935,27.523266022700934],[85.84819047318808,27.523831372930186],[85.84867722008296,27.524316010668056],[85.84932715003559,27.52456745412645],[85.85037185455151,27.525113230624047],[85.85088617034835,27.52513779575466],[85.85186277829969,27.524920161533036],[85.8520144596846,27.524943979187263],[85.85250764307797,27.52501799659903],[85.85294511988236,27.525312705047167],[85.85329981737856,27.525688062196828],[85.85348088762586,27.5259897117757],[85.85386710698862,27.52731997353194],[85.85412970591851,27.52750490044801],[85.85517209659655,27.527976155509105],[85.85568641182834,27.528000658110344],[85.85618790520127,27.52764142288537],[85.8563475231885,27.52729294427954],[85.85661123385346,27.526211749386057],[85.85681724478736,27.525976491306885],[85.85755377075036,27.52626238174108],[85.85834087882183,27.526778901220407],[85.85886032318204,27.52695463623075],[85.85933156021082,27.526981077722226],[85.86052224713983,27.526756125630435],[85.8609017608341,27.526594513145973],[85.861778890776,27.525956129995983],[85.86203292098344,27.525872415983805],[85.8624187510296,27.525900421124067],[85.86293694398823,27.52604002028126],[85.86358931387636,27.526368110547004],[85.86402829181782,27.526701205152612],[85.86447477555816,27.527264553898974],[85.8653147201658,27.5280839123172],[85.86570836805092,27.528342109628255],[85.86609419813294,27.528370115029798],[85.86675130667861,27.52754711732476],[85.86708073650577,27.527154873817597],[85.86733207762231,27.526994387082986],[85.86771784642055,27.527022329385552],[85.86806478789399,27.527167369624834],[85.86851008375288,27.527692332205678],[85.86874411425073,27.52829907052321],[85.86910662934969,27.528902370151226],[85.86972917969929,27.529613823696206],[85.87047871422749,27.530283451195604],[85.87067953361989,27.529894647849527],[85.8713794079684,27.529069774145373],[85.87170245878295,27.528485537505848],[85.87213359128951,27.52601999699551],[85.87260606453764,27.524780191744274],[85.87279425092238,27.52400983854719],[85.87307816352825,27.5235404487924],[85.87387482712788,27.523059425270954],[85.87428960083783,27.522665556584283],[85.874655042635,27.522079443767733],[85.87501416637971,27.521303650199346],[85.87508944060265,27.52099505834988],[85.87511694585599,27.520532609736424],[85.87478218555985,27.51946917585431],[85.87480450030728,27.51885543290354],[85.87515349237903,27.517772674077946],[85.87516567385929,27.516851966034704],[85.87497440912168,27.51624328969992],[85.87457187995051,27.515716450635253],[85.87438061471931,27.51510777321044],[85.8741086349161,27.51465639318437],[85.8737530611682,27.514242837095185],[85.87347595294212,27.513637975095467],[85.87340153993456,27.51268044387411],[85.87342510487811,27.512105087203484],[85.87336589027719,27.511608129960496],[85.87307902392659,27.51069623913283],[85.87275921135888,27.510091064438566],[85.87265854453722,27.50963436889116],[85.87286355490095,27.509360661651826],[85.87341119182112,27.509114584580733],[85.87361851628741,27.50891764978158],[85.87373417990788,27.50853034780015],[85.87323080281912,27.508244205865953],[85.8730282269515,27.508061966302858],[85.87304991911695,27.50779582556386],[85.87320134688456,27.5074991742626],[85.87333457963865,27.50718426854134],[85.87361499429664,27.507021780553686],[85.8738400757768,27.506824908412323],[85.87410098258607,27.506711997815433],[85.874343821329,27.50661234145523],[85.87449362524376,27.506464609500863],[85.87455145760431,27.50628455626523],[85.87449649849803,27.50618477741899],[85.87436844915166,27.50598515738821],[85.87429960849978,27.505783723906802],[85.8743343093135,27.505768218475623],[85.87463078814739,27.50526731869887],[85.87548371771629,27.504305967411405],[85.87610294021256,27.503742171470435],[85.87650695573129,27.50293518047976],[85.87714730789318,27.502096241572964],[85.87834929895871,27.500749522808587],[85.8788204085538,27.500532080123822],[85.87922180842837,27.5006639898944],[85.87960538802687,27.500689619667487],[85.88018997004386,27.499884065539355],[85.88035996920124,27.499777094607577],[85.88063732065618,27.499698068964918],[85.88084927323635,27.49969750436798],[85.88137272280714,27.500191457580225],[85.88159411841953,27.500321931836083],[85.88177693516516,27.500266914122857],[85.88205634882428,27.500106676481757],[85.8823366979312,27.499722998989785],[85.88246424441839,27.49962703286768],[85.88329836075951,27.499304117793898],[85.88353656659385,27.4986447971201],[85.88408432473587,27.498039739339646],[85.88462564563565,27.497628864499966],[85.88512107606948,27.497413859555213],[85.88530777016717,27.49744017809818],[85.88556423987363,27.497399351479135],[85.88602472009293,27.49718859773016],[85.88650526416738,27.496436372692912],[85.88728635764585,27.49580836928055],[85.88747017333392,27.495527722903645],[85.88767736672463,27.494836517911875],[85.88797283266557,27.49316196079105],[85.88828869464425,27.492774094668206],[85.88866245019044,27.492099892770515],[85.88898255144305,27.49055868762612],[85.8891533635504,27.490402078180058],[85.8897499563653,27.490219456175918],[85.89000361129784,27.490065784558755],[85.8905981956138,27.489197086705726],[85.89084678622383,27.489045539561186],[85.89139767544167,27.48890774435886],[85.89206498472473,27.488931120581555],[85.8928303896409,27.488695669405526],[85.89402163955087,27.488529110191415],[85.89445629935058,27.488394879882925],[85.89590319950308,27.487611887265334],[85.89731246548962,27.48720775617318],[85.89822373483436,27.486777058869936],[85.89874598804721,27.486623197356703],[85.89916076500958,27.486531666074693]]]}},{"type":"Feature","properties":{"province":"Bagmati Province","district":"Ramechap","municipality":"Sunapati Rural Municipality","ward":"5","wardNumber":5,"sourceMunicipality":"Sunapati","sourceType":"Gaunpalika"},"geometry":{"type":"Polygon","coordinates":[[[85.89916076500958,27.486531666074693],[85.89921303380288,27.48645308076859],[85.89944086741576,27.48638268282725],[85.90145423665646,27.48650238740225],[85.9029847986051,27.486214227596626],[85.90381322385329,27.485710634537117],[85.90426007369611,27.48549750512874],[85.90442444621019,27.485383720923487],[85.90508355949481,27.48492395500469],[85.90560117951489,27.484174167888916],[85.90560053709697,27.48266653786311],[85.90487513078274,27.481381104100087],[85.90132345635578,27.47676709301622],[85.89892740133834,27.472606642099755],[85.89850974205318,27.47213844519111],[85.89820587836545,27.47200515867228],[85.89786175127111,27.472034045817633],[85.89765611178245,27.47197371702741],[85.89743309199866,27.471976470016866],[85.89714198787398,27.472208915906567],[85.8960862357729,27.47340352595446],[85.89571353747488,27.473574328893246],[85.89550596014769,27.473514000853562],[85.89533927186353,27.47329381259761],[85.89533050811521,27.472393173425633],[85.89408009664068,27.471218714334647],[85.89390634174883,27.470912625571515],[85.89366843835641,27.470633171169368],[85.89366562150113,27.470339709914708],[85.89397560820238,27.470057811690513],[85.89400849134194,27.469771414388422],[85.89396578436582,27.46935804333067],[85.8937007422391,27.46881657485944],[85.89357831761188,27.468341623785044],[85.89362414497006,27.468215585871626],[85.89361801138479,27.467561019517923],[85.89318922116844,27.466952781426638],[85.8927967609524,27.466751038664526],[85.89209306251968,27.466616817235426],[85.89167384341197,27.466410322958122],[85.89123523929977,27.465957756154005],[85.89102553056992,27.4653895911006],[85.89093924701764,27.465282811108782],[85.89063238167023,27.46503886676764],[85.8901431355975,27.46480930413179],[85.88989566553586,27.46444619950278],[85.88965319250885,27.46370623452716],[85.88918200850703,27.462716197386673],[85.88809147317222,27.46204851131589],[85.88724259605324,27.461886095260418],[85.88612267531678,27.461220347773676],[85.88567332068352,27.461117445923943],[85.88544517113746,27.46081542185516],[85.88518769944797,27.460662128828286],[85.88496911827097,27.46059948786521],[85.88454671250837,27.460618684352966],[85.88441803911817,27.460581612458885],[85.88420320781754,27.46040149851573],[85.8840555886229,27.46014079858717],[85.88361942670915,27.46007640828778],[85.8830762265565,27.46009010470698],[85.88190822678698,27.459586466585012],[85.8816028025606,27.45967430783639],[85.8807063423383,27.45924506394851],[85.88038484605055,27.45900999787673],[85.88016294819843,27.458656146388105],[85.87988996465042,27.457938500293928],[85.87952976185011,27.457244987035587],[85.87931655556298,27.457028863491132],[85.87875190476719,27.45660230510308],[85.87830484805228,27.455084300990237],[85.87784555196268,27.4548684288702],[85.87747459832438,27.45449307168879],[85.87731484461631,27.45386882742114],[85.87705580786694,27.453525979314964],[85.87679746017886,27.4532755947695],[85.8762633833867,27.45288992372687],[85.8757675111195,27.452671489448885],[85.87522481003845,27.452579091347996],[85.87499859759727,27.45220485889841],[85.87453017103898,27.451871577406376],[85.87414965483029,27.451818877358654],[85.87356700340187,27.451888653541243],[85.87322306353242,27.451843017621638],[85.87260583598888,27.451896726015224],[85.87130573651854,27.4523962595874],[85.86996742989191,27.452356134103862],[85.86947518724568,27.452496554185704],[85.86797914761188,27.4535971402108],[85.8673717385069,27.453829213905887],[85.86663715475744,27.453884173844457],[85.86618930176228,27.453857982509277],[85.86567104450427,27.453540019027457],[85.8653895650193,27.45345199537937],[85.86470862480995,27.45335616024908],[85.8635781478213,27.453559167538835],[85.8626122954487,27.45390108855571],[85.8624937519991,27.453985926845593],[85.86230468565537,27.45428908035034],[85.86139429560454,27.45501967766057],[85.8613419031649,27.455278754445757],[85.86151603619943,27.455797029599193],[85.8614106905012,27.456319809339636],[85.86020388327424,27.457517421377805],[85.85866582414926,27.45838281354018],[85.85819834192246,27.458573060910144],[85.85737466260466,27.458582133138503],[85.85694581821586,27.458705047599707],[85.85671385947049,27.458838589180925],[85.85623681413597,27.459403383868512],[85.85576389467172,27.459841891398106],[85.85541032823302,27.459994627266113],[85.85496522712137,27.46009484816669],[85.85475177295234,27.460007386270657],[85.85394715558687,27.459325943509974],[85.8537860327628,27.45925011029218],[85.85252181320742,27.458982479610842],[85.85156914517309,27.458559363077587],[85.85113548495774,27.45852867097066],[85.84990009343205,27.45878031788141],[85.84953370792955,27.458700609666902],[85.84926517177348,27.458736747435154],[85.84887784387927,27.458990825789787],[85.84837072222342,27.45922364832948],[85.84741900427927,27.460023766450327],[85.8453653175874,27.46085315199826],[85.84389846773826,27.461245030130137],[85.84158367888985,27.46151694188895],[85.84039548993152,27.46147775277547],[85.83986148301108,27.461669688664546],[85.83967529273282,27.46202698306041],[85.83955624972985,27.462129826314],[85.83922587918906,27.462233172694113],[85.83816623796703,27.462276256412906],[85.83771363228615,27.46215284926918],[85.83725733675142,27.461907593276244],[85.83691552238953,27.461868647637402],[85.8366636817945,27.462085463458948],[85.83660697685117,27.46236717143364],[85.83689502740597,27.463010482880264],[85.83689171529343,27.46322710861687],[85.83679430570135,27.46332332573396],[85.83666550897385,27.463358399109882],[85.8354752565472,27.46330558174612],[85.83525605090125,27.463371414860845],[85.83426031738273,27.464191476678238],[85.83363584022877,27.464504448922558],[85.83284848996679,27.464816110023083],[85.83195410715052,27.46571363127041],[85.8317085877097,27.466530872718533],[85.83148081735293,27.466594393974496],[85.8311142464922,27.46683284152079],[85.82958824971465,27.467210465077585],[85.82914321286772,27.467455040686076],[85.82863665037375,27.46740790641476],[85.82784097923893,27.467128205722954],[85.82741244636175,27.467185476616457],[85.82736999582865,27.467397226600628],[85.82720131072008,27.46761704214608],[85.82681054247223,27.467690442096256],[85.82600255393491,27.467439937889797],[85.82587350638356,27.467438813558868],[85.8245678430222,27.46806432118187],[85.82448694197103,27.46835928350313],[85.82437821558321,27.468473442286783],[85.82407004036547,27.468628865731407],[85.82389822658239,27.46857547681461],[85.82368589524172,27.468284830251736],[85.82339022163643,27.468133351234567],[85.82269002614792,27.468152362451445],[85.82220734478993,27.46785709276392],[85.82110887771123,27.467940376364037],[85.82028751004361,27.467730321058067],[85.8195719925005,27.46743536556012],[85.81894157007234,27.467235937338998],[85.81882296444316,27.46726425948091],[85.81871442523291,27.46735816314788],[85.81828808673988,27.467918768316636],[85.81815816413317,27.468003419549817],[85.81788693939085,27.468048497810557],[85.81719930843421,27.46777861109638],[85.81636037151449,27.46758193559783],[85.81554344544554,27.46766753052481],[85.8147420232727,27.467538874017677],[85.813892897702,27.467561012878832],[85.81263224393186,27.467489376955903],[85.81153402443935,27.467258818513677],[85.81146618648478,27.467240188517916],[85.8111907726458,27.467235564935844],[85.81014170004718,27.467434319227493],[85.81014326364145,27.467526846334074],[85.8101497162205,27.468784028307933],[85.81007851244735,27.469733557474935],[85.81017624165436,27.47026258708122],[85.81043615346725,27.470594244772084],[85.81086875479303,27.470988357212654],[85.81164923412042,27.47132901300751],[85.81229140998782,27.471415782972954],[85.81255306786429,27.47131418890518],[85.81320762081758,27.471247538500403],[85.81376763891714,27.471082985447303],[85.81440118506747,27.47105228403728],[85.81496839745816,27.471343739905546],[85.81525312987247,27.471605688703725],[85.81545570912104,27.471977484096406],[85.81551166928142,27.47224431199475],[85.81543051909959,27.472647618877037],[85.81478836033746,27.474192702545693],[85.81424367642992,27.475761105230315],[85.8141411506485,27.47698127720301],[85.81433054272398,27.477817896386327],[85.81436981227321,27.478371183230397],[85.81483430822718,27.479463000059837],[85.81494222758278,27.479901753427264],[85.81495311930887,27.481158934649695],[85.8147637449489,27.481922410059227],[85.81451453279898,27.482299460698155],[85.81386142127599,27.482794986538277],[85.81346877824582,27.482978919094062],[85.81352448666246,27.48303355974644],[85.81357100507269,27.48309263930297],[85.81384373250243,27.483300385239197],[85.81450272932682,27.483644481029124],[85.81511151743071,27.483688051198307],[85.81632052523567,27.483603515776533],[85.81705898325345,27.483356999685917],[85.81748007519481,27.48331992266711],[85.8186573853866,27.483302845942205],[85.8202443476896,27.483462942131023],[85.820703703455,27.483367535455972],[85.82129048354531,27.48339953983532],[85.82174871404487,27.483358335695215],[85.82371862097813,27.482575964956997],[85.82420448622655,27.482485308833034],[85.82474612346384,27.48245148223686],[85.82529595297063,27.482539565860012],[85.82553448000093,27.482686044466167],[85.82573149233734,27.482902106156157],[85.8260092883772,27.483498028326302],[85.82621105271525,27.483682518362844],[85.82642263098661,27.48368658023937],[85.82705404946473,27.48347520037248],[85.82780025573383,27.482883395783727],[85.82835495855113,27.482655574178672],[85.82860830172557,27.482657697929287],[85.82915488003862,27.482786418369965],[85.82957747514888,27.48296828068075],[85.83107703328089,27.48335100538278],[85.83205858812796,27.483801566639293],[85.83247430458036,27.483893028144585],[85.83254845809898,27.483968174107666],[85.8325488948886,27.483925286161977],[85.83263405158047,27.483944041656653],[85.83297692878274,27.48401462146026],[85.83344591425595,27.483998237533168],[85.83408777515548,27.483908768397676],[85.83485943330874,27.48368732176496],[85.83571587320128,27.483556777007053],[85.83651448032668,27.483599532424158],[85.83806399315827,27.483835901499074],[85.83819760464876,27.4838572811523],[85.83842225016754,27.483881724216292],[85.8390522965837,27.4840111315934],[85.83968215754676,27.484253322310337],[85.840371974276,27.484295204335588],[85.8410208367463,27.484081635419784],[85.84170665446796,27.484292754284503],[85.84312536792123,27.484478297149405],[85.84378324023756,27.48489447595306],[85.84447637395803,27.485162048363517],[85.84508097367848,27.4852573211268],[85.84597412021107,27.48569581744852],[85.8469046560029,27.486078172406025],[85.8482328988621,27.48638925235918],[85.84893578634814,27.48660724801306],[85.84970425897576,27.48672865209682],[85.85004869802285,27.486733775339324],[85.85128152438608,27.486301575536206],[85.85181996962419,27.486028365936765],[85.85214865290232,27.48593402280904],[85.852825960619,27.485540150782988],[85.8530929341259,27.485542336785276],[85.85332470862842,27.485614168211615],[85.85369728899109,27.486170203353453],[85.85419341502354,27.48662339453828],[85.85432146305182,27.486662843251917],[85.85527956684531,27.486672962929898],[85.85634459041725,27.487205297656033],[85.8567996970499,27.487279002367135],[85.85716096053743,27.487773895244054],[85.85809756218543,27.488305230213303],[85.85901708905912,27.488348860175712],[85.85957123052249,27.488236010326496],[85.8605610949901,27.48821024366313],[85.86137539928717,27.48851932755153],[85.86250744528165,27.488754262105136],[85.86247399460444,27.488744946919955],[85.86278629545362,27.48852181634738],[85.86286463431313,27.48831706794476],[85.86305125242129,27.48705469593437],[85.86332903773457,27.486592057448785],[85.86385453816592,27.486059146351188],[85.8641665884588,27.485833765246657],[85.86461562272052,27.485261906180824],[85.86494717960123,27.484948623596953],[85.86551738504673,27.484531183286403],[85.86572608400024,27.484167261888196],[85.86620150490658,27.483742320606716],[85.86627784360904,27.48360753096369],[85.86727539100914,27.482852737798748],[85.86756874652788,27.48253014045041],[85.86808462272441,27.482423730119102],[85.86940542496178,27.482621776546715],[85.87045618669214,27.48251517353118],[85.87163155821744,27.482526917224963],[85.87279010991165,27.48236254651407],[85.87370269044293,27.481866580414536],[85.87477101777449,27.481394494915474],[85.87519942315608,27.481133852138118],[85.87620009451538,27.48018950356971],[85.87709748441992,27.4798176373147],[85.8776171713089,27.479356809395206],[85.87804082436186,27.47909847991345],[85.87837175811926,27.47899726010864],[85.88084142067636,27.479023809222845],[85.88328276054428,27.47919008622529],[85.88515801549374,27.479184756456448],[85.88561212058698,27.479170310104337],[85.88670495852055,27.478924040674052],[85.88831417700767,27.478857819916445],[85.88870932315561,27.478912895216947],[85.88966442602153,27.478936331021227],[85.89046334734928,27.479080304707143],[85.89080066126343,27.479227469662185],[85.89150573917694,27.479641584868276],[85.89220900789336,27.48052508815337],[85.89237425857162,27.48067087953956],[85.8933803844361,27.481096370962014],[85.89605939740912,27.483266234201174],[85.89672908965912,27.48400275765512],[85.89694517602733,27.48456873474071],[85.89916076500958,27.486531666074693]]]}}]}