{"type":"FeatureCollection","features":[{"type":"Feature","properties":{"province":"Bagmati Province","district":"Dolakha","municipality":"Sailung Rural Municipality","ward":"7","wardNumber":7,"sourceMunicipality":"Sailung","sourceType":"Gaunpalika"},"geometry":{"type":"Polygon","coordinates":[[[86.04247215247761,27.63761047139861],[86.04221880382597,27.63719572706588],[86.04217384853169,27.63708707013596],[86.04197345715436,27.636742596006705],[86.04189423772685,27.63652540768777],[86.04192481053553,27.636433068518183],[86.0422138502677,27.63601525555641],[86.04252446271904,27.6358165686772],[86.0433441371078,27.63543851253487],[86.04364530986015,27.63537061455772],[86.0443269385312,27.635494895315965],[86.0451977021237,27.63583267358979],[86.04571352209439,27.6361521994803],[86.04619813932364,27.636202897713872],[86.04649030930663,27.63615075474207],[86.04709752970665,27.63575538280398],[86.04778759606644,27.63570823700427],[86.0493214070764,27.635131865652824],[86.05010994058424,27.63442408846695],[86.05135251491825,27.633601960212463],[86.0519899958668,27.633179767747286],[86.05241452467283,27.632916311364788],[86.05282898625218,27.632535445196954],[86.05323813398185,27.632220036617348],[86.05438904930537,27.631331827268863],[86.0553429565321,27.63064993038052],[86.0566972607924,27.62993914675786],[86.05710315744889,27.629625925563612],[86.05769105552582,27.628997923371845],[86.05801123011987,27.628528407437035],[86.05806518400684,27.62821506471027],[86.05845419942132,27.627915223359484],[86.05860594283797,27.627886962940256],[86.0588565998541,27.628019562290977],[86.05951072535576,27.628728139320206],[86.05980789941032,27.628870053280913],[86.06008581353365,27.628815534117688],[86.06076043389,27.628418348499295],[86.0609449991077,27.62817133689687],[86.06081318587707,27.62702612726053],[86.0608834581113,27.626660956226683],[86.06089433585785,27.626604627545134],[86.06115486829195,27.6264393887731],[86.06180216862977,27.62631059461927],[86.06267005236258,27.626357037939016],[86.06288019393395,27.62645775320089],[86.06350311956679,27.62710068542393],[86.06411272692972,27.62761264283164],[86.064385076905,27.62761895425664],[86.06471663638423,27.627517358632897],[86.06509227165286,27.627221956059834],[86.06542145063577,27.626806643691864],[86.06560614368571,27.62673111927431],[86.06598453381831,27.6267403689198],[86.06740368788384,27.627081830655754],[86.0680681208233,27.627054628429903],[86.0684665143814,27.62677291698088],[86.06851615216614,27.626328598507293],[86.06873854396592,27.626029883627677],[86.06893842854723,27.625916160709522],[86.06948494199554,27.6257798652792],[86.06983331897659,27.625608374239107],[86.06992935191748,27.62544876415393],[86.06984294036869,27.62506677751704],[86.06963060977289,27.62485096634939],[86.06910684445559,27.62412294553989],[86.06910846541308,27.623705447682433],[86.06936768246933,27.623463436195927],[86.07107274094926,27.622648744009105],[86.07190804730644,27.622410540525525],[86.07216076627863,27.622416790492608],[86.0724105473161,27.62251319082672],[86.07264063613992,27.622801460892287],[86.07276105893372,27.62309335781889],[86.07280583157866,27.623646582605687],[86.07292694401605,27.624044635299075],[86.07325863484938,27.624534339136634],[86.07348959657202,27.624644243561466],[86.07377432793376,27.62468450286988],[86.07407637624335,27.624625545393645],[86.07418291481315,27.62453376675329],[86.07443331258725,27.623948592619474],[86.07501189153474,27.623135411479538],[86.07542934823168,27.62230535063842],[86.07586619273405,27.62184783768098],[86.07618536741765,27.621398514662875],[86.0764827238149,27.621111615230525],[86.0764865998503,27.62110036226982],[86.07635711224881,27.620864793810743],[86.0761599745099,27.620658110638107],[86.0760868800231,27.62030325715554],[86.07617715825083,27.61988857140863],[86.07651877778937,27.619265635564194],[86.0767810580006,27.618955916776574],[86.0775662786539,27.61838336611261],[86.07840608497209,27.618027816673816],[86.07886075029108,27.617750855939423],[86.0793611785197,27.617214818202168],[86.07952398482308,27.616877343090454],[86.07952742216175,27.616766810397927],[86.07904978945918,27.615213046461847],[86.07893129990276,27.61453065952583],[86.0789269149649,27.61387846822185],[86.07905470425071,27.613211083625863],[86.07929853826937,27.61272750150741],[86.07951399044622,27.61245135610243],[86.07891551255386,27.611901137687287],[86.07825069737477,27.611411500262054],[86.07791600951728,27.61128290368575],[86.0774032569067,27.61120501066051],[86.07711396382213,27.61129566523723],[86.07570426400264,27.612089786435348],[86.07491535374317,27.612648833066075],[86.074491011799,27.612794942836782],[86.07374399009116,27.61323457871101],[86.07332584154118,27.613737418200195],[86.07200498882908,27.61457042512658],[86.07082355775533,27.615101905542915],[86.07042947941909,27.615525908265635],[86.07024810455387,27.615924215039986],[86.07027405515976,27.61619298050715],[86.07043218765259,27.617121627195885],[86.07036985308434,27.617225032922384],[86.06975331315098,27.617281867642937],[86.0696471491657,27.61729243449648],[86.06879702098007,27.617137772846082],[86.06633204199527,27.616780441429],[86.06417217325543,27.616185912610607],[86.06368893157307,27.616137527880642],[86.06315492208272,27.61621292967994],[86.0626323530631,27.616123658479026],[86.06177559321583,27.61568678844203],[86.06122163697412,27.6155679463383],[86.06077353371013,27.615526563746243],[86.05988633072144,27.615599593477373],[86.05918794685213,27.61549100567909],[86.0563482621341,27.614733748222932],[86.05537114568641,27.614325387619548],[86.05501188629904,27.614223611271925],[86.0541235579756,27.6142515022064],[86.05400438906963,27.614255192027233],[86.05349188704511,27.61419074098901],[86.05240460941224,27.61414723860576],[86.05146225610581,27.613784203068445],[86.05062294473845,27.613708563834198],[86.05026918879857,27.613708379736064],[86.05022642347438,27.613708067544376],[86.04955967870949,27.613861556077982],[86.04902147935887,27.613869126617928],[86.04839330872777,27.613806176458052],[86.04746152310383,27.613513162005866],[86.04675594511589,27.613095295851437],[86.04593832549511,27.61278277381924],[86.0454078783892,27.612668495716346],[86.04490600283096,27.61243036815246],[86.04461307896148,27.61221168118112],[86.04413239586674,27.61179987775906],[86.04352447837155,27.611369131939718],[86.04249684394505,27.61095126873765],[86.03983704140997,27.610438643585308],[86.03849035417757,27.610260103691594],[86.03810727349192,27.610133320231995],[86.03793414546041,27.610048609316653],[86.03627502268927,27.609233698453163],[86.03576795768403,27.609085722557428],[86.03503393602332,27.609037714882067],[86.03447522530314,27.608713375316224],[86.03416060817895,27.608620913321285],[86.03379647360897,27.6086116013884],[86.03374095235333,27.60862254263483],[86.03348773519794,27.60867268485409],[86.0327723502794,27.609139391400458],[86.03252682594827,27.609437918909315],[86.03194892883945,27.609749828083288],[86.03093699638572,27.61018740384011],[86.03034971837296,27.610266870304756],[86.02878470875109,27.610854057172187],[86.02828765116955,27.610976972705895],[86.02755931831489,27.610859007775563],[86.02657720676666,27.610998870002074],[86.02592928198091,27.611204248872234],[86.02530286230592,27.611163743346],[86.02414212120449,27.61126847209106],[86.02361073769512,27.611255723602877],[86.02232350694514,27.610908133702647],[86.02113950380863,27.610674075434357],[86.02067183093757,27.610661764492498],[86.02035558793494,27.610569302758673],[86.01989610216538,27.610347116765],[86.0189152318952,27.609669863895547],[86.01795518555979,27.60932458432322],[86.0170347855389,27.609611489768362],[86.01634134153406,27.609595303593366],[86.01570247787397,27.60938537290196],[86.01562294800475,27.60931941756559],[86.0156577129049,27.60954304460148],[86.01567097267449,27.60989977445989],[86.01678572477594,27.612221008104132],[86.01669944848786,27.612771170224605],[86.01639521688769,27.61321586611124],[86.016101360228,27.613389795244743],[86.01543886841218,27.613662756261128],[86.01527924868262,27.61384218620443],[86.01537922346647,27.613883509904507],[86.01591442714287,27.614388339930624],[86.01688441800916,27.614970689338417],[86.0176361419456,27.615641816806928],[86.01820329617672,27.61625749298735],[86.01884904669144,27.617218893592113],[86.02018411990028,27.618654803107972],[86.02020875435015,27.61869556450133],[86.02022538621237,27.61873182518651],[86.02025270847017,27.618738764436102],[86.02031910828332,27.6187550184702],[86.02057470413637,27.61889674526153],[86.0209494671737,27.61885197914309],[86.02134836349929,27.618732940203476],[86.02183735388799,27.618492614598626],[86.02263989883475,27.61832224462108],[86.02355648763192,27.61825190342165],[86.02405623438237,27.618264464941767],[86.0244965870365,27.61843457309279],[86.02542731775667,27.619416102624317],[86.02566578267357,27.619530571620306],[86.02588017427196,27.619536633747703],[86.02604160820769,27.619479052284944],[86.0269046052541,27.618663492112187],[86.02702146220976,27.618705003211616],[86.02730495084604,27.619458535110784],[86.02779313542342,27.619841142295446],[86.02801834891773,27.62027376737259],[86.02825000759933,27.621157899745214],[86.0285379345703,27.621773765382013],[86.02855775441526,27.621789707286144],[86.0289792264414,27.62212217581602],[86.0295628814112,27.622212009354936],[86.0297499546667,27.62262181590468],[86.03046304025857,27.623369340946756],[86.0307320172474,27.623547265543138],[86.03099911715881,27.623646166751943],[86.0312027547679,27.62364985358042],[86.03132110980374,27.62351750151261],[86.0314472770789,27.623179838035906],[86.03162302962195,27.62318333750313],[86.03172119135351,27.623186275220316],[86.03204012371529,27.623339691806024],[86.03239538348855,27.623644591305812],[86.03266148530038,27.623966932639714],[86.0330434538871,27.62519966613454],[86.03304370367985,27.625208731133444],[86.0330575305668,27.6259445728922],[86.03328562280869,27.626593886381823],[86.03387397503192,27.627444317899094],[86.03429050828287,27.6277744728183],[86.03436691214925,27.627835927906418],[86.03492900699766,27.62879682996614],[86.03514915307997,27.62897888121699],[86.03533128867981,27.629451831006666],[86.03565147275144,27.6297136546781],[86.03652517685353,27.630220732716403],[86.03665410028228,27.630327700591867],[86.03672369116961,27.63048399596522],[86.0368489911071,27.630830095966747],[86.03731273601151,27.631699972001883],[86.03784256736364,27.632622300053946],[86.03871458760861,27.633436280796285],[86.03889571883134,27.633588699154306],[86.03972053414356,27.63443625239815],[86.0399705063141,27.634871315425453],[86.04024643481651,27.636033341511137],[86.04024069197821,27.636764556345625],[86.04041682598702,27.63727808078006],[86.04160001851712,27.637751145782477],[86.04199366446834,27.637767397147375],[86.04211439712743,27.6377998426297],[86.04247215247761,27.63761047139861]]]}},{"type":"Feature","properties":{"province":"Bagmati Province","district":"Dolakha","municipality":"Sailung Rural Municipality","ward":"6","wardNumber":6,"sourceMunicipality":"Sailung","sourceType":"Gaunpalika"},"geometry":{"type":"Polygon","coordinates":[[[86.04211439712743,27.6377998426297],[86.04199366446834,27.637767397147375],[86.04160001851712,27.637751145782477],[86.04041682598702,27.63727808078006],[86.04024069197821,27.636764556345625],[86.04024643481651,27.636033341511137],[86.0399705063141,27.634871315425453],[86.03972053414356,27.63443625239815],[86.03889571883134,27.633588699154306],[86.03871458760861,27.633436280796285],[86.03784256736364,27.632622300053946],[86.03731273601151,27.631699972001883],[86.0368489911071,27.630830095966747],[86.03672369116961,27.63048399596522],[86.03665410028228,27.630327700591867],[86.03652517685353,27.630220732716403],[86.03565147275144,27.6297136546781],[86.03533128867981,27.629451831006666],[86.03514915307997,27.62897888121699],[86.03492900699766,27.62879682996614],[86.03436691214925,27.627835927906418],[86.03429050828287,27.6277744728183],[86.03387397503192,27.627444317899094],[86.03328562280869,27.626593886381823],[86.0330575305668,27.6259445728922],[86.03304370367985,27.625208731133444],[86.0330434538871,27.62519966613454],[86.03266148530038,27.623966932639714],[86.03239538348855,27.623644591305812],[86.03204012371529,27.623339691806024],[86.03172119135351,27.623186275220316],[86.03162302962195,27.62318333750313],[86.0314472770789,27.623179838035906],[86.03132110980374,27.62351750151261],[86.0312027547679,27.62364985358042],[86.03099911715881,27.623646166751943],[86.0307320172474,27.623547265543138],[86.03046304025857,27.623369340946756],[86.0297499546667,27.62262181590468],[86.0295628814112,27.622212009354936],[86.0289792264414,27.62212217581602],[86.02855775441526,27.621789707286144],[86.0285379345703,27.621773765382013],[86.02825000759933,27.621157899745214],[86.02801834891773,27.62027376737259],[86.02779313542342,27.619841142295446],[86.02730495084604,27.619458535110784],[86.02702146220976,27.618705003211616],[86.0269046052541,27.618663492112187],[86.02604160820769,27.619479052284944],[86.02588017427196,27.619536633747703],[86.02566578267357,27.619530571620306],[86.02542731775667,27.619416102624317],[86.0244965870365,27.61843457309279],[86.02405623438237,27.618264464941767],[86.02355648763192,27.61825190342165],[86.02263989883475,27.61832224462108],[86.02183735388799,27.618492614598626],[86.02134836349929,27.618732940203476],[86.0209494671737,27.61885197914309],[86.02057470413637,27.61889674526153],[86.02031910828332,27.6187550184702],[86.02025270847017,27.618738764436102],[86.02022538621237,27.61873182518651],[86.02020875435015,27.61869556450133],[86.02018411990028,27.618654803107972],[86.01884904669144,27.617218893592113],[86.01820329617672,27.61625749298735],[86.0176361419456,27.615641816806928],[86.01688441800916,27.614970689338417],[86.01591442714287,27.614388339930624],[86.01537922346647,27.613883509904507],[86.01527924868262,27.61384218620443],[86.01543886841218,27.613662756261128],[86.016101360228,27.613389795244743],[86.01639521688769,27.61321586611124],[86.01669944848786,27.612771170224605],[86.01678572477594,27.612221008104132],[86.01567097267449,27.60989977445989],[86.0156577129049,27.60954304460148],[86.01562294800475,27.60931941756559],[86.01510481309509,27.608895985345313],[86.01440480155281,27.60862016113556],[86.01365239804728,27.60864186128869],[86.01228069947437,27.608257511377435],[86.01078107489427,27.607621651603704],[86.00919353715071,27.60657898489946],[86.00874293124505,27.60636361362472],[86.00799421471888,27.606189006866757],[86.00735660209783,27.60609192191294],[86.00704792536739,27.606044598078707],[86.00522405661097,27.605449252377536],[86.00472486858632,27.605172613362924],[86.00404698997613,27.604942051846564],[86.00268166452015,27.60424167169283],[86.00173068438164,27.603921086511775],[85.99996752884374,27.60366246395471],[85.99934654939126,27.603646715011898],[85.99853731232997,27.603625091136184],[85.99800530130398,27.603508374966754],[85.99713985296604,27.603224549728175],[85.99610452968261,27.602986864180327],[85.99434531555623,27.602843275662973],[85.99386594709425,27.602589330260315],[85.9934225284057,27.602141453324304],[85.99328253538097,27.60179966654084],[85.99317717693056,27.60122787486951],[85.99282085233497,27.6008168199653],[85.99255775308437,27.60063208042348],[85.9914507065256,27.599549773098683],[85.99100366002028,27.59898679933079],[85.99082052498272,27.59864695137637],[85.99001652941087,27.597672797492354],[85.98974017057643,27.59710438285254],[85.98861554893735,27.59552536715315],[85.9881668761598,27.59492400701812],[85.98781036461746,27.594512889539914],[85.98728672964019,27.59422018362368],[85.98676834891455,27.594083272942687],[85.98580104552097,27.593342690074312],[85.98517868213254,27.59267012342967],[85.98491283053896,27.59240861089924],[85.98443352615907,27.592152352795573],[85.98391921090658,27.592130538568266],[85.98340201772692,27.59202970168645],[85.98257789674567,27.59170773925552],[85.98213948127999,27.591413344596933],[85.98077296323802,27.590263644040938],[85.97947346354152,27.588574910828452],[85.97831001633494,27.587110678265596],[85.97790917493238,27.586663113278746],[85.97775412270316,27.587126938244907],[85.9774788419679,27.58782452049455],[85.97734386637558,27.588864014988964],[85.97683569485099,27.59025955428565],[85.97670065706156,27.591296797190765],[85.9767016094225,27.59256291887644],[85.9765779545036,27.59394782706166],[85.97673433363413,27.594750186024118],[85.97743880335415,27.596569964377075],[85.97750927578154,27.597373949799557],[85.97734496705837,27.597571321385384],[85.97717671814584,27.59765134642669],[85.97662476580324,27.597782702903306],[85.97561446035417,27.598271792924102],[85.97481792088992,27.59875569244638],[85.97473645480135,27.59887247765885],[85.9739189919974,27.601236241152023],[85.97351103535138,27.601822291705012],[85.97304156456379,27.603100796671097],[85.97227148159897,27.60434998342961],[85.97284982786607,27.6049861643584],[85.97372728445836,27.605613341183705],[85.97421371928105,27.606061530875408],[85.97520716645437,27.607567463912655],[85.97528096845355,27.609712092731378],[85.97552775843349,27.610666370795],[85.97553851627778,27.610971147161532],[85.97600313766162,27.61203301750786],[85.97745538969788,27.61444733842703],[85.97789755804462,27.61485689141945],[85.97868279112704,27.615293700378505],[85.979396940845,27.616156571734265],[85.97976008217665,27.616759620682316],[85.98059852589604,27.617503768898953],[85.98129703837714,27.617906130761657],[85.98194753192055,27.61815694878484],[85.98285311949182,27.618359937750743],[85.98349710843762,27.618418761374876],[85.98481135453045,27.61930175869916],[85.98533355060243,27.619556078623603],[85.9861083390452,27.619688110251456],[85.98726132767858,27.61961751605985],[85.98870118219882,27.620420176370914],[85.99015829830665,27.621721731754363],[85.99095935540828,27.622619050913343],[85.99145460926238,27.62333356825679],[85.99233350496532,27.62399900605061],[85.99264593722553,27.62437367519516],[85.99280575664817,27.62529113046041],[85.99258093452669,27.626217092563746],[85.99281584126057,27.626823706077886],[85.99287962143606,27.62743575953733],[85.99302367968616,27.627892705051664],[85.99320531347884,27.628194229038947],[85.99352575168946,27.62879915431804],[85.99393015721428,27.629364065901832],[85.9943281215621,27.629734796697775],[85.99458878195911,27.629842763282877],[85.99587019283167,27.629768479808206],[85.99612928977866,27.629838059939146],[85.99648079713364,27.630095569592104],[85.99687194455706,27.630276806725963],[85.99841120052302,27.63023371780147],[85.99853737143638,27.630153380496548],[85.99920118357788,27.63052148246889],[85.99960452226004,27.630641826031503],[86.00004087403941,27.63087514059056],[86.00026445655197,27.63088114044307],[86.00106412381962,27.630550661505843],[86.00163039473469,27.630493826884855],[86.00208268857051,27.630580597661318],[86.00273505726351,27.6308425441639],[86.00323437275325,27.631353939299142],[86.00370686194164,27.6314769086181],[86.00431915218516,27.631585122036377],[86.00469722860616,27.631529164886405],[86.00525530707846,27.63126233103166],[86.00549026914639,27.631243698755085],[86.00582745771919,27.631327344683495],[86.006101624737,27.631624992784687],[86.00651008660255,27.631506016470787],[86.0073063239984,27.631940510987505],[86.0075197162151,27.631993962456004],[86.00784739888809,27.63190374550875],[86.00851107772942,27.631547384551546],[86.00939615742175,27.631727429126347],[86.01028742538105,27.63177443474638],[86.01090984535765,27.631990992257666],[86.01177929365969,27.632078447240772],[86.01277847507338,27.632033612484854],[86.01376190371646,27.632232411833876],[86.01434205185961,27.631929630464896],[86.01453599880259,27.6318903669485],[86.01500798654179,27.631993017127506],[86.01625626851161,27.63261343813849],[86.01690307155776,27.632728653307744],[86.01692689321538,27.63271977561646],[86.01746383987508,27.632617490306274],[86.01793469928148,27.632422241368086],[86.01826157053965,27.63239516789586],[86.0186485898513,27.632510760308833],[86.01886467223663,27.632683808800547],[86.01901598504388,27.63326491611696],[86.01914259515048,27.63334931420126],[86.01965666266484,27.633569561654113],[86.02144051602058,27.634065128097912],[86.02191563212018,27.634246802244732],[86.02261051860174,27.634619530047857],[86.02316122222182,27.634641531015653],[86.02377982467885,27.634512675100577],[86.02478744526258,27.634303041439455],[86.02599395449265,27.634388243239684],[86.02603740879574,27.63442012682646],[86.02636697075157,27.634661694843878],[86.02682201628133,27.634784476067946],[86.03025685082599,27.634937114017244],[86.03200912493915,27.63496060480465],[86.03243815719753,27.634882326939994],[86.03293189955885,27.63460592870457],[86.03338500469702,27.634593233699313],[86.03402418192228,27.634857242351583],[86.03434842878097,27.635094246807807],[86.03425002475619,27.635693923443288],[86.0344837394704,27.635921238171083],[86.03487657396207,27.636063900919265],[86.03523789495975,27.63611159907268],[86.03562954084092,27.636134539933852],[86.03628003580735,27.636491075680745],[86.0367582126733,27.636510202142208],[86.03837318004932,27.636112945384347],[86.03853436572265,27.636120821152957],[86.03885830014826,27.636319376666073],[86.03906182299623,27.637146867726077],[86.03936800293255,27.63752134918549],[86.04041264828678,27.63823048533916],[86.04103075138833,27.63822347715012],[86.0415264331628,27.63809593481649],[86.04211439712743,27.6377998426297]]]}},{"type":"Feature","properties":{"province":"Bagmati Province","district":"Dolakha","municipality":"Sailung Rural Municipality","ward":"2","wardNumber":2,"sourceMunicipality":"Sailung","sourceType":"Gaunpalika"},"geometry":{"type":"Polygon","coordinates":[[[85.95855357927876,27.657559106061353],[85.95894321013103,27.656435835205126],[85.95894707398078,27.65528481001901],[85.9590167187014,27.65482267334764],[85.95896232005434,27.65447919812622],[85.9593053705221,27.65324270663425],[85.95976159713975,27.652808325189362],[85.96047304156995,27.652326114896006],[85.96067098478217,27.651860413247896],[85.96074219359959,27.6514366637082],[85.96105317348668,27.650506887333297],[85.96154265916412,27.64980411438665],[85.9617369121896,27.64922325446743],[85.96176410443957,27.648760805684418],[85.96191959398794,27.6482970434181],[85.96208152524888,27.648022899367984],[85.96317636263377,27.64749398421622],[85.96320349158474,27.647033660803377],[85.96344826589582,27.64668118038776],[85.96410861305344,27.644706781570605],[85.9644764300489,27.644197191214847],[85.96462003649712,27.643388015171354],[85.96458482474031,27.642351835905846],[85.96456512272015,27.641778417795415],[85.9641772138619,27.640446155674823],[85.96386484453633,27.64007148608493],[85.96329462908882,27.639665496666346],[85.96280844357841,27.639219494826047],[85.9626256843439,27.6388795221814],[85.96164593404237,27.637755076102152],[85.96136169478454,27.636958531672498],[85.96096016542458,27.636470267110234],[85.96016811587911,27.635841464825194],[85.96002812192269,27.635499553333624],[85.96002017930235,27.635269360477228],[85.96025325776779,27.63457146615619],[85.96028439028332,27.634226364555897],[85.96018716261024,27.63388482795338],[85.95995894878178,27.633467831959464],[85.95811331165012,27.632061498636904],[85.95722784908838,27.631204004634167],[85.9566869529233,27.630414527771805],[85.95552369317436,27.62895010877025],[85.95534099657476,27.628610197702603],[85.95449673614819,27.627714629947057],[85.9540026709581,27.627038310830716],[85.95270992549617,27.625539007673403],[85.95244532512228,27.625315819377516],[85.95204235770218,27.62479148182951],[85.95151715920902,27.624460263585608],[85.950961078831,27.624476336557212],[85.95078757697158,27.624402815951655],[85.95007692988955,27.62365722851267],[85.9497243588817,27.623358894596414],[85.94960519234621,27.623631099851004],[85.9493525384214,27.62375326351906],[85.94849065478414,27.623586534633983],[85.94764309458166,27.623839678943998],[85.9471378475861,27.6240841306933],[85.94609509617567,27.624879686043876],[85.94558972428209,27.625124136883212],[85.94508047444424,27.625253430178137],[85.94390135783046,27.625824483145546],[85.94287998165225,27.626006358528556],[85.94254329649108,27.62616853417853],[85.94186410998502,27.62634165361256],[85.94119042644682,27.62666606693163],[85.94050604811356,27.62668564180549],[85.93880054444884,27.626887090825644],[85.93829123271517,27.627016320882145],[85.93778742468868,27.627299158903195],[85.93732331753469,27.6275032228218],[85.93756210216942,27.628227308018474],[85.93780194899443,27.628987404495145],[85.93782290136134,27.62959920842633],[85.93764559744072,27.630678902207727],[85.93727402732794,27.631073333952006],[85.93642646633941,27.6313263529342],[85.93530800322677,27.632432750497898],[85.93497369424524,27.63267169911713],[85.93396051181826,27.633083703478754],[85.9334575169828,27.633404865593445],[85.93291725976287,27.633879196794844],[85.9323690596099,27.6341254612492],[85.93207632882458,27.634326335992682],[85.93170444563148,27.63471845393016],[85.93142597465568,27.635341514475463],[85.93122240219714,27.63565360823969],[85.93109679431676,27.63573394518123],[85.93075066499559,27.63562741713382],[85.93017238103421,27.63499104807226],[85.92960078946842,27.63454654703273],[85.92907984488895,27.634332676452317],[85.92857290923,27.634538616928655],[85.92794705831737,27.635016825641635],[85.9276103103932,27.635178938636148],[85.92726805921187,27.63518769387204],[85.92697113780446,27.635273347107116],[85.92594200642012,27.635224778866455],[85.9254235002763,27.63508536828867],[85.92422724620668,27.6351573369301],[85.92333016384377,27.635121084745034],[85.92251254792774,27.635089895382663],[85.92148741957062,27.635156424058145],[85.92062822532796,27.635066279651852],[85.91949905223868,27.634599340911606],[85.91884468149657,27.63423317656411],[85.91835474362877,27.633671891234723],[85.91798647378246,27.632915234043494],[85.91747197069547,27.632890919748245],[85.91678240192464,27.632756885792368],[85.91626151936772,27.632540702098904],[85.91591657803676,27.632472560042263],[85.91540995520396,27.632678500088804],[85.91498067089667,27.632652559260737],[85.91476008788183,27.632468007008352],[85.91447953909187,27.631784245674694],[85.91429665455226,27.63144427230626],[85.91399566807463,27.631414829240367],[85.91348804477192,27.631620768840616],[85.91314279158613,27.631552627615285],[85.91244865679964,27.631303498125057],[85.91122726060873,27.630686764821416],[85.90983874138064,27.63018844327908],[85.90948835918327,27.6299667564373],[85.90810496831688,27.62962185480807],[85.90638026446169,27.629326220535358],[85.90586757567415,27.629378615739608],[85.90483337859996,27.6292147642204],[85.90391446957099,27.62866586164039],[85.90313724308415,27.62849494288759],[85.90244560969593,27.62832252371004],[85.90175904276012,27.62830352420476],[85.90072334528877,27.628101286286135],[85.89985664648995,27.627819085812725],[85.89899357480405,27.62765198152525],[85.89848119909782,27.627704376536112],[85.89779069186471,27.627570218121857],[85.89674361069743,27.627022567125703],[85.89621278415278,27.626539929659376],[85.89550545244796,27.62590681239985],[85.89498525867396,27.62572888954862],[85.89392249280348,27.62598903783893],[85.89292055479413,27.625518408889665],[85.89223011055479,27.62538424998706],[85.89188247981383,27.62523933625442],[85.8913038214973,27.62460503004101],[85.89033958219952,27.62397891657797],[85.8899932034033,27.623874639208726],[85.8893055109226,27.623814940060992],[85.88826593539991,27.62349973135769],[85.88725930547332,27.62287549455361],[85.88673754799137,27.622659185960966],[85.8863923571605,27.622593231934722],[85.88605373262683,27.622716896439954],[85.88549827839398,27.62277116694723],[85.88596777756841,27.623984643707633],[85.88632985538514,27.624549494437566],[85.88682016800067,27.62511309296811],[85.88731723481641,27.625866372053522],[85.88762472633674,27.626087746759687],[85.88801393420724,27.62619246241416],[85.88844227967991,27.626180079831325],[85.88857332893645,27.626253349862882],[85.88915317654246,27.626928292703294],[85.88943084807173,27.62753315575295],[85.88987339182033,27.627942834460708],[85.89014568451238,27.62839640317051],[85.89043361419473,27.62930816820171],[85.89097344672305,27.630059571333412],[85.89113301561656,27.63097715192256],[85.89149121613106,27.631426906108445],[85.89195539944757,27.632489088643176],[85.89261333529016,27.632929900588195],[85.89291851207838,27.633074502625977],[85.89327389811042,27.633449734487975],[85.89415122919411,27.63403902503582],[85.89503875460635,27.63493528067179],[85.89547735818576,27.63522992556341],[85.89613022827379,27.635517191253513],[85.89677915737951,27.63569161176909],[85.89756545279627,27.63613117211507],[85.89808608538617,27.636306844105366],[85.89848317397319,27.63664175128037],[85.89885794732047,27.63759033845631],[85.89912942815178,27.63800552038862],[85.89956652948693,27.638261780066514],[85.90054901771877,27.638156677641646],[85.90158477756381,27.638358978184534],[85.90175865573141,27.638430309944376],[85.90277491609066,27.63932300015347],[85.90472026721439,27.639805562636514],[85.90494353942381,27.640066825092404],[85.90531875137371,27.641015475221526],[85.90567695189725,27.64146741727141],[85.90620252510249,27.641796509487637],[85.90736539440014,27.641956858872373],[85.9079339841275,27.642286325552245],[85.90912537364704,27.643288796043656],[85.90987052900552,27.643766243010205],[85.91075549150001,27.644585725063862],[85.9113695982618,27.64498996364259],[85.9114591322068,27.64510349572745],[85.91147483059714,27.645564068917768],[85.91115797170201,27.646337986682287],[85.91097522739963,27.647264134985985],[85.91054570702376,27.648504315313367],[85.91036264998006,27.64943046358075],[85.91038741720082,27.65015736465928],[85.91059018723116,27.65082924804619],[85.91062882781493,27.650955971655208],[85.91090249725235,27.65144786388672],[85.9111245820278,27.651673053472155],[85.91190868886251,27.652033527346514],[85.91268879269276,27.652281092697088],[85.91347921658783,27.65283343549431],[85.91505137012568,27.65367173013634],[85.91544820851243,27.654006637718723],[85.91590695101094,27.654915213023713],[85.91600311426208,27.65521836315313],[85.91607709001555,27.65613756976959],[85.91585157942694,27.657063344160687],[85.91586189874387,27.657370434306674],[85.91571679126741,27.658141099576365],[85.9158206145291,27.661209061695253],[85.91587401264869,27.661514213241553],[85.91633825879228,27.66257402043844],[85.91644955873605,27.663337743674806],[85.91667921145039,27.663793188008245],[85.91674163009036,27.66563304028748],[85.91683748149994,27.66593619060612],[85.916884451861,27.66731553246536],[85.91707621724973,27.667924146754718],[85.91734869813534,27.668377652919883],[85.91770377095047,27.668750571896194],[85.91815769774942,27.669505601491863],[85.9185260925429,27.67026225834811],[85.91862713469723,27.670721267466607],[85.9188554112138,27.671136012151216],[85.91908350105251,27.671550819434742],[85.91934541153252,27.671697297656426],[85.91973030415967,27.671686727920346],[85.92037692027075,27.671822699997772],[85.92230069435824,27.671731593274327],[85.92383269583398,27.671456811428538],[85.92563198675944,27.671484241459698],[85.92602075695328,27.67158883136533],[85.92696579548631,27.671677348518546],[85.9277654762271,27.672536655866647],[85.92816181431866,27.672871501231967],[85.92855333666768,27.673052801019022],[85.92945560938344,27.673143256827576],[85.93073239128096,27.672913865813904],[85.93137394121004,27.672896229726476],[85.93176302425492,27.6730007563009],[85.93242521382867,27.673597175627062],[85.93324171919684,27.674955317035224],[85.93376797981695,27.67532273274761],[85.93454827281813,27.675608560237198],[85.93520414470933,27.676013048231653],[85.93611285945687,27.67629312154729],[85.93701481916615,27.676383514926957],[85.9377939229102,27.676630956124722],[85.93856783546539,27.676724914231222],[85.93999743292106,27.677221046873928],[85.94076208927062,27.67704636414861],[85.94140770492984,27.67714382425574],[85.94217767726397,27.677122560679674],[85.94281284760783,27.67691299365725],[85.94384360543779,27.676997572101257],[85.94525393886471,27.676920286141705],[85.94641787218113,27.677157032753126],[85.94705942261925,27.6771393339191],[85.94822616993683,27.67745060269321],[85.94886772040029,27.677432904444128],[85.94982043755631,27.676485429946325],[85.95006452336408,27.67609456290743],[85.95086037446326,27.67557471535629],[85.95134917168033,27.674831367914216],[85.9524375662527,27.674110583780088],[85.95309229845867,27.67321056323328],[85.95315831645895,27.672633206192856],[85.95331755897736,27.67228235131556],[85.95437868426308,27.67075789432782],[85.95465102647476,27.66994515351442],[85.95467427770433,27.6693675461617],[85.95457673814583,27.669026071620067],[85.95388446533333,27.667549331943007],[85.95378723773044,27.66720554437739],[85.9537948532108,27.666169677892178],[85.95364810556723,27.665638209808012],[85.9535961456748,27.665371507305515],[85.95347940424767,27.664454302024264],[85.95371016840541,27.66367963452488],[85.95407686082046,27.663131720704683],[85.9551691329235,27.662526032958393],[85.95608415044963,27.661733979142156],[85.95644934155166,27.661147678922216],[85.95656606773713,27.660798700710874],[85.95641412882814,27.660113687726245],[85.95653091820175,27.659764771821713],[85.95727718606292,27.659052681672684],[85.95826328697784,27.65783681531174],[85.95855357927876,27.657559106061353]]]}},{"type":"Feature","properties":{"province":"Bagmati Province","district":"Dolakha","municipality":"Sailung Rural Municipality","ward":"3","wardNumber":3,"sourceMunicipality":"Sailung","sourceType":"Gaunpalika"},"geometry":{"type":"Polygon","coordinates":[[[85.97770628488982,27.673055230861603],[85.97761767417573,27.671713900736226],[85.97747724326308,27.67137211413862],[85.97737232279658,27.67080032212564],[85.97714266999856,27.670347253384115],[85.97679602566882,27.668974728537506],[85.9765119115698,27.668178184969804],[85.97618471877392,27.667381328842417],[85.9757761847874,27.666703509352047],[85.97549206977604,27.665904714725016],[85.97543760811902,27.66556130186033],[85.97545673218524,27.664870786335776],[85.97553432113848,27.6646389053978],[85.97590370244765,27.664167700813078],[85.97606288262442,27.663816783756953],[85.97617147825461,27.663239801082796],[85.97608510465973,27.660709121349754],[85.97618050408492,27.65974840093255],[85.9747159585556,27.65948252372559],[85.9742012675063,27.659458458868954],[85.97355333888545,27.65928441362476],[85.97303989848555,27.65929867228578],[85.97239196927947,27.65912687787664],[85.97161811961003,27.659033107029682],[85.97110499202145,27.65904736665612],[85.96968571447705,27.65885632336519],[85.96761287888091,27.658339877820517],[85.96657223903172,27.657948459859753],[85.96552734627419,27.65743963243982],[85.96460706159193,27.65681439506251],[85.96393799156574,27.656026294738176],[85.96336646308015,27.655581919155335],[85.96264018002499,27.654375821436627],[85.96231498813175,27.653617289312646],[85.9618658636748,27.651749745157662],[85.96296470298488,27.651335863786798],[85.96415313913707,27.65103320158262],[85.9646677671242,27.65105745432796],[85.96518608552647,27.651196677704505],[85.9656683302595,27.651527582766626],[85.96636302854186,27.651814848251895],[85.9670536614334,27.65198920624906],[85.9682420977847,27.651686606587027],[85.96893673327456,27.651973871480642],[85.9694553639288,27.652113157979805],[85.96980005499412,27.65217886136124],[85.97065668506416,27.65219423289348],[85.97167518341882,27.651935459998],[85.97252130588488,27.651641553746856],[85.9730279290532,27.651435426664918],[85.97422555897953,27.651401342674337],[85.97464264761919,27.651083933226285],[85.97521791458162,27.650377283243838],[85.97533826907892,27.650143400477265],[85.9760732304562,27.650351955378227],[85.97676142432526,27.650449540431097],[85.97728099382613,27.65062489962334],[85.97866019460727,27.650894590516213],[85.97956084046723,27.65094409758362],[85.9798240026172,27.651128836129715],[85.97999913159421,27.65123842981911],[85.98051863861016,27.65141603917934],[85.98086214051199,27.65144566965427],[85.98137157755725,27.65131612757392],[85.98289019505235,27.6506592955451],[85.9835743853048,27.650639470640076],[85.98425338417934,27.650466101475445],[85.98476920073979,27.65052855201394],[85.98527713759304,27.65036074850636],[85.98596001430634,27.650304725982405],[85.98681814471243,27.65035617033127],[85.98766795776497,27.65017954799336],[85.98801421223283,27.65028363816284],[85.98910968858674,27.65102059441269],[85.98997682572009,27.65134061777189],[85.99014795089192,27.651335114493676],[85.99065332314451,27.65109047571163],[85.99133069658482,27.650881032546632],[85.99218763885467,27.650893965996833],[85.99286657530027,27.65072284749417],[85.99354275968619,27.650472705218316],[85.99388376123696,27.650425562654146],[85.99491520679757,27.65054808990564],[85.9957720865069,27.650563336121767],[85.99662064814288,27.6503460141658],[85.997518792284,27.6503208740267],[85.9974630170907,27.649939074607715],[85.9973278396726,27.649750770614705],[85.99631257881867,27.64885870529091],[85.99613250903349,27.648595629845552],[85.99370777524946,27.646555865719176],[85.9933525767506,27.646180884139845],[85.99286651745213,27.645735007501916],[85.99136901083347,27.644512162573523],[85.99043540372101,27.643503312641858],[85.9892411362425,27.642384244987618],[85.98808350577406,27.641075809106752],[85.98747164970767,27.64071026982327],[85.98716046849502,27.64037167300222],[85.98684528358918,27.639920293664655],[85.98665720890676,27.639426900466674],[85.9865559162145,27.638970267411448],[85.986532148477,27.638281690194187],[85.98695922971571,27.637002873611777],[85.98702099405261,27.636310481609055],[85.98683692224711,27.635932185060987],[85.98670462130976,27.635820653513125],[85.98635867998969,27.635716563527456],[85.9858440516174,27.635692498953002],[85.98532429480376,27.63551488864477],[85.98526733169054,27.635094703411355],[85.98515088847809,27.63294976285382],[85.98481231231965,27.6318075551381],[85.98587457804821,27.631587356219978],[85.98707164585376,27.63155314765673],[85.98827553038808,27.631710869626428],[85.98861778171344,27.631699800761574],[85.9889103876915,27.631501114758866],[85.98965377895412,27.630712063862273],[85.99007074170852,27.63039234098367],[85.99074429929854,27.630067677451716],[85.99136614767754,27.62947412187534],[85.99204220718566,27.629223980297734],[85.99289614790257,27.62916245380134],[85.99323433350366,27.629038540011972],[85.99352575168946,27.62879915431804],[85.99320531347884,27.628194229038947],[85.99302367968616,27.627892705051664],[85.99287962143606,27.62743575953733],[85.99281584126057,27.626823706077886],[85.99258093452669,27.626217092563746],[85.99280575664817,27.62529113046041],[85.99264593722553,27.62437367519516],[85.99233350496532,27.62399900605061],[85.99145460926238,27.62333356825679],[85.99095935540828,27.622619050913343],[85.99015829830665,27.621721731754363],[85.98870118219882,27.620420176370914],[85.98726132767858,27.61961751605985],[85.9861083390452,27.619688110251456],[85.98533355060243,27.619556078623603],[85.98481135453045,27.61930175869916],[85.98349710843762,27.618418761374876],[85.98285311949182,27.618359937750743],[85.98194753192055,27.61815694878484],[85.98129703837714,27.617906130761657],[85.98059852589604,27.617503768898953],[85.97976008217665,27.616759620682316],[85.979396940845,27.616156571734265],[85.97868279112704,27.615293700378505],[85.97789755804462,27.61485689141945],[85.97745538969788,27.61444733842703],[85.97600313766162,27.61203301750786],[85.97553851627778,27.610971147161532],[85.97552775843349,27.610666370795],[85.97528096845355,27.609712092731378],[85.97520716645437,27.607567463912655],[85.97421371928105,27.606061530875408],[85.97372728445836,27.605613341183705],[85.97284982786607,27.6049861643584],[85.97227148159897,27.60434998342961],[85.9721188061164,27.604892706631073],[85.97198339341688,27.60593219991083],[85.97182433871512,27.60628086660726],[85.97157975159134,27.606633409789104],[85.97100066999928,27.60722502633157],[85.97045947426012,27.607663347967303],[85.96995147618567,27.6078310886339],[85.969438285919,27.60784534755484],[85.96905614570586,27.607932814594005],[85.9680300795675,27.607961332122056],[85.96649845391335,27.608234300917974],[85.96523142819476,27.608730458193],[85.96422500030606,27.60933458252794],[85.9634762925594,27.609970025433245],[85.96146737724825,27.611291119916167],[85.96083658593572,27.611615970641573],[85.96033659238788,27.612013967344588],[85.96000478582265,27.612329688130153],[85.95914372996994,27.613429143209384],[85.9585568918991,27.613790379393794],[85.95797649574232,27.614343484809844],[85.95769308405518,27.614810749493266],[85.95763113149626,27.61550326585771],[85.95735929006648,27.616315944674056],[85.9571146411926,27.61666848790512],[85.95682040938223,27.616831038295295],[85.95639700389394,27.61695876727323],[85.95551718474488,27.61751862699136],[85.95523614978623,27.618064977411688],[85.95516650427753,27.618527114057663],[85.9544593121443,27.619122170001457],[85.9534420017987,27.619419203575443],[85.95268403793928,27.619785880782477],[85.9516630996454,27.619967756302064],[85.95128333639276,27.62013193267499],[85.95077283587435,27.620222901036506],[85.94996935410977,27.6205147443917],[85.94968982005282,27.62109716779587],[85.94972127981055,27.622015999632666],[85.94957923662727,27.62286575059772],[85.9497243588817,27.623358894596414],[85.95007692988955,27.62365722851267],[85.95078757697158,27.624402815951655],[85.950961078831,27.624476336557212],[85.95151715920902,27.624460263585608],[85.95204235770218,27.62479148182951],[85.95244532512228,27.625315819377516],[85.95270992549617,27.625539007673403],[85.9540026709581,27.627038310830716],[85.95449673614819,27.627714629947057],[85.95534099657476,27.628610197702603],[85.95552369317436,27.62895010877025],[85.9566869529233,27.630414527771805],[85.95722784908838,27.631204004634167],[85.95811331165012,27.632061498636904],[85.95995894878178,27.633467831959464],[85.96018716261024,27.63388482795338],[85.96028439028332,27.634226364555897],[85.96025325776779,27.63457146615619],[85.96002017930235,27.635269360477228],[85.96002812192269,27.635499553333624],[85.96016811587911,27.635841464825194],[85.96096016542458,27.636470267110234],[85.96136169478454,27.636958531672498],[85.96164593404237,27.637755076102152],[85.9626256843439,27.6388795221814],[85.96280844357841,27.639219494826047],[85.96329462908882,27.639665496666346],[85.96386484453633,27.64007148608493],[85.9641772138619,27.640446155674823],[85.96456512272015,27.641778417795415],[85.96458482474031,27.642351835905846],[85.96462003649712,27.643388015171354],[85.9644764300489,27.644197191214847],[85.96410861305344,27.644706781570605],[85.96344826589582,27.64668118038776],[85.96320349158474,27.647033660803377],[85.96317636263377,27.64749398421622],[85.96208152524888,27.648022899367984],[85.96191959398794,27.6482970434181],[85.96176410443957,27.648760805684418],[85.9617369121896,27.64922325446743],[85.96154265916412,27.64980411438665],[85.96105317348668,27.650506887333297],[85.96074219359959,27.6514366637082],[85.96067098478217,27.651860413247896],[85.96047304156995,27.652326114896006],[85.95976159713975,27.652808325189362],[85.9593053705221,27.65324270663425],[85.95896232005434,27.65447919812622],[85.9590167187014,27.65482267334764],[85.95894707398078,27.65528481001901],[85.95894321013103,27.656435835205126],[85.95855357927876,27.657559106061353],[85.95861204335556,27.658017740216195],[85.9586472560753,27.659053919067727],[85.95857329524515,27.659400896508547],[85.95858893084872,27.659859218660717],[85.95877969572521,27.660429384429783],[85.95898203097163,27.661344963895157],[85.95922719431019,27.662258604399916],[85.95932848726905,27.66271523794352],[85.9595619553783,27.66328571543917],[85.96013748690169,27.66384524963322],[85.9608829567786,27.664360894880605],[85.9618396287125,27.664794512765422],[85.9623191836316,27.665048708551268],[85.96254233229814,27.665312159077278],[85.96255402792276,27.665655322192393],[85.96239447303338,27.666006238791567],[85.96240241592332,27.66623643124673],[85.96271359723242,27.66657277763545],[85.96389585665516,27.667344430724718],[85.96459737177348,27.667823627324257],[85.96512894974603,27.668344462791136],[85.96556824069323,27.668677244509663],[85.96712920031034,27.66924852235093],[85.96747927016699,27.669467833732853],[85.96886760281163,27.670003978611614],[85.96952228629442,27.670369954744626],[85.97021704742014,27.67065722059485],[85.97074218242417,27.670988375364622],[85.97127907667293,27.67166263130525],[85.971409875889,27.67173583913572],[85.97153823671566,27.671732273799176],[85.97200096720857,27.671489698818476],[85.97217334420377,27.67152258229355],[85.9724805852297,27.671743768727104],[85.97271949425986,27.672465479055347],[85.97320824433567,27.672990441178822],[85.97359701414901,27.673092592161314],[85.97488449208637,27.673172041343115],[85.97609250514041,27.67344504809823],[85.97677688281438,27.67342528575461],[85.97770628488982,27.673055230861603]]]}},{"type":"Feature","properties":{"province":"Bagmati Province","district":"Dolakha","municipality":"Sailung Rural Municipality","ward":"5","wardNumber":5,"sourceMunicipality":"Sailung","sourceType":"Gaunpalika"},"geometry":{"type":"Polygon","coordinates":[[[86.03006675642195,27.648705533198516],[86.03012740339142,27.64868790285377],[86.03044595150152,27.64802432953459],[86.03071348362703,27.647653780883825],[86.03104028902722,27.64741458238751],[86.03154928680316,27.647183385138757],[86.03177680852917,27.64717369270716],[86.03242923888034,27.647309100665034],[86.03289678689033,27.647255955637842],[86.03333250671237,27.646985872819187],[86.03344248329239,27.646794815367404],[86.03347980850566,27.64672960800577],[86.03364717574124,27.646143996993043],[86.03364435501337,27.645525565866784],[86.03382829368981,27.64514313923083],[86.03443807681654,27.644686936822424],[86.03600008201529,27.643840174143634],[86.03655534545082,27.643453554622173],[86.03666744594778,27.643167657259923],[86.03668926135877,27.64273896892717],[86.03650074320767,27.641832642609],[86.03649785789035,27.641035908673924],[86.0366437211431,27.640802213611327],[86.0368787440493,27.64063910082558],[86.03712264755534,27.640703930288957],[86.03744276987153,27.641015455809654],[86.0377947877339,27.642101146220078],[86.03811872426328,27.642417111068337],[86.03845873219413,27.643017533635458],[86.03877766436645,27.643213776627572],[86.03898467848029,27.64316113350144],[86.03910515769859,27.642967888451064],[86.03909933838023,27.642577398700908],[86.03929571724301,27.64200547935617],[86.03952404855625,27.641758779892342],[86.03997071146003,27.641581285583346],[86.04013958444368,27.64139735481186],[86.04024818372423,27.641073133628925],[86.04015476609749,27.640417942657646],[86.04017383121113,27.640043457353908],[86.04043723557372,27.63955774981189],[86.0413181801647,27.63908985372831],[86.04251993729666,27.63903720235294],[86.04296441205223,27.638893530953112],[86.04311183936073,27.638657585463346],[86.04314991444828,27.63854498911533],[86.04309495322137,27.63830310616371],[86.04290475395692,27.637956505827574],[86.04253648967845,27.63771700208504],[86.04247215247761,27.63761047139861],[86.04211439712743,27.6377998426297],[86.0415264331628,27.63809593481649],[86.04103075138833,27.63822347715012],[86.04041264828678,27.63823048533916],[86.03936800293255,27.63752134918549],[86.03906182299623,27.637146867726077],[86.03885830014826,27.636319376666073],[86.03853436572265,27.636120821152957],[86.03837318004932,27.636112945384347],[86.0367582126733,27.636510202142208],[86.03628003580735,27.636491075680745],[86.03562954084092,27.636134539933852],[86.03523789495975,27.63611159907268],[86.03487657396207,27.636063900919265],[86.0344837394704,27.635921238171083],[86.03425002475619,27.635693923443288],[86.03434842878097,27.635094246807807],[86.03402418192228,27.634857242351583],[86.03338500469702,27.634593233699313],[86.03293189955885,27.63460592870457],[86.03243815719753,27.634882326939994],[86.03200912493915,27.63496060480465],[86.03025685082599,27.634937114017244],[86.02682201628133,27.634784476067946],[86.02636697075157,27.634661694843878],[86.02603740879574,27.63442012682646],[86.02599395449265,27.634388243239684],[86.02478744526258,27.634303041439455],[86.02377982467885,27.634512675100577],[86.02316122222182,27.634641531015653],[86.02261051860174,27.634619530047857],[86.02191563212018,27.634246802244732],[86.02144051602058,27.634065128097912],[86.01965666266484,27.633569561654113],[86.01914259515048,27.63334931420126],[86.01901598504388,27.63326491611696],[86.01886467223663,27.632683808800547],[86.0186485898513,27.632510760308833],[86.01826157053965,27.63239516789586],[86.01793469928148,27.632422241368086],[86.01746383987508,27.632617490306274],[86.01692689321538,27.63271977561646],[86.01690307155776,27.632728653307744],[86.01625626851161,27.63261343813849],[86.01500798654179,27.631993017127506],[86.01453599880259,27.6318903669485],[86.01434205185961,27.631929630464896],[86.01376190371646,27.632232411833876],[86.01277847507338,27.632033612484854],[86.01177929365969,27.632078447240772],[86.01090984535765,27.631990992257666],[86.01028742538105,27.63177443474638],[86.00939615742175,27.631727429126347],[86.00851107772942,27.631547384551546],[86.00784739888809,27.63190374550875],[86.0075197162151,27.631993962456004],[86.0073063239984,27.631940510987505],[86.00651008660255,27.631506016470787],[86.006101624737,27.631624992784687],[86.00582745771919,27.631327344683495],[86.00549026914639,27.631243698755085],[86.00525530707846,27.63126233103166],[86.00469722860616,27.631529164886405],[86.00431915218516,27.631585122036377],[86.00370686194164,27.6314769086181],[86.00323437275325,27.631353939299142],[86.00273505726351,27.6308425441639],[86.00208268857051,27.630580597661318],[86.00163039473469,27.630493826884855],[86.00106412381962,27.630550661505843],[86.00026445655197,27.63088114044307],[86.00004087403941,27.63087514059056],[85.99960452226004,27.630641826031503],[85.99920118357788,27.63052148246889],[85.99853737143638,27.630153380496548],[85.99841120052302,27.63023371780147],[85.99687194455706,27.630276806725963],[85.99648079713364,27.630095569592104],[85.99612928977866,27.629838059939146],[85.99587019283167,27.629768479808206],[85.99458878195911,27.629842763282877],[85.9943281215621,27.629734796697775],[85.99393015721428,27.629364065901832],[85.99352575168946,27.62879915431804],[85.99323433350366,27.629038540011972],[85.99289614790257,27.62916245380134],[85.99204220718566,27.629223980297734],[85.99136614767754,27.62947412187534],[85.99074429929854,27.630067677451716],[85.99007074170852,27.63039234098367],[85.98965377895412,27.630712063862273],[85.9889103876915,27.631501114758866],[85.98861778171344,27.631699800761574],[85.98827553038808,27.631710869626428],[85.98707164585376,27.63155314765673],[85.98587457804821,27.631587356219978],[85.98481231231965,27.6318075551381],[85.98515088847809,27.63294976285382],[85.98526733169054,27.635094703411355],[85.98532429480376,27.63551488864477],[85.9858440516174,27.635692498953002],[85.98635867998969,27.635716563527456],[85.98670462130976,27.635820653513125],[85.98683692224711,27.635932185060987],[85.98702099405261,27.636310481609055],[85.98695922971571,27.637002873611777],[85.986532148477,27.638281690194187],[85.9865559162145,27.638970267411448],[85.98665720890676,27.639426900466674],[85.98684528358918,27.639920293664655],[85.98716046849502,27.64037167300222],[85.98747164970767,27.64071026982327],[85.98808350577406,27.641075809106752],[85.9892411362425,27.642384244987618],[85.99043540372101,27.643503312641858],[85.99136901083347,27.644512162573523],[85.99286651745213,27.645735007501916],[85.9933525767506,27.646180884139845],[85.99370777524946,27.646555865719176],[85.99613250903349,27.648595629845552],[85.99631257881867,27.64885870529091],[85.9973278396726,27.649750770614705],[85.9974630170907,27.649939074607715],[85.997518792284,27.6503208740267],[85.99853742125777,27.650456904078872],[85.99892787902837,27.65054767745915],[85.99938941991697,27.65013573965917],[86.00032907496087,27.649693350458957],[86.00080368376258,27.649306357927184],[86.0013993376552,27.64898563327338],[86.00194978896577,27.64879776048099],[86.0021240414347,27.64880357297976],[86.00252125238671,27.648916915045614],[86.00361065558921,27.648936035984768],[86.00397404201657,27.649074073058504],[86.00440676716197,27.649329956370547],[86.00460634485309,27.64964504720931],[86.00492396377511,27.649766955254098],[86.00572063299812,27.64971624476225],[86.00608933052901,27.64958345242054],[86.00658876001134,27.64914919513941],[86.00753229339092,27.648828655187884],[86.00775168664224,27.648812147787545],[86.00824987268376,27.648944370127907],[86.0083525977508,27.64885934367706],[86.00847595257225,27.648602892781323],[86.00869121861768,27.648518678416465],[86.00881520147851,27.64851280009284],[86.00926999536989,27.648488976559836],[86.01018871102758,27.6486038146861],[86.01094136360088,27.64851209305627],[86.01167507050764,27.64830971435675],[86.01282980779766,27.648101267475592],[86.01413097510725,27.647972779467764],[86.01482329255859,27.647817478048943],[86.01562833804255,27.647638105020878],[86.015992284535,27.6475436363741],[86.01677263118098,27.647190338368173],[86.01711657032111,27.647165640091764],[86.0177725648214,27.647292171428017],[86.01832126932568,27.647397572085325],[86.0189622527348,27.647110981930474],[86.01939090718434,27.6467506223182],[86.01966531981084,27.646639711615485],[86.02025403939695,27.646738610260485],[86.02051619821009,27.646720164609846],[86.02060685626758,27.646610194325504],[86.02072014371423,27.646272469122977],[86.02127347222594,27.646143238806822],[86.0218544392578,27.646298528695194],[86.02250786902641,27.64635278827994],[86.02286837586381,27.646246941421143],[86.02307464139602,27.646349969299568],[86.02322357197542,27.646459375340868],[86.0234722332044,27.646959958034607],[86.02367456047259,27.647196024684536],[86.02452988587795,27.64798743690438],[86.02501406548363,27.647945732188923],[86.02547804587809,27.647648766029537],[86.02573476476326,27.647603187648116],[86.02620600254758,27.64762000077353],[86.02686137175165,27.647780354407917],[86.02729803664549,27.648056493972042],[86.02836205980502,27.648393457381744],[86.02899798099247,27.648323431458422],[86.0295358092941,27.64866346324323],[86.03006675642195,27.648705533198516]]]}},{"type":"Feature","properties":{"province":"Bagmati Province","district":"Dolakha","municipality":"Sailung Rural Municipality","ward":"4","wardNumber":4,"sourceMunicipality":"Sailung","sourceType":"Gaunpalika"},"geometry":{"type":"Polygon","coordinates":[[[86.00075535739167,27.676371242273945],[86.00089922270132,27.676336167687992],[86.00105677919464,27.676195125525062],[86.00121251910215,27.675753869133107],[86.00106744832839,27.674283563617944],[86.00111452483455,27.673954404624435],[86.0016504673503,27.67345268939644],[86.00198433970573,27.673358033955715],[86.00252197638795,27.673350651184776],[86.003817458009,27.67355176092449],[86.00417371484397,27.67354300547831],[86.00449170511908,27.673351195668765],[86.00516801056091,27.672683493453643],[86.00558560015816,27.67248111776875],[86.00586470227465,27.67234763826943],[86.00678328517411,27.671726822169198],[86.00718718296154,27.671567209521232],[86.00760602096527,27.671224855262732],[86.00810582319407,27.6705152666637],[86.00852747026993,27.669753164053333],[86.00870690361697,27.66910666069054],[86.00924984411863,27.668182946195923],[86.00998954836824,27.66757207319408],[86.01077339415129,27.667017903229148],[86.01222604304033,27.665809534766627],[86.01295612059981,27.665381339333436],[86.0131760756002,27.665274619002123],[86.01345030145947,27.665224601233426],[86.01454858391462,27.66529104790943],[86.01489521170056,27.66522808877072],[86.01559371424577,27.66475006660158],[86.01576877816018,27.66462940477805],[86.01606169459502,27.664297492510745],[86.01616385226652,27.663817475582842],[86.01614845767297,27.662697897063598],[86.0163594068633,27.66236085877485],[86.01686377720787,27.66197849111652],[86.01742785650161,27.661650764564783],[86.01818013274449,27.661432568943642],[86.01886082206514,27.661459945417572],[86.0193254304847,27.6613074588956],[86.01974552023853,27.661035124932333],[86.02025045147754,27.66062106112045],[86.02135329302092,27.66021136804229],[86.02189929910242,27.659524599136383],[86.02210506045382,27.659331914956816],[86.02280081347132,27.6589441071344],[86.02316500707097,27.65864651686928],[86.0232175851207,27.65832635972317],[86.02302857229985,27.65787816770859],[86.02328759795613,27.657218721635694],[86.02373244262806,27.65657634126654],[86.02496451045886,27.655413612935128],[86.02528200020171,27.655199234809174],[86.02628772999914,27.653721166630792],[86.02677090412102,27.653327295710564],[86.02702830688445,27.652916047678104],[86.02728358601749,27.652638026151955],[86.02742413289678,27.6522214651538],[86.0271046940282,27.65154664554701],[86.0270819321164,27.651291445489363],[86.02752309180651,27.650992103318067],[86.02853427363672,27.650577159900013],[86.02896930303248,27.64999560986672],[86.02953556816043,27.649414933607115],[86.02980034913158,27.64899255740795],[86.03006675642195,27.648705533198516],[86.0295358092941,27.64866346324323],[86.02899798099247,27.648323431458422],[86.02836205980502,27.648393457381744],[86.02729803664549,27.648056493972042],[86.02686137175165,27.647780354407917],[86.02620600254758,27.64762000077353],[86.02573476476326,27.647603187648116],[86.02547804587809,27.647648766029537],[86.02501406548363,27.647945732188923],[86.02452988587795,27.64798743690438],[86.02367456047259,27.647196024684536],[86.0234722332044,27.646959958034607],[86.02322357197542,27.646459375340868],[86.02307464139602,27.646349969299568],[86.02286837586381,27.646246941421143],[86.02250786902641,27.64635278827994],[86.0218544392578,27.646298528695194],[86.02127347222594,27.646143238806822],[86.02072014371423,27.646272469122977],[86.02060685626758,27.646610194325504],[86.02051619821009,27.646720164609846],[86.02025403939695,27.646738610260485],[86.01966531981084,27.646639711615485],[86.01939090718434,27.6467506223182],[86.0189622527348,27.647110981930474],[86.01832126932568,27.647397572085325],[86.0177725648214,27.647292171428017],[86.01711657032111,27.647165640091764],[86.01677263118098,27.647190338368173],[86.015992284535,27.6475436363741],[86.01562833804255,27.647638105020878],[86.01482329255859,27.647817478048943],[86.01413097510725,27.647972779467764],[86.01282980779766,27.648101267475592],[86.01167507050764,27.64830971435675],[86.01094136360088,27.64851209305627],[86.01018871102758,27.6486038146861],[86.00926999536989,27.648488976559836],[86.00881520147851,27.64851280009284],[86.00869121861768,27.648518678416465],[86.00847595257225,27.648602892781323],[86.0083525977508,27.64885934367706],[86.00824987268376,27.648944370127907],[86.00775168664224,27.648812147787545],[86.00753229339092,27.648828655187884],[86.00658876001134,27.64914919513941],[86.00608933052901,27.64958345242054],[86.00572063299812,27.64971624476225],[86.00492396377511,27.649766955254098],[86.00460634485309,27.64964504720931],[86.00440676716197,27.649329956370547],[86.00397404201657,27.649074073058504],[86.00361065558921,27.648936035984768],[86.00252125238671,27.648916915045614],[86.0021240414347,27.64880357297976],[86.00194978896577,27.64879776048099],[86.0013993376552,27.64898563327338],[86.00080368376258,27.649306357927184],[86.00032907496087,27.649693350458957],[85.99938941991697,27.65013573965917],[85.99892787902837,27.65054767745915],[85.99853742125777,27.650456904078872],[85.997518792284,27.6503208740267],[85.99662064814288,27.6503460141658],[85.9957720865069,27.650563336121767],[85.99491520679757,27.65054808990564],[85.99388376123696,27.650425562654146],[85.99354275968619,27.650472705218316],[85.99286657530027,27.65072284749417],[85.99218763885467,27.650893965996833],[85.99133069658482,27.650881032546632],[85.99065332314451,27.65109047571163],[85.99014795089192,27.651335114493676],[85.98997682572009,27.65134061777189],[85.98910968858674,27.65102059441269],[85.98801421223283,27.65028363816284],[85.98766795776497,27.65017954799336],[85.98681814471243,27.65035617033127],[85.98596001430634,27.650304725982405],[85.98527713759304,27.65036074850636],[85.98476920073979,27.65052855201394],[85.98425338417934,27.650466101475445],[85.9835743853048,27.650639470640076],[85.98289019505235,27.6506592955451],[85.98137157755725,27.65131612757392],[85.98086214051199,27.65144566965427],[85.98051863861016,27.65141603917934],[85.97999913159421,27.65123842981911],[85.9798240026172,27.651128836129715],[85.97956084046723,27.65094409758362],[85.97866019460727,27.650894590516213],[85.97728099382613,27.65062489962334],[85.97676142432526,27.650449540431097],[85.9760732304562,27.650351955378227],[85.97533826907892,27.650143400477265],[85.97521791458162,27.650377283243838],[85.97464264761919,27.651083933226285],[85.97422555897953,27.651401342674337],[85.9730279290532,27.651435426664918],[85.97252130588488,27.651641553746856],[85.97167518341882,27.651935459998],[85.97065668506416,27.65219423289348],[85.96980005499412,27.65217886136124],[85.9694553639288,27.652113157979805],[85.96893673327456,27.651973871480642],[85.9682420977847,27.651686606587027],[85.9670536614334,27.65198920624906],[85.96636302854186,27.651814848251895],[85.9656683302595,27.651527582766626],[85.96518608552647,27.651196677704505],[85.9646677671242,27.65105745432796],[85.96415313913707,27.65103320158262],[85.96296470298488,27.651335863786798],[85.9618658636748,27.651749745157662],[85.96231498813175,27.653617289312646],[85.96264018002499,27.654375821436627],[85.96336646308015,27.655581919155335],[85.96393799156574,27.656026294738176],[85.96460706159193,27.65681439506251],[85.96552734627419,27.65743963243982],[85.96657223903172,27.657948459859753],[85.96761287888091,27.658339877820517],[85.96968571447705,27.65885632336519],[85.97110499202145,27.65904736665612],[85.97161811961003,27.659033107029682],[85.97239196927947,27.65912687787664],[85.97303989848555,27.65929867228578],[85.97355333888545,27.65928441362476],[85.9742012675063,27.659458458868954],[85.9747159585556,27.65948252372559],[85.97618050408492,27.65974840093255],[85.97608510465973,27.660709121349754],[85.97617147825461,27.663239801082796],[85.97606288262442,27.663816783756953],[85.97590370244765,27.664167700813078],[85.97553432113848,27.6646389053978],[85.97545673218524,27.664870786335776],[85.97543760811902,27.66556130186033],[85.97549206977604,27.665904714725016],[85.9757761847874,27.666703509352047],[85.97618471877392,27.667381328842417],[85.9765119115698,27.668178184969804],[85.97679602566882,27.668974728537506],[85.97714266999856,27.670347253384115],[85.97737232279658,27.67080032212564],[85.97747724326308,27.67137211413862],[85.97761767417573,27.671713900736226],[85.97770628488982,27.673055230861603],[85.97849714737546,27.673645584566067],[85.97901834254478,27.67386151835776],[85.97970547307628,27.67391846629194],[85.97996994791066,27.67414159187429],[85.98006079575278,27.674291259721574],[85.98011926037113,27.67474983134535],[85.98025937909367,27.675091680480413],[85.9806171415248,27.67554337209254],[85.98132516206331,27.6762121248086],[85.98148066621172,27.67701454635967],[85.98149911623301,27.677551766477308],[85.98155607956551,27.67797195162775],[85.98256346029422,27.678633887277094],[85.98289165478049,27.679466816075493],[85.98307578943604,27.67984742585817],[85.98333901419561,27.680029789528657],[85.98359704715023,27.68006104650633],[85.98505264861366,27.68005815696222],[85.9862477775261,27.679947239132687],[85.98727334409308,27.67988027193865],[85.98812490740438,27.679742035758427],[85.98966485248566,27.67969907191973],[85.9909976607334,27.679853167280104],[85.99168973161224,27.680063598096933],[85.99360051053269,27.680851561479518],[85.99411901689905,27.680990722448016],[85.99446108073742,27.680979653202517],[85.99496657801444,27.680735076861566],[85.9953824146258,27.680379219071106],[85.99574810589766,27.67979279320152],[85.99632343560901,27.67908601773782],[85.99686125386627,27.678534725944782],[85.99774094807661,27.677972302894823],[85.99853792292767,27.677352863799648],[85.99882815602064,27.677429383341977],[85.99914283161782,27.677149611078164],[85.99977762459815,27.67672760596652],[86.00060111273805,27.676399501903333],[86.00075535739167,27.676371242273945]]]}},{"type":"Feature","properties":{"province":"Bagmati Province","district":"Dolakha","municipality":"Sailung Rural Municipality","ward":"1","wardNumber":1,"sourceMunicipality":"Sailung","sourceType":"Gaunpalika"},"geometry":{"type":"Polygon","coordinates":[[[85.9497243588817,27.623358894596414],[85.94957923662727,27.62286575059772],[85.94972127981055,27.622015999632666],[85.94968982005282,27.62109716779587],[85.94996935410977,27.6205147443917],[85.95077283587435,27.620222901036506],[85.95128333639276,27.62013193267499],[85.9516630996454,27.619967756302064],[85.95268403793928,27.619785880782477],[85.9534420017987,27.619419203575443],[85.9544593121443,27.619122170001457],[85.95516650427753,27.618527114057663],[85.95523614978623,27.618064977411688],[85.95551718474488,27.61751862699136],[85.95639700389394,27.61695876727323],[85.95682040938223,27.616831038295295],[85.9571146411926,27.61666848790512],[85.95735929006648,27.616315944674056],[85.95763113149626,27.61550326585771],[85.95769308405518,27.614810749493266],[85.95797649574232,27.614343484809844],[85.9585568918991,27.613790379393794],[85.95914372996994,27.613429143209384],[85.96000478582265,27.612329688130153],[85.96033659238788,27.612013967344588],[85.96083658593572,27.611615970641573],[85.96146737724825,27.611291119916167],[85.9634762925594,27.609970025433245],[85.96422500030606,27.60933458252794],[85.96523142819476,27.608730458193],[85.96649845391335,27.608234300917974],[85.9680300795675,27.607961332122056],[85.96905614570586,27.607932814594005],[85.969438285919,27.60784534755484],[85.96995147618567,27.6078310886339],[85.97045947426012,27.607663347967303],[85.97100066999928,27.60722502633157],[85.97157975159134,27.606633409789104],[85.97182433871512,27.60628086660726],[85.97198339341688,27.60593219991083],[85.9721188061164,27.604892706631073],[85.97227148159897,27.60434998342961],[85.97304156456379,27.603100796671097],[85.97351103535138,27.601822291705012],[85.9739189919974,27.601236241152023],[85.97473645480135,27.59887247765885],[85.97481792088992,27.59875569244638],[85.97561446035417,27.598271792924102],[85.97662476580324,27.597782702903306],[85.97717671814584,27.59765134642669],[85.97734496705837,27.597571321385384],[85.97750927578154,27.597373949799557],[85.97743880335415,27.596569964377075],[85.97673433363413,27.594750186024118],[85.9765779545036,27.59394782706166],[85.9767016094225,27.59256291887644],[85.97670065706156,27.591296797190765],[85.97683569485099,27.59025955428565],[85.97734386637558,27.588864014988964],[85.9774788419679,27.58782452049455],[85.97775412270316,27.587126938244907],[85.97790917493238,27.586663113278746],[85.9783115031127,27.585923517852454],[85.97842772911496,27.585574538817834],[85.97841572137182,27.58522912500639],[85.97821257271221,27.584315796069298],[85.97793239910371,27.583632223473767],[85.97773337827546,27.58283399080933],[85.9780353521621,27.581673897631166],[85.97840016696483,27.581089722327437],[85.97859423241714,27.580508924727997],[85.97871052171814,27.58015988409712],[85.9788067337339,27.579237487393453],[85.97876664338001,27.578088400619883],[85.9785371786583,27.577635331706762],[85.97795332829963,27.57684566835668],[85.9778090825619,27.576388660445055],[85.97784021512491,27.576043558696597],[85.97811136851591,27.575230817005874],[85.9781341199501,27.574655460545777],[85.97794310494085,27.57408529534443],[85.97771720581544,27.573747322764042],[85.97748379989986,27.57317915831689],[85.97726876899657,27.571918165256847],[85.976895057079,27.571008150913396],[85.9768375313579,27.57059015392749],[85.97618148610651,27.57141365129044],[85.97472641377067,27.57386982338624],[85.97410387785067,27.574422679143414],[85.97343182055538,27.574787917111216],[85.97288280775707,27.574995983810027],[85.97188870136605,27.575943332993127],[85.97068508134441,27.57701328345273],[85.97027080747657,27.57740746590883],[85.9698324679188,27.578340868605004],[85.96921112012902,27.578932109976115],[85.96762511015478,27.580089464427886],[85.96700770252465,27.58079580288744],[85.9666924075112,27.581572158731845],[85.96639793931486,27.582960256436635],[85.96623763368697,27.583272787343258],[85.9659902952072,27.58354849469418],[85.96559065690823,27.58436486325152],[85.96529698707545,27.584525163293304],[85.96461679987196,27.584660021454777],[85.96406891314956,27.584906474184372],[85.96381913481797,27.585103221296322],[85.96353453514058,27.585534475242373],[85.96298664791446,27.585778614277665],[85.96273687037639,27.585977613249607],[85.96261382649188,27.58613472265619],[85.96258144276722,27.586443689003815],[85.96242120004901,27.586753968598313],[85.9624891082436,27.58748111870499],[85.96232605068353,27.58771468879117],[85.96203069272222,27.587838853273322],[85.96168343770567,27.58769412662961],[85.96116787146809,27.58763155001275],[85.9606187331938,27.587839616215476],[85.96024985170132,27.588310820804285],[85.96005322297452,27.58881490764342],[85.95980344549635,27.589013906226572],[85.95777088796883,27.589644234386665],[85.95727008204015,27.590003845079718],[85.95638682297569,27.59045085907742],[85.9560138772668,27.590806903914938],[85.95556465574204,27.591433217539286],[85.95532407120454,27.591898606487412],[85.95513138210522,27.59251785188445],[85.95473005542213,27.59329802263121],[85.95414697004269,27.593774355255565],[85.95381041065815,27.593936593463674],[85.95356182047921,27.59417385242154],[85.95340120272641,27.594484195648164],[85.95342660953185,27.59647953120797],[85.95331150929094,27.59686683348578],[85.95310443493315,27.59706389244003],[85.95226231526811,27.597470581990535],[85.95090581825502,27.5978553324442],[85.9505692578309,27.598017570582364],[85.94988775748011,27.598113979872657],[85.94903925851264,27.59832873877456],[85.94835381755342,27.598310051443253],[85.94787157201242,27.597976895235554],[85.94735075279652,27.597763025007527],[85.94700587412002,27.59769500819569],[85.94649675012647,27.59782430055384],[85.94616137844112,27.59802486241331],[85.94527005070107,27.598241559051043],[85.94480757031191,27.59848632293591],[85.94427275431974,27.59911419914808],[85.9439306275618,27.59912289304235],[85.94349139897602,27.598790048527846],[85.94332039901202,27.59879555170073],[85.94289668119121,27.59892321860248],[85.94252217076733,27.599240877018538],[85.94212078182824,27.600018734054675],[85.9423607538619,27.600778893310416],[85.94228566709852,27.601087483896134],[85.94212529898924,27.601400015020502],[85.94170958642323,27.601755685473595],[85.94153695984772,27.601722802527178],[85.94068595892851,27.601860788160046],[85.94034108079993,27.601794959181433],[85.94012362399435,27.601684928811153],[85.93976717536101,27.601273748919386],[85.93934477059413,27.601437551087702],[85.93900539630737,27.601525204363863],[85.93849095559622,27.601500951964017],[85.93779244313954,27.601098402394133],[85.93748914187009,27.600992374830746],[85.93714582729051,27.600962618549868],[85.9366378290764,27.601130235254825],[85.93600822468352,27.601493284862727],[85.93526620936007,27.602320471742708],[85.93498786338968,27.60294121865947],[85.93473764823933,27.60314015455211],[85.9337088930276,27.60309165008711],[85.93303014387457,27.60326476906196],[85.93183026195976,27.603221705062992],[85.9314038542395,27.60327259837442],[85.93098532844499,27.60355149670868],[85.93053466798689,27.604139423424666],[85.92941526567392,27.605207309300933],[85.92879629414028,27.605875136144046],[85.92823916512947,27.60711894373933],[85.92803478026514,27.607392713322838],[85.9276965935627,27.607518752927977],[85.92717427222303,27.607264182823666],[85.92655735149098,27.606744849097215],[85.9258719720856,27.60672384835844],[85.9248601029193,27.60717411455302],[85.92435085414972,27.607303345069365],[85.9240137935853,27.607467708608283],[85.92389068684331,27.607624755461785],[85.92313822690309,27.608142539729176],[85.92279728909806,27.60819180699522],[85.92211059704287,27.60813460856642],[85.92172964494401,27.60826027395484],[85.92139389779541,27.6084608360272],[85.92089797038113,27.608973803448634],[85.92037841572476,27.610062127517402],[85.92027100778411,27.6106774347602],[85.92007419009924,27.611181459067296],[85.91991063293713,27.61141715451659],[85.91961915230111,27.611656415372554],[85.91872375990009,27.611757765605184],[85.91790995839688,27.61174251846467],[85.91757058405291,27.611827795914337],[85.91706521197013,27.61207212245229],[85.91590160590462,27.613101247442152],[85.91486215450284,27.612745589727876],[85.91441685971245,27.612261326905013],[85.91389547730209,27.612045205501378],[85.91303765914064,27.6120294582564],[85.91269759738094,27.612117049430935],[85.91201265635465,27.612136561256932],[85.9105581823097,27.6122154092071],[85.91000660517355,27.612382651395823],[85.90984192072112,27.61257996033126],[85.90947848196595,27.613242908613618],[85.90914898903229,27.613635276762622],[85.90881167894027,27.61379738964922],[85.906558976428,27.61435969916276],[85.906223166707,27.614560198901284],[85.9058949255392,27.614990953482277],[85.90540700323993,27.615772499503585],[85.90490219494517,27.616055212524998],[85.90439613525616,27.61629947593806],[85.90388619812302,27.61642864298453],[85.90355007612642,27.616629080419376],[85.9027157122725,27.617306348530594],[85.902206963548,27.617473902418634],[85.90168920824068,27.617372752159305],[85.90064331585727,27.61686342424417],[85.89961712445624,27.616932079010535],[85.89881495642899,27.61729813042942],[85.89757575009868,27.617410174512546],[85.89706850168405,27.617615989251995],[85.89631335226382,27.61809763754267],[85.8953024846329,27.618624426179053],[85.89472502881618,27.619292377008374],[85.89421896885428,27.619536640618993],[85.89336771816961,27.61971263786098],[85.89269265926086,27.620039052149664],[85.8920127854967,27.620211920986886],[85.89149890763906,27.620225929230575],[85.89064765669235,27.62040192634388],[85.88996265404255,27.620421313041486],[85.88891926285119,27.619990945778433],[85.88750617790579,27.620029281793457],[85.88690914633169,27.62012381486552],[85.8863528148298,27.620139699092643],[85.88555246096244,27.6205440127957],[85.88547199545732,27.62070137168164],[85.885218229407,27.622087343768754],[85.88549827839398,27.62277116694723],[85.88605373262683,27.622716896439954],[85.8863923571605,27.622593231934722],[85.88673754799137,27.622659185960966],[85.88725930547332,27.62287549455361],[85.88826593539991,27.62349973135769],[85.8893055109226,27.623814940060992],[85.8899932034033,27.623874639208726],[85.89033958219952,27.62397891657797],[85.8913038214973,27.62460503004101],[85.89188247981383,27.62523933625442],[85.89223011055479,27.62538424998706],[85.89292055479413,27.625518408889665],[85.89392249280348,27.62598903783893],[85.89498525867396,27.62572888954862],[85.89550545244796,27.62590681239985],[85.89621278415278,27.626539929659376],[85.89674361069743,27.627022567125703],[85.89779069186471,27.627570218121857],[85.89848119909782,27.627704376536112],[85.89899357480405,27.62765198152525],[85.89985664648995,27.627819085812725],[85.90072334528877,27.628101286286135],[85.90175904276012,27.62830352420476],[85.90244560969593,27.62832252371004],[85.90313724308415,27.62849494288759],[85.90391446957099,27.62866586164039],[85.90483337859996,27.6292147642204],[85.90586757567415,27.629378615739608],[85.90638026446169,27.629326220535358],[85.90810496831688,27.62962185480807],[85.90948835918327,27.6299667564373],[85.90983874138064,27.63018844327908],[85.91122726060873,27.630686764821416],[85.91244865679964,27.631303498125057],[85.91314279158613,27.631552627615285],[85.91348804477192,27.631620768840616],[85.91399566807463,27.631414829240367],[85.91429665455226,27.63144427230626],[85.91447953909187,27.631784245674694],[85.91476008788183,27.632468007008352],[85.91498067089667,27.632652559260737],[85.91540995520396,27.632678500088804],[85.91591657803676,27.632472560042263],[85.91626151936772,27.632540702098904],[85.91678240192464,27.632756885792368],[85.91747197069547,27.632890919748245],[85.91798647378246,27.632915234043494],[85.91835474362877,27.633671891234723],[85.91884468149657,27.63423317656411],[85.91949905223868,27.634599340911606],[85.92062822532796,27.635066279651852],[85.92148741957062,27.635156424058145],[85.92251254792774,27.635089895382663],[85.92333016384377,27.635121084745034],[85.92422724620668,27.6351573369301],[85.9254235002763,27.63508536828867],[85.92594200642012,27.635224778866455],[85.92697113780446,27.635273347107116],[85.92726805921187,27.63518769387204],[85.9276103103932,27.635178938636148],[85.92794705831737,27.635016825641635],[85.92857290923,27.634538616928655],[85.92907984488895,27.634332676452317],[85.92960078946842,27.63454654703273],[85.93017238103421,27.63499104807226],[85.93075066499559,27.63562741713382],[85.93109679431676,27.63573394518123],[85.93122240219714,27.63565360823969],[85.93142597465568,27.635341514475463],[85.93170444563148,27.63471845393016],[85.93207632882458,27.634326335992682],[85.9323690596099,27.6341254612492],[85.93291725976287,27.633879196794844],[85.9334575169828,27.633404865593445],[85.93396051181826,27.633083703478754],[85.93497369424524,27.63267169911713],[85.93530800322677,27.632432750497898],[85.93642646633941,27.6313263529342],[85.93727402732794,27.631073333952006],[85.93764559744072,27.630678902207727],[85.93782290136134,27.62959920842633],[85.93780194899443,27.628987404495145],[85.93756210216942,27.628227308018474],[85.93732331753469,27.6275032228218],[85.93778742468868,27.627299158903195],[85.93829123271517,27.627016320882145],[85.93880054444884,27.626887090825644],[85.94050604811356,27.62668564180549],[85.94119042644682,27.62666606693163],[85.94186410998502,27.62634165361256],[85.94254329649108,27.62616853417853],[85.94287998165225,27.626006358528556],[85.94390135783046,27.625824483145546],[85.94508047444424,27.625253430178137],[85.94558972428209,27.625124136883212],[85.94609509617567,27.624879686043876],[85.9471378475861,27.6240841306933],[85.94764309458166,27.623839678943998],[85.94849065478414,27.623586534633983],[85.9493525384214,27.62375326351906],[85.94960519234621,27.623631099851004],[85.9497243588817,27.623358894596414]]]}},{"type":"Feature","properties":{"province":"Bagmati Province","district":"Dolakha","municipality":"Sailung Rural Municipality","ward":"8","wardNumber":8,"sourceMunicipality":"Sailung","sourceType":"Gaunpalika"},"geometry":{"type":"Polygon","coordinates":[[[86.03793414546041,27.610048609316653],[86.03811402065487,27.609760960754166],[86.03792593987497,27.608804994081733],[86.03794525850267,27.608653887434862],[86.03796901646807,27.608595369705164],[86.03829494545182,27.608301968355004],[86.03916970515408,27.608188426555998],[86.03983625907017,27.60772803516624],[86.04025547392973,27.607518782317985],[86.04113867428556,27.60738267166112],[86.0422230682609,27.60684169000961],[86.04257407176131,27.60671996322885],[86.04342719890188,27.60661523663095],[86.04471235450951,27.606037305557237],[86.04477275143782,27.60601060927116],[86.04502734283383,27.60579566923799],[86.04514857398945,27.605692700128817],[86.04519665416068,27.605663690818396],[86.04613749608261,27.605121648278228],[86.04638814850114,27.604879636644878],[86.04650956482669,27.604654756847484],[86.04659584595835,27.604562854126844],[86.04675465377767,27.60451202588322],[86.04790163816317,27.604305453821766],[86.04838149994998,27.60403787125274],[86.04864478091713,27.60369207927576],[86.04902503523378,27.602787310205745],[86.04934214974281,27.602478091430168],[86.05005565492485,27.60178106744312],[86.05012386604206,27.60165965634864],[86.05060334579392,27.60080977712625],[86.05071607140351,27.600503561033925],[86.0508147866933,27.59978653753452],[86.05078395969927,27.59950420433694],[86.05068035555273,27.599252944337866],[86.05007756534097,27.598826825045325],[86.04936611452386,27.598808326104876],[86.04887305925898,27.598994635599553],[86.04860633775931,27.59921851670155],[86.04830154612765,27.599864208708386],[86.0480573495341,27.60144692622256],[86.04794293460111,27.601637983348787],[86.04761350348222,27.601940387242767],[86.04744575364364,27.60193476234636],[86.04704203802429,27.60159566637903],[86.04708455028491,27.601322898813613],[86.04749750577119,27.600481585032416],[86.0476210428997,27.59978050328476],[86.0472144431209,27.598753080235618],[86.04710633298119,27.598140714474106],[86.04701779606935,27.597797051311577],[86.04696383680327,27.597588991169847],[86.04716346059284,27.59654543271461],[86.04709249282585,27.596258286583115],[86.04693555746859,27.596020217880863],[86.04666207847275,27.59581522274167],[86.04611448961609,27.59487038874296],[86.04607791079349,27.594633068614026],[86.04618013318448,27.594351673378366],[86.04608677939339,27.593798073376924],[86.04580079354236,27.593353821282104],[86.04538613360263,27.59285661633961],[86.04516329905783,27.59259104066062],[86.0450750730722,27.59213221939084],[86.044750070531,27.591561242273293],[86.04459907498256,27.591300667373638],[86.04423355845107,27.590797085541755],[86.04404991893637,27.59006005850869],[86.04372172818792,27.589455196388865],[86.04346349549394,27.58840845358728],[86.04349531452586,27.587993394294426],[86.0435024408419,27.587898616036206],[86.04386881853326,27.58720147051563],[86.04439281718791,27.58661829460417],[86.04486486420527,27.586364215315566],[86.04560726161343,27.58616840049309],[86.04640036232101,27.585814976628413],[86.04690529517548,27.5854596175302],[86.04695093647223,27.585385407984898],[86.04677929899874,27.58443181740165],[86.04673808801215,27.58374086492474],[86.04684824164815,27.582786896244972],[86.0470856399273,27.58257189378287],[86.04803192298135,27.58226010496056],[86.04846720928441,27.582265352600523],[86.0486481514064,27.58225303513331],[86.04858462509661,27.58201790406863],[86.04841524336966,27.581506630448857],[86.0483936014733,27.580705270396642],[86.0484478669507,27.58036254459115],[86.04850432395378,27.580277206351056],[86.04897199435497,27.5800185634114],[86.04920220200871,27.579792181849104],[86.04941239977796,27.579394125873474],[86.04942515028664,27.57901732797398],[86.04922569380277,27.578422341833964],[86.04879033743295,27.577717452230605],[86.0485097286016,27.57732734034797],[86.04795514213761,27.5767638046661],[86.04794757670355,27.576756990326036],[86.0478849217152,27.576201327561932],[86.04792956011529,27.575946565115053],[86.04853165362546,27.575630216771156],[86.04891466898486,27.575488421641605],[86.04914806493647,27.57526429116561],[86.04912168034676,27.575241534572378],[86.04885314011709,27.574980147497875],[86.04859629399685,27.57488587197772],[86.04751914439991,27.574776975888255],[86.04617245963678,27.57483094210623],[86.04566427006606,27.57464689227188],[86.04563419647879,27.574646768129725],[86.04537872664613,27.574638143049487],[86.04496876478599,27.574784314098224],[86.04402186105499,27.575504597080048],[86.04340876020053,27.57559287942487],[86.0432141893011,27.575715729141354],[86.04307751498712,27.575816322994505],[86.04298517070501,27.576025572662036],[86.04298536031216,27.576149733640644],[86.04297773470475,27.57637092412004],[86.04278022601372,27.57650946654917],[86.04258484180757,27.576589304416256],[86.04201000523634,27.57661250396416],[86.04153651993526,27.576773993320696],[86.04043918594675,27.577601496677882],[86.04043343401771,27.57760599832011],[86.04023354823119,27.577690400188786],[86.03984828501385,27.578014998717183],[86.03922906619432,27.578877382991845],[86.03865329733846,27.579363218232164],[86.0377535925934,27.579639120289187],[86.03724228395,27.58007118992808],[86.03701063702346,27.58016890792021],[86.03699275501941,27.580180036237408],[86.03653602723818,27.580488255984292],[86.03607335899031,27.58068150504132],[86.03499545886416,27.580581485786276],[86.0335823150058,27.580871896805892],[86.03181417119453,27.581712785525756],[86.03175877721176,27.581822943417013],[86.03171019853448,27.58194447903429],[86.0317238932309,27.582116092150223],[86.0317359011566,27.582479573783267],[86.03157615961015,27.582823800638725],[86.03129036873007,27.583024925050843],[86.03097237597841,27.583045309523328],[86.03092760971506,27.583047309951716],[86.03065919562563,27.582900894836328],[86.03038903282042,27.58286294856027],[86.02940323755487,27.583381923269094],[86.0285098456537,27.583472770628376],[86.02797065017211,27.58378949307057],[86.02686430703606,27.584079651179906],[86.02660183479128,27.58404401842812],[86.02616604583005,27.583835586488558],[86.02567292474892,27.583669605011636],[86.0252021874324,27.583657292766866],[86.02448705033302,27.58381703375614],[86.0234247814729,27.58373964607482],[86.0223589560689,27.584239990570808],[86.0220809770082,27.584170285077604],[86.02169933320906,27.583964478870946],[86.02125585511038,27.583807936538722],[86.02002008336672,27.583582569665328],[86.01908936434776,27.583560197088882],[86.0184750730956,27.583420474092605],[86.01792367509347,27.582897450509783],[86.01756991789031,27.58272796648048],[86.01709249010241,27.58265238599471],[86.01611119118388,27.582807940720457],[86.01498777636145,27.582806763604008],[86.01368672881065,27.582474803662755],[86.01368197738181,27.582472553117977],[86.01347264857795,27.582410098565152],[86.01246570948194,27.58198992208677],[86.01194913722756,27.581435576593737],[86.01139492646791,27.580984762602878],[86.00995294560339,27.580071757895038],[86.0091036275153,27.579697843345663],[86.00875261794874,27.579363561283444],[86.00834583341945,27.578577458409274],[86.00775523447405,27.57809482264659],[86.00732551063687,27.577888578806036],[86.00698594677641,27.577802681503663],[86.0065125240771,27.577984364354794],[86.0061360718064,27.577913971929178],[86.00538885384393,27.57752267610107],[86.0045210873583,27.576880058138713],[86.00302021191644,27.57615836044137],[86.00204478056608,27.575481045196295],[86.00154984486667,27.575247294460123],[86.00129487468817,27.575182277068265],[86.00061049722186,27.575166091199936],[86.0001814003323,27.575106577963748],[85.99992449024312,27.574910647558195],[85.99920282965115,27.57327817524379],[85.99853926102467,27.57236835157984],[85.99757833356752,27.57149704247903],[85.9974048309297,27.571425835051826],[85.99636825702584,27.57114751330349],[85.99551319125396,27.571172966472396],[85.99482268420067,27.57100098462323],[85.99434312880571,27.570744725811707],[85.992979174331,27.569671861145792],[85.99240089078235,27.56903793028652],[85.99152199628655,27.56837255540195],[85.99065373387344,27.56801195800143],[85.99005676314556,27.56806854197413],[85.98975346249304,27.56796251395786],[85.98935262167439,27.567512760702993],[85.98871305908217,27.566343485660653],[85.98827351838658,27.566010767362734],[85.98758025885967,27.565762013026387],[85.9872397590702,27.565809155013326],[85.98672400497772,27.565746766464287],[85.98604031483865,27.56576659059123],[85.98570231626677,27.565890568234895],[85.98484606201681,27.56587750964078],[85.98398067651974,27.56559362161964],[85.98345835578398,27.565341552151107],[85.98284381103798,27.564899177805707],[85.9821521149847,27.564686497167013],[85.98188882831357,27.56450400785406],[85.98050221328796,27.566459720432444],[85.98013070542035,27.566854213886923],[85.97958851023064,27.567251960894897],[85.97925976815863,27.567644516960524],[85.97797605755964,27.56886970075135],[85.9768375313579,27.57059015392749],[85.976895057079,27.571008150913396],[85.97726876899657,27.571918165256847],[85.97748379989986,27.57317915831689],[85.97771720581544,27.573747322764042],[85.97794310494085,27.57408529534443],[85.9781341199501,27.574655460545777],[85.97811136851591,27.575230817005874],[85.97784021512491,27.576043558696597],[85.9778090825619,27.576388660445055],[85.97795332829963,27.57684566835668],[85.9785371786583,27.577635331706762],[85.97876664338001,27.578088400619883],[85.9788067337339,27.579237487393453],[85.97871052171814,27.58015988409712],[85.97859423241714,27.580508924727997],[85.97840016696483,27.581089722327437],[85.9780353521621,27.581673897631166],[85.97773337827546,27.58283399080933],[85.97793239910371,27.583632223473767],[85.97821257271221,27.584315796069298],[85.97841572137182,27.58522912500639],[85.97842772911496,27.585574538817834],[85.9783115031127,27.585923517852454],[85.97790917493238,27.586663113278746],[85.97831001633494,27.587110678265596],[85.97947346354152,27.588574910828452],[85.98077296323802,27.590263644040938],[85.98213948127999,27.591413344596933],[85.98257789674567,27.59170773925552],[85.98340201772692,27.59202970168645],[85.98391921090658,27.592130538568266],[85.98443352615907,27.592152352795573],[85.98491283053896,27.59240861089924],[85.98517868213254,27.59267012342967],[85.98580104552097,27.593342690074312],[85.98676834891455,27.594083272942687],[85.98728672964019,27.59422018362368],[85.98781036461746,27.594512889539914],[85.9881668761598,27.59492400701812],[85.98861554893735,27.59552536715315],[85.98974017057643,27.59710438285254],[85.99001652941087,27.597672797492354],[85.99082052498272,27.59864695137637],[85.99100366002028,27.59898679933079],[85.9914507065256,27.599549773098683],[85.99255775308437,27.60063208042348],[85.99282085233497,27.6008168199653],[85.99317717693056,27.60122787486951],[85.99328253538097,27.60179966654084],[85.9934225284057,27.602141453324304],[85.99386594709425,27.602589330260315],[85.99434531555623,27.602843275662973],[85.99610452968261,27.602986864180327],[85.99713985296604,27.603224549728175],[85.99800530130398,27.603508374966754],[85.99853731232997,27.603625091136184],[85.99934654939126,27.603646715011898],[85.99996752884374,27.60366246395471],[86.00173068438164,27.603921086511775],[86.00268166452015,27.60424167169283],[86.00404698997613,27.604942051846564],[86.00472486858632,27.605172613362924],[86.00522405661097,27.605449252377536],[86.00704792536739,27.606044598078707],[86.00735660209783,27.60609192191294],[86.00799421471888,27.606189006866757],[86.00874293124505,27.60636361362472],[86.00919353715071,27.60657898489946],[86.01078107489427,27.607621651603704],[86.01228069947437,27.608257511377435],[86.01365239804728,27.60864186128869],[86.01440480155281,27.60862016113556],[86.01510481309509,27.608895985345313],[86.01562294800475,27.60931941756559],[86.01570247787397,27.60938537290196],[86.01634134153406,27.609595303593366],[86.0170347855389,27.609611489768362],[86.01795518555979,27.60932458432322],[86.0189152318952,27.609669863895547],[86.01989610216538,27.610347116765],[86.02035558793494,27.610569302758673],[86.02067183093757,27.610661764492498],[86.02113950380863,27.610674075434357],[86.02232350694514,27.610908133702647],[86.02361073769512,27.611255723602877],[86.02414212120449,27.61126847209106],[86.02530286230592,27.611163743346],[86.02592928198091,27.611204248872234],[86.02657720676666,27.610998870002074],[86.02755931831489,27.610859007775563],[86.02828765116955,27.610976972705895],[86.02878470875109,27.610854057172187],[86.03034971837296,27.610266870304756],[86.03093699638572,27.61018740384011],[86.03194892883945,27.609749828083288],[86.03252682594827,27.609437918909315],[86.0327723502794,27.609139391400458],[86.03348773519794,27.60867268485409],[86.03374095235333,27.60862254263483],[86.03379647360897,27.6086116013884],[86.03416060817895,27.608620913321285],[86.03447522530314,27.608713375316224],[86.03503393602332,27.609037714882067],[86.03576795768403,27.609085722557428],[86.03627502268927,27.609233698453163],[86.03793414546041,27.610048609316653]]]}}]}