{"type":"FeatureCollection","features":[{"type":"Feature","properties":{"province":"Gandaki Province","district":"Lamjung","municipality":"Sundarbazar Municipality","ward":"1","wardNumber":1,"sourceMunicipality":"Sundarbazar","sourceType":"Nagarpalika"},"geometry":{"type":"Polygon","coordinates":[[[84.35917356220496,28.137400763974686],[84.35739663597353,28.137114300127923],[84.35686437472589,28.136889991177704],[84.35621370998412,28.136860104803795],[84.35610463894736,28.13681198986734],[84.35595935792641,28.136747901700367],[84.35483306862612,28.136484530279454],[84.35219319923787,28.1358707082713],[84.3516884077637,28.13590525574739],[84.35167899514481,28.13590589845677],[84.3516334935865,28.135904220283532],[84.35087939272304,28.13587636392527],[84.34987859310449,28.135637444977856],[84.34969701113519,28.13558149079488],[84.34868724215511,28.13532226623455],[84.34828430709332,28.13512693223679],[84.34788289970497,28.134814272539284],[84.34762058729956,28.134659975471514],[84.3474320325773,28.13454907356332],[84.34677210839577,28.134209964467658],[84.34649758932595,28.13415648961582],[84.34598720493447,28.133931597639275],[84.3455452538584,28.13373685653395],[84.34532101284896,28.133486896722165],[84.34522028276876,28.133435246383172],[84.34488302602301,28.133260071928404],[84.3448829984932,28.133260062067425],[84.34333583490478,28.132941225677612],[84.3427125965836,28.132714844479313],[84.34258317009811,28.13263844950238],[84.3425831445593,28.132638425191413],[84.3421944935355,28.132124814937615],[84.34191354054077,28.131649296214384],[84.3416760308612,28.131421943180428],[84.34124565837625,28.131195068535522],[84.34101069588104,28.131367186422676],[84.34083693921899,28.13096814375424],[84.34081022224814,28.130856630712106],[84.34072726387399,28.130510248588415],[84.34072690568912,28.130397411999425],[84.34072628374403,28.13020555786785],[84.34053295857446,28.13026469628616],[84.34025573098656,28.130549718128805],[84.34008404168159,28.1306089860345],[84.33974110197718,28.130648123640473],[84.33948356795507,28.130723270952707],[84.3390551588764,28.130916140514966],[84.3387981877716,28.13097322038295],[84.33794111852701,28.131282312458858],[84.33742655164936,28.131396410416297],[84.33691098394203,28.131397722887925],[84.33622397742579,28.13132489019958],[84.33596600590164,28.13126912432138],[84.33545093864512,28.13123205169716],[84.33476399521336,28.131195354590037],[84.33442036697222,28.131216487154436],[84.33414182488207,28.131293947453504],[84.33332814696159,28.131638986883363],[84.33255585938262,28.1317920962919],[84.33210531660161,28.131813478693736],[84.33125387352104,28.132102188211903],[84.33051822504844,28.132352262872825],[84.32978763934041,28.13239465147186],[84.329529731069,28.132356892054993],[84.32909869468718,28.132130012372304],[84.32823737282865,28.131886067418133],[84.32802266744562,28.131809857833833],[84.32735416682108,28.13135553743522],[84.32713896102305,28.13131996481126],[84.32692338029973,28.131187301600768],[84.32670667359194,28.130883149997945],[84.32657643751416,28.13054042492409],[84.32646501877198,28.129721435167806],[84.32629164094875,28.12941709497413],[84.32581690032421,28.129000723202644],[84.32557968690773,28.128888503525832],[84.32514990138756,28.128833050256482],[84.32454773869982,28.128834488596283],[84.32428989235669,28.128798979671643],[84.32388130314392,28.128817986222312],[84.32368735468387,28.128667316238303],[84.32344851489846,28.12819161452442],[84.32329652036536,28.1278105025148],[84.32316847245019,28.1280026840845],[84.3228478538293,28.12847963809757],[84.32231290501662,28.129015795407422],[84.32212045900697,28.129149459849067],[84.32151885976216,28.129342768377136],[84.32126238914802,28.129553205085774],[84.32121943538604,28.129648108160566],[84.321093452321,28.130316491629006],[84.32109495336165,28.13060082554287],[84.32094658618362,28.131002943793575],[84.32090475926006,28.13128740238318],[84.32097047122156,28.131535538405004],[84.32105687946932,28.13170677670819],[84.32107988757792,28.13193471779107],[84.32127458629209,28.132333771678137],[84.32129903419353,28.132848299115174],[84.32123557354457,28.133135070263773],[84.32132366885978,28.133421528899714],[84.32132366970387,28.13343503369075],[84.32132623318924,28.133861595460342],[84.32116655112458,28.13497017312586],[84.32102231112951,28.13546250422082],[84.32070988339173,28.13612226237429],[84.32063416888846,28.13698688976231],[84.32082918039288,28.13770191221566],[84.32112216546024,28.138184178814118],[84.32172132798962,28.138880195545905],[84.32173283249152,28.13891626897957],[84.32176509449212,28.139022236726372],[84.32176634563004,28.139236674425845],[84.32141677939624,28.14004772661887],[84.32125847162345,28.140743243028794],[84.32132068607122,28.142810475374493],[84.3215963547355,28.144297161272267],[84.32201701406034,28.14531858679706],[84.32250932403298,28.14601935404977],[84.32298856702974,28.146823964427675],[84.32339371880566,28.147136680549426],[84.32448200086752,28.14764870418072],[84.32532856787104,28.148240251898862],[84.32567332351532,28.148772094939083],[84.32582106718799,28.149410469780292],[84.32582275533082,28.149753509527955],[84.32570077405845,28.150254843422953],[84.32722309257927,28.150504039425957],[84.33038546292262,28.15141267664073],[84.33125447570899,28.151606920129627],[84.33353645298608,28.15211587860817],[84.3348681384766,28.152460290161887],[84.33581649355291,28.152595577863796],[84.33598711947597,28.152597391215657],[84.33614511606436,28.152614958426565],[84.33835550518818,28.153006820894454],[84.33960353391195,28.153276835930587],[84.34034062145874,28.153435130911824],[84.34167599593391,28.153519902978793],[84.34416686428014,28.153831803890924],[84.34527571572556,28.153772596641414],[84.34715666815956,28.153858056561656],[84.34944827511804,28.154332941485947],[84.34957182097037,28.15435744816261],[84.35072443494957,28.1523051556732],[84.35081090443444,28.152070212001945],[84.3509240082912,28.15200225424654],[84.35207862826657,28.152312968238633],[84.35302554535825,28.152775477796226],[84.35346164578473,28.152774227300643],[84.35387367394085,28.152617493893267],[84.3541079475155,28.152235505105697],[84.35418053671572,28.152038947476207],[84.35425162461878,28.151203701766907],[84.35424124185606,28.149224371089698],[84.35467039422674,28.145781357387108],[84.35487953213179,28.14454855775044],[84.35542729562425,28.142899509713622],[84.35536920959933,28.142087084186674],[84.35545867889601,28.14105553069935],[84.35545448774188,28.140367140531293],[84.35538302245929,28.139927198801107],[84.35542366206582,28.13932677262932],[84.35560998138335,28.1390735111657],[84.35585544746675,28.138998362406845],[84.35769888462555,28.138598555106064],[84.35857539989077,28.13859398923402],[84.35902369150604,28.138457448591744],[84.35917212144878,28.13830352888607],[84.35917356220496,28.137400763974686]]]}},{"type":"Feature","properties":{"province":"Gandaki Province","district":"Lamjung","municipality":"Sundarbazar Municipality","ward":"2","wardNumber":2,"sourceMunicipality":"Sundarbazar","sourceType":"Nagarpalika"},"geometry":{"type":"Polygon","coordinates":[[[84.38562434238442,28.152639631284057],[84.38663071791338,28.152241824930016],[84.38683504401403,28.152243450427648],[84.3869180746916,28.152134917930923],[84.38777695757587,28.151967742900766],[84.389241754204,28.15177174488259],[84.39016547367132,28.151403447634078],[84.39045558156336,28.151201762246874],[84.39081734034173,28.15104496556465],[84.3910937565193,28.150924554854402],[84.39178957799741,28.150547943261707],[84.39254604715762,28.15025685625458],[84.39380539026652,28.149589657655596],[84.39502897169871,28.14924080318626],[84.39830832003521,28.148755091903823],[84.39935583501799,28.14832321251472],[84.4005664752042,28.148409923084408],[84.4013185057204,28.148317394596035],[84.40175785706721,28.148160410149934],[84.40212861930056,28.1478907050805],[84.40275341496739,28.14763837997704],[84.40315712722568,28.147314408816385],[84.40343966714002,28.14626635060784],[84.40356421197583,28.14536996188089],[84.4034464788952,28.144869252517402],[84.40345635659928,28.144124471294234],[84.4036830643836,28.14363176352808],[84.40411628630596,28.142368829412003],[84.40416004874696,28.1411566605321],[84.40391620361866,28.139457974549327],[84.40394283641078,28.13840616566418],[84.40449541263513,28.136409327530075],[84.40503648821591,28.135739692051494],[84.40552860692613,28.134580412707574],[84.40631683598825,28.13344732828626],[84.40632315018934,28.133436012952632],[84.40663388990583,28.132805389477877],[84.4069909584649,28.13213856443314],[84.4063013895027,28.13222634480934],[84.40630136107939,28.132226369269137],[84.40564744760408,28.13267519645055],[84.40467474777547,28.13298729007917],[84.40372192397979,28.133337681720437],[84.40347914437413,28.133435453179477],[84.40334939213632,28.133612188469293],[84.40313209659081,28.133908184611933],[84.40282950777072,28.134015151470027],[84.40219499337915,28.134384918685143],[84.40158538507619,28.13461017975667],[84.40113634343366,28.134672391772877],[84.40113625898398,28.1346724136882],[84.4002667603875,28.13501576534043],[84.40009197711076,28.135052946744366],[84.39989025356418,28.135095888167122],[84.39951949019078,28.135347462231998],[84.39951943218627,28.135347475040934],[84.39885674455574,28.13550513929077],[84.39810449446733,28.13622731186869],[84.39803482061528,28.136322311108277],[84.39793092200857,28.136453514304325],[84.39793090072155,28.136453541449928],[84.39755014334442,28.136937617604097],[84.39678435532565,28.13744539984641],[84.3957602451617,28.137987793284022],[84.39576021666777,28.13798779968623],[84.3951964466672,28.138039078543397],[84.39416387330857,28.13784345814494],[84.39327615502732,28.13756842759891],[84.39305858925084,28.137435892933528],[84.39274786721622,28.137064384441892],[84.39274784571252,28.137064352906442],[84.39247942735196,28.136588965040662],[84.39247941299756,28.136588938901284],[84.39237300316363,28.13638385223975],[84.39226028030191,28.136196854659662],[84.39173122003847,28.135654450375473],[84.39098551877824,28.135390274074815],[84.39023955112435,28.13532507145547],[84.39013547908993,28.135315971407458],[84.38977847829048,28.13517029774368],[84.38949319291922,28.13496573460926],[84.38896604715305,28.13476185947805],[84.38830848447621,28.13475468941781],[84.38678818894228,28.135043394377835],[84.3855592082942,28.135087500887973],[84.38395406119925,28.135500538195537],[84.38369488111545,28.13546515677523],[84.38359853519489,28.13544686946511],[84.38348403302415,28.135425128570244],[84.38319167062767,28.135371783888466],[84.38201871274642,28.13529272849234],[84.38123066102186,28.135239599070115],[84.38061861528843,28.13532256303303],[84.37975367609278,28.135717682360177],[84.37952029093427,28.135854848748565],[84.37934077086702,28.135960366691155],[84.37905666485428,28.136080840164823],[84.37897157205444,28.13612610586983],[84.37897153951803,28.13612612130762],[84.37885904809752,28.136176087191043],[84.37885896878223,28.13617612262009],[84.37774180827424,28.13668926686647],[84.37738042221436,28.136737661573807],[84.3758038910821,28.1366111211078],[84.37518354581185,28.136511261000955],[84.374738680128,28.136352240981132],[84.37304053982047,28.13603189905421],[84.37293682602123,28.13604797353954],[84.3727762634145,28.136074915914737],[84.37274535971046,28.136080101184156],[84.37201550457355,28.13615883328679],[84.37055327107737,28.135948406360377],[84.37034146231065,28.135962864316408],[84.37024336112005,28.135969566861384],[84.369923013444,28.13592755559017],[84.36986654475322,28.135919974731074],[84.3695931396796,28.13588330522483],[84.36850422081085,28.135942684885475],[84.3670931506577,28.13579978600482],[84.36629046535164,28.13598476552627],[84.36497168488987,28.136024409611103],[84.36417696475675,28.136306399366294],[84.36370893154394,28.13636055639023],[84.3634382198627,28.136391889518762],[84.36286232042823,28.136632654351107],[84.36215804139282,28.136927931492917],[84.36175102129936,28.13703959674673],[84.36133658643342,28.137123687754862],[84.36082674272828,28.13722713677721],[84.35917356220496,28.137400763974686],[84.35917212144878,28.13830352888607],[84.35902369150604,28.138457448591744],[84.35857539989077,28.13859398923402],[84.35769888462555,28.138598555106064],[84.35585544746675,28.138998362406845],[84.35560998138335,28.1390735111657],[84.35542366206582,28.13932677262932],[84.35538302245929,28.139927198801107],[84.35545448774188,28.140367140531293],[84.35545867889601,28.14105553069935],[84.35536920959933,28.142087084186674],[84.35542729562425,28.142899509713622],[84.35487953213179,28.14454855775044],[84.35467039422674,28.145781357387108],[84.35424124185606,28.149224371089698],[84.35425162461878,28.151203701766907],[84.35418053671572,28.152038947476207],[84.3541079475155,28.152235505105697],[84.35387367394085,28.152617493893267],[84.35346164578473,28.152774227300643],[84.35302554535825,28.152775477796226],[84.35207862826657,28.152312968238633],[84.3509240082912,28.15200225424654],[84.35081090443444,28.152070212001945],[84.35072443494957,28.1523051556732],[84.34957182097037,28.15435744816261],[84.34909402015302,28.155622571047303],[84.34874039056835,28.15671357939466],[84.34803863196645,28.158229775917135],[84.34928378396832,28.1583529982069],[84.35077965662566,28.158843451709995],[84.35239932511871,28.15921618412445],[84.3535998996815,28.159743462066125],[84.35374332821407,28.15978822496716],[84.35381410404275,28.15981960863372],[84.3540917703334,28.159843740347245],[84.35475520591704,28.159851053730527],[84.35546034433814,28.159758901168864],[84.35669349085103,28.15933139842754],[84.35688299881298,28.159265441112332],[84.35719861725136,28.159217175887683],[84.35747128177023,28.15926837837862],[84.35898972522074,28.159828665316322],[84.35971712144355,28.159932819699947],[84.36002261081042,28.159884617159058],[84.36116034657937,28.159312822817686],[84.36197033678921,28.15914821014863],[84.3629201282272,28.159111823222688],[84.36375118886515,28.159172776988658],[84.36423068038162,28.159002226464036],[84.36474931064721,28.15874127322752],[84.36592212228435,28.157826315618955],[84.36640436371059,28.157536166772715],[84.36731489033616,28.15718612496777],[84.36775092886013,28.157173682392997],[84.3678152651385,28.157180247009098],[84.36806104413739,28.157181872437683],[84.36831789085483,28.157255643072414],[84.36866789649346,28.157403623389623],[84.36999058024074,28.158239616782083],[84.37038466475015,28.15841235444998],[84.3708062594357,28.158451803477025],[84.37141348621638,28.158402788009305],[84.37293636689262,28.158023985763606],[84.37308842390837,28.157985162288877],[84.37468852076984,28.157669316537305],[84.37491991917877,28.15756716112011],[84.37525366822267,28.15742174285566],[84.37547156240373,28.157457252696762],[84.37626748424029,28.157493449720164],[84.37706603238232,28.15717754302176],[84.3774921281672,28.156855884534934],[84.37842666256292,28.155923421423147],[84.37936038455422,28.155313678597242],[84.37964155209451,28.155066918093603],[84.38039039241683,28.154216229151736],[84.38085575203233,28.153490390044425],[84.38161747183511,28.15286307957222],[84.38225996114569,28.15253629504528],[84.3828885081691,28.152390125541647],[84.38307626584064,28.152391813138966],[84.3843498668829,28.152670330663877],[84.38512990798105,28.15270877730436],[84.38562434238442,28.152639631284057]]]}},{"type":"Feature","properties":{"province":"Gandaki Province","district":"Lamjung","municipality":"Sundarbazar Municipality","ward":"8","wardNumber":8,"sourceMunicipality":"Sundarbazar","sourceType":"Nagarpalika"},"geometry":{"type":"Polygon","coordinates":[[[84.4448050586542,28.172713164040324],[84.44461811090501,28.171847159949866],[84.44461292118008,28.171829029301303],[84.44459535267296,28.17173431421477],[84.44453251509537,28.17117027314246],[84.4444891227098,28.170987594620403],[84.44448437126317,28.170919949840755],[84.44445092034702,28.170694320949924],[84.44423427343727,28.169273154687605],[84.44444240929495,28.167726512210805],[84.44519693664157,28.166038076755008],[84.44520243723056,28.165527989668366],[84.4450558808874,28.16487848604487],[84.44487787637964,28.16448862204849],[84.44485861896686,28.1644571753174],[84.44479778337603,28.16423386010439],[84.44400429270333,28.162024650426115],[84.44323637736787,28.160481135229325],[84.44276801130289,28.159144306483345],[84.4417819555233,28.15917906860381],[84.44144295428107,28.159107986238705],[84.4405570602117,28.15905434655735],[84.43975313592192,28.15925334423992],[84.43941207032303,28.1591483768682],[84.43907869560232,28.158894428385437],[84.4379987877454,28.157457946121152],[84.43752110842837,28.15709158938903],[84.43719010965204,28.15696630317666],[84.43659213636296,28.15692985617004],[84.43620674282936,28.15703938895764],[84.4352084325003,28.156880094450035],[84.43445871388717,28.156622895084244],[84.43342370239172,28.156520179538674],[84.43219292897275,28.15602528653049],[84.43115729163691,28.15591119250965],[84.43023876135337,28.155961522260302],[84.42985524284094,28.155899504399294],[84.42952718256026,28.15569969665629],[84.42903224594596,28.155150536412908],[84.42845365497713,28.15486801641474],[84.42795527967797,28.154411383276305],[84.42763634779114,28.154263465532587],[84.4276393487066,28.154067095518396],[84.42809983132254,28.1536345301072],[84.42773138211099,28.153671791580457],[84.42700723656199,28.153604148108826],[84.4265655078781,28.153467859260477],[84.4260057356077,28.152955021589197],[84.42470449760765,28.152002119546253],[84.42447403446423,28.151352804149624],[84.42410495823141,28.151078662253482],[84.4239768484008,28.151038400516175],[84.42341863982563,28.151069473198053],[84.42275089092381,28.151254341365302],[84.42262190560274,28.151311170443204],[84.42207814089834,28.15178456092366],[84.42169899958803,28.152018192784222],[84.42079316218565,28.15236404645948],[84.420663989638,28.152371235881628],[84.42054725779607,28.152321972138505],[84.4204741679968,28.15219806100075],[84.42047560589407,28.152071648542154],[84.42065054394139,28.151407577891547],[84.42055569468172,28.150748821919507],[84.42043439924645,28.15049643597372],[84.42049135533814,28.149764970238717],[84.4204259560763,28.149480824453654],[84.41972068945029,28.148372562858306],[84.41958676595044,28.148955296845998],[84.41925889507776,28.149613053382886],[84.41842564890824,28.150601908390513],[84.41806757893768,28.15102734682043],[84.41781229718178,28.151680351519445],[84.41771019783992,28.152104976115396],[84.41774158647749,28.152637507895403],[84.41783956189022,28.153108896114134],[84.41773427385445,28.15370732170598],[84.41780054944735,28.154205905743996],[84.41790996629078,28.154514809076137],[84.41806996368791,28.15473324767497],[84.41854676731198,28.1547114275014],[84.42005933230766,28.155011450208534],[84.4205571441822,28.1551656822718],[84.4213321196412,28.15488566087552],[84.42173427057806,28.15482576810503],[84.42205470292801,28.15487890774519],[84.42245929091385,28.154791881321554],[84.42284068298571,28.154797507414255],[84.4231293539863,28.15503351328181],[84.42319050250721,28.155204938915304],[84.42314329825928,28.15563837849286],[84.42273214712839,28.15650407093653],[84.42178560897202,28.15767835562069],[84.42092448035028,28.160021483785822],[84.42072822389314,28.161595196540393],[84.42053215139859,28.161934358761812],[84.41990485696105,28.16270139817491],[84.41995031089188,28.16275766455667],[84.42010837180398,28.163134087026233],[84.4204021715509,28.16417814323228],[84.4203936065455,28.164753687562325],[84.42013676296095,28.165499281882557],[84.4198094544633,28.1661141503655],[84.4197294885098,28.166683131021028],[84.4199091816758,28.166890254032847],[84.42010275429048,28.167040859879897],[84.42012444990176,28.167045298746995],[84.4203104566033,28.167076307850635],[84.42153572803441,28.167623215818008],[84.42194494456243,28.167888292776503],[84.42343050298392,28.169357471854504],[84.4234295025591,28.169425178694286],[84.42377675793209,28.169807790871545],[84.42483153008976,28.170691485850465],[84.42490055526622,28.170749940241663],[84.42495682703678,28.170812959089126],[84.42499396603625,28.170867036912586],[84.42610144464703,28.17203712832618],[84.42706574479045,28.172887251463013],[84.42760625950382,28.173183462276125],[84.42862620453747,28.17362265187242],[84.42926675653098,28.17378763611589],[84.42980258283544,28.174018390847255],[84.43074987578586,28.17458868160086],[84.43151291168331,28.17511439705125],[84.43205117587904,28.175485067096538],[84.43285754158578,28.17615957640949],[84.43348802876766,28.176800826184294],[84.4335075994255,28.176915859598292],[84.43409600863299,28.177706153022733],[84.43429164446393,28.178062131912935],[84.43585542192852,28.179898793800866],[84.43632097096621,28.180217823748027],[84.43739768712805,28.180491964392154],[84.43821311704056,28.18058186486441],[84.43811263869515,28.179683913213072],[84.43819773301796,28.179464724012],[84.4384869646997,28.179183953297475],[84.43901015983369,28.178970139095565],[84.43965915222661,28.178830347162492],[84.4411829084721,28.178658418443362],[84.44172736166293,28.178500933112176],[84.44233521251545,28.177993407606728],[84.44264939088204,28.17756353074263],[84.44271797810613,28.177222493474762],[84.44263382007631,28.176733037090727],[84.44224873778063,28.176174561000416],[84.44225173773565,28.175964686893852],[84.44237653431993,28.17564377970124],[84.44294930884,28.175113810365996],[84.44348532052457,28.17461778886385],[84.44420421181466,28.17368332537415],[84.44446818297318,28.173005375533076],[84.4448050586542,28.172713164040324]]]}},{"type":"Feature","properties":{"province":"Gandaki Province","district":"Lamjung","municipality":"Sundarbazar Municipality","ward":"9","wardNumber":9,"sourceMunicipality":"Sundarbazar","sourceType":"Nagarpalika"},"geometry":{"type":"Polygon","coordinates":[[[84.44276801130289,28.159144306483345],[84.44263527270965,28.158765570461238],[84.44254417539209,28.158436349117416],[84.4425212915155,28.158140762210117],[84.44268466349052,28.157623421844534],[84.44316577812185,28.15680030462251],[84.44356323808603,28.156232511335705],[84.44371885719627,28.155685851019655],[84.44360525164765,28.155295736253617],[84.44271185175738,28.1541882253114],[84.44253816074212,28.153615557219343],[84.44233533156347,28.152429021562394],[84.44220296909141,28.151978076594304],[84.44140285314164,28.150163857981198],[84.43996480847045,28.147539151982347],[84.43997287270174,28.147035817090952],[84.4401172374756,28.146367245489436],[84.44048737388387,28.14567322826247],[84.44053370410572,28.14547216883284],[84.44098712043923,28.14474401610403],[84.44110153689631,28.144100389153053],[84.44097692697416,28.143651632675944],[84.44071063917521,28.143456138258845],[84.44022995958694,28.14328846502169],[84.43862886181059,28.14341325545385],[84.43798674657039,28.14330922575103],[84.4375668394264,28.143053276399975],[84.43737432886938,28.142841714744563],[84.43741428028844,28.14232700067302],[84.43781174026093,28.141772774693784],[84.43856314349173,28.140901455018845],[84.43861059784086,28.140666573457615],[84.43857570790043,28.139917415808195],[84.43830954416636,28.13927960381336],[84.43804281830802,28.13896663749824],[84.43745197252382,28.1386323533786],[84.43610971896518,28.137747345695917],[84.43578140797942,28.137626498252505],[84.43558208318952,28.13744206967527],[84.43525921263138,28.137418312919976],[84.43514379493216,28.137524719975087],[84.43462010101844,28.137876199175487],[84.43339933355638,28.138225367023],[84.43223614926521,28.138344216583338],[84.43124459092856,28.138225495942145],[84.43032968666606,28.138178734200302],[84.42883738065994,28.138438376058335],[84.4278423845658,28.138428062802756],[84.4273259412825,28.138537970736575],[84.42671715336049,28.13895290647955],[84.42655984444795,28.13925587071442],[84.42639578706888,28.140423213763338],[84.42593943037635,28.141246143877225],[84.42576893033974,28.141431761668684],[84.42487103367621,28.141818252269907],[84.42458130044945,28.141959106504956],[84.42408017638266,28.14224950520651],[84.42349514715805,28.142734336284892],[84.42327556601788,28.143217979315516],[84.42320685423854,28.143554515184803],[84.42293637957582,28.144054100719227],[84.42247070676717,28.144624331107256],[84.42191856446894,28.14504132969224],[84.42139055653581,28.145952473754658],[84.42014684627559,28.14745723081967],[84.41972068945029,28.148372562858306],[84.4204259560763,28.149480824453654],[84.42049135533814,28.149764970238717],[84.42043439924645,28.15049643597372],[84.42055569468172,28.150748821919507],[84.42065054394139,28.151407577891547],[84.42047560589407,28.152071648542154],[84.4204741679968,28.15219806100075],[84.42054725779607,28.152321972138505],[84.420663989638,28.152371235881628],[84.42079316218565,28.15236404645948],[84.42169899958803,28.152018192784222],[84.42207814089834,28.15178456092366],[84.42262190560274,28.151311170443204],[84.42275089092381,28.151254341365302],[84.42341863982563,28.151069473198053],[84.4239768484008,28.151038400516175],[84.42410495823141,28.151078662253482],[84.42447403446423,28.151352804149624],[84.42470449760765,28.152002119546253],[84.4260057356077,28.152955021589197],[84.4265655078781,28.153467859260477],[84.42700723656199,28.153604148108826],[84.42773138211099,28.153671791580457],[84.42809983132254,28.1536345301072],[84.4276393487066,28.154067095518396],[84.42763634779114,28.154263465532587],[84.42795527967797,28.154411383276305],[84.42845365497713,28.15486801641474],[84.42903224594596,28.155150536412908],[84.42952718256026,28.15569969665629],[84.42985524284094,28.155899504399294],[84.43023876135337,28.155961522260302],[84.43115729163691,28.15591119250965],[84.43219292897275,28.15602528653049],[84.43342370239172,28.156520179538674],[84.43445871388717,28.156622895084244],[84.4352084325003,28.156880094450035],[84.43620674282936,28.15703938895764],[84.43659213636296,28.15692985617004],[84.43719010965204,28.15696630317666],[84.43752110842837,28.15709158938903],[84.4379987877454,28.157457946121152],[84.43907869560232,28.158894428385437],[84.43941207032303,28.1591483768682],[84.43975313592192,28.15925334423992],[84.4405570602117,28.15905434655735],[84.44144295428107,28.159107986238705],[84.4417819555233,28.15917906860381],[84.44276801130289,28.159144306483345]]]}},{"type":"Feature","properties":{"province":"Gandaki Province","district":"Lamjung","municipality":"Sundarbazar Municipality","ward":"3","wardNumber":3,"sourceMunicipality":"Sundarbazar","sourceType":"Nagarpalika"},"geometry":{"type":"Polygon","coordinates":[[[84.36139130103862,28.185059512515647],[84.36102291282518,28.184778305287182],[84.3603489722827,28.183981197612596],[84.3600181599693,28.18332531712778],[84.35938485693771,28.18171553279867],[84.35919597204162,28.180851591761083],[84.3591191278617,28.179382535142167],[84.35917577208008,28.178619498398277],[84.35955247298088,28.17739076176295],[84.35956672792086,28.177286918915506],[84.35960517881097,28.177006898826388],[84.35963950420862,28.17697301438717],[84.3597907462567,28.176121701646135],[84.35979099617617,28.175783164056437],[84.3597753022934,28.17550789567031],[84.35972940933628,28.175115280727216],[84.35957141003551,28.173761508653715],[84.35960504675079,28.173529002718805],[84.3599277909626,28.17274720982018],[84.35992397506799,28.172180730854407],[84.35985888814449,28.171950725611794],[84.35944191834115,28.171049023638293],[84.35896686250845,28.169511010505296],[84.3577186402159,28.166979831609936],[84.35687013492118,28.166286816160575],[84.35640989954786,28.166125519492002],[84.35606408310623,28.165923335710588],[84.3553310571063,28.16510822321862],[84.3552984822296,28.165072212338057],[84.35468468816032,28.163918249168656],[84.35403681802077,28.162468699770915],[84.35331373135422,28.16041903546455],[84.35348723268403,28.16012513671093],[84.35381410404275,28.15981960863372],[84.35374332821407,28.15978822496716],[84.3535998996815,28.159743462066125],[84.35239932511871,28.15921618412445],[84.35077965662566,28.158843451709995],[84.34928378396832,28.1583529982069],[84.34803863196645,28.158229775917135],[84.3469015191325,28.158225964262453],[84.34590020769497,28.157876426023307],[84.34567537304386,28.157847667515423],[84.34496985997015,28.15783360250424],[84.34403007116458,28.158000778384448],[84.34300231285094,28.157962706080653],[84.34220876573083,28.15767355944533],[84.33989946315802,28.156451579335585],[84.33921439459249,28.156252397305977],[84.33837445648247,28.15638087390761],[84.33758585005025,28.156856827556034],[84.33643461027373,28.15822285538344],[84.33505672292888,28.159404392676137],[84.33453052757517,28.159920357376492],[84.33407123261092,28.16046307954155],[84.33343149564736,28.161703695421387],[84.33315114277902,28.16248980217746],[84.33316464875942,28.162927617838957],[84.33317090179473,28.163096917619807],[84.33308787088914,28.163620696902523],[84.33312532458689,28.1644083028771],[84.3330239128292,28.16497278202767],[84.33258575187506,28.1663506247647],[84.33186161031573,28.168151154753602],[84.3316541592291,28.169221469924498],[84.3316031414323,28.16981064323441],[84.33159463867533,28.17013792690015],[84.3318216627229,28.171071763392312],[84.33182785391922,28.171432869095653],[84.33181659958638,28.1715005762799],[84.3320523783486,28.172982824262096],[84.33214003875536,28.174140477054213],[84.33200148862248,28.17504580559294],[84.33200361468967,28.175113575799276],[84.332006428211,28.175199288005757],[84.33198967208212,28.175343768466707],[84.33211109355568,28.175894179413973],[84.33220838032705,28.176065479306097],[84.33262228529306,28.176461658169938],[84.33269124875082,28.176535992437145],[84.33326583828718,28.176374381255645],[84.33353894047193,28.176355625645847],[84.33405700888667,28.17648522524156],[84.33518624431032,28.176958675452845],[84.33582479603038,28.17752584082426],[84.33653093648246,28.177907826423702],[84.33712984724956,28.178010105601963],[84.33760783874033,28.17792770615397],[84.33843345860525,28.17742461891074],[84.33936042927247,28.17736810155873],[84.34012546589064,28.177451999582896],[84.3422029312961,28.178726433594825],[84.34310645774954,28.179098853408032],[84.34354624718199,28.179226390726733],[84.3439495229954,28.179265963575265],[84.34453105221326,28.179122295410647],[84.34474500702454,28.179121795006402],[84.34500597976161,28.17927452758171],[84.34519267534887,28.179506594828606],[84.34507713220549,28.179612939275614],[84.34494251972376,28.17973516311907],[84.34395302620763,28.180358347343233],[84.34229071767355,28.180486637503503],[84.34047916626629,28.180330970374303],[84.33908614453306,28.18004101164482],[84.33842189667617,28.180015567777826],[84.33776133794608,28.180132353581772],[84.335648051004,28.181451119408663],[84.33376072282752,28.182336069605423],[84.33366262295904,28.18232719219572],[84.33359828642777,28.182320503310564],[84.33327028942206,28.182515498047543],[84.33191772187303,28.182320192740175],[84.3312547866162,28.18231500458275],[84.33013205392753,28.182304190738083],[84.32916882034264,28.18259540326315],[84.3284853778902,28.182958198430537],[84.32762880962791,28.183587759145986],[84.32683551406691,28.184268961286122],[84.32599401329962,28.185018056927014],[84.32464138609186,28.1867094310257],[84.32479056786418,28.186742940788555],[84.32552715537655,28.186673481873147],[84.32609924342565,28.186712742643923],[84.32733739461054,28.186989634288423],[84.32858861340921,28.18775623299657],[84.3291580781219,28.188831423263398],[84.32962381777449,28.19013030388493],[84.32998439003939,28.190569557801076],[84.3303405239121,28.190814691473754],[84.33125461569719,28.19108333147655],[84.3315013333223,28.19115716532542],[84.33201621359618,28.19126200745865],[84.33297888646547,28.19157559843595],[84.33406735622904,28.191798599359622],[84.33459086451906,28.191795097870106],[84.33582888850323,28.191575343364487],[84.33663018776919,28.191207734235647],[84.33709254763747,28.191206608008653],[84.33799350922177,28.191335269500904],[84.33832188233073,28.191259997291294],[84.33874228900949,28.19087757200023],[84.33915819342302,28.190488269342794],[84.34034426055585,28.19015804485375],[84.34130111672297,28.18965689629055],[84.34219263727995,28.18941988788896],[84.34472258075046,28.188348256328535],[84.34532167933442,28.188294801793486],[84.3464301549578,28.188007653325556],[84.34756564193371,28.188002462191005],[84.34835662429667,28.187815406467486],[84.34860846875446,28.187699621875243],[84.34910271505254,28.187321447124983],[84.34988763185984,28.18684324299436],[84.35069587156451,28.186674129926786],[84.35134511329304,28.186189486347757],[84.35162434108044,28.18588402121278],[84.35202692898508,28.185716033834336],[84.35211083526771,28.185681898419194],[84.3524960416851,28.18563125810418],[84.35313853207022,28.185629630912675],[84.35394070683067,28.185744913239756],[84.3548050929006,28.186180478018215],[84.35510151604838,28.186267752730995],[84.35539099948305,28.186208297378073],[84.35581296862647,28.185920586796858],[84.3563087794897,28.185819931383318],[84.35805624489836,28.185835683072494],[84.35865628084376,28.18568288748703],[84.35924099816692,28.185327031667914],[84.35969129162109,28.185167797276076],[84.36018641362601,28.18525450945108],[84.36095145009955,28.185306648169266],[84.36127513285085,28.185163605265217],[84.36134934817096,28.185075391847136],[84.36139130103862,28.185059512515647]]]}},{"type":"Feature","properties":{"province":"Gandaki Province","district":"Lamjung","municipality":"Sundarbazar Municipality","ward":"10","wardNumber":10,"sourceMunicipality":"Sundarbazar","sourceType":"Nagarpalika"},"geometry":{"type":"Polygon","coordinates":[[[84.33269124875082,28.176535992437145],[84.33262228529306,28.176461658169938],[84.33220838032705,28.176065479306097],[84.33211109355568,28.175894179413973],[84.33198967208212,28.175343768466707],[84.332006428211,28.175199288005757],[84.33200361468967,28.175113575799276],[84.33200148862248,28.17504580559294],[84.33214003875536,28.174140477054213],[84.3320523783486,28.172982824262096],[84.33181659958638,28.1715005762799],[84.33182785391922,28.171432869095653],[84.3318216627229,28.171071763392312],[84.33159463867533,28.17013792690015],[84.3316031414323,28.16981064323441],[84.3316541592291,28.169221469924498],[84.33186161031573,28.168151154753602],[84.33258575187506,28.1663506247647],[84.3330239128292,28.16497278202767],[84.33312532458689,28.1644083028771],[84.33308787088914,28.163620696902523],[84.33317090179473,28.163096917619807],[84.33316464875942,28.162927617838957],[84.33315114277902,28.16248980217746],[84.33343149564736,28.161703695421387],[84.33407123261092,28.16046307954155],[84.33453052757517,28.159920357376492],[84.33505672292888,28.159404392676137],[84.33643461027373,28.15822285538344],[84.33758585005025,28.156856827556034],[84.33837445648247,28.15638087390761],[84.33921439459249,28.156252397305977],[84.33989946315802,28.156451579335585],[84.34220876573083,28.15767355944533],[84.34300231285094,28.157962706080653],[84.34403007116458,28.158000778384448],[84.34496985997015,28.15783360250424],[84.34567537304386,28.157847667515423],[84.34590020769497,28.157876426023307],[84.3469015191325,28.158225964262453],[84.34803863196645,28.158229775917135],[84.34874039056835,28.15671357939466],[84.34909402015302,28.155622571047303],[84.34957182097037,28.15435744816261],[84.34944827511804,28.154332941485947],[84.34715666815956,28.153858056561656],[84.34527571572556,28.153772596641414],[84.34416686428014,28.153831803890924],[84.34167599593391,28.153519902978793],[84.34034062145874,28.153435130911824],[84.33960353391195,28.153276835930587],[84.33835550518818,28.153006820894454],[84.33614511606436,28.152614958426565],[84.33598711947597,28.152597391215657],[84.33581649355291,28.152595577863796],[84.3348681384766,28.152460290161887],[84.33353645298608,28.15211587860817],[84.33125447570899,28.151606920129627],[84.33038546292262,28.15141267664073],[84.32722309257927,28.150504039425957],[84.32570077405845,28.150254843422953],[84.32561211554624,28.15038594489926],[84.32486277466795,28.15103326094983],[84.32405578823744,28.15215909302375],[84.3234001692413,28.152618854562395],[84.3228455247039,28.15257502954221],[84.32213357185267,28.152727950246113],[84.32168477917175,28.152963707873194],[84.32087253840217,28.152805412818807],[84.32040605149928,28.15284254932705],[84.31957542989248,28.15311988255739],[84.31886897820613,28.15342397269573],[84.31859362656984,28.153742879047684],[84.31845088632376,28.15412911749372],[84.31850546965005,28.154273472288114],[84.31850790862735,28.154675215635304],[84.31873949635462,28.155482640160205],[84.3191177646406,28.156134018844096],[84.31942319223047,28.156945818830074],[84.31945608066194,28.157275228045005],[84.31917510296066,28.15849690019821],[84.31905387026406,28.158824433800266],[84.31883391317864,28.158955910871924],[84.31868366964784,28.158956223145584],[84.3184825944071,28.158778421221722],[84.31815865887886,28.157761247636284],[84.31794301419568,28.156734884333517],[84.31764840306646,28.156369902371107],[84.31737936576357,28.156255431511955],[84.31718573083809,28.15622654887913],[84.31560201338861,28.156115142928755],[84.3151698529442,28.156159031482044],[84.31365159748444,28.15600905226909],[84.31276032687389,28.156013367385857],[84.31199410322229,28.155902273209062],[84.31081372473732,28.155469397680385],[84.31039319157853,28.15514080162047],[84.3092279423754,28.154428031583723],[84.30853462059603,28.153757022755315],[84.30850404578331,28.153725513572315],[84.30862846952806,28.154515120454274],[84.30893639876592,28.155776115822263],[84.30903368700707,28.156604171905727],[84.30899498824071,28.15840982724407],[84.30925264824994,28.1590028134654],[84.31017411928957,28.15994190058808],[84.31081748486332,28.160493373826238],[84.311349934811,28.160740383880345],[84.31285580990317,28.161242528534338],[84.31378865889745,28.161470656623827],[84.31418624537794,28.161792438114784],[84.31422519863982,28.162058641374184],[84.3139179595397,28.162582983356838],[84.31389420110885,28.162720711795206],[84.31388663524363,28.16276134820045],[84.31361466070527,28.163594781691895],[84.31351074857001,28.16461970762718],[84.31370932388812,28.165244391209875],[84.31411835303841,28.166015304411875],[84.31403882406214,28.16644436786445],[84.31354870550963,28.167355011085338],[84.31359165973554,28.16768217002607],[84.31367500355883,28.16790317233108],[84.31392734863408,28.168168937307048],[84.31515387049615,28.169071138047695],[84.315835126434,28.169703760907183],[84.31744879593563,28.17169515544767],[84.31957722023569,28.173944875877858],[84.32022915257258,28.174536924329317],[84.32135294706131,28.1745071632973],[84.3229478557827,28.174641137690337],[84.32301406757715,28.174638636847803],[84.32310191291319,28.17464070050946],[84.32324590441863,28.17465389109342],[84.32558109029405,28.175113273170695],[84.32566962290754,28.17513109068575],[84.32726965974122,28.175894562366903],[84.32803788552481,28.176393832263024],[84.32881574038875,28.177351049921576],[84.32915849340411,28.177603061037832],[84.32954119916211,28.177599934356138],[84.32987338574817,28.177522348582368],[84.3300028093343,28.177578490075287],[84.33038282658808,28.177949973798633],[84.33109859431883,28.178158096646534],[84.33125465299966,28.178169036680313],[84.33185212631119,28.17821048600843],[84.3323131730814,28.178012863953022],[84.33247917173617,28.17757017157867],[84.3325356925004,28.177294715059436],[84.33269124875082,28.176535992437145]]]}},{"type":"Feature","properties":{"province":"Gandaki Province","district":"Lamjung","municipality":"Sundarbazar Municipality","ward":"4","wardNumber":4,"sourceMunicipality":"Sundarbazar","sourceType":"Nagarpalika"},"geometry":{"type":"Polygon","coordinates":[[[84.36653703114868,28.18284303957088],[84.3671459469596,28.18290449442826],[84.36743205283243,28.182569707926653],[84.367823510887,28.182342953302275],[84.36811461909419,28.182019420332146],[84.36883044822618,28.181640557164236],[84.36948250350162,28.181440246979665],[84.36998337867709,28.18134859415558],[84.37033507217032,28.18139954659102],[84.37084488806191,28.181698320593362],[84.37120933715575,28.181751460462397],[84.37155177767394,28.181698632653923],[84.37166869644399,28.18163061231659],[84.3717427862303,28.181515328346173],[84.37151644820653,28.179965373101066],[84.37151525970852,28.179811952764506],[84.37170745606053,28.179414210979772],[84.37244204235125,28.17915263265308],[84.37293672603128,28.17892556474338],[84.37327428954366,28.178768893108824],[84.37421732889482,28.178393906103878],[84.37446204372719,28.178084064968743],[84.37454069694668,28.17726232374762],[84.37508571036307,28.17597438172877],[84.37528709646672,28.17566235183325],[84.37567342877394,28.175771883962955],[84.37620525404199,28.17635267786075],[84.3765385660215,28.176256961957446],[84.37683111221313,28.17596500103016],[84.3771942460359,28.175115375396345],[84.37721193988122,28.17507255001198],[84.37780490971907,28.174560773607343],[84.37816898114463,28.173623122667177],[84.3785844478031,28.173168300961233],[84.37948790904143,28.17261057333252],[84.3797127428362,28.17261219806234],[84.38005605912676,28.172823446533364],[84.38055574575016,28.17277011765143],[84.38104098924165,28.17243695690746],[84.38128214053913,28.17201877102924],[84.38136829709,28.17172512210503],[84.38127651111164,28.17079553666024],[84.38108031132131,28.17024762591509],[84.38079476693136,28.169984361811046],[84.3804548267587,28.16982731570559],[84.37977232121227,28.16966677024424],[84.37954323518568,28.169527416773374],[84.37932890474437,28.169232393484627],[84.37933284310981,28.168916425081743],[84.37945463821279,28.168602332892625],[84.37979038726174,28.168307995403314],[84.37996595286666,28.1680795529339],[84.38019459925755,28.167377033504945],[84.38023523829541,28.166993233310528],[84.38069540579352,28.165333057556822],[84.3812544259925,28.16478083148741],[84.38191317204219,28.164544261250715],[84.38225761243336,28.164177652862637],[84.38254221683339,28.163463691981583],[84.38254327763384,28.162685025937964],[84.38269452051978,28.162070720562046],[84.3826969579966,28.161860783937957],[84.38203108230289,28.160822229759795],[84.38186827089088,28.160346465184812],[84.38173321871022,28.15994959871273],[84.38176335422199,28.15966514022101],[84.38204745968318,28.159170056886953],[84.38254189284163,28.15873986650961],[84.38291690760913,28.158206147002627],[84.38325721871837,28.15686912874377],[84.38378228794983,28.156118281941534],[84.3839489108039,28.155363997640194],[84.38445184705262,28.154647160553402],[84.38464898291356,28.154409590673936],[84.38511340486491,28.15397952623714],[84.38539469684486,28.153394103327333],[84.38562434238442,28.152639631284057],[84.38512990798105,28.15270877730436],[84.3843498668829,28.152670330663877],[84.38307626584064,28.152391813138966],[84.3828885081691,28.152390125541647],[84.38225996114569,28.15253629504528],[84.38161747183511,28.15286307957222],[84.38085575203233,28.153490390044425],[84.38039039241683,28.154216229151736],[84.37964155209451,28.155066918093603],[84.37936038455422,28.155313678597242],[84.37842666256292,28.155923421423147],[84.3774921281672,28.156855884534934],[84.37706603238232,28.15717754302176],[84.37626748424029,28.157493449720164],[84.37547156240373,28.157457252696762],[84.37525366822267,28.15742174285566],[84.37491991917877,28.15756716112011],[84.37468852076984,28.157669316537305],[84.37308842390837,28.157985162288877],[84.37293636689262,28.158023985763606],[84.37141348621638,28.158402788009305],[84.3708062594357,28.158451803477025],[84.37038466475015,28.15841235444998],[84.36999058024074,28.158239616782083],[84.36866789649346,28.157403623389623],[84.36831789085483,28.157255643072414],[84.36806104413739,28.157181872437683],[84.3678152651385,28.157180247009098],[84.36775092886013,28.157173682392997],[84.36731489033616,28.15718612496777],[84.36640436371059,28.157536166772715],[84.36592212228435,28.157826315618955],[84.36474931064721,28.15874127322752],[84.36423068038162,28.159002226464036],[84.36375118886515,28.159172776988658],[84.3629201282272,28.159111823222688],[84.36197033678921,28.15914821014863],[84.36116034657937,28.159312822817686],[84.36002261081042,28.159884617159058],[84.35971712144355,28.159932819699947],[84.35898972522074,28.159828665316322],[84.35747128177023,28.15926837837862],[84.35719861725136,28.159217175887683],[84.35688299881298,28.159265441112332],[84.35669349085103,28.15933139842754],[84.35546034433814,28.159758901168864],[84.35475520591704,28.159851053730527],[84.3540917703334,28.159843740347245],[84.35381410404275,28.15981960863372],[84.35348723268403,28.16012513671093],[84.35331373135422,28.16041903546455],[84.35403681802077,28.162468699770915],[84.35468468816032,28.163918249168656],[84.3552984822296,28.165072212338057],[84.3553310571063,28.16510822321862],[84.35606408310623,28.165923335710588],[84.35640989954786,28.166125519492002],[84.35687013492118,28.166286816160575],[84.3577186402159,28.166979831609936],[84.35896686250845,28.169511010505296],[84.35944191834115,28.171049023638293],[84.35985888814449,28.171950725611794],[84.35992397506799,28.172180730854407],[84.3599277909626,28.17274720982018],[84.35960504675079,28.173529002718805],[84.35957141003551,28.173761508653715],[84.35972940933628,28.175115280727216],[84.3597753022934,28.17550789567031],[84.35979099617617,28.175783164056437],[84.3597907462567,28.176121701646135],[84.35963950420862,28.17697301438717],[84.35960517881097,28.177006898826388],[84.35956672792086,28.177286918915506],[84.35955247298088,28.17739076176295],[84.35917577208008,28.178619498398277],[84.3591191278617,28.179382535142167],[84.35919597204162,28.180851591761083],[84.35938485693771,28.18171553279867],[84.3600181599693,28.18332531712778],[84.3603489722827,28.183981197612596],[84.36102291282518,28.184778305287182],[84.36139130103862,28.185059512515647],[84.36189373818426,28.1848708309423],[84.36230032743103,28.184754733335062],[84.36359412357734,28.184507471280078],[84.36458324086105,28.183608830295373],[84.36491692756074,28.18340702086625],[84.36641917509708,28.182850041990545],[84.36649814208427,28.182845352492883],[84.36653703114868,28.18284303957088]]]}},{"type":"Feature","properties":{"province":"Gandaki Province","district":"Lamjung","municipality":"Sundarbazar Municipality","ward":"11","wardNumber":11,"sourceMunicipality":"Sundarbazar","sourceType":"Nagarpalika"},"geometry":{"type":"Polygon","coordinates":[[[84.32018100950364,28.20732368219892],[84.32006021406521,28.207184141820175],[84.3199942514196,28.20683891518786],[84.32004995928108,28.206527323914013],[84.32048093073257,28.20558735903953],[84.320723894212,28.20440644992678],[84.32058859217383,28.203693552853213],[84.32019894542306,28.202692447208594],[84.32013879736674,28.202584289810865],[84.31988426460028,28.20266156292741],[84.31921720277629,28.202608986157983],[84.31840177357383,28.202764345835753],[84.31780248752825,28.202801795447513],[84.31746636105076,28.202651438732794],[84.31684256418198,28.201702723684928],[84.31611716422995,28.200013978774365],[84.31607958658442,28.199375290600397],[84.31621513679713,28.198880707513418],[84.31638913811264,28.198720098172355],[84.31655107350578,28.198572991587486],[84.31693034040967,28.19845927037423],[84.31728697391189,28.19842907368725],[84.31803612868525,28.198492778921622],[84.31815748675407,28.198598621993362],[84.31820919387359,28.1986436353848],[84.31894728264972,28.198820186297553],[84.3196291617406,28.198735097483965],[84.3214861677135,28.198238698619956],[84.32184792737618,28.198021134204346],[84.3223077225447,28.197372318271412],[84.32235098896214,28.197132997364477],[84.32283460442473,28.196143268135994],[84.32274438200096,28.19540999069963],[84.3224972886538,28.19475829932844],[84.32234197943059,28.193950687520694],[84.3222671987561,28.19301878852688],[84.32212464452657,28.192204362526194],[84.32212208048055,28.1917823011383],[84.32224737557125,28.19108909655615],[84.32224518635599,28.190788946482147],[84.3224798986112,28.19027835832101],[84.32360362659867,28.188264702387094],[84.3243763507017,28.18708704276581],[84.32457930101339,28.18680214668227],[84.32464138609186,28.1867094310257],[84.32599401329962,28.185018056927014],[84.32683551406691,28.184268961286122],[84.32762880962791,28.183587759145986],[84.3284853778902,28.182958198430537],[84.32916882034264,28.18259540326315],[84.33013205392753,28.182304190738083],[84.3312547866162,28.18231500458275],[84.33191772187303,28.182320192740175],[84.33327028942206,28.182515498047543],[84.33359828642777,28.182320503310564],[84.33366262295904,28.18232719219572],[84.33376072282752,28.182336069605423],[84.335648051004,28.181451119408663],[84.33776133794608,28.180132353581772],[84.33842189667617,28.180015567777826],[84.33908614453306,28.18004101164482],[84.34047916626629,28.180330970374303],[84.34229071767355,28.180486637503503],[84.34395302620763,28.180358347343233],[84.34494251972376,28.17973516311907],[84.34507713220549,28.179612939275614],[84.34519267534887,28.179506594828606],[84.34500597976161,28.17927452758171],[84.34474500702454,28.179121795006402],[84.34453105221326,28.179122295410647],[84.3439495229954,28.179265963575265],[84.34354624718199,28.179226390726733],[84.34310645774954,28.179098853408032],[84.3422029312961,28.178726433594825],[84.34012546589064,28.177451999582896],[84.33936042927247,28.17736810155873],[84.33843345860525,28.17742461891074],[84.33760783874033,28.17792770615397],[84.33712984724956,28.178010105601963],[84.33653093648246,28.177907826423702],[84.33582479603038,28.17752584082426],[84.33518624431032,28.176958675452845],[84.33405700888667,28.17648522524156],[84.33353894047193,28.176355625645847],[84.33326583828718,28.176374381255645],[84.33269124875082,28.176535992437145],[84.3325356925004,28.177294715059436],[84.33247917173617,28.17757017157867],[84.3323131730814,28.178012863953022],[84.33185212631119,28.17821048600843],[84.33125465299966,28.178169036680313],[84.33109859431883,28.178158096646534],[84.33038282658808,28.177949973798633],[84.3300028093343,28.177578490075287],[84.32987338574817,28.177522348582368],[84.32954119916211,28.177599934356138],[84.32915849340411,28.177603061037832],[84.32881574038875,28.177351049921576],[84.32803788552481,28.176393832263024],[84.32726965974122,28.175894562366903],[84.32566962290754,28.17513109068575],[84.32558109029405,28.175113273170695],[84.32324590441863,28.17465389109342],[84.32310191291319,28.17464070050946],[84.32301406757715,28.174638636847803],[84.3229478557827,28.174641137690337],[84.32135294706131,28.1745071632973],[84.32022915257258,28.174536924329317],[84.3190166372017,28.174941545072997],[84.31874316036365,28.175066269116964],[84.31857909915357,28.175114033309704],[84.31808979223081,28.175257451595265],[84.31779330683021,28.17555603924588],[84.3169684998741,28.176122144951147],[84.31637565473766,28.17677802595758],[84.31590623015575,28.177605206730487],[84.31546994458496,28.178434513555523],[84.31477518702472,28.179718079631623],[84.31460831328212,28.180361644311002],[84.31457742806407,28.180905678533485],[84.31471898126426,28.18140188699006],[84.3153816690484,28.18281992789951],[84.315815770685,28.183624663145302],[84.3168712328974,28.186705191692695],[84.31681827660744,28.186879118386535],[84.31660757256662,28.18691119026681],[84.31641337534548,28.186922944252707],[84.31551178885174,28.187207216144564],[84.31527138630064,28.187313810802973],[84.31450672699184,28.187604459844135],[84.31391206722671,28.1878631618318],[84.31281834684533,28.18821545431869],[84.31213077781165,28.188296041542102],[84.31129265234188,28.1883002311089],[84.31072875331569,28.18818644829557],[84.31045352604059,28.18816219197851],[84.30980553290475,28.188048597374966],[84.30950110736045,28.18805372438274],[84.30909301750351,28.188097612629306],[84.30898860333305,28.188106865175232],[84.30804806499651,28.188355002148867],[84.30714810469085,28.188765561367227],[84.30689163354062,28.18906177423031],[84.30676258610734,28.18913892195184],[84.30638900897861,28.189232199351974],[84.30582548472583,28.188806888333122],[84.30477552916531,28.188220217442503],[84.30300230254483,28.187479314631005],[84.30219712686376,28.187404418694797],[84.30162266240663,28.187405732674726],[84.3010784591393,28.187501698808944],[84.29995403945328,28.18781791864087],[84.2979094650114,28.188634911635052],[84.29735256914438,28.188769326722095],[84.2967356515207,28.188822530950198],[84.2962739162764,28.18883478525748],[84.29583293935138,28.188732005583343],[84.29486526415272,28.188621224114726],[84.29479705195676,28.188610095472068],[84.29476841565281,28.188603406595107],[84.29452382482592,28.1885971552516],[84.29377723314593,28.188515256901894],[84.29175879093077,28.188433860542276],[84.290355516695,28.188326268528265],[84.28957216118395,28.188325706802846],[84.28925754391015,28.18832408209407],[84.28856172106738,28.18841811033786],[84.28719965066098,28.188703133704188],[84.2858796574535,28.188793849536328],[84.2844292405259,28.188686382634963],[84.28383157901034,28.18857028637064],[84.28270284489152,28.18874415137933],[84.28179732037343,28.188996539445448],[84.2807270451959,28.18914095809802],[84.28046019578298,28.18911670178532],[84.28061963196953,28.189953697143434],[84.28087816678726,28.19041358232534],[84.28120929057924,28.190855211433743],[84.28213401286892,28.191586800201396],[84.28226775133977,28.192060501527315],[84.28219428706149,28.192464683112156],[84.28219541230108,28.192870927825687],[84.28262669995922,28.193411648362833],[84.28311625801157,28.19381013926657],[84.28367365491555,28.194097848197888],[84.28508205722704,28.194665950959454],[84.2854221846268,28.194899957006005],[84.28563695305377,28.195186103251327],[84.28578213320124,28.195648488362433],[84.28587373148635,28.19704083561821],[84.28612857800888,28.197313415397332],[84.28689392688557,28.197688711860536],[84.28710481857702,28.197950038268594],[84.28698289949085,28.19905167431717],[84.28691587557512,28.199225601101116],[84.28728745157773,28.19931962747188],[84.28823818184159,28.199493677986876],[84.28911538598318,28.200013142096296],[84.28941199703955,28.20040750737001],[84.28955567785351,28.20126032000683],[84.28957230942943,28.20128732822332],[84.29011926471982,28.202152769139097],[84.2905054721716,28.202470236702332],[84.29087279684197,28.202631971681896],[84.291492216354,28.202752505524042],[84.29226863232195,28.202978821470346],[84.29319998131652,28.203714785936764],[84.29355305118521,28.20379305899906],[84.29487160609615,28.20381500067708],[84.29551078331986,28.203921968684774],[84.29585697473064,28.204022748007933],[84.29653053983218,28.204380164761677],[84.29760062830807,28.205088746014237],[84.29785247290972,28.205162704918465],[84.29937985631148,28.205371451774823],[84.29960012702759,28.205565070842255],[84.29969766346807,28.205824397378066],[84.29970022804841,28.20628709560688],[84.29978751088993,28.206517100749725],[84.29998733588575,28.206692714106936],[84.3012106058074,28.206561361406745],[84.30167184029558,28.206352674540604],[84.30215433250798,28.206457641762892],[84.30242362178424,28.206642196136016],[84.30287216486943,28.207137653757638],[84.30328475663799,28.207315079904163],[84.3035639236716,28.20735509137042],[84.30364063996836,28.207467749172043],[84.30469622197568,28.207499257228033],[84.30542230720141,28.2077097554229],[84.30608292906419,28.207735387292114],[84.30660756191534,28.207655175165844],[84.30689823293581,28.207507819256612],[84.30711700138679,28.207168781295657],[84.30760474583047,28.207093196030034],[84.30818158708207,28.207227297484476],[84.30844443592072,28.20738246729368],[84.30880688421058,28.207826222512367],[84.3094458737697,28.20787217181972],[84.30970365661479,28.20779258600083],[84.31005091179864,28.207584148793238],[84.31035627517473,28.207260741013037],[84.3110794193833,28.20667450520245],[84.31141723330286,28.206741462351847],[84.31195287156649,28.206950209981155],[84.31248463334813,28.207341637016594],[84.31294761859598,28.207545946301064],[84.31325592178347,28.20754525849964],[84.31364006507062,28.20733669648483],[84.31386339817814,28.207268488746216],[84.31437990424693,28.207226662580382],[84.31573109698986,28.207512432421197],[84.31728173950309,28.208023454782605],[84.31825391633123,28.208287468466157],[84.3186908298714,28.208286404872776],[84.31903464566513,28.208233638828144],[84.31936845766305,28.208032016584628],[84.32018100950364,28.20732368219892]]]}},{"type":"Feature","properties":{"province":"Gandaki Province","district":"Lamjung","municipality":"Sundarbazar Municipality","ward":"6","wardNumber":6,"sourceMunicipality":"Sundarbazar","sourceType":"Nagarpalika"},"geometry":{"type":"Polygon","coordinates":[[[84.41972068945029,28.148372562858306],[84.42014684627559,28.14745723081967],[84.42139055653581,28.145952473754658],[84.42191856446894,28.14504132969224],[84.42247070676717,28.144624331107256],[84.42293637957582,28.144054100719227],[84.42320685423854,28.143554515184803],[84.42327556601788,28.143217979315516],[84.42349514715805,28.142734336284892],[84.42408017638266,28.14224950520651],[84.42458130044945,28.141959106504956],[84.42487103367621,28.141818252269907],[84.42475436446671,28.141777990678772],[84.42435702646792,28.140950872961078],[84.42367445735509,28.140266923250806],[84.42298576183455,28.139777030844265],[84.42248476214272,28.139622861753693],[84.42209749219379,28.139560907193236],[84.4220403462087,28.139599417961268],[84.42182689028331,28.13906069780092],[84.4216934618477,28.137831023937782],[84.42161655717081,28.13754012667666],[84.42154021569424,28.137398209934698],[84.4209526826072,28.136898939213754],[84.42069883766725,28.136601852770795],[84.42065588413618,28.136541022293162],[84.42059248473333,28.1364464321772],[84.42040303850709,28.13602268310885],[84.4196932702144,28.13503408163781],[84.41834902022676,28.13538349932997],[84.41755822510487,28.13549203263018],[84.41674329673296,28.135952669332713],[84.41625805300934,28.136055700968942],[84.41489810804464,28.13614566715378],[84.4146189414289,28.13621418797458],[84.41402178215642,28.136360481971316],[84.4136011835864,28.13508654610469],[84.41275180232691,28.13435564595532],[84.41236534458005,28.13384218267933],[84.412220914651,28.13352215167769],[84.41214863724304,28.13343437601381],[84.41202390312216,28.133111969604002],[84.41188584942687,28.132475844981702],[84.41185802483413,28.13167254676673],[84.41193023879944,28.131270553500386],[84.41182544720768,28.13000474663362],[84.41114894780986,28.130530404648052],[84.41064964505536,28.13079147005924],[84.41012919849618,28.131014221783563],[84.40980506915601,28.1311257610068],[84.40980501219077,28.131125778330887],[84.40917802879967,28.131287903382766],[84.40874520714532,28.131456220845617],[84.40874517359971,28.131456237196236],[84.40822373093636,28.131735384234148],[84.4078773522232,28.13188311940053],[84.40699101646675,28.13213855162105],[84.4069909584649,28.13213856443314],[84.40663388990583,28.132805389477877],[84.40632315018934,28.133436012952632],[84.40631683598825,28.13344732828626],[84.40552860692613,28.134580412707574],[84.40503648821591,28.135739692051494],[84.40449541263513,28.136409327530075],[84.40394283641078,28.13840616566418],[84.40391620361866,28.139457974549327],[84.40416004874696,28.1411566605321],[84.40411628630596,28.142368829412003],[84.4036830643836,28.14363176352808],[84.40345635659928,28.144124471294234],[84.4034464788952,28.144869252517402],[84.40356421197583,28.14536996188089],[84.40343966714002,28.14626635060784],[84.40315712722568,28.147314408816385],[84.40275341496739,28.14763837997704],[84.40276285660762,28.14811908370693],[84.40333257236621,28.149279673757952],[84.40346950010252,28.149965437555153],[84.40342273411795,28.150401127808504],[84.40348244472627,28.150868139845954],[84.40380531777664,28.152085934959906],[84.40437891028577,28.15307953821945],[84.40489485390391,28.15382281855885],[84.405272933303,28.154139910993575],[84.4064638804191,28.154748024185494],[84.40705372622666,28.155172835896742],[84.40781813979389,28.15644345755249],[84.40838466465956,28.156917908328854],[84.41001508907036,28.158061866345314],[84.4102391109642,28.158370393871596],[84.4104438132853,28.15880308330296],[84.41054260123768,28.159157124573742],[84.4105808042451,28.159628762810087],[84.41088748295782,28.16009946350082],[84.41124655448282,28.160427934175885],[84.41166552393754,28.160595982456627],[84.4125812408112,28.160471319739937],[84.41345294048104,28.160170729143378],[84.41406698248483,28.16006732285888],[84.41459874374313,28.16011308561333],[84.41461856370042,28.160122088301375],[84.41631050929809,28.160854924839512],[84.41767020755783,28.161762563602448],[84.41811506220593,28.162196815894244],[84.4183856639888,28.162360675481303],[84.41902215166708,28.162471644641755],[84.41945024842636,28.16238005432228],[84.41990485696105,28.16270139817491],[84.42053215139859,28.161934358761812],[84.42072822389314,28.161595196540393],[84.42092448035028,28.160021483785822],[84.42178560897202,28.15767835562069],[84.42273214712839,28.15650407093653],[84.42314329825928,28.15563837849286],[84.42319050250721,28.155204938915304],[84.4231293539863,28.15503351328181],[84.42284068298571,28.154797507414255],[84.42245929091385,28.154791881321554],[84.42205470292801,28.15487890774519],[84.42173427057806,28.15482576810503],[84.4213321196412,28.15488566087552],[84.4205571441822,28.1551656822718],[84.42005933230766,28.155011450208534],[84.41854676731198,28.1547114275014],[84.41806996368791,28.15473324767497],[84.41790996629078,28.154514809076137],[84.41780054944735,28.154205905743996],[84.41773427385445,28.15370732170598],[84.41783956189022,28.153108896114134],[84.41774158647749,28.152637507895403],[84.41771019783992,28.152104976115396],[84.41781229718178,28.151680351519445],[84.41806757893768,28.15102734682043],[84.41842564890824,28.150601908390513],[84.41925889507776,28.149613053382886],[84.41958676595044,28.148955296845998],[84.41972068945029,28.148372562858306]]]}},{"type":"Feature","properties":{"province":"Gandaki Province","district":"Lamjung","municipality":"Sundarbazar Municipality","ward":"7","wardNumber":7,"sourceMunicipality":"Sundarbazar","sourceType":"Nagarpalika"},"geometry":{"type":"Polygon","coordinates":[[[84.43525921263138,28.137418312919976],[84.43502343724114,28.137202375463374],[84.4349441558563,28.136800882195153],[84.43488082032444,28.13673342532462],[84.43492902478567,28.13668128500833],[84.43490751686056,28.136397013977597],[84.43500799037801,28.13590243042471],[84.43520893879504,28.135387216330304],[84.4356614818453,28.13490951244831],[84.4358549278016,28.134577165045652],[84.43575407481862,28.13356180432882],[84.43579108905149,28.133437579933833],[84.43583566781362,28.13328622266287],[84.43568461031295,28.13291205048263],[84.43560339131798,28.132664040742867],[84.43556856519722,28.132242103845602],[84.43565396867693,28.131169788949073],[84.43574506465603,28.130882829849664],[84.4359142502209,28.12990954289371],[84.43592112660117,28.12956425415966],[84.43583934589677,28.129334374061585],[84.43573443168614,28.12919695931786],[84.43514095914271,28.128826476562985],[84.43412001430504,28.128351214181308],[84.43355017543972,28.12784525366174],[84.43336147888225,28.12761337356072],[84.43290124275858,28.126973811426904],[84.4325059684936,28.12633637537298],[84.43238260908943,28.126047852869675],[84.43232208702591,28.125874302566586],[84.43234890833675,28.125587593400944],[84.43248545866143,28.125187662466406],[84.4326867197208,28.124749158813234],[84.43306992250803,28.12381582054369],[84.43340242082708,28.123246028218258],[84.43351514974502,28.122961256697835],[84.43354897331514,28.122329257777917],[84.43351245811553,28.121984031693664],[84.4332621136217,28.121616924327473],[84.43294536981779,28.121342594888603],[84.43275667392047,28.121110714537362],[84.43194242934756,28.119950999761492],[84.43158567030112,28.11954363151012],[84.43137579434493,28.119271179199597],[84.43117664293618,28.11959452194476],[84.43117662163904,28.119594543678822],[84.43089304299141,28.119821144322533],[84.43054837920303,28.1198921945523],[84.43023130651976,28.119918163126563],[84.4299465596623,28.119941501302556],[84.42994649954639,28.119941492464214],[84.42951798711923,28.1198954426037],[84.42926142265303,28.119873677879983],[84.42885558870547,28.119771139692098],[84.42825627598137,28.11966694273254],[84.42789366250793,28.119546204018214],[84.42759592971794,28.119409477635273],[84.42748839446533,28.119425602521673],[84.42733601996449,28.1195186241937],[84.4272026597518,28.119747012603042],[84.42712682066968,28.12035887998669],[84.42701409088576,28.120663902211717],[84.42657186606343,28.12132885362799],[84.42648014669479,28.12163381059068],[84.42645958254924,28.122705933656732],[84.42634206344606,28.123241186972738],[84.42631142607587,28.123699444784517],[84.42619911606582,28.123948060892864],[84.42589562979875,28.124134079201546],[84.4254649576414,28.12418732871791],[84.42537957491578,28.124165029975984],[84.42494839787882,28.124254399769384],[84.42468909956519,28.124347740750615],[84.42453954856072,28.12437899480046],[84.42408621449309,28.124473746436585],[84.42337519122285,28.12461588839323],[84.42320117614699,28.12470896994901],[84.42307445705217,28.124880384365884],[84.42304733018176,28.12491707813895],[84.4230473119513,28.124917103473372],[84.42262830226471,28.125505185735708],[84.42262828608852,28.125505215577643],[84.4225149344416,28.125810233238067],[84.42252274758022,28.12650082483615],[84.42246634882095,28.127207432927225],[84.42246634894197,28.12720746362147],[84.42237718873042,28.127316044742017],[84.42235675213767,28.127340936345806],[84.42209582998251,28.12750874617745],[84.42175057494885,28.127600091586608],[84.42129934839448,28.127612777311377],[84.42100480247173,28.127320313356233],[84.42100477995054,28.127320283633914],[84.42077659240351,28.126914747561113],[84.42044865678969,28.12606713357329],[84.42009133713148,28.125677778521474],[84.4194045403078,28.12566861107077],[84.41890583743341,28.12590939376407],[84.4182301325041,28.126455378682486],[84.41765973161574,28.127080055667857],[84.41748261348017,28.12736496272102],[84.41708672670903,28.12785819590248],[84.41689042133285,28.12803681309576],[84.41669350860681,28.12821602138105],[84.41643366561138,28.128345436311456],[84.41557288489092,28.128447369114788],[84.41532639370388,28.128553007117606],[84.4150530894214,28.128670146488513],[84.4149697970064,28.128731479524486],[84.41474844278868,28.12889449939181],[84.4146188075801,28.128951311186608],[84.41440148107003,28.129044516918576],[84.41366606077739,28.129301783142388],[84.41286733336808,28.12948252589847],[84.4125773426835,28.12960631653651],[84.4122604435275,28.1297416315901],[84.41182544720768,28.13000474663362],[84.41193023879944,28.131270553500386],[84.41185802483413,28.13167254676673],[84.41188584942687,28.132475844981702],[84.41202390312216,28.133111969604002],[84.41214863724304,28.13343437601381],[84.412220914651,28.13352215167769],[84.41236534458005,28.13384218267933],[84.41275180232691,28.13435564595532],[84.4136011835864,28.13508654610469],[84.41402178215642,28.136360481971316],[84.4146189414289,28.13621418797458],[84.41489810804464,28.13614566715378],[84.41625805300934,28.136055700968942],[84.41674329673296,28.135952669332713],[84.41755822510487,28.13549203263018],[84.41834902022676,28.13538349932997],[84.4196932702144,28.13503408163781],[84.42040303850709,28.13602268310885],[84.42059248473333,28.1364464321772],[84.42065588413618,28.136541022293162],[84.42069883766725,28.136601852770795],[84.4209526826072,28.136898939213754],[84.42154021569424,28.137398209934698],[84.42161655717081,28.13754012667666],[84.4216934618477,28.137831023937782],[84.42182689028331,28.13906069780092],[84.4220403462087,28.139599417961268],[84.42209749219379,28.139560907193236],[84.42248476214272,28.139622861753693],[84.42298576183455,28.139777030844265],[84.42367445735509,28.140266923250806],[84.42435702646792,28.140950872961078],[84.42475436446671,28.141777990678772],[84.42487103367621,28.141818252269907],[84.42576893033974,28.141431761668684],[84.42593943037635,28.141246143877225],[84.42639578706888,28.140423213763338],[84.42655984444795,28.13925587071442],[84.42671715336049,28.13895290647955],[84.4273259412825,28.138537970736575],[84.4278423845658,28.138428062802756],[84.42883738065994,28.138438376058335],[84.43032968666606,28.138178734200302],[84.43124459092856,28.138225495942145],[84.43223614926521,28.138344216583338],[84.43339933355638,28.138225367023],[84.43462010101844,28.137876199175487],[84.43514379493216,28.137524719975087],[84.43525921263138,28.137418312919976]]]}},{"type":"Feature","properties":{"province":"Gandaki Province","district":"Lamjung","municipality":"Sundarbazar Municipality","ward":"5","wardNumber":5,"sourceMunicipality":"Sundarbazar","sourceType":"Nagarpalika"},"geometry":{"type":"Polygon","coordinates":[[[84.39610695391416,28.18298809183562],[84.39617129054768,28.182827669043494],[84.39632053232933,28.182197483961392],[84.3965287950409,28.181005258424797],[84.39645682887326,28.180308053908753],[84.39621098489144,28.179613662801795],[84.39621454882784,28.17937665541353],[84.396493025567,28.17873490386529],[84.39704735655582,28.17830896546891],[84.3971552096521,28.178031070476205],[84.39716602362692,28.17734036745151],[84.39729976037245,28.176994703878773],[84.39750064764212,28.17673231316301],[84.39788741679388,28.17646710961494],[84.39806048144801,28.17642597257669],[84.40004584836976,28.176560070277592],[84.40140742010608,28.17693749183732],[84.40269759156702,28.177626566213856],[84.40301877432235,28.178022869540058],[84.40368264916735,28.178632484940337],[84.40484802322007,28.179148134845644],[84.40514888607292,28.17937970148766],[84.40586165439508,28.18027577672459],[84.40638091230993,28.180676017879335],[84.40674886274519,28.180817121133053],[84.40724586116569,28.18088339012437],[84.40754734769565,28.180796675781224],[84.40790179236063,28.180565420285223],[84.408019398009,28.180334851957966],[84.40812543735775,28.179932796126096],[84.40813312616332,28.17943852566468],[84.40802402247171,28.179052912990823],[84.40798519330811,28.178547451979114],[84.40833957306955,28.17713353577419],[84.40834413601598,28.17683563561602],[84.40864718426931,28.175810084273618],[84.40880649274492,28.175513996506748],[84.40892216107817,28.175450415208182],[84.40923734066796,28.17511319061341],[84.40981949419691,28.174493007559878],[84.41015849384526,28.173713277193624],[84.41016230690272,28.173383743113074],[84.41001156152726,28.1726056393491],[84.4099862376039,28.17197376619467],[84.4104335903868,28.171065123522776],[84.41040026391123,28.170672508605026],[84.41043308855586,28.17059792426903],[84.41036968939434,28.17051915114258],[84.41021806849191,28.16982894882411],[84.40995947050159,28.169136870860026],[84.40979278167156,28.168509998852638],[84.4098262307494,28.167941082428396],[84.40992751697429,28.167277261370458],[84.41051573292711,28.165758814480316],[84.4106372770689,28.165223532418263],[84.4103871825681,28.16477965244913],[84.4103572943628,28.164294509191073],[84.41062232988014,28.16383331100279],[84.41100603480373,28.16344619655628],[84.41117997431732,28.16314323203545],[84.41135178684358,28.162285104800425],[84.41135659925264,28.161883362042634],[84.41145963733996,28.161368460037227],[84.4117740021985,28.16065212438269],[84.41166552393754,28.160595982456627],[84.41124655448282,28.160427934175885],[84.41088748295782,28.16009946350082],[84.4105808042451,28.159628762810087],[84.41054260123768,28.159157124573742],[84.4104438132853,28.15880308330296],[84.4102391109642,28.158370393871596],[84.41001508907036,28.158061866345314],[84.40838466465956,28.156917908328854],[84.40781813979389,28.15644345755249],[84.40705372622666,28.155172835896742],[84.4064638804191,28.154748024185494],[84.405272933303,28.154139910993575],[84.40489485390391,28.15382281855885],[84.40437891028577,28.15307953821945],[84.40380531777664,28.152085934959906],[84.40348244472627,28.150868139845954],[84.40342273411795,28.150401127808504],[84.40346950010252,28.149965437555153],[84.40333257236621,28.149279673757952],[84.40276285660762,28.14811908370693],[84.40275341496739,28.14763837997704],[84.40212861930056,28.1478907050805],[84.40175785706721,28.148160410149934],[84.4013185057204,28.148317394596035],[84.4005664752042,28.148409923084408],[84.39935583501799,28.14832321251472],[84.39830832003521,28.148755091903823],[84.39502897169871,28.14924080318626],[84.39380539026652,28.149589657655596],[84.39254604715762,28.15025685625458],[84.39178957799741,28.150547943261707],[84.3910937565193,28.150924554854402],[84.39081734034173,28.15104496556465],[84.39045558156336,28.151201762246874],[84.39016547367132,28.151403447634078],[84.389241754204,28.15177174488259],[84.38777695757587,28.151967742900766],[84.3869180746916,28.152134917930923],[84.38683504401403,28.152243450427648],[84.38663071791338,28.152241824930016],[84.38562434238442,28.152639631284057],[84.38539469684486,28.153394103327333],[84.38511340486491,28.15397952623714],[84.38464898291356,28.154409590673936],[84.38445184705262,28.154647160553402],[84.3839489108039,28.155363997640194],[84.38378228794983,28.156118281941534],[84.38325721871837,28.15686912874377],[84.38291690760913,28.158206147002627],[84.38254189284163,28.15873986650961],[84.38204745968318,28.159170056886953],[84.38176335422199,28.15966514022101],[84.38173321871022,28.15994959871273],[84.38186827089088,28.160346465184812],[84.38203108230289,28.160822229759795],[84.3826969579966,28.161860783937957],[84.38269452051978,28.162070720562046],[84.38254327763384,28.162685025937964],[84.38254221683339,28.163463691981583],[84.38225761243336,28.164177652862637],[84.38191317204219,28.164544261250715],[84.3812544259925,28.16478083148741],[84.38069540579352,28.165333057556822],[84.38023523829541,28.166993233310528],[84.38019459925755,28.167377033504945],[84.37996595286666,28.1680795529339],[84.37979038726174,28.168307995403314],[84.37945463821279,28.168602332892625],[84.37933284310981,28.168916425081743],[84.37932890474437,28.169232393484627],[84.37954323518568,28.169527416773374],[84.37977232121227,28.16966677024424],[84.3804548267587,28.16982731570559],[84.38079476693136,28.169984361811046],[84.38108031132131,28.17024762591509],[84.38127651111164,28.17079553666024],[84.38136829709,28.17172512210503],[84.38128214053913,28.17201877102924],[84.38104098924165,28.17243695690746],[84.38055574575016,28.17277011765143],[84.38005605912676,28.172823446533364],[84.3797127428362,28.17261219806234],[84.37948790904143,28.17261057333252],[84.3785844478031,28.173168300961233],[84.37816898114463,28.173623122667177],[84.37780490971907,28.174560773607343],[84.37721193988122,28.17507255001198],[84.3771942460359,28.175115375396345],[84.37683111221313,28.17596500103016],[84.3765385660215,28.176256961957446],[84.37620525404199,28.17635267786075],[84.37567342877394,28.175771883962955],[84.37528709646672,28.17566235183325],[84.37544834769076,28.177151476652703],[84.37566974427288,28.177816672260203],[84.375787413852,28.17794733523714],[84.37710640924746,28.178907302713785],[84.37865492588696,28.17940632135911],[84.37935762791834,28.18002500146896],[84.38026634267226,28.18039485853584],[84.38093690610401,28.18057128429048],[84.38194528403199,28.18101535022583],[84.38208783755914,28.18117295887324],[84.38301193748387,28.183318962583456],[84.38335975938955,28.184945252955202],[84.38369382210536,28.18540920043027],[84.3842338370221,28.185750737948187],[84.38466362341998,28.185909783332495],[84.38500562639157,28.1859133466479],[84.38590539885023,28.185718912860704],[84.3868718856209,28.185657518110386],[84.38742759226393,28.18541669652376],[84.38866398956512,28.18462552402383],[84.38973964051412,28.18410105571046],[84.39043502511755,28.183929816138495],[84.39073651274035,28.184001148993755],[84.39199010794903,28.18495905319013],[84.39236143439004,28.184962491151467],[84.39273688741417,28.184884655483142],[84.39307313794961,28.184712166619974],[84.39470549442767,28.1833893995674],[84.39528496028933,28.183024353686598],[84.39568429584968,28.182871933588608],[84.3958607369894,28.18287368309937],[84.39610695391416,28.18298809183562]]]}}]}