{"type":"FeatureCollection","features":[{"type":"Feature","properties":{"province":"Gandaki Province","district":"Gorkha","municipality":"Aarughat Rural Municipality","ward":"1","wardNumber":1,"sourceMunicipality":"Aarughat","sourceType":"Gaunpalika"},"geometry":{"type":"Polygon","coordinates":[[[84.97265741864159,28.196783660752224],[84.97163603169093,28.195816006955074],[84.97155181170986,28.195660836484844],[84.97078633408708,28.194887737807047],[84.96984735377862,28.194226360057744],[84.96899015679598,28.19387363570394],[84.96834822763404,28.193521597590152],[84.96783684618873,28.19309416175277],[84.96762545244742,28.19274806107229],[84.96745951354895,28.192286676315685],[84.96734446373962,28.191251622543433],[84.96611974627969,28.189402960233814],[84.96540615871163,28.18801780699236],[84.96494741869671,28.18686334476433],[84.96444003702051,28.186169580716626],[84.96444609961227,28.185711320731706],[84.96576289423096,28.184005001390133],[84.96603267729688,28.183204139715276],[84.96603873954989,28.182746005071493],[84.96574812680062,28.181937894131185],[84.96476656772641,28.18120005683902],[84.96391524530357,28.18042520804662],[84.9635402251848,28.179502563744624],[84.96290966996938,28.1783492904976],[84.96257116597192,28.17788453033793],[84.96227842786853,28.17719376647655],[84.96212080064426,28.176158963312847],[84.9619146570429,28.175467510884832],[84.96189552276898,28.175111155788173],[84.96184731254256,28.174204264932328],[84.96172963848353,28.17343553924297],[84.96160677771036,28.17301435413778],[84.96161196506388,28.172669064715766],[84.96127933617944,28.171861204376093],[84.96112302176923,28.170826400576022],[84.96095933312861,28.170249856792022],[84.96097033294775,28.169561467757514],[84.96128769571833,28.168530100200908],[84.96129288276416,28.16818474917603],[84.96116883446753,28.167840336139726],[84.96095756631779,28.167568757536674],[84.95993661775061,28.166677750023528],[84.95871177584499,28.165054653565075],[84.95781893841952,28.16423948055676],[84.95761042008891,28.163778284137013],[84.957552637616,28.161939368682184],[84.95773188932355,28.161482234103428],[84.95775701494232,28.159875261813294],[84.95767567023901,28.15952828516088],[84.95768667019209,28.158839832712125],[84.95752454351368,28.15814813016776],[84.95753191826093,28.15768999530827],[84.95789042189439,28.156773474278044],[84.95828919190723,28.15608908463994],[84.95833558320446,28.155860829446905],[84.95825636293557,28.155401006872143],[84.95804603267615,28.15509104237682],[84.95753608980874,28.15458683391415],[84.95648744477865,28.154072875006626],[84.95633845165935,28.153999416797205],[84.95570083550446,28.15345550982162],[84.95456371342962,28.15172119250081],[84.95456890054913,28.151375841450598],[84.95487957558443,28.150804985278793],[84.9550588898923,28.150347849560426],[84.95554356770154,28.149662896060132],[84.95648747539309,28.14849855044936],[84.95738849277862,28.147386406330394],[84.9575677452871,28.14692927143843],[84.9577887626063,28.146586982377542],[84.95868564760826,28.1443013066961],[84.9584771916533,28.143837859664856],[84.9584823795743,28.14349475879328],[84.95852870810462,28.143264253184757],[84.95883563223273,28.142923588966003],[84.95888933635239,28.14223488694009],[84.95884975758433,28.142004943951576],[84.95850775381572,28.14184714925675],[84.95829536160826,28.14165453090742],[84.95728235033638,28.140264689789092],[84.95724795906126,28.139689396443497],[84.95729272462054,28.139573987581016],[84.95768561936036,28.139235010555417],[84.95768930706443,28.139004692709506],[84.95723131789885,28.137965326882345],[84.95737986601279,28.136705018655057],[84.95755974276933,28.136247883541902],[84.95752897708823,28.13544239699421],[84.95727725539011,28.134979262756673],[84.95693812670875,28.134631849661616],[84.95648770770877,28.134375464008404],[84.95625486988122,28.13424167560551],[84.95539754807123,28.13396328446836],[84.95368090486016,28.133598435347523],[84.95343374911917,28.13343313839757],[84.95304253981287,28.133169562392446],[84.95266101974148,28.1327817623272],[84.95253428405647,28.1326291556887],[84.95219328073755,28.132432974252925],[84.95150577349656,28.13234745269989],[84.95081489156655,28.13245611294967],[84.94981545913647,28.13301821995256],[84.94878082349763,28.133120192020105],[84.94758356124203,28.13260942247255],[84.94534972597778,28.13227733435068],[84.94441093538309,28.13176925146208],[84.94347801993798,28.130915817614582],[84.94313514105839,28.130796347093046],[84.94283409106505,28.130793910221072],[84.94261551073521,28.13098271658197],[84.94208719196136,28.13170411798446],[84.94182134548883,28.132159503487394],[84.94172800089083,28.13261826303655],[84.94155024862438,28.132960239295677],[84.94128809034841,28.13318774473166],[84.94074282519047,28.133433007047394],[84.93955288410582,28.13397154554067],[84.93834787208978,28.13395723438833],[84.93782942885655,28.134066830750687],[84.93665624499806,28.134704460874833],[84.93579311102606,28.13484588160295],[84.93442397197448,28.134333924795175],[84.93270739147816,28.13396876261872],[84.93185075825029,28.133690184044116],[84.93116206324946,28.13368362299954],[84.93046955573362,28.133905003459393],[84.9297717363342,28.134469421735353],[84.92916769881262,28.13453900790283],[84.92832018957434,28.133687136046472],[84.92810535861351,28.133433562664518],[84.92772921578046,28.13299155914054],[84.92735282093298,28.132298982147354],[84.92634218682173,28.130908891288996],[84.92571638364507,28.129712480007466],[84.92456413741854,28.12908836422061],[84.92439601142495,28.128854796455094],[84.92431785405354,28.12835658728444],[84.92428171295795,28.127934776453433],[84.9241127738997,28.127741845631018],[84.92351717417058,28.127314784644167],[84.92296677890796,28.126733991481025],[84.92276132350815,28.126155385405845],[84.92251041485956,28.125694438686995],[84.9222231155516,28.124847815910375],[84.9211141362821,28.12422338763934],[84.92085947749305,28.123990382522422],[84.920522660893,28.123525497424207],[84.92044050478378,28.123295805185396],[84.92044425439994,28.123065612424167],[84.92084252449129,28.122381347095136],[84.92109216853764,28.120316927195073],[84.92141040703551,28.119285685430853],[84.92150606381195,28.11871407966281],[84.92147623645755,28.117908592726536],[84.92174595830589,28.117222952721857],[84.92175127077857,28.116877601312503],[84.92192877256437,28.11657401170273],[84.92184467795906,28.116418840969924],[84.92180734984467,28.11607380304615],[84.92181928746304,28.11538541308377],[84.92191425756175,28.114811494126688],[84.92179227233548,28.114390307925945],[84.92162545829525,28.114082155864487],[84.92085904389128,28.11353674877847],[84.92013058362812,28.113336255222816],[84.91987536280597,28.11318002320183],[84.91966403226036,28.112948956125233],[84.91937079582635,28.11244768529235],[84.91847995846885,28.11163213710864],[84.9179666407347,28.111434768532067],[84.91727900938093,28.11138744556867],[84.91664020591611,28.1109606973564],[84.91629720282003,28.11087948774426],[84.91560857060679,28.11087055086026],[84.91564427344402,28.111330686012693],[84.91563233525157,28.11201913788047],[84.91549028703132,28.112823500225396],[84.91495684364519,28.113849428627823],[84.91480547585039,28.114080622502],[84.9142054441169,28.11498964162355],[84.91402537969029,28.11544671417955],[84.91400869134289,28.116480455721067],[84.91416550495782,28.11740247551983],[84.91415637973714,28.117975769013594],[84.91397031484686,28.11877813064995],[84.91386709450953,28.11981024721762],[84.91402447132438,28.120729953731686],[84.91408775182978,28.12211073452177],[84.91381959233844,28.12268121603532],[84.91299072473169,28.12332322004048],[84.91142889498714,28.123992611645182],[84.91090601427699,28.124330087154803],[84.9091009160141,28.126644087875817],[84.90879005309475,28.127214881599997],[84.9083977201361,28.127479273343745],[84.90679493778991,28.127995431595895],[84.90627274412033,28.128332908720697],[84.90574767606503,28.12878548145343],[84.90508768393765,28.129620354254183],[84.90469466473894,28.12996151843964],[84.90408493916543,28.130335630640857],[84.90316678830065,28.131129368135912],[84.9022890910257,28.13211459833461],[84.90189569550637,28.132415126068704],[84.90145309661659,28.133138027985385],[84.90133655500718,28.133434365305167],[84.90068838391528,28.13508160221061],[84.90028930088323,28.13576580519264],[84.89988578115255,28.13668020044924],[84.89987815506514,28.137138397152217],[84.89996093744453,28.137370340091888],[84.89999445343842,28.137943320929754],[84.89981426328225,28.13840039296047],[84.89902147306302,28.139425697478607],[84.89832065238187,28.14010733881635],[84.89784228730596,28.1403677924111],[84.8969758406331,28.140664570523896],[84.89580703139903,28.14095659859384],[84.89541651116915,28.141141967509263],[84.89489731822863,28.14125143913201],[84.89255594840753,28.1421423984146],[84.89203294245104,28.142479812426508],[84.89085357042158,28.143421844155277],[84.88980955910937,28.14402221234281],[84.88941672638832,28.144324989795283],[84.88876448440472,28.14466090424264],[84.88798400712304,28.144957119649447],[84.88733076568414,28.145331482162934],[84.88667152350303,28.14612790634132],[84.88666164816819,28.146703450814723],[84.88644037973974,28.147043426096914],[84.88547965010467,28.14779890169511],[84.88495883174521,28.148021219967017],[84.8841808543077,28.148166140537203],[84.88379058474158,28.14831312264673],[84.88238213041346,28.150057703384547],[84.88120231995366,28.151038058830387],[84.88050768767293,28.15133589965761],[84.8798518823716,28.15186368217181],[84.87920145379896,28.152125199307974],[84.87872171371049,28.15246223730031],[84.87824097333699,28.15283997528158],[84.87693855290077,28.153399020538018],[84.87590429191549,28.15342371883957],[84.87499601665402,28.153603275524016],[84.87312332122718,28.154490919124473],[84.87082509386812,28.155582124388648],[84.87030515102727,28.155765992554702],[84.86952873648711,28.15579575493573],[84.8688798696332,28.155939737375107],[84.86848828757829,28.15616568040146],[84.86674182909671,28.157483511902004],[84.86643615406282,28.157708891594456],[84.86641902760698,28.158742571049977],[84.86690440579939,28.16058792381096],[84.86774072615833,28.16212849734378],[84.86845581113873,28.16317111362265],[84.8693419603595,28.16425561562679],[84.86938010158887,28.16456220549663],[84.87029989179291,28.1662580130234],[84.87042143880325,28.1667198980717],[84.8704995960362,28.167179782755966],[84.87078914499341,28.167873047618883],[84.87099216229213,28.16864133525308],[84.87136968124909,28.169257264886642],[84.87175232647976,28.169568541912895],[84.87294677605018,28.170274057109985],[84.87312371815761,28.17042416272196],[84.87413678783572,28.17128428615937],[84.87511184430483,28.17225300458832],[84.87541014434146,28.17244743544524],[84.87698155109219,28.173845652008463],[84.87809666238275,28.175113582222547],[84.87820845463584,28.17523924394671],[84.878462550568,28.175549021257908],[84.87931387314035,28.17624766029433],[84.87973922069139,28.176637710926986],[84.87995061409849,28.17694548815196],[84.88037371245585,28.17744825878986],[84.88071309170343,28.177836496031492],[84.88139409841725,28.178418914322638],[84.88215820084912,28.17919482681141],[84.88232507765002,28.17957962678413],[84.88267051843627,28.179545802860442],[84.8830173353862,28.179435268796542],[84.88375829624852,28.17886853660629],[84.88479949578827,28.178421713452813],[84.88566400465231,28.178242345065],[84.88635782531422,28.17798276572137],[84.88670364152041,28.17791061837381],[84.88739333658059,28.177917367393864],[84.88808484431911,28.177772947375697],[84.89015299242526,28.177836269135494],[84.89054244949737,28.17772761116817],[84.89088757875659,28.177732173435132],[84.89140214677226,28.177891280250574],[84.89191983946816,28.177896967734764],[84.89278428658744,28.17771528557236],[84.89347085738017,28.177954477728452],[84.89445316435318,28.178541646271167],[84.89565392800955,28.178976080806972],[84.89617068425157,28.179022342177344],[84.89703356773857,28.17895575650387],[84.89772163871028,28.17907760235803],[84.89892715188962,28.179168999071415],[84.90064504565707,28.17961130877427],[84.90120137962455,28.17988738785467],[84.90188663714848,28.18020116431484],[84.90223082875244,28.180243988656454],[84.9027498347859,28.180096130345408],[84.90322869890365,28.179797353274434],[84.90374864218592,28.179611108331457],[84.90422813156529,28.17923555856276],[84.9045755108852,28.179048189669334],[84.90544252021766,28.178712962743976],[84.90630509205741,28.178684637928924],[84.9071644773426,28.178886568168345],[84.90767716971128,28.17919915772432],[84.90784442153068,28.17954557210252],[84.90809989382664,28.17977857619981],[84.9085701334177,28.180053029914955],[84.91131222636935,28.18119704159854],[84.91177871607198,28.181699438005513],[84.9123329876642,28.182167447471382],[84.91370294102359,28.182794688812923],[84.9140468191889,28.182875898032],[84.91477359301378,28.18326819845338],[84.91480554217213,28.183283827273396],[84.91524489530947,28.183502015109276],[84.91627409408815,28.18389681390941],[84.91657314460356,28.1840912445486],[84.91682761610973,28.18436244801419],[84.91729804410589,28.184634713888983],[84.91815874073335,28.1847598091086],[84.91953913128326,28.1847369841187],[84.92040014139245,28.184821442334233],[84.92198736183497,28.185374972931108],[84.92237331952745,28.18553258033772],[84.92357395853303,28.186005151833005],[84.92485619140197,28.186786375867563],[84.92528391470238,28.187058766553204],[84.92575309233425,28.187407679361243],[84.92604964285232,28.18775546732938],[84.92625591040539,28.1884085338091],[84.92667713434469,28.189103047809567],[84.92735939245324,28.189646892206582],[84.92838871659349,28.190039315785473],[84.92873015814497,28.19027394587606],[84.92932550872636,28.1908543634898],[84.9296205594505,28.191317310817197],[84.92978699905136,28.191778758112477],[84.92982345279063,28.19223664258703],[84.92994962625285,28.192468271947845],[84.93075561955129,28.193397103888877],[84.9319485080188,28.194366133853958],[84.93232902853569,28.194907478514548],[84.93271229852668,28.195254641676666],[84.93360957487805,28.195839809388318],[84.93446733431549,28.196192721606874],[84.93493657450198,28.1965438224564],[84.93553048738487,28.1972393992154],[84.93632979362249,28.198626365750314],[84.93667067339382,28.19893545496271],[84.93756988683432,28.19936707757733],[84.93778177943082,28.199636468738106],[84.93798961058958,28.200174438146334],[84.93798498558535,28.200519727327343],[84.93814711238288,28.20121143009905],[84.93817900380175,28.20201466564647],[84.93829992712591,28.202591584363265],[84.93871540176391,28.203705847572856],[84.93910273431177,28.203786682503647],[84.9403097473628,28.203798680251126],[84.94168451383682,28.204197666333187],[84.94237002147126,28.204511130642775],[84.94266825978268,28.204743822452215],[84.94287740228648,28.205205082241868],[84.94295724786518,28.205664841682907],[84.94317095299144,28.20578293754504],[84.9448126905448,28.20560912969022],[84.9456723884355,28.20580862209554],[84.94755922206326,28.206558271253698],[84.94875648643344,28.207260846775245],[84.94927217978014,28.20738137989443],[84.95099469885122,28.20755442374395],[84.95185927087402,28.20737236593378],[84.9527208437608,28.207420501690788],[84.95341316406609,28.207275768217247],[84.95531924748171,28.206608000701163],[84.95562392258928,28.206420819822483],[84.9561481778077,28.205929672897263],[84.95648855489085,28.205814450091143],[84.95701431223819,28.20563470721734],[84.95814541831584,28.204920429691292],[84.95866967403516,28.204429283254647],[84.95901674054902,28.204280113046565],[84.95966904454984,28.203867050930018],[84.96019205044242,28.203450426713093],[84.96076232117603,28.20276934887431],[84.96184491136303,28.202398359449223],[84.962457261904,28.2017937415543],[84.96358736807514,28.201117787906778],[84.96393443424238,28.200968618101133],[84.96479863085247,28.200824883789224],[84.9654917637209,28.200564929545806],[84.96592723693676,28.200263964615363],[84.96644717985149,28.200079783170555],[84.96765813081007,28.19982520265002],[84.96857446946511,28.19903334062797],[84.96926935097315,28.19861990363536],[84.96979023184483,28.198395085397372],[84.97009515714646,28.198169455240347],[84.97061535032603,28.197946887462756],[84.97148073508333,28.197726318159535],[84.97178447204648,28.197577460477316],[84.97243790064425,28.19708762615276],[84.97265741864159,28.196783660752224]]]}},{"type":"Feature","properties":{"province":"Gandaki Province","district":"Gorkha","municipality":"Aarughat Rural Municipality","ward":"2","wardNumber":2,"sourceMunicipality":"Aarughat","sourceType":"Gaunpalika"},"geometry":{"type":"Polygon","coordinates":[[[84.91560857060679,28.11087055086026],[84.91530752112062,28.110868051651234],[84.91480527183951,28.110995528673143],[84.9144426993186,28.111085994396795],[84.91392494365995,28.111118755965432],[84.91323312405427,28.111263301299033],[84.91305918509875,28.11137733557538],[84.9125821956105,28.11156107936142],[84.91192995424112,28.11193775483449],[84.91089038021669,28.112269669255262],[84.910194810651,28.112644407982657],[84.90967517951863,28.112828464319065],[84.90932898901323,28.112900611328815],[84.90846791689292,28.112890675207627],[84.90725934235047,28.113029533542946],[84.90673871177621,28.11325191377241],[84.90622351845249,28.113131192626934],[84.90483994181307,28.11342022044034],[84.90397793205965,28.113448483262257],[84.90328580029299,28.113631351623884],[84.90189841058873,28.114150510233458],[84.90146212413713,28.11448967458842],[84.9011114952441,28.11486884947273],[84.90076624224055,28.11490273624068],[84.90042255033391,28.114821526706976],[84.897312441967,28.112754369567373],[84.8961703842264,28.11147768719847],[84.89578880153992,28.11112814821395],[84.89561761298091,28.111048000243105],[84.89489809049209,28.110312475150305],[84.89387664314008,28.109610523011405],[84.89332649736164,28.10902960446847],[84.89307571342347,28.108566281845746],[84.89294879014501,28.108452061942128],[84.89278110192281,28.10818004504383],[84.89256152118199,28.108407174623494],[84.89172115170453,28.109737444494158],[84.89058223293465,28.110834896506933],[84.88953559620127,28.111624820452402],[84.88867002426323,28.111844826271454],[84.88832320814942,28.111993808792157],[84.88784359374452,28.112333160369417],[84.88758237273221,28.112519966251096],[84.88718903959426,28.112822682360516],[84.8862779518648,28.11323255679331],[84.8857098677612,28.113723640246835],[84.88562077242861,28.11387549778413],[84.8856156477023,28.11418021284435],[84.88582053932215,28.11479495449199],[84.88572888172887,28.115100232570775],[84.88528840800231,28.11570791237359],[84.88515223426654,28.11609021351619],[84.8848870128864,28.116507211993596],[84.88443503801908,28.11772657219611],[84.88425809844902,28.1180323501466],[84.88382112541142,28.118371451142195],[84.8830751011273,28.119204574149258],[84.8827262843939,28.11943020445566],[84.88215332426753,28.120187679153585],[84.88132176887481,28.120982979064753],[84.88084246639173,28.121281693297636],[84.8804510086495,28.121507636793538],[84.8796321408008,28.121535460882782],[84.8792865122624,28.121607670839115],[84.87859206708525,28.12190551164271],[84.87780746482002,28.122470243242383],[84.87711270708819,28.122806469377135],[84.8762402601454,28.12344622323162],[84.8743306141637,28.124264159451375],[84.87380960884668,28.12452698857612],[84.87337363518026,28.124827704049544],[84.87312304239515,28.124939862501332],[84.87263061135656,28.12543050915399],[84.87232568566192,28.125655888450442],[84.87180493006768,28.12588039451531],[84.8715840372082,28.126184234982667],[84.8714930039302,28.126489449327746],[84.87122615694136,28.12694477164396],[84.87100813904719,28.127133515533863],[84.87082532440449,28.12774400863723],[84.87021159837964,28.12834825052497],[84.86968859188889,28.128687853051833],[84.86917008640786,28.128794948466147],[84.86779238504604,28.128740500975475],[84.86692825045246,28.128921995533037],[84.86606599209577,28.128947756850863],[84.86554623613948,28.12913387583027],[84.86489368205261,28.129508113124686],[84.86333791540928,28.129795579561073],[84.86264853276559,28.129786391400707],[84.86161839699578,28.1295829612697],[84.86110508031784,28.129385342922784],[84.8604183226232,28.129222672254446],[84.86007650673265,28.12906456502101],[84.85982197320875,28.1288337485729],[84.85952773641105,28.128406748878287],[84.85935748417971,28.128290465665792],[84.85901016878758,28.128477709506704],[84.85800517185055,28.12926944571399],[84.85783235847036,28.129306582712445],[84.85700430152642,28.129869251823546],[84.85565586438099,28.13061791417961],[84.85500549856144,28.13087930579847],[84.85494960586301,28.131604081674762],[84.85471821185281,28.132521789455804],[84.85460898868402,28.133434245644768],[84.854517083401,28.134204410272634],[84.85454153491985,28.135276287493145],[84.85444719008619,28.135734985377212],[84.8544315637402,28.13665363021131],[84.85454454827001,28.137573712530386],[84.85453154742174,28.138338874332863],[84.85461257902267,28.13860695311953],[84.8546454689708,28.139220570544555],[84.85496847083591,28.140450805994895],[84.85513315995772,28.140912440663552],[84.85558927247497,28.1419138577265],[84.85571069598326,28.142373492856454],[84.8558591953894,28.143753772934314],[84.85610404129821,28.14452406002157],[84.85635469908915,28.14498513262013],[84.85769377360437,28.147260670098596],[84.85824266890158,28.147918486095453],[84.85862418824377,28.14826814973471],[84.85977668473396,28.14893346631133],[84.86079794520923,28.14967405449828],[84.8628470282861,28.150848203161747],[84.86357048901422,28.151355974699737],[84.8640373525792,28.151781785102127],[84.86445932586335,28.152323005397584],[84.86609457448502,28.154987031058788],[84.86633760761087,28.15590855085947],[84.86644878014992,28.156982053696677],[84.86643615406282,28.157708891594456],[84.86674182909671,28.157483511902004],[84.86848828757829,28.15616568040146],[84.8688798696332,28.155939737375107],[84.86952873648711,28.15579575493573],[84.87030515102727,28.155765992554702],[84.87082509386812,28.155582124388648],[84.87312332122718,28.154490919124473],[84.87499601665402,28.153603275524016],[84.87590429191549,28.15342371883957],[84.87693855290077,28.153399020538018],[84.87824097333699,28.15283997528158],[84.87872171371049,28.15246223730031],[84.87920145379896,28.152125199307974],[84.8798518823716,28.15186368217181],[84.88050768767293,28.15133589965761],[84.88120231995366,28.151038058830387],[84.88238213041346,28.150057703384547],[84.88379058474158,28.14831312264673],[84.8841808543077,28.148166140537203],[84.88495883174521,28.148021219967017],[84.88547965010467,28.14779890169511],[84.88644037973974,28.147043426096914],[84.88666164816819,28.146703450814723],[84.88667152350303,28.14612790634132],[84.88733076568414,28.145331482162934],[84.88798400712304,28.144957119649447],[84.88876448440472,28.14466090424264],[84.88941672638832,28.144324989795283],[84.88980955910937,28.14402221234281],[84.89085357042158,28.143421844155277],[84.89203294245104,28.142479812426508],[84.89255594840753,28.1421423984146],[84.89489731822863,28.14125143913201],[84.89541651116915,28.141141967509263],[84.89580703139903,28.14095659859384],[84.8969758406331,28.140664570523896],[84.89784228730596,28.1403677924111],[84.89832065238187,28.14010733881635],[84.89902147306302,28.139425697478607],[84.89981426328225,28.13840039296047],[84.89999445343842,28.137943320929754],[84.89996093744453,28.137370340091888],[84.89987815506514,28.137138397152217],[84.89988578115255,28.13668020044924],[84.90028930088323,28.13576580519264],[84.90068838391528,28.13508160221061],[84.90133655500718,28.133434365305167],[84.90145309661659,28.133138027985385],[84.90189569550637,28.132415126068704],[84.9022890910257,28.13211459833461],[84.90316678830065,28.131129368135912],[84.90408493916543,28.130335630640857],[84.90469466473894,28.12996151843964],[84.90508768393765,28.129620354254183],[84.90574767606503,28.12878548145343],[84.90627274412033,28.128332908720697],[84.90679493778991,28.127995431595895],[84.9083977201361,28.127479273343745],[84.90879005309475,28.127214881599997],[84.9091009160141,28.126644087875817],[84.91090601427699,28.124330087154803],[84.91142889498714,28.123992611645182],[84.91299072473169,28.12332322004048],[84.91381959233844,28.12268121603532],[84.91408775182978,28.12211073452177],[84.91402447132438,28.120729953731686],[84.91386709450953,28.11981024721762],[84.91397031484686,28.11877813064995],[84.91415637973714,28.117975769013594],[84.91416550495782,28.11740247551983],[84.91400869134289,28.116480455721067],[84.91402537969029,28.11544671417955],[84.9142054441169,28.11498964162355],[84.91480547585039,28.114080622502],[84.91495684364519,28.113849428627823],[84.91549028703132,28.112823500225396],[84.91563233525157,28.11201913788047],[84.91564427344402,28.111330686012693],[84.91560857060679,28.11087055086026]]]}},{"type":"Feature","properties":{"province":"Gandaki Province","district":"Gorkha","municipality":"Aarughat Rural Municipality","ward":"4","wardNumber":4,"sourceMunicipality":"Aarughat","sourceType":"Gaunpalika"},"geometry":{"type":"Polygon","coordinates":[[[84.84442491966817,28.167083922523098],[84.84399513403754,28.16700083670353],[84.84365138031157,28.166919439868636],[84.84244692991165,28.16678921839674],[84.84141973154489,28.166355469856338],[84.84103721167254,28.166044067674903],[84.84086921076266,28.16581268788694],[84.83957027778217,28.163690194986103],[84.83884725496375,28.16314622553554],[84.83799318348379,28.16271366388218],[84.83662041901006,28.162351937898777],[84.83404207912214,28.161975024594035],[84.8314409800851,28.161361229482278],[84.83129555077792,28.16132596973029],[84.82992334856259,28.160966432059418],[84.82855333468838,28.16049179782149],[84.82829842663402,28.16029699152161],[84.82787245361054,28.160024288649325],[84.82757152843485,28.159980964030165],[84.82569088402333,28.159155041543922],[84.82471132814274,28.158531300041922],[84.82385781925213,28.158062477770084],[84.82351569079641,28.157942631716324],[84.82236494504718,28.157240992590634],[84.8220694582767,28.156892953670425],[84.82190945818851,28.15620106330623],[84.8218906311634,28.15482222112552],[84.82156037936197,28.15401398427339],[84.82050991748382,28.15250823380159],[84.82030496214499,28.151931690412283],[84.82031290091543,28.151473492753343],[84.8205360445279,28.151016295034697],[84.82055654593195,28.149867457520774],[84.8203902948429,28.14952085707238],[84.81959042862569,28.148478491314076],[84.81959442893533,28.14824829806781],[84.81987109018523,28.14721749435427],[84.8201847660222,28.146531791784906],[84.82014612518256,28.14630178668049],[84.82010773464579,28.146033458672946],[84.81972534101011,28.145722055561837],[84.81903914592334,28.14556138595664],[84.81817876281538,28.145512437392792],[84.81748631694227,28.145697057362092],[84.81661830786459,28.146067919673712],[84.8160987395044,28.146215464810442],[84.81592486245042,28.146290987393435],[84.81579300164445,28.146442970359452],[84.81492461610448,28.146852093370136],[84.81423310920238,28.14699845221765],[84.81249977734956,28.147591007873007],[84.81198045875357,28.147697916271433],[84.81107643370923,28.147687478774756],[84.81118434322201,28.14646355617187],[84.81131926673758,28.146122017705988],[84.81151402144576,28.144859271146565],[84.81174354066401,28.144059035705755],[84.81167982329818,28.14279328823349],[84.81172546430555,28.142680192335824],[84.81156952640686,28.14175804729499],[84.81124114911599,28.140836965265375],[84.81090702181702,28.140258921878065],[84.8104966755387,28.139103584471478],[84.80981854422464,28.138484717113535],[84.80815848162284,28.137390902752074],[84.80756594597355,28.136809921272675],[84.80706244121113,28.136038759269073],[84.806898565518,28.13557706204845],[84.80678770660717,28.134541820529943],[84.80692319292488,28.134200219316284],[84.80723293167067,28.133742521599135],[84.80753554291684,28.133433804645282],[84.80771492180651,28.1332521877735],[84.80806561330512,28.13291158679223],[84.80828344384442,28.132761354202763],[84.80893981159203,28.132193247152834],[84.80955422509265,28.13155093160008],[84.81129443238245,28.130536314463374],[84.81194986192497,28.13000884399999],[84.81243641437638,28.129286004609835],[84.81269744873413,28.129135521916865],[84.81304182735356,28.129140271976283],[84.81350612801566,28.12968136661128],[84.81544803948648,28.12943735074482],[84.81713354176954,28.129111310252313],[84.81748148289688,28.12892419203282],[84.817569765732,28.128810783195917],[84.81757407846904,28.12854220456891],[84.81719274748761,28.128194666517867],[84.81715404373463,28.127964723344565],[84.81737418727303,28.12769933212719],[84.81828596281125,28.127249259406902],[84.81984085459422,28.127000742577003],[84.8206640981741,28.12670240191361],[84.8212321828466,28.126249892039947],[84.82149621708854,28.125909790441796],[84.82189411279305,28.125338621740717],[84.82259405870971,28.124734128390017],[84.82376786837973,28.124097374232008],[84.8246769556859,28.12380078380901],[84.82520039980137,28.12342523406191],[84.82571759288466,28.123392785309164],[84.82658110148753,28.12328825094],[84.83002644987016,28.12325160140079],[84.83144103895398,28.122893178144935],[84.8317567182303,28.12281227823178],[84.83227353674553,28.122818152906955],[84.83313110706007,28.12302058407293],[84.83381655169875,28.12326008978156],[84.83501056293667,28.123925404722364],[84.8360380110609,28.124282443441746],[84.83672470566084,28.12444523874737],[84.83741340015179,28.1244546135544],[84.8381004071344,28.124576772096646],[84.83849205184409,28.124353204682674],[84.83945128224082,28.123713137649364],[84.83979822297455,28.123564280193108],[84.84049054297328,28.123381724227396],[84.84100773603333,28.123351462972675],[84.8416996810678,28.12320729324831],[84.84204762215323,28.12302011164514],[84.8424391420807,28.12279423099212],[84.8424043776155,28.122334095625035],[84.84254536331908,28.121647143280732],[84.84272961657004,28.120959878083646],[84.84300102607234,28.120197653326713],[84.8430135281424,28.11950926347181],[84.8427652447298,28.118930781947952],[84.8417866881325,28.11823039304537],[84.84064188140596,28.11718121425067],[84.84047431712418,28.116911448395754],[84.83988171834946,28.116330591821026],[84.83895442923509,28.1151695049814],[84.83848868965225,28.1147028696275],[84.83811354636212,28.11401010537153],[84.8376187304355,28.112740233952263],[84.83745341687536,28.112355308884318],[84.83742721486819,28.11135801601394],[84.83761378073969,28.11055790473204],[84.83810370880373,28.109645384717076],[84.83815091259957,28.109414879529343],[84.83795939704962,28.108034849949615],[84.83762701894496,28.107341772573598],[84.83742362705085,28.10665019496019],[84.83734528400473,28.106226383741916],[84.83753872495313,28.10500421138044],[84.83772135269255,28.104432105372027],[84.83777643200196,28.103743402682294],[84.83757085239478,28.103166858767867],[84.83732038194883,28.10270359844388],[84.8371092388393,28.102472406656805],[84.83664362608476,28.102005833766917],[84.8364180441978,28.10261651458556],[84.83636852801834,28.102959864938903],[84.83582583312288,28.104445866268716],[84.83551859485729,28.10478640512982],[84.83534059302617,28.105130507251058],[84.8352438094218,28.105702050022366],[84.83497596226638,28.106274782288914],[84.83457981660744,28.106728479142923],[84.83392432517786,28.107294460666434],[84.83300942372617,28.107895828698076],[84.83144109170107,28.108417613238203],[84.83101649645864,28.10856015681862],[84.83075508705336,28.108746837226647],[84.82991859279443,28.10977201694866],[84.82939452403143,28.110224277053508],[84.82891609685704,28.11048673089847],[84.82821727679813,28.11105296266614],[84.82752376961588,28.111314417337315],[84.82700563927854,28.111385252529313],[84.8263603359753,28.111377877513263],[84.8259317376123,28.11125634335858],[84.82507691658255,28.110902680261834],[84.82430144049694,28.110932130027535],[84.82404434419358,28.110852481766837],[84.82340597891607,28.110422983075864],[84.8228928488318,28.110225177748678],[84.82160186694152,28.11017204205466],[84.82082901477298,28.11004800847907],[84.82005453890449,28.11003913365618],[84.8196655811226,28.110111406293264],[84.81863163295355,28.11013791849224],[84.81785490604896,28.11024413948132],[84.81694619322052,28.110500093164553],[84.81642950079387,28.110494094034742],[84.81553603996338,28.109910425440805],[84.8152393020806,28.109639097278592],[84.8147301731526,28.109211098161417],[84.81425668334575,28.109204911035498],[84.81373592793358,28.10942916607425],[84.8125608676445,28.110142567856396],[84.81230283449024,28.110101181261822],[84.81200615905458,28.109829852846577],[84.81174875044405,28.10978852919122],[84.8114890288918,28.109862301901615],[84.81070455134517,28.110388271665844],[84.80966397742583,28.110796145611808],[84.8082391967192,28.11097157744989],[84.80681866741845,28.110952890440537],[84.8060408772795,28.11109743586213],[84.80569156085298,28.111361264814114],[84.80555432471851,28.11181796175513],[84.8054234634066,28.111931620183505],[84.80464161141455,28.11230629574009],[84.80254808694893,28.11377429797454],[84.80210848768323,28.114304955669574],[84.80184107757306,28.114798538599967],[84.80161393443666,28.115485928818163],[84.80143743207923,28.115714934236706],[84.80039579565255,28.116161131686983],[84.79953334916614,28.11622709253022],[84.79862719818897,28.11632943841044],[84.79785234649799,28.116281989361244],[84.79695169749148,28.116079684058796],[84.79604454721478,28.116222603571956],[84.7951411467983,28.116171467573857],[84.79488642634253,28.11597884939683],[84.79475718980876,28.115977349110292],[84.79437360896523,28.115742594643287],[84.79398602660896,28.115735906564264],[84.79372630506468,28.11580961616464],[84.7933356603729,28.115996859878226],[84.79272155914731,28.116603040349954],[84.7922795838979,28.117248857265057],[84.7918442353469,28.117510873206882],[84.79158576367779,28.117507873140482],[84.79120093263647,28.11734989043693],[84.79068411383489,28.11734382798009],[84.79016554647536,28.11745061188315],[84.78975839520932,28.11763804293147],[84.7895142423322,28.117750014331893],[84.78885843770337,28.118315746140322],[84.78820838372233,28.118538438607303],[84.78742640575462,28.11891080079062],[84.78638770704775,28.11916731761094],[84.78586513839326,28.11950435641964],[84.7853443206273,28.119728486292136],[84.78430624684279,28.119984940575687],[84.78391753949151,28.120016513594067],[84.7836575050657,28.120128609980426],[84.7829546837436,28.12088652244929],[84.78277136893493,28.121496827698724],[84.78176849749165,28.12221347993285],[84.78102841077254,28.122662301192182],[84.77936023395655,28.12440513226099],[84.77922556037966,28.124708283957755],[84.77908013481466,28.1256276800626],[84.77881353794731,28.1260828143453],[84.7787221928173,28.126388029717468],[84.77871681695349,28.126694995062977],[84.77866304980105,28.127268538903078],[84.77856395339683,28.1279958154134],[84.77864511027667,28.128302279702286],[84.77906551988059,28.128882198959086],[84.77939633423057,28.129652173316583],[84.77998024532558,28.130732114007184],[84.78029755757807,28.132269501627817],[84.78028399442162,28.133034726773225],[84.78022835007009,28.13343440665066],[84.78013519381821,28.134105166542035],[84.78029150609287,28.135027436988334],[84.78028344313367,28.13548563388682],[84.78001341889647,28.13854747266719],[84.77982466548633,28.139464805080877],[84.7798625555909,28.139771520269367],[84.77967917737107,28.140381949914577],[84.77945590889436,28.140839084714273],[84.77932129717912,28.14114455037941],[84.77882805616373,28.142210365183196],[84.77882261781771,28.14251733020595],[84.7786393022758,28.14312769753147],[84.7784619877927,28.14343116321549],[84.7783158750648,28.144350496339115],[84.77809254348458,28.144805442766526],[84.77783100923784,28.14499424901308],[84.7768650907581,28.14601755317157],[84.7762120984503,28.146391415637723],[84.77581801539549,28.146732204587522],[84.77576893694857,28.14707543047483],[84.7759353748711,28.147383771014034],[84.7768305864946,28.147931615864596],[84.77695100861706,28.148391312990427],[84.77676863141214,28.14896335699094],[84.77676356751877,28.149231935718728],[84.77662351822339,28.149842115501354],[84.77655243682618,28.151374941388866],[84.7764096364421,28.152138541023167],[84.7765253088919,28.15290520338162],[84.77668912141405,28.153366962945167],[84.7777061938723,28.154297733423068],[84.77774339669104,28.154604447961546],[84.77742534467689,28.15552028100965],[84.7774172182587,28.155978477865723],[84.77757828112702,28.15659372022693],[84.7777843608716,28.157093554529535],[84.77834600798123,28.157024906593037],[84.77950862890714,28.15703859377629],[84.78028179325655,28.15716281559701],[84.78053795264313,28.157280974077217],[84.78131342926639,28.157290099407533],[84.7824743636501,28.15741882042075],[84.78299068077345,28.15742494459919],[84.78428860197374,28.15713310408592],[84.78467568422738,28.15713766722656],[84.78519143936934,28.1572204392906],[84.78609108980184,28.157499642600616],[84.78724558509049,28.157973715711037],[84.7877565896632,28.158286743040303],[84.78877509914469,28.159140677189793],[84.7897587199,28.159742101028254],[84.79018144057967,28.159999174503717],[84.7909496051661,28.160391974876667],[84.79133506149506,28.16051163362287],[84.79236938543738,28.160485371391868],[84.79391677642766,28.16069523996378],[84.79468762867687,28.1609344947306],[84.79515630413623,28.16120707328688],[84.79566430860986,28.161711907140965],[84.79583149776677,28.162020059357552],[84.79646773806056,28.162562591610044],[84.79698143057716,28.16272207375615],[84.79736920107598,28.16272663642197],[84.79801856699869,28.16254451847301],[84.79831899202698,28.162624040556715],[84.79861616708106,28.162856983040193],[84.79903720181831,28.163398452722202],[84.79967413006146,28.16394092225972],[84.80005689900543,28.164214000890233],[84.80052963853656,28.16425851229409],[84.80122589604738,28.16388446218063],[84.80148880564434,28.163618757746878],[84.80183693510118,28.163431702285383],[84.80270113224093,28.163288906296547],[84.80308921430382,28.16325508258129],[84.80339270192465,28.163142673362856],[84.80378816003058,28.16272742491545],[84.80430954121486,28.16246472129127],[84.80482960966734,28.16227885215547],[84.8058666834856,28.162101233532834],[84.80638800135658,28.16183865426567],[84.80690738298858,28.161729495422218],[84.8075949522476,28.161815705595767],[84.80810733218844,28.162049646882206],[84.80845114889843,28.162131169381315],[84.80879558991339,28.16213585683665],[84.80931428275713,28.162026698378735],[84.81000822877502,28.16176755662364],[84.81035166924784,28.161808380120007],[84.81069317316272,28.16200499930881],[84.81111464517107,28.1625080204788],[84.81145508598628,28.162740712101886],[84.81175426118037,28.162896881727672],[84.81209738901725,28.16297834220214],[84.81244183015279,28.162983092661594],[84.81278864663597,28.16287043305895],[84.81400391088441,28.162348712712216],[84.81555436446833,28.162368712273018],[84.8159001187863,28.16229443931722],[84.81659500163491,28.161996911318564],[84.81711006959581,28.162079621594486],[84.81813520445586,28.162590267602685],[84.81895069786042,28.16275237458027],[84.82084565572319,28.162774874085226],[84.82239967216843,28.162600816600648],[84.82343212026188,28.16265095265833],[84.82411806544305,28.16285219670266],[84.82463013285941,28.163124461861983],[84.82488372864263,28.163396040906356],[84.82496669827307,28.163589597121774],[84.82486954004203,28.164199527017686],[84.8250279159249,28.165006513519813],[84.82560651373542,28.16639097988953],[84.82594301650188,28.166853864876103],[84.82624156668439,28.16701228546396],[84.82714546710447,28.16706098387685],[84.82783272402425,28.167183203925756],[84.82886885994157,28.167041533499972],[84.82942788186783,28.167126118399537],[84.82998496551227,28.16728528883656],[84.83015684247725,28.167286475963518],[84.83101178859668,28.1676784621483],[84.83118472830687,28.167643576247663],[84.83144088530901,28.16750659769365],[84.83188092391788,28.167269214109172],[84.83256986874696,28.167278526241773],[84.83303804474117,28.167627752090752],[84.83324825026489,28.16789958139749],[84.83358194026994,28.16855427223872],[84.83396614742546,28.168750515660943],[84.83465252980525,28.168913310705697],[84.83568660364325,28.168925060122127],[84.83655079982309,28.168782140002783],[84.83706786841952,28.168790202434607],[84.83878763665325,28.1690414572787],[84.83947364429002,28.16924038759989],[84.83998283698007,28.16970671078736],[84.84032565243429,28.16982643188366],[84.84049859253521,28.16978923224398],[84.84184996736133,28.168925661120632],[84.84285577611246,28.16809791406348],[84.84372647373203,28.167571193707026],[84.84442491966817,28.167083922523098]]]}},{"type":"Feature","properties":{"province":"Gandaki Province","district":"Gorkha","municipality":"Aarughat Rural Municipality","ward":"3","wardNumber":3,"sourceMunicipality":"Aarughat","sourceType":"Gaunpalika"},"geometry":{"type":"Polygon","coordinates":[[[84.8693419603595,28.16425561562679],[84.86845581113873,28.16317111362265],[84.86774072615833,28.16212849734378],[84.86690440579939,28.16058792381096],[84.86641902760698,28.158742571049977],[84.86643615406282,28.157708891594456],[84.86644878014992,28.156982053696677],[84.86633760761087,28.15590855085947],[84.86609457448502,28.154987031058788],[84.86445932586335,28.152323005397584],[84.8640373525792,28.151781785102127],[84.86357048901422,28.151355974699737],[84.8628470282861,28.150848203161747],[84.86079794520923,28.14967405449828],[84.85977668473396,28.14893346631133],[84.85862418824377,28.14826814973471],[84.85824266890158,28.147918486095453],[84.85769377360437,28.147260670098596],[84.85635469908915,28.14498513262013],[84.85610404129821,28.14452406002157],[84.8558591953894,28.143753772934314],[84.85571069598326,28.142373492856454],[84.85558927247497,28.1419138577265],[84.85513315995772,28.140912440663552],[84.85496847083591,28.140450805994895],[84.8546454689708,28.139220570544555],[84.85461257902267,28.13860695311953],[84.85453154742174,28.138338874332863],[84.85454454827001,28.137573712530386],[84.8544315637402,28.13665363021131],[84.85444719008619,28.135734985377212],[84.85454153491985,28.135276287493145],[84.854517083401,28.134204410272634],[84.85460898868402,28.133434245644768],[84.85471821185281,28.132521789455804],[84.85494960586301,28.131604081674762],[84.85500549856144,28.13087930579847],[84.8547077613062,28.13064417579331],[84.85428553877168,28.130141279729877],[84.85335237326184,28.12932560611885],[84.85250023974818,28.128780262388773],[84.85126933821785,28.127729458102742],[84.85046147113655,28.127145477214615],[84.84990782493735,28.12675624031173],[84.84828633988384,28.12589286822996],[84.84708726561267,28.12549406839928],[84.84468467912919,28.12492891191892],[84.84404518827515,28.124537924113167],[84.84315441470146,28.12376032481839],[84.84273200456994,28.12329575185993],[84.8424391420807,28.12279423099212],[84.84204762215323,28.12302011164514],[84.8416996810678,28.12320729324831],[84.84100773603333,28.123351462972675],[84.84049054297328,28.123381724227396],[84.83979822297455,28.123564280193108],[84.83945128224082,28.123713137649364],[84.83849205184409,28.124353204682674],[84.8381004071344,28.124576772096646],[84.83741340015179,28.1244546135544],[84.83672470566084,28.12444523874737],[84.8360380110609,28.124282443441746],[84.83501056293667,28.123925404722364],[84.83381655169875,28.12326008978156],[84.83313110706007,28.12302058407293],[84.83227353674553,28.122818152906955],[84.8317567182303,28.12281227823178],[84.83144103895398,28.122893178144935],[84.83002644987016,28.12325160140079],[84.82658110148753,28.12328825094],[84.82571759288466,28.123392785309164],[84.82520039980137,28.12342523406191],[84.8246769556859,28.12380078380901],[84.82376786837973,28.124097374232008],[84.82259405870971,28.124734128390017],[84.82189411279305,28.125338621740717],[84.82149621708854,28.125909790441796],[84.8212321828466,28.126249892039947],[84.8206640981741,28.12670240191361],[84.81984085459422,28.127000742577003],[84.81828596281125,28.127249259406902],[84.81737418727303,28.12769933212719],[84.81715404373463,28.127964723344565],[84.81719274748761,28.128194666517867],[84.81757407846904,28.12854220456891],[84.817569765732,28.128810783195917],[84.81748148289688,28.12892419203282],[84.81713354176954,28.129111310252313],[84.81544803948648,28.12943735074482],[84.81350612801566,28.12968136661128],[84.81304182735356,28.129140271976283],[84.81269744873413,28.129135521916865],[84.81243641437638,28.129286004609835],[84.81194986192497,28.13000884399999],[84.81129443238245,28.130536314463374],[84.80955422509265,28.13155093160008],[84.80893981159203,28.132193247152834],[84.80828344384442,28.132761354202763],[84.80806561330512,28.13291158679223],[84.80771492180651,28.1332521877735],[84.80753554291684,28.133433804645282],[84.80723293167067,28.133742521599135],[84.80692319292488,28.134200219316284],[84.80678770660717,28.134541820529943],[84.806898565518,28.13557706204845],[84.80706244121113,28.136038759269073],[84.80756594597355,28.136809921272675],[84.80815848162284,28.137390902752074],[84.80981854422464,28.138484717113535],[84.8104966755387,28.139103584471478],[84.81090702181702,28.140258921878065],[84.81124114911599,28.140836965265375],[84.81156952640686,28.14175804729499],[84.81172546430555,28.142680192335824],[84.81167982329818,28.14279328823349],[84.81174354066401,28.144059035705755],[84.81151402144576,28.144859271146565],[84.81131926673758,28.146122017705988],[84.81118434322201,28.14646355617187],[84.81107643370923,28.147687478774756],[84.81198045875357,28.147697916271433],[84.81249977734956,28.147591007873007],[84.81423310920238,28.14699845221765],[84.81492461610448,28.146852093370136],[84.81579300164445,28.146442970359452],[84.81592486245042,28.146290987393435],[84.8160987395044,28.146215464810442],[84.81661830786459,28.146067919673712],[84.81748631694227,28.145697057362092],[84.81817876281538,28.145512437392792],[84.81903914592334,28.14556138595664],[84.81972534101011,28.145722055561837],[84.82010773464579,28.146033458672946],[84.82014612518256,28.14630178668049],[84.8201847660222,28.146531791784906],[84.81987109018523,28.14721749435427],[84.81959442893533,28.14824829806781],[84.81959042862569,28.148478491314076],[84.8203902948429,28.14952085707238],[84.82055654593195,28.149867457520774],[84.8205360445279,28.151016295034697],[84.82031290091543,28.151473492753343],[84.82030496214499,28.151931690412283],[84.82050991748382,28.15250823380159],[84.82156037936197,28.15401398427339],[84.8218906311634,28.15482222112552],[84.82190945818851,28.15620106330623],[84.8220694582767,28.156892953670425],[84.82236494504718,28.157240992590634],[84.82351569079641,28.157942631716324],[84.82385781925213,28.158062477770084],[84.82471132814274,28.158531300041922],[84.82569088402333,28.159155041543922],[84.82757152843485,28.159980964030165],[84.82787245361054,28.160024288649325],[84.82829842663402,28.16029699152161],[84.82855333468838,28.16049179782149],[84.82992334856259,28.160966432059418],[84.83129555077792,28.16132596973029],[84.8314409800851,28.161361229482278],[84.83404207912214,28.161975024594035],[84.83662041901006,28.162351937898777],[84.83799318348379,28.16271366388218],[84.83884725496375,28.16314622553554],[84.83957027778217,28.163690194986103],[84.84086921076266,28.16581268788694],[84.84103721167254,28.166044067674903],[84.84141973154489,28.166355469856338],[84.84244692991165,28.16678921839674],[84.84365138031157,28.166919439868636],[84.84399513403754,28.16700083670353],[84.84442491966817,28.167083922523098],[84.84486026876101,28.166819405777556],[84.84538352463444,28.166482179004333],[84.84647655375795,28.165577158810812],[84.84704795057637,28.16489433109012],[84.84770538101033,28.164289963816064],[84.84796422757043,28.16425676528639],[84.84968624567347,28.164392735294655],[84.85209070908027,28.164919380827964],[84.85483030097703,28.1660261320235],[84.85551630726353,28.166227251374064],[84.85706357450591,28.16647481793794],[84.85723482621269,28.166555028347368],[84.85775151953709,28.16659916425442],[84.85965491592378,28.16616290350182],[84.86017298336294,28.16613257950174],[84.86103805583319,28.165951085180982],[84.86189918993901,28.1659998461769],[84.863281330393,28.165826352495067],[84.86397452599108,28.165643670681856],[84.86501635002283,28.165197035458807],[84.86536210359264,28.165124825359197],[84.86588011017407,28.16509225050077],[84.8662233007321,28.165173585923153],[84.86674030679144,28.1651793351742],[84.86829857419832,28.1648173475321],[84.8693419603595,28.16425561562679]]]}},{"type":"Feature","properties":{"province":"Gandaki Province","district":"Gorkha","municipality":"Aarughat Rural Municipality","ward":"6","wardNumber":6,"sourceMunicipality":"Aarughat","sourceType":"Gaunpalika"},"geometry":{"type":"Polygon","coordinates":[[[84.80327013987882,28.094744579387847],[84.80173275086057,28.094035939139065],[84.80058050585278,28.09344689598936],[84.80006650091117,28.0932874128838],[84.79941832169337,28.093395009823265],[84.79894320733776,28.09350385553228],[84.79816679307193,28.09356931557101],[84.79726758113814,28.093290174593875],[84.79675663901959,28.092938822892172],[84.79650723156024,28.092439239922133],[84.79638136856462,28.091753913967743],[84.79611282384636,28.09029073516896],[84.79612026186506,28.089830287600737],[84.79625412336762,28.089527072402607],[84.79635284348987,28.088761410299735],[84.79631764126421,28.088303525443376],[84.7961553277946,28.087688283012533],[84.79586115288896,28.087225085069313],[84.7951438812343,28.08633557706021],[84.79489834900626,28.085567352048198],[84.79503227223,28.08526194925581],[84.79529499353376,28.08499862083442],[84.79529936957574,28.08472997958802],[84.79487870925318,28.084111799287598],[84.79484350670765,28.08365385225155],[84.79542027865976,28.082587536824608],[84.79551156211892,28.08228457231492],[84.7953492483737,28.081669392301635],[84.79540195271038,28.081057462752785],[84.79536206167094,28.08090423018949],[84.79515041926591,28.08067072524583],[84.7945103665336,28.08032012446455],[84.79408801856172,28.07981704014288],[84.79383748542382,28.079315206729387],[84.79384861157081,28.07866514076112],[84.79346115522289,28.078660640364834],[84.7929867905491,28.078692714670442],[84.792471848413,28.078571555982087],[84.79144433787572,28.078214142286],[84.79050811039826,28.077551513196653],[84.78982304173235,28.077314070896552],[84.78975826729979,28.077321135888834],[84.78947853814483,28.077347581764222],[84.78908976872525,28.077419792579875],[84.78805482025929,28.077522826004788],[84.78757470605433,28.077897938751512],[84.78709527879917,28.078275300976763],[84.7856643734152,28.078870356335926],[84.78518525818595,28.079209394596393],[84.78390778982309,28.080952286708264],[84.78256135442554,28.08170244950377],[84.78169371957364,28.082073061724827],[84.78104141588442,28.08248756119385],[84.78077769425622,28.08278921303874],[84.78037048477675,28.084010260688473],[84.77993351163111,28.084387373360386],[84.7794019425141,28.085297704572238],[84.77878784202505,28.085980470442205],[84.77808202051104,28.087004648784653],[84.77607565442835,28.08854842194127],[84.77503176783064,28.089186300424508],[84.77459754411485,28.089409930620384],[84.77264632054911,28.090228928685573],[84.77178268634107,28.090369222629622],[84.77039654715543,28.090850994582667],[84.76918140987455,28.091756014829308],[84.76913276675775,28.09179240029797],[84.76776907849876,28.093382184750492],[84.76746065190133,28.093763047946233],[84.76706494428792,28.094216620254503],[84.76679853424056,28.094674005813545],[84.76661240570245,28.095437918192744],[84.76664198295147,28.096202830615375],[84.76627860230472,28.097272395459882],[84.76643685228447,28.098041058231882],[84.7668134957467,28.098657362914288],[84.766934480474,28.09911931093059],[84.76700813641648,28.09980951381895],[84.76678893017771,28.100036455697648],[84.76627086284896,28.10010704109092],[84.76558304268436,28.10002064333472],[84.7652377892358,28.100054154536462],[84.76402740138354,28.10030917093941],[84.76368046071293,28.10045784120012],[84.76337565953588,28.10064458470214],[84.76298132732842,28.101023697489694],[84.76262882307147,28.10147701887643],[84.76249139860406,28.101935967154002],[84.76161438764414,28.102805225364794],[84.76039487383575,28.103556763230586],[84.75952655125582,28.103967824822195],[84.75900979580258,28.103961699444845],[84.75866723036188,28.103841790558246],[84.75654005491126,28.10239781115282],[84.75602430012054,28.102353237699663],[84.7560968303238,28.10308182670587],[84.75634698822681,28.103543086425898],[84.75718755727907,28.1047029861292],[84.75756720074578,28.10512973544305],[84.75909321388725,28.106491192625253],[84.75980592183203,28.107572819933434],[84.76044266175772,28.108077028335668],[84.76120969999594,28.10854672650924],[84.76236725880938,28.108829180228067],[84.76249505612633,28.10890745233576],[84.76313929777022,28.109030236084564],[84.76533324152805,28.109173708523244],[84.76559021291042,28.109253480923915],[84.76593315419379,28.10933506616229],[84.76640395506608,28.10949267344752],[84.7696154710053,28.11053090406789],[84.76987106697311,28.11068744884245],[84.7705148078113,28.110810232955444],[84.77166386490867,28.111589082237426],[84.77255601400607,28.112290472703112],[84.77345528791992,28.112569738939428],[84.77435968782342,28.112580426884698],[84.77602912622358,28.113139646894552],[84.7766738042617,28.113224044843577],[84.77757951755788,28.113157959335023],[84.77835874417109,28.1129368913106],[84.77861615322657,28.112978277709658],[84.7789560311635,28.113251607096977],[84.77912790837118,28.11325298140073],[84.77976977391118,28.11349079874535],[84.78144533761738,28.113743054256663],[84.78338362328435,28.113727417982815],[84.78503648590086,28.112790386198277],[84.78560738332351,28.112184519302694],[84.78664495722282,28.111968639313407],[84.78741880796524,28.112054474342308],[84.78806011164717,28.112292291196738],[84.78844869338334,28.112258405531488],[84.78862188303405,28.11218519505812],[84.78888397960705,28.11199638898938],[84.78928637623723,28.111159016359696],[84.78950514396372,28.110970460089348],[84.78975867556737,28.110824541820648],[84.79106528652147,28.1104152287202],[84.79154377584557,28.11015296299302],[84.79146455705568,28.109767474270992],[84.79168945142307,28.109195180659313],[84.7930965311292,28.10756657182867],[84.79366061499456,28.107344379309673],[84.79392202412211,28.107155573186944],[84.79414573030473,28.106698374984514],[84.79424382628694,28.106009484778337],[84.7942069354968,28.105664383590472],[84.79404081002689,28.105317783015682],[84.79370193213238,28.10500831822294],[84.79361802449347,28.104853085202166],[84.79354655707816,28.104047786247165],[84.79390962478904,28.102980408828657],[84.79434716171151,28.102600983065418],[84.79501496664302,28.10134679961657],[84.79498207729712,28.100771506288748],[84.79473410713528,28.100192899194777],[84.794231790201,28.09938335079999],[84.79394186713886,28.09872828428758],[84.79458779517691,28.09873584732763],[84.79587221327337,28.09913458448903],[84.79625979609243,28.099139084369618],[84.79677880098535,28.09902998749773],[84.7979975021099,28.09828038800161],[84.79834913158442,28.097901462521527],[84.79852625896022,28.097597998325774],[84.79900874951993,28.097105413841497],[84.7999223375557,28.096578755744854],[84.80109064678855,28.096249154027195],[84.8017415756611,28.095990325825355],[84.8029624648972,28.095123317065408],[84.80327013987882,28.094744579387847]]]}},{"type":"Feature","properties":{"province":"Gandaki Province","district":"Gorkha","municipality":"Aarughat Rural Municipality","ward":"5","wardNumber":5,"sourceMunicipality":"Aarughat","sourceType":"Gaunpalika"},"geometry":{"type":"Polygon","coordinates":[[[84.83664362608476,28.102005833766917],[84.83592329136918,28.101346705718214],[84.8355013187172,28.100843809131042],[84.8348206872838,28.100373924197946],[84.83414168098474,28.099791318055193],[84.83363217693359,28.099401705580444],[84.83350725374713,28.099133877228358],[84.8332538456599,28.09886236090858],[84.83265780870515,28.09847106079454],[84.8325745268878,28.09831807910773],[84.8323197435709,28.09812327296653],[84.83211028831488,28.097774733738515],[84.83207589793771,28.097276212589517],[84.83191596033875,28.0965865724432],[84.83198291606138,28.095207230001137],[84.83208257383963,28.094443755271065],[84.83208882457315,28.09409846630646],[84.83196758952806,28.093638769249853],[84.83193544935257,28.09302502641178],[84.83181158913685,28.092716686086906],[84.83144051104995,28.092292375307416],[84.8309718966208,28.091755844895548],[84.83079795521061,28.09155603710558],[84.83008305872478,28.090513170613228],[84.8298336499757,28.089936940241532],[84.82966514911446,28.08970549721598],[84.82945900671476,28.0891290163552],[84.8293364591691,28.088743778467443],[84.82915513093816,28.086598649181653],[84.82895636342042,28.085563908293476],[84.82887208173783,28.08544706239949],[84.82870920562583,28.084870330472295],[84.82797186944407,28.085206494510565],[84.82745392697382,28.085277392696298],[84.82655371501944,28.08503682535395],[84.82603570974884,28.08510766079218],[84.82564394042154,28.085369551524185],[84.82507473026797,28.085975544674557],[84.82407211074282,28.086728644466433],[84.82303078661917,28.087251740031142],[84.82211701150145,28.087814659131517],[84.82150809845758,28.08822903313803],[84.82059563593144,28.088715241364266],[84.81981728392316,28.08893430944271],[84.81942976500407,28.088929871596797],[84.81865741371452,28.088767514619295],[84.81801154782052,28.088760077223416],[84.8168434259218,28.089089740869813],[84.81531467449489,28.090448521426794],[84.8150925935332,28.09086733261863],[84.8144051541848,28.091756096628057],[84.81438877345289,28.09177654028506],[84.81355952967158,28.092417981880807],[84.81282144378606,28.092754082719143],[84.81165319710661,28.09308374694287],[84.81126267692729,28.09327111574171],[84.8108742196931,28.093305002000445],[84.81000933528118,28.09352450801108],[84.80953447127558,28.093594967748274],[84.80810725294498,28.093921694288653],[84.80758718538523,28.094145949473763],[84.80642462605257,28.094132512689537],[84.80590693369348,28.094162648191496],[84.80538824016362,28.09431013070068],[84.80435085451519,28.094528386811195],[84.80370361400522,28.09459534586298],[84.80327013987882,28.094744579387847],[84.8029624648972,28.095123317065408],[84.8017415756611,28.095990325825355],[84.80109064678855,28.096249154027195],[84.7999223375557,28.096578755744854],[84.79900874951993,28.097105413841497],[84.79852625896022,28.097597998325774],[84.79834913158442,28.097901462521527],[84.7979975021099,28.09828038800161],[84.79677880098535,28.09902998749773],[84.79625979609243,28.099139084369618],[84.79587221327337,28.09913458448903],[84.79458779517691,28.09873584732763],[84.79394186713886,28.09872828428758],[84.794231790201,28.09938335079999],[84.79473410713528,28.100192899194777],[84.79498207729712,28.100771506288748],[84.79501496664302,28.10134679961657],[84.79434716171151,28.102600983065418],[84.79390962478904,28.102980408828657],[84.79354655707816,28.104047786247165],[84.79361802449347,28.104853085202166],[84.79370193213238,28.10500831822294],[84.79404081002689,28.105317783015682],[84.7942069354968,28.105664383590472],[84.79424382628694,28.106009484778337],[84.79414573030473,28.106698374984514],[84.79392202412211,28.107155573186944],[84.79366061499456,28.107344379309673],[84.7930965311292,28.10756657182867],[84.79168945142307,28.109195180659313],[84.79146455705568,28.109767474270992],[84.79154377584557,28.11015296299302],[84.79106528652147,28.1104152287202],[84.78975867556737,28.110824541820648],[84.78950514396372,28.110970460089348],[84.78928637623723,28.111159016359696],[84.78888397960705,28.11199638898938],[84.78862188303405,28.11218519505812],[84.78844869338334,28.112258405531488],[84.78806011164717,28.112292291196738],[84.78741880796524,28.112054474342308],[84.78664495722282,28.111968639313407],[84.78560738332351,28.112184519302694],[84.78503648590086,28.112790386198277],[84.78338362328435,28.113727417982815],[84.78144533761738,28.113743054256663],[84.77976977391118,28.11349079874535],[84.77912790837118,28.11325298140073],[84.7789560311635,28.113251607096977],[84.77842739905401,28.11389567335256],[84.77850793093735,28.114204388096027],[84.77888469915025,28.114820630432146],[84.77975659605228,28.116670858668822],[84.7797937986917,28.116977511201302],[84.779745782102,28.117284726436072],[84.77956790455374,28.11758819090177],[84.77917213453733,28.118041826377688],[84.77912067989857,28.11850252398758],[84.77932775915284,28.118963971694708],[84.7801344381045,28.119625162180974],[84.7803015644804,28.119933440052275],[84.78016689073735,28.120238842401587],[84.77981513581989,28.12061776789577],[84.77963788409221,28.120921170136715],[84.77963150820875,28.1212665218233],[84.77971472755875,28.121421692146093],[84.7799700107754,28.12161443556678],[84.7807453007657,28.121625810439326],[84.78125843053449,28.121823741950156],[84.78176849749165,28.12221347993285],[84.78277136893493,28.121496827698724],[84.7829546837436,28.12088652244929],[84.7836575050657,28.120128609980426],[84.78391753949151,28.120016513594067],[84.78430624684279,28.119984940575687],[84.7853443206273,28.119728486292136],[84.78586513839326,28.11950435641964],[84.78638770704775,28.11916731761094],[84.78742640575462,28.11891080079062],[84.78820838372233,28.118538438607303],[84.78885843770337,28.118315746140322],[84.7895142423322,28.117750014331893],[84.78975839520932,28.11763804293147],[84.79016554647536,28.11745061188315],[84.79068411383489,28.11734382798009],[84.79120093263647,28.11734989043693],[84.79158576367779,28.117507873140482],[84.7918442353469,28.117510873206882],[84.7922795838979,28.117248857265057],[84.79272155914731,28.116603040349954],[84.7933356603729,28.115996859878226],[84.79372630506468,28.11580961616464],[84.79398602660896,28.115735906564264],[84.79437360896523,28.115742594643287],[84.79475718980876,28.115977349110292],[84.79488642634253,28.11597884939683],[84.7951411467983,28.116171467573857],[84.79604454721478,28.116222603571956],[84.79695169749148,28.116079684058796],[84.79785234649799,28.116281989361244],[84.79862719818897,28.11632943841044],[84.79953334916614,28.11622709253022],[84.80039579565255,28.116161131686983],[84.80143743207923,28.115714934236706],[84.80161393443666,28.115485928818163],[84.80184107757306,28.114798538599967],[84.80210848768323,28.114304955669574],[84.80254808694893,28.11377429797454],[84.80464161141455,28.11230629574009],[84.8054234634066,28.111931620183505],[84.80555432471851,28.11181796175513],[84.80569156085298,28.111361264814114],[84.8060408772795,28.11109743586213],[84.80681866741845,28.110952890440537],[84.8082391967192,28.11097157744989],[84.80966397742583,28.110796145611808],[84.81070455134517,28.110388271665844],[84.8114890288918,28.109862301901615],[84.81174875044405,28.10978852919122],[84.81200615905458,28.109829852846577],[84.81230283449024,28.110101181261822],[84.8125608676445,28.110142567856396],[84.81373592793358,28.10942916607425],[84.81425668334575,28.109204911035498],[84.8147301731526,28.109211098161417],[84.8152393020806,28.109639097278592],[84.81553603996338,28.109910425440805],[84.81642950079387,28.110494094034742],[84.81694619322052,28.110500093164553],[84.81785490604896,28.11024413948132],[84.81863163295355,28.11013791849224],[84.8196655811226,28.110111406293264],[84.82005453890449,28.11003913365618],[84.82082901477298,28.11004800847907],[84.82160186694152,28.11017204205466],[84.8228928488318,28.110225177748678],[84.82340597891607,28.110422983075864],[84.82404434419358,28.110852481766837],[84.82430144049694,28.110932130027535],[84.82507691658255,28.110902680261834],[84.8259317376123,28.11125634335858],[84.8263603359753,28.111377877513263],[84.82700563927854,28.111385252529313],[84.82752376961588,28.111314417337315],[84.82821727679813,28.11105296266614],[84.82891609685704,28.11048673089847],[84.82939452403143,28.110224277053508],[84.82991859279443,28.10977201694866],[84.83075508705336,28.108746837226647],[84.83101649645864,28.10856015681862],[84.83144109170107,28.108417613238203],[84.83300942372617,28.107895828698076],[84.83392432517786,28.107294460666434],[84.83457981660744,28.106728479142923],[84.83497596226638,28.106274782288914],[84.8352438094218,28.105702050022366],[84.83534059302617,28.105130507251058],[84.83551859485729,28.10478640512982],[84.83582583312288,28.104445866268716],[84.83636852801834,28.102959864938903],[84.8364180441978,28.10261651458556],[84.83664362608476,28.102005833766917]]]}},{"type":"Feature","properties":{"province":"Gandaki Province","district":"Gorkha","municipality":"Aarughat Rural Municipality","ward":"8","wardNumber":8,"sourceMunicipality":"Aarughat","sourceType":"Gaunpalika"},"geometry":{"type":"Polygon","coordinates":[[[84.79384861157081,28.07866514076112],[84.79436555409995,28.078632816367133],[84.79522637514934,28.078643629204638],[84.79660651489714,28.0785092097376],[84.79729495858975,28.078516459300996],[84.79867909838325,28.078151847008698],[84.79971167107045,28.07816384658105],[84.8000582368758,28.078053499896708],[84.80066477436743,28.07783099495066],[84.80152897119073,28.077611552077048],[84.80204553888139,28.077617551784076],[84.8025645439717,28.077510706532415],[84.80291073491131,28.077361973479075],[84.80334714617923,28.077020809260507],[84.80369840068656,28.076605811079002],[84.80461555145607,28.07581276221763],[84.80505102481219,28.075512296982627],[84.80626478720222,28.0749905768926],[84.80726334393492,28.074467856838094],[84.80796178914993,28.073863426532437],[84.80813954167424,28.073559961534905],[84.80853299924932,28.073180723685624],[84.80875539229793,28.072725776885257],[84.809112271459,28.07196305122974],[84.80944332414815,28.07013082478731],[84.8094074333255,28.06967062681168],[84.80919804153477,28.069324338244193],[84.80915877524804,28.06909433316391],[84.80925337035892,28.068558925478463],[84.80978000133597,28.06795318336837],[84.80995975361412,28.06749623616024],[84.81014888191143,28.066427609054514],[84.81011399102616,28.06592908777723],[84.81011924200578,28.065624373018807],[84.80991103638989,28.065160675184124],[84.80957422101899,28.064697727561068],[84.80953626836191,28.064391013121508],[84.80971808368038,28.063780583087865],[84.80993816424017,28.06351525401195],[84.8101631194793,28.06290682415825],[84.81009665175128,28.061681715028072],[84.81011940386276,28.06030262140065],[84.81022262410997,28.05923224464654],[84.81035911082368,28.05877554716693],[84.81036648640419,28.058315099880765],[84.81028532915835,28.05800863471834],[84.80926763296047,28.057078052468075],[84.80897314642648,28.056653241902502],[84.80893587988933,28.056269816682075],[84.80881683338923,28.05565663683783],[84.80892805482175,28.054125811675313],[84.80881638289016,28.05305443453631],[84.80856753697131,28.052437504142],[84.80848563042758,28.05220781223139],[84.80800739120575,28.052470141438118],[84.80709449084486,28.053033059584866],[84.80661825172919,28.05321861638648],[84.80622910706991,28.053329213155134],[84.80571097699959,28.053436120765717],[84.80519447214544,28.05343012101008],[84.8039066153609,28.05318492884582],[84.80248889929291,28.053014947496543],[84.80184390853124,28.053007384997898],[84.80158437400813,28.05307890671355],[84.80132640330372,28.053037520148862],[84.80094344647377,28.052766692062168],[84.80081796088297,28.052573385724145],[84.80061544403408,28.05176652458967],[84.80044806807716,28.05149669596701],[84.80031964536349,28.051418423725853],[84.79980245282533,28.05148919599902],[84.79932115079086,28.05194108110598],[84.799018975411,28.052015103725562],[84.79759994636944,28.0519195186737],[84.79501442088893,28.052079012258062],[84.79411589615792,28.051763735831358],[84.79372950255704,28.051718536825526],[84.79295246367273,28.051824695777434],[84.79230747272261,28.051817133501128],[84.79192351611277,28.051582377827124],[84.79145871580671,28.051079481873064],[84.79116022823057,28.050884864030074],[84.79000392004264,28.05052595020139],[84.78975839165967,28.05052732656902],[84.78780972803192,28.05053408581375],[84.7874216452445,28.05060623267076],[84.78677027916481,28.05094177136118],[84.78633143127843,28.051472428655817],[84.78550256261525,28.05214969396874],[84.78472577400092,28.052294113617883],[84.78408653370563,28.051938949541498],[84.78370520223606,28.0516273588691],[84.7835760915904,28.05162585973074],[84.78318426009649,28.051887625164504],[84.78274584863195,28.052379896103783],[84.78244092312954,28.052607339047437],[84.78188040200904,28.05267598686694],[84.78085039293683,28.05254645192625],[84.7802050276938,28.052574963375676],[84.77942823813407,28.05271707012024],[84.77865376194791,28.05274626937476],[84.77800470842224,28.052966710757588],[84.77722241931365,28.05341565876465],[84.77631339433685,28.05374807151362],[84.77592531214721,28.05382021951985],[84.77553791795218,28.05381340634505],[84.77528163431681,28.05373363363943],[84.77489830280348,28.053498816509464],[84.7747309893765,28.053226674077116],[84.77439673773092,28.05264856814985],[84.77376124812461,28.052103660104088],[84.77324980583191,28.051826768487324],[84.77234659441368,28.05181601852502],[84.77144025716214,28.051994949121287],[84.77066853097143,28.051868352722956],[84.77028451301463,28.05171030779949],[84.76938298847679,28.051582210671764],[84.76874168589471,28.05138040366286],[84.76797439822097,28.05098754131728],[84.76771648958204,28.05094609188521],[84.76719929699455,28.05101442695219],[84.7665471177413,28.05142661251119],[84.76577439213351,28.051340652570733],[84.76504524511851,28.05121605582116],[84.76440025373088,28.051206118104698],[84.76395865567943,28.051890195522716],[84.76369762116558,28.052038302305032],[84.76313816282433,28.052070814266607],[84.76261990732989,28.05217753523211],[84.76205769824357,28.052361153180787],[84.76114861177632,28.052693504372204],[84.76063141907856,28.052764088914515],[84.75973370741112,28.052444060603],[84.75909446817415,28.05209095917452],[84.75858540104173,28.051698845725472],[84.75807302167543,28.05146246594326],[84.757687315149,28.05141945448259],[84.75738407781532,28.051529487751584],[84.75656083492161,28.051863526686635],[84.75599900118722,28.052008821840158],[84.75509541382212,28.052034144954863],[84.7544476735524,28.052177626215226],[84.75405640409744,28.05244158049657],[84.75383632308204,28.05270684644017],[84.75332144369548,28.052660021833034],[84.75242366968573,28.05234224417994],[84.7519885716199,28.052604135942353],[84.7518109440663,28.052945923778797],[84.75150358046275,28.053286150333943],[84.75081082378497,28.053544978223844],[84.75029494426087,28.053538791037948],[84.74862582001256,28.053053653966256],[84.74807567882416,28.053424515541504],[84.74793262830214,28.054165608918296],[84.74763508406237,28.05500454395274],[84.74713483825141,28.055695623434687],[84.74656468990815,28.056113998602264],[84.7458757467277,28.056368262784112],[84.7454226412621,28.05652868674748],[84.74516341943604,28.056658788384645],[84.74484086213815,28.056746315001302],[84.74458151653599,28.056856035467938],[84.74412459742364,28.05719026035548],[84.7438157340074,28.057602695508923],[84.74363685643661,28.057944483401894],[84.74334106236574,28.058681826409572],[84.7432464657351,28.059079631128828],[84.74295223435143,28.059760457293777],[84.74268807485754,28.060100432671867],[84.74257803425014,28.060193586175682],[84.7432944278367,28.060496672632034],[84.74430736896346,28.0608183886242],[84.74531931009855,28.06108371239346],[84.74687164016956,28.061402488729733],[84.74774771717661,28.06151733211503],[84.74807571459509,28.061492948574717],[84.74869369463407,28.061448995651148],[84.74998755176891,28.06127487743733],[84.75127903239432,28.061215918098476],[84.75218443235639,28.06107549897549],[84.75296409684262,28.060780097078627],[84.75339963280238,28.06047975653282],[84.75418792330117,28.0596855205344],[84.75427964296645,28.059341982435406],[84.7549260708085,28.059275209998283],[84.75595339285698,28.059558414837277],[84.75672024355367,28.059989788304193],[84.75748940614938,28.060269868155434],[84.75813852209403,28.060047363023884],[84.75866365384496,28.059556967201456],[84.75892262440809,28.05948331922568],[84.75909406396858,28.059525268853804],[84.75943137891895,28.059913819353536],[84.75968141129367,28.060377329204385],[84.75975600538693,28.061029208033144],[84.75992288084636,28.0613374229224],[84.76017710146476,28.061570740838306],[84.760943076945,28.062042689403512],[84.76145626953331,28.06220235977186],[84.76197452423533,28.06209563904862],[84.76275593886653,28.06168507751048],[84.76327494368472,28.061499333730985],[84.7656087490912,28.060881456583292],[84.76625823973761,28.060620564665715],[84.76668964994862,28.06055041816404],[84.76731313839691,28.061824352600738],[84.76767059240132,28.06351503572293],[84.76791800020268,28.064132027819753],[84.7684199401415,28.0649439525715],[84.76850234754427,28.065175957465108],[84.76918735345748,28.065339127790928],[84.76970423368627,28.06530686670404],[84.77073536825685,28.065398077434736],[84.77245832314941,28.06526878340424],[84.77297732754732,28.06508528971389],[84.77371778914855,28.06455750735968],[84.77398051049364,28.064294241517615],[84.77467151758252,28.064150384040076],[84.77552652494781,28.064429901066315],[84.77671878672936,28.065249199205734],[84.77761118446415,28.065948276523464],[84.77914794855792,28.066733939533307],[84.7795292182695,28.06711998870198],[84.77999776870527,28.067433266582796],[84.78051164919715,28.067592811244708],[84.78120134292766,28.067523476092063],[84.78206172634322,28.067572674772375],[84.78252927737913,28.067924339274647],[84.78278412380146,28.06815528149421],[84.78234290027626,28.06880109791185],[84.78216471006327,28.06914288584505],[84.7821612720108,28.06937314079651],[84.78232558575424,28.06983483903662],[84.78283296487214,28.070414257485776],[84.78338873582906,28.070650262239788],[84.78441787115662,28.07089489243743],[84.78527287859656,28.071248868004037],[84.78578469664629,28.071561896178338],[84.7859521348653,28.071831724485012],[84.78599058769957,28.07213843959054],[84.78563258382322,28.072937175431896],[84.78553917609929,28.073395873326028],[84.78571862821957,28.075579514071855],[84.78565123480337,28.077071702304426],[84.78594034644112,28.077801290803485],[84.78650224258806,28.077655871022383],[84.78727859395018,28.077588223705632],[84.78805482025929,28.077522826004788],[84.78908976872525,28.077419792579875],[84.78947853814483,28.077347581764222],[84.78975826729979,28.077321135888834],[84.78982304173235,28.077314070896552],[84.79050811039826,28.077551513196653],[84.79144433787572,28.078214142286],[84.792471848413,28.078571555982087],[84.7929867905491,28.078692714670442],[84.79346115522289,28.078660640364834],[84.79384861157081,28.07866514076112]]]}},{"type":"Feature","properties":{"province":"Gandaki Province","district":"Gorkha","municipality":"Aarughat Rural Municipality","ward":"7","wardNumber":7,"sourceMunicipality":"Aarughat","sourceType":"Gaunpalika"},"geometry":{"type":"Polygon","coordinates":[[[84.78805482025929,28.077522826004788],[84.78727859395018,28.077588223705632],[84.78650224258806,28.077655871022383],[84.78594034644112,28.077801290803485],[84.78565123480337,28.077071702304426],[84.78571862821957,28.075579514071855],[84.78553917609929,28.073395873326028],[84.78563258382322,28.072937175431896],[84.78599058769957,28.07213843959054],[84.7859521348653,28.071831724485012],[84.78578469664629,28.071561896178338],[84.78527287859656,28.071248868004037],[84.78441787115662,28.07089489243743],[84.78338873582906,28.070650262239788],[84.78283296487214,28.070414257485776],[84.78232558575424,28.06983483903662],[84.7821612720108,28.06937314079651],[84.78216471006327,28.06914288584505],[84.78234290027626,28.06880109791185],[84.78278412380146,28.06815528149421],[84.78252927737913,28.067924339274647],[84.78206172634322,28.067572674772375],[84.78120134292766,28.067523476092063],[84.78051164919715,28.067592811244708],[84.77999776870527,28.067433266582796],[84.7795292182695,28.06711998870198],[84.77914794855792,28.066733939533307],[84.77761118446415,28.065948276523464],[84.77671878672936,28.065249199205734],[84.77552652494781,28.064429901066315],[84.77467151758252,28.064150384040076],[84.77398051049364,28.064294241517615],[84.77371778914855,28.06455750735968],[84.77297732754732,28.06508528971389],[84.77245832314941,28.06526878340424],[84.77073536825685,28.065398077434736],[84.76970423368627,28.06530686670404],[84.76918735345748,28.065339127790928],[84.76850234754427,28.065175957465108],[84.7684199401415,28.0649439525715],[84.76791800020268,28.064132027819753],[84.76767059240132,28.06351503572293],[84.76731313839691,28.061824352600738],[84.76668964994862,28.06055041816404],[84.76625823973761,28.060620564665715],[84.7656087490912,28.060881456583292],[84.76327494368472,28.061499333730985],[84.76275593886653,28.06168507751048],[84.76197452423533,28.06209563904862],[84.76145626953331,28.06220235977186],[84.760943076945,28.062042689403512],[84.76017710146476,28.061570740838306],[84.75992288084636,28.0613374229224],[84.75975600538693,28.061029208033144],[84.75968141129367,28.060377329204385],[84.75943137891895,28.059913819353536],[84.75909406396858,28.059525268853804],[84.75892262440809,28.05948331922568],[84.75866365384496,28.059556967201456],[84.75813852209403,28.060047363023884],[84.75748940614938,28.060269868155434],[84.75672024355367,28.059989788304193],[84.75595339285698,28.059558414837277],[84.7549260708085,28.059275209998283],[84.75427964296645,28.059341982435406],[84.75418792330117,28.0596855205344],[84.75339963280238,28.06047975653282],[84.75296409684262,28.060780097078627],[84.75218443235639,28.06107549897549],[84.75127903239432,28.061215918098476],[84.74998755176891,28.06127487743733],[84.74869369463407,28.061448995651148],[84.74807571459509,28.061492948574717],[84.74774771717661,28.06151733211503],[84.74687164016956,28.061402488729733],[84.74531931009855,28.06108371239346],[84.74430736896346,28.0608183886242],[84.7432944278367,28.060496672632034],[84.74257803425014,28.060193586175682],[84.74249137708975,28.060266295210727],[84.74201788845738,28.060411026677137],[84.74209635664897,28.06071755394511],[84.74278487083322,28.062334276341147],[84.74293774333252,28.06310081396526],[84.7431352578267,28.063792578784366],[84.74321710200405,28.063945623744363],[84.74317045944815,28.064097105758805],[84.74305679380876,28.06440013252212],[84.74339048182513,28.06473235417572],[84.74366252190305,28.06498586504002],[84.74376606183098,28.065141035115346],[84.74380513952373,28.065276262230455],[84.74392974850761,28.065449375611752],[84.7439930854316,28.06548963666678],[84.74432177223211,28.06602948202295],[84.74452622562654,28.066434663092632],[84.74458506085244,28.066664542575534],[84.7448090219216,28.06712824051972],[84.74496933341476,28.067590000492082],[84.74507618962483,28.06850802026132],[84.74506618755791,28.068907511952133],[84.74496471607743,28.069591900843882],[84.74495390143177,28.070050097987743],[84.74502443001347,28.070681658983265],[84.7451646091594,28.071084839553926],[84.74522194481607,28.071373486481832],[84.74530478879885,28.071488082231642],[84.74540476414583,28.071776478798135],[84.74548767046,28.071893387858676],[84.74554650691591,28.072123267577922],[84.74571225645843,28.072357085793954],[84.74598129615872,28.07272350514959],[84.7461680544485,28.072957136035164],[84.7465450710919,28.073289106561315],[84.74677303274841,28.07359932221997],[84.74702456500358,28.073814634393294],[84.74737651090672,28.07429796332882],[84.74773189484615,28.074629997093467],[84.74807596267668,28.075075001672968],[84.74823227324794,28.07550750324436],[84.74851732058643,28.076431273597667],[84.74870552266006,28.077967161578496],[84.74867314385149,28.079806701739777],[84.74871090964629,28.080113354529708],[84.74895994190284,28.08061537625475],[84.74938110134713,28.081156970715366],[84.75039898542566,28.081977396486284],[84.75129388362397,28.082487104996975],[84.75193531073947,28.082688912174724],[84.75283702272809,28.082814883711595],[84.75282058358542,28.08373577898542],[84.75315383606421,28.084352334059336],[84.75343069498757,28.085736552530335],[84.753721306512,28.086353357871545],[84.7539748402563,28.086663385141],[84.75401123028091,28.08704687266184],[84.7536174599327,28.08742367195471],[84.7531399706237,28.087647489372586],[84.75262121480549,28.08779478515722],[84.75231510171507,28.08805823854506],[84.75196534754748,28.088360328103715],[84.7520879577253,28.088781702172962],[84.75221438117305,28.088936747192896],[84.75266980512637,28.09001531203946],[84.75330529498854,28.090634679563674],[84.75385800383735,28.09106274111361],[84.75415205308799,28.091526000406905],[84.75414792763529,28.091756255865008],[84.75414755232354,28.09179464223982],[84.75396417402354,28.092404946862956],[84.75396142399653,28.092558429718675],[84.75382399989073,28.093015126898994],[84.75368282479383,28.093665881244114],[84.75355785004767,28.095808323703878],[84.75379700658331,28.096883575967485],[84.75333877995051,28.098411776766042],[84.75349478022241,28.09933167145724],[84.753703985031,28.099680398016673],[84.7542960209118,28.100261628854696],[84.75544770291569,28.100889497162004],[84.75553086048221,28.101044729709567],[84.75595420697755,28.10143284206909],[84.75603248873303,28.101892726898573],[84.75602430012054,28.102353237699663],[84.75654005491126,28.10239781115282],[84.75866723036188,28.103841790558246],[84.75900979580258,28.103961699444845],[84.75952655125582,28.103967824822195],[84.76039487383575,28.103556763230586],[84.76161438764414,28.102805225364794],[84.76249139860406,28.101935967154002],[84.76262882307147,28.10147701887643],[84.76298132732842,28.101023697489694],[84.76337565953588,28.10064458470214],[84.76368046071293,28.10045784120012],[84.76402740138354,28.10030917093941],[84.7652377892358,28.100054154536462],[84.76558304268436,28.10002064333472],[84.76627086284896,28.10010704109092],[84.76678893017771,28.100036455697648],[84.76700813641648,28.09980951381895],[84.766934480474,28.09911931093059],[84.7668134957467,28.098657362914288],[84.76643685228447,28.098041058231882],[84.76627860230472,28.097272395459882],[84.76664198295147,28.096202830615375],[84.76661240570245,28.095437918192744],[84.76679853424056,28.094674005813545],[84.76706494428792,28.094216620254503],[84.76746065190133,28.093763047946233],[84.76776907849876,28.093382184750492],[84.76913276675775,28.09179240029797],[84.76918140987455,28.091756014829308],[84.77039654715543,28.090850994582667],[84.77178268634107,28.090369222629622],[84.77264632054911,28.090228928685573],[84.77459754411485,28.089409930620384],[84.77503176783064,28.089186300424508],[84.77607565442835,28.08854842194127],[84.77808202051104,28.087004648784653],[84.77878784202505,28.085980470442205],[84.7794019425141,28.085297704572238],[84.77993351163111,28.084387373360386],[84.78037048477675,28.084010260688473],[84.78077769425622,28.08278921303874],[84.78104141588442,28.08248756119385],[84.78169371957364,28.082073061724827],[84.78256135442554,28.08170244950377],[84.78390778982309,28.080952286708264],[84.78518525818595,28.079209394596393],[84.7856643734152,28.078870356335926],[84.78709527879917,28.078275300976763],[84.78757470605433,28.077897938751512],[84.78805482025929,28.077522826004788]]]}},{"type":"Feature","properties":{"province":"Gandaki Province","district":"Gorkha","municipality":"Aarughat Rural Municipality","ward":"10","wardNumber":10,"sourceMunicipality":"Aarughat","sourceType":"Gaunpalika"},"geometry":{"type":"Polygon","coordinates":[[[84.82870920562583,28.084870330472295],[84.82854670419154,28.084257401214924],[84.82817443576147,28.08333438137336],[84.82779754235041,28.082639303442484],[84.82726177261051,28.081141678577364],[84.82713659919398,28.080909986233806],[84.82624938900422,28.079865870041502],[84.82583154109433,28.079058196750445],[84.82566697777692,28.078596562008702],[84.8256320867338,28.078097978071696],[84.8254609604104,28.078020018663608],[84.82529583395417,28.077558320855722],[84.82517797445611,28.076868431463996],[84.82501284750877,28.076406796390415],[84.82493819209648,28.075716656170126],[84.82469284660746,28.07491017048996],[84.82393649595696,28.073752395218754],[84.82355503911383,28.073364282636117],[84.82308636316658,28.073053381117102],[84.82270321909387,28.07278036425553],[84.82219458952831,28.072316292548003],[84.82185371116485,28.072081287874017],[84.82147325435425,28.0716547881665],[84.82090142038983,28.072414264084603],[84.82037185139075,28.073211875670516],[84.8195010925668,28.073812867936326],[84.81871586468958,28.074454059124605],[84.81844064234092,28.07548480029662],[84.81813402957827,28.07582515211147],[84.81782985441352,28.075973696569662],[84.81705294086125,28.076118241746958],[84.81614754041506,28.07618457784836],[84.81601936814289,28.076144753409316],[84.81550105003359,28.076251662334904],[84.81511359344911,28.07624716247898],[84.81446947748219,28.07612462855688],[84.81305613568668,28.075647806461365],[84.81241177007098,28.075563596901016],[84.81193840558105,28.075557409611726],[84.81168143459844,28.07547763632152],[84.8107870354202,28.074893905830038],[84.81053006473488,28.07481425852873],[84.81014598231911,28.074579503876073],[84.80917173926403,28.073610285027584],[84.80853299924932,28.073180723685624],[84.80813954167424,28.073559961534905],[84.80796178914993,28.073863426532437],[84.80726334393492,28.074467856838094],[84.80626478720222,28.0749905768926],[84.80505102481219,28.075512296982627],[84.80461555145607,28.07581276221763],[84.80369840068656,28.076605811079002],[84.80334714617923,28.077020809260507],[84.80291073491131,28.077361973479075],[84.8025645439717,28.077510706532415],[84.80204553888139,28.077617551784076],[84.80152897119073,28.077611552077048],[84.80066477436743,28.07783099495066],[84.8000582368758,28.078053499896708],[84.79971167107045,28.07816384658105],[84.79867909838325,28.078151847008698],[84.79729495858975,28.078516459300996],[84.79660651489714,28.0785092097376],[84.79522637514934,28.078643629204638],[84.79436555409995,28.078632816367133],[84.79384861157081,28.07866514076112],[84.79383748542382,28.079315206729387],[84.79408801856172,28.07981704014288],[84.7945103665336,28.08032012446455],[84.79515041926591,28.08067072524583],[84.79536206167094,28.08090423018949],[84.79540195271038,28.081057462752785],[84.7953492483737,28.081669392301635],[84.79551156211892,28.08228457231492],[84.79542027865976,28.082587536824608],[84.79484350670765,28.08365385225155],[84.79487870925318,28.084111799287598],[84.79529936957574,28.08472997958802],[84.79529499353376,28.08499862083442],[84.79503227223,28.08526194925581],[84.79489834900626,28.085567352048198],[84.7951438812343,28.08633557706021],[84.79586115288896,28.087225085069313],[84.7961553277946,28.087688283012533],[84.79631764126421,28.088303525443376],[84.79635284348987,28.088761410299735],[84.79625412336762,28.089527072402607],[84.79612026186506,28.089830287600737],[84.79611282384636,28.09029073516896],[84.79638136856462,28.091753913967743],[84.79650723156024,28.092439239922133],[84.79675663901959,28.092938822892172],[84.79726758113814,28.093290174593875],[84.79816679307193,28.09356931557101],[84.79894320733776,28.09350385553228],[84.79941832169337,28.093395009823265],[84.80006650091117,28.0932874128838],[84.80058050585278,28.09344689598936],[84.80173275086057,28.094035939139065],[84.80327013987882,28.094744579387847],[84.80370361400522,28.09459534586298],[84.80435085451519,28.094528386811195],[84.80538824016362,28.09431013070068],[84.80590693369348,28.094162648191496],[84.80642462605257,28.094132512689537],[84.80758718538523,28.094145949473763],[84.80810725294498,28.093921694288653],[84.80953447127558,28.093594967748274],[84.81000933528118,28.09352450801108],[84.8108742196931,28.093305002000445],[84.81126267692729,28.09327111574171],[84.81165319710661,28.09308374694287],[84.81282144378606,28.092754082719143],[84.81355952967158,28.092417981880807],[84.81438877345289,28.09177654028506],[84.8144051541848,28.091756096628057],[84.8150925935332,28.09086733261863],[84.81531467449489,28.090448521426794],[84.8168434259218,28.089089740869813],[84.81801154782052,28.088760077223416],[84.81865741371452,28.088767514619295],[84.81942976500407,28.088929871596797],[84.81981728392316,28.08893430944271],[84.82059563593144,28.088715241364266],[84.82150809845758,28.08822903313803],[84.82211701150145,28.087814659131517],[84.82303078661917,28.087251740031142],[84.82407211074282,28.086728644466433],[84.82507473026797,28.085975544674557],[84.82564394042154,28.085369551524185],[84.82603570974884,28.08510766079218],[84.82655371501944,28.08503682535395],[84.82745392697382,28.085277392696298],[84.82797186944407,28.085206494510565],[84.82870920562583,28.084870330472295]]]}},{"type":"Feature","properties":{"province":"Gandaki Province","district":"Gorkha","municipality":"Aarughat Rural Municipality","ward":"9","wardNumber":9,"sourceMunicipality":"Aarughat","sourceType":"Gaunpalika"},"geometry":{"type":"Polygon","coordinates":[[[84.82147325435425,28.0716547881665],[84.82121965884487,28.071347136391037],[84.82113706448683,28.07111513100347],[84.82094461082606,28.069735101227444],[84.82099687729557,28.069161557902923],[84.82122089540151,28.06859145213077],[84.82126972446714,28.06824810107485],[84.82140364759861,28.067942635316296],[84.82154400969742,28.067255683091915],[84.82155694750904,28.066452197222606],[84.82139919696088,28.06553230270632],[84.82119142936709,28.06506866702155],[84.82094152201846,28.064569146469402],[84.82034929715343,28.063911393117127],[84.8189884100992,28.062861089829976],[84.81877908056182,28.06251473870339],[84.81866859620352,28.06136440068212],[84.81863226761303,28.060942590048178],[84.81879442998398,28.056238269575235],[84.8186702572642,28.055891480810104],[84.81837670789837,28.055428283025083],[84.81799531463218,28.055042420936438],[84.81748280902718,28.054806228853007],[84.81718488460675,28.05460942184031],[84.8166727551819,28.054337094405422],[84.81530492950422,28.05370653940447],[84.81428329551592,28.053006212358472],[84.81330823986613,28.052075442700726],[84.81267493795282,28.051341166724388],[84.81241971683025,28.05114636061888],[84.81195716553654,28.0504517209813],[84.81179597869232,28.050078049419948],[84.81170863352732,28.04987542737134],[84.81154019455577,28.049641734484585],[84.81112997302534,28.048373487896637],[84.81096159637639,28.04814204620177],[84.81062653142442,28.047564002087153],[84.81031604310341,28.048134546262016],[84.80977916181484,28.0493903549039],[84.80919601022526,28.05007762138184],[84.80881393193933,28.050526754700172],[84.80854264758096,28.051327302954583],[84.80853127163763,28.052017943468073],[84.80848563042758,28.05220781223139],[84.80856753697131,28.052437504142],[84.80881638289016,28.05305443453631],[84.80892805482175,28.054125811675313],[84.80881683338923,28.05565663683783],[84.80893587988933,28.056269816682075],[84.80897314642648,28.056653241902502],[84.80926763296047,28.057078052468075],[84.81028532915835,28.05800863471834],[84.81036648640419,28.058315099880765],[84.81035911082368,28.05877554716693],[84.81022262410997,28.05923224464654],[84.81011940386276,28.06030262140065],[84.81009665175128,28.061681715028072],[84.8101631194793,28.06290682415825],[84.80993816424017,28.06351525401195],[84.80971808368038,28.063780583087865],[84.80953626836191,28.064391013121508],[84.80957422101899,28.064697727561068],[84.80991103638989,28.065160675184124],[84.81011924200578,28.065624373018807],[84.81011399102616,28.06592908777723],[84.81014888191143,28.066427609054514],[84.80995975361412,28.06749623616024],[84.80978000133597,28.06795318336837],[84.80925337035892,28.068558925478463],[84.80915877524804,28.06909433316391],[84.80919804153477,28.069324338244193],[84.8094074333255,28.06967062681168],[84.80944332414815,28.07013082478731],[84.809112271459,28.07196305122974],[84.80875539229793,28.072725776885257],[84.80853299924932,28.073180723685624],[84.80917173926403,28.073610285027584],[84.81014598231911,28.074579503876073],[84.81053006473488,28.07481425852873],[84.8107870354202,28.074893905830038],[84.81168143459844,28.07547763632152],[84.81193840558105,28.075557409611726],[84.81241177007098,28.075563596901016],[84.81305613568668,28.075647806461365],[84.81446947748219,28.07612462855688],[84.81511359344911,28.07624716247898],[84.81550105003359,28.076251662334904],[84.81601936814289,28.076144753409316],[84.81614754041506,28.07618457784836],[84.81705294086125,28.076118241746958],[84.81782985441352,28.075973696569662],[84.81813402957827,28.07582515211147],[84.81844064234092,28.07548480029662],[84.81871586468958,28.074454059124605],[84.8195010925668,28.073812867936326],[84.82037185139075,28.073211875670516],[84.82090142038983,28.072414264084603],[84.82147325435425,28.0716547881665]]]}}]}