{"type":"FeatureCollection","features":[{"type":"Feature","properties":{"province":"Gandaki Province","district":"Syangja","municipality":"Phedikhola Rural Municipality","ward":"4","wardNumber":4,"sourceMunicipality":"Phedikhola","sourceType":"Gaunpalika"},"geometry":{"type":"Polygon","coordinates":[[[83.86024348014968,28.203876489960177],[83.86037152743025,28.203915001389028],[83.86088059273041,28.204283360214035],[83.86122084510754,28.204457474479767],[83.86132607108314,28.204593014277265],[83.8615383380645,28.204746684702418],[83.86170715135327,28.20494099105804],[83.86238446619879,28.205519411546824],[83.8624261070654,28.205616502966144],[83.86261736542656,28.20573178709961],[83.86281006239925,28.205734225243745],[83.86332581781664,28.205603874416166],[83.86377798725633,28.20541694507927],[83.8640999823107,28.20538118476968],[83.86435664058834,28.20538374820801],[83.8645486504325,28.20544257837037],[83.86493154337829,28.205637010482278],[83.86512386465455,28.205677835007503],[83.86576729295807,28.20562432001644],[83.866090100938,28.205514037273357],[83.86706008907623,28.20502520678356],[83.86744742145444,28.20489466889276],[83.86802726337672,28.204784636972974],[83.86847693151023,28.204787262718508],[83.86890352800785,28.204925366905826],[83.86915674819281,28.205196445954183],[83.86934731913071,28.20537043535897],[83.86979348559245,28.205621321949497],[83.87017537820846,28.20589252661276],[83.87043134866683,28.20597180025577],[83.87088132951341,28.20595642049174],[83.87159053209167,28.205771992017127],[83.87217168672709,28.205564805950477],[83.87243040897155,28.205434205348737],[83.87262379373844,28.205377939374735],[83.87274952801995,28.20538031489569],[83.87276203283174,28.20538031458529],[83.87296110741578,28.205378189713482],[83.87374515054913,28.20514649702754],[83.87395579157555,28.20502708689536],[83.87421876478004,28.20480389624048],[83.8742273932396,28.204781327191988],[83.87467631189436,28.204066242384403],[83.87479985733748,28.203838425587],[83.87523783407623,28.2032091161263],[83.87544653816497,28.20281887636065],[83.8756975693089,28.202193880391846],[83.87583130781665,28.201399584844626],[83.87594678803816,28.201205589793833],[83.87612566774064,28.201020660812446],[83.87626428219077,28.200944013821946],[83.87665968024496,28.200777402348688],[83.87726365621145,28.200640237360147],[83.87814942457011,28.2005597765279],[83.87843822046314,28.20058484716056],[83.87854394742561,28.20060754145692],[83.87896135322916,28.200671059765074],[83.87909727867799,28.200716323303656],[83.8793776955912,28.20087230661433],[83.87988763630896,28.201073616612536],[83.88017724504485,28.20100390807159],[83.88078459666288,28.20067262346894],[83.88092408623305,28.200632111896347],[83.88167442963346,28.200628236653404],[83.88197110224469,28.20076846491597],[83.88240851601145,28.200924511604157],[83.88254406677032,28.201008160547246],[83.88275608297386,28.201107628157132],[83.8829277101488,28.201112316932832],[83.88362234456883,28.20075402473943],[83.8837083767554,28.20074508397523],[83.88392033135888,28.200844551540797],[83.88404669128887,28.20093270256997],[83.88412015550306,28.200993657384718],[83.88420449946514,28.20106155277597],[83.88443002113235,28.20130993803091],[83.88450323608683,28.201377708460445],[83.88493914918787,28.201696302243324],[83.88505469229496,28.20180470913881],[83.88532016639792,28.201904238466906],[83.88552099122104,28.202024023316042],[83.88573363316341,28.202091918226984],[83.88611796374327,28.202155437282887],[83.88635198936309,28.20223008436148],[83.8865019200224,28.202232460622913],[83.88684398546432,28.202277848738966],[83.88697234576459,28.202280225051936],[83.88717548407134,28.202282662609715],[83.88754237089209,28.20229873032578],[83.88774294618217,28.20233499143771],[83.88792545178033,28.202328426770435],[83.88809645341765,28.202342056070684],[83.88823537985542,28.202362499887506],[83.88842695212509,28.20241232706902],[83.88865972665529,28.20245765305748],[83.88874507065928,28.20247803375632],[83.88950010302042,28.202808130957827],[83.88990981776554,28.2029686781697],[83.89047121575213,28.202980494672715],[83.8906991135127,28.202879027711862],[83.89085467121058,28.202732484668278],[83.89109338566848,28.20255436999866],[83.8917830817042,28.201934187803975],[83.89187180199218,28.2018214670061],[83.89227276451247,28.201198847568083],[83.89251473019857,28.200955275508466],[83.89266766240365,28.200824487357973],[83.8929723390015,28.200639621121102],[83.89305230624483,28.20062386644417],[83.89318766936942,28.200605923289096],[83.89327332705967,28.200605986024364],[83.89361795589957,28.20053621609426],[83.89421142774552,28.200381045265644],[83.89481509074,28.200155791760743],[83.89565477962984,28.19965083120038],[83.89584972780035,28.199567495046978],[83.89595201637844,28.199538236078748],[83.89599690779696,28.199517980268222],[83.89634253673535,28.199409886360908],[83.89757093439515,28.198611901754816],[83.89791443757068,28.19841346863544],[83.89799127924795,28.19834807451386],[83.89824606209264,28.19800735002154],[83.89835503986346,28.197878874318196],[83.89844401088253,28.19776384093294],[83.89836129253301,28.19766674942136],[83.8983189641879,28.197646368963998],[83.89813026856562,28.197470192022916],[83.8978172774844,28.19712015130187],[83.89738042607993,28.196682022667822],[83.89729420695717,28.1965893705419],[83.89723118334588,28.196535167012314],[83.89636654870165,28.195541437088245],[83.89599084604026,28.195168765137932],[83.8956841065569,28.194918003514157],[83.89527326504887,28.19462429174501],[83.89503148813769,28.194427796832148],[83.89490675382099,28.194271938166985],[83.8948480448534,28.194041682577858],[83.89485267149026,28.193852127077868],[83.89483303910036,28.193775354695855],[83.89475107122556,28.19361955873232],[83.89462533637304,28.19350208642808],[83.89432522497975,28.19332584722516],[83.8941352161856,28.19320831232657],[83.89393101447615,28.192953113107496],[83.89369086266989,28.19270016306837],[83.89368198493834,28.19262345285623],[83.8937293153706,28.19243389733131],[83.8938243508183,28.192273725815603],[83.89393357924237,28.19197813886709],[83.89393520514847,28.19190374144661],[83.89390600596299,28.191786207151242],[83.89385417493621,28.19170949683532],[83.89362321364182,28.19151518961696],[83.89353855700159,28.191465488145752],[83.89345321281822,28.19144285615965],[83.89332653957854,28.19136602086517],[83.89325338815662,28.191296000849178],[83.89321237257224,28.191219228127952],[83.89314209620619,28.191131139164074],[83.89309951793487,28.191006977932012],[83.89310220611351,28.19089188188784],[83.89314884928959,28.190740712488758],[83.89319349088696,28.190664002500395],[83.89347809683447,28.19042274403958],[83.89355525083953,28.190334781086065],[83.89365535078306,28.190194927101402],[83.89364822378782,28.190043694933117],[83.89360720854017,28.189964671668953],[83.89345133778808,28.189768176919547],[83.89307538449063,28.18936168173015],[83.89305731573305,28.189221703412965],[83.89310333279772,28.1890954161302],[83.89313678290925,28.18903896244366],[83.89356956980946,28.188721056551476],[83.89368436323109,28.188560884734393],[83.89369780587197,28.188448038435162],[83.89367979883528,28.188303621222587],[83.89363453208665,28.18805529863862],[83.89358295091444,28.187960457696306],[83.89348841507332,28.187655680556908],[83.89334073598702,28.187256126107116],[83.89334980175175,28.18679792871632],[83.89327339828125,28.186414191173125],[83.8931242178043,28.186028140074427],[83.89300848680756,28.185763999742996],[83.89284498914478,28.185610392504074],[83.89273738617428,28.185540371929292],[83.8926102135447,28.1853890140357],[83.8926083381573,28.185355192367158],[83.89248735495136,28.185336999375796],[83.8922900940711,28.185503922787305],[83.89174313909271,28.18579463292572],[83.89124414046532,28.185967995961654],[83.89036612467673,28.186174994262668],[83.89007657875999,28.186296592499765],[83.88869443729823,28.187426298741148],[83.88794209329149,28.18762654470452],[83.88744597019694,28.187648737959588],[83.88694678398278,28.18750388332142],[83.88673708091646,28.18738409767624],[83.8864816099921,28.186830934821568],[83.88624871145983,28.18668626770001],[83.88601118453906,28.186681578085075],[83.88487688564202,28.187244868485546],[83.88406220547081,28.187492440725695],[83.88099262168726,28.187738136246423],[83.88050894115123,28.187697061199092],[83.87964874386441,28.187527073363125],[83.87902438625005,28.18713833378237],[83.87870595558206,28.186862752231164],[83.87823271566374,28.18663887376396],[83.87721927524102,28.18600381218298],[83.87580099619159,28.185433768207066],[83.8748945325809,28.185387817237952],[83.8737855559014,28.18503471216858],[83.87276061016428,28.18472912177071],[83.87274979366558,28.184726871174174],[83.87268576966281,28.18471099133745],[83.871981318931,28.184552382406157],[83.87166176272142,28.1844347224229],[83.87102127345945,28.184296431427548],[83.87018921259512,28.18405867318259],[83.86993292884328,28.184017786084848],[83.8696116213673,28.1840355413925],[83.86922672810553,28.18399459118686],[83.86877712222794,28.183989652510828],[83.86780694747347,28.18446041502561],[83.86754753748347,28.184647469756282],[83.8670961818072,28.184778007871703],[83.8668804754355,28.184890540944387],[83.86661962841855,28.18519506769942],[83.86651333825641,28.185118232527273],[83.86606935977359,28.184711550067238],[83.86577637599629,28.18419439782595],[83.86550264917359,28.183846608371795],[83.86544081361635,28.183674995554856],[83.86544456573667,28.183388348863776],[83.86557999128611,28.182871633938923],[83.86554116434078,28.18258498761645],[83.86527131416278,28.181950488705862],[83.86527375265058,28.181776749607028],[83.86536322393455,28.181490165915406],[83.86553835239452,28.181205957094015],[83.86564858146826,28.180975889689147],[83.86575693387024,28.180863106940226],[83.866015656016,28.18073019319532],[83.86696163402632,28.180455737456096],[83.86722279463928,28.18013101745523],[83.86716058395112,28.17997747245583],[83.8669061143544,28.17980117047461],[83.86648133075128,28.179547970536017],[83.86586360018813,28.179310400351476],[83.8656947251776,28.179136412050937],[83.86561150629532,28.17896254868306],[83.86563601526427,28.178732418294597],[83.86576775299861,28.178484283201907],[83.86594156738492,28.1783129200581],[83.8661359525326,28.178182194706835],[83.86626531344109,28.17810560912467],[83.86678094355587,28.17797744710816],[83.86729482372016,28.17798469968921],[83.86844956687426,28.17807378915742],[83.8689645094973,28.177983950645327],[83.86941411501563,28.17799120249691],[83.87025242809636,28.17775050720391],[83.87083202069407,28.17762240752731],[83.87098307653271,28.17754582314128],[83.87111306275754,28.17743303985919],[83.87118021355445,28.177202909923533],[83.87111800245513,28.17706968299435],[83.8710543536603,28.17701097807096],[83.87088372753027,28.176972466889584],[83.87069321915172,28.176796227523475],[83.87043837401993,28.176660562571346],[83.87022792000445,28.176389545532576],[83.87004228865676,28.175868016710897],[83.87004541503896,28.175637761635777],[83.87009193298357,28.1753511778145],[83.87018390471506,28.17511429511336],[83.8702474291029,28.174951873125192],[83.87025261817541,28.17460652161509],[83.87036822450484,28.174035665994158],[83.87056879980666,28.173521264733346],[83.87051484316866,28.172832812885545],[83.87060606469466,28.17243338287988],[83.87085034429609,28.171808449874906],[83.87096007254851,28.171637024345127],[83.87107092677472,28.17135275294398],[83.87131214258812,28.170955761386786],[83.87142387146557,28.17061503636424],[83.87186078547491,28.16999254136783],[83.87221623177987,28.169081023489255],[83.8723249591534,28.168950235834696],[83.87226237370116,28.168835076454574],[83.87235284493224,28.16849216347516],[83.87235609765183,28.16677678420306],[83.8727311765227,28.16593303687902],[83.87274968319412,28.16591040548881],[83.87307167816601,28.16552935614606],[83.87324049187467,28.16518869305148],[83.87380001359396,28.164491801803383],[83.8744005510551,28.1635602152022],[83.87460381567459,28.16285619656417],[83.8750628626415,28.161685227407613],[83.87515483534864,28.16120233588074],[83.87516171298076,28.160513946253086],[83.87522136055398,28.16041472879153],[83.87510587942451,28.16034689716645],[83.8748704799926,28.160181910616057],[83.87447301845906,28.15981142641095],[83.87431020798005,28.159608178949036],[83.87413701878434,28.159544785855886],[83.87392387655507,28.159513026318233],[83.87383890746223,28.159481329220114],[83.87366996881029,28.15939317854391],[83.87346414239263,28.159248510186597],[83.87329626770126,28.159061080125156],[83.87274993873822,28.158843891111477],[83.87267903670927,28.15878062290276],[83.87250878640629,28.158737610029966],[83.87235979289575,28.158735171573728],[83.87213170775375,28.15859506790504],[83.87155736889235,28.15835756002019],[83.8713651095041,28.158334803026104],[83.8707219311227,28.15844027140985],[83.87052967218233,28.15843783325704],[83.87027451409338,28.15832023590355],[83.8700843180572,28.158164314695203],[83.8699800926944,28.157972383493178],[83.86996740012104,28.157360766105228],[83.86988730854125,28.1569792161781],[83.86980415209673,28.156825671288836],[83.86961401953434,28.156651745101918],[83.86952904950031,28.156610983109736],[83.86942419814805,28.15645743753181],[83.86926195038255,28.155845632794897],[83.86915672392546,28.155728161272386],[83.86896515253768,28.155649012329857],[83.86843276635929,28.155490528567825],[83.86792032551332,28.155424570643532],[83.86753724445957,28.155304597987996],[83.86738968993868,28.15515099036607],[83.86737005773485,28.15501782624626],[83.8674589030526,28.154790009308083],[83.86780559559182,28.15449010916802],[83.86784929886065,28.154413398932007],[83.86783041705593,28.154259916453373],[83.8676818622773,28.154162700125948],[83.86731866334951,28.154139818351798],[83.86654687511259,28.15426091557076],[83.86584117481192,28.154251225165087],[83.86552236823083,28.154092928398047],[83.86514172570364,28.153801404819315],[83.86475827053033,28.153681432149842],[83.86450136175459,28.153696998452148],[83.86431016624586,28.153617788289957],[83.8641000875485,28.15334902112866],[83.86395603370912,28.15294709053259],[83.86376621369779,28.152770850748322],[83.8633835707295,28.152614804897055],[83.86308952349809,28.15222856650934],[83.86287663147567,28.152167423139794],[83.86236356499244,28.15214204055313],[83.86210834483788,28.152042510791187],[83.86196153975428,28.151830198527573],[83.86194165758448,28.15173542092892],[83.86209784195346,28.15127966151239],[83.86208108579196,28.15097494737689],[83.86187238312633,28.15060909007955],[83.86192165131546,28.15015101736125],[83.86177766056525,28.14976940531936],[83.86180210773252,28.149539213196718],[83.8620205638829,28.14923924978716],[83.86210597188797,28.148880456613377],[83.86208977772664,28.148875955506856],[83.86166124287078,28.148947726691862],[83.8610617692596,28.148976484086376],[83.86088945498712,28.14906888610179],[83.86047986419273,28.149291889218084],[83.86079685696599,28.149544963807177],[83.86083637199708,28.14977296812921],[83.86072351686097,28.150172336049945],[83.8603543787554,28.150566951123558],[83.86022089069287,28.15090986438572],[83.86022995620225,28.151767554216253],[83.86025865360853,28.15274033973843],[83.86031598702247,28.153198536727714],[83.86048061082455,28.15365917224],[83.86064773530465,28.153945944207354],[83.86072982827629,28.15417626245435],[83.86094697093283,28.15543807031113],[83.86113535322421,28.155706900022004],[83.86138982320897,28.15586513388811],[83.86164504338757,28.155962412491213],[83.86198723340974,28.155967289546783],[83.86224483006438,28.15591564952503],[83.8628428663107,28.155981668772956],[83.86314172722551,28.15602249362716],[83.86382929686552,28.155804304981675],[83.86426027005353,28.1555813021162],[83.86460421122108,28.155473333595864],[83.86486112015098,28.155457766212383],[83.86532998239028,28.15557786451601],[83.86567279821385,28.15554429212965],[83.86622963070234,28.155495216007193],[83.86631522557643,28.155477210758868],[83.86640050767997,28.15549759183021],[83.86659107834092,28.155635444672335],[83.8666962429022,28.155768734095737],[83.86667217065575,28.155940221478716],[83.86647572202448,28.15622443051789],[83.86632472867912,28.156316832605754],[83.86606363074455,28.156618983338326],[83.86584311023054,28.157072428921218],[83.86581416181289,28.157587017940795],[83.86560764591395,28.15855730252306],[83.86545558948946,28.158726414505605],[83.86498228768711,28.158908780582856],[83.86469955682077,28.159228999524693],[83.86465235130792,28.159533588555693],[83.86475513948582,28.159822673433514],[83.86492188897128,28.16012976413818],[83.86521556091918,28.160534133108975],[83.86544489628041,28.160938314703763],[83.86569867873527,28.16115069008994],[83.86588749831566,28.16140138820041],[83.8662678273837,28.161731235306767],[83.86681909645382,28.16208158927117],[83.8674997250802,28.162359858959103],[83.86784197762223,28.162344416843073],[83.86801460513215,28.162233947181118],[83.8682729518915,28.1621236017092],[83.86844457826163,28.16208765407702],[83.86896120818429,28.161864713908113],[83.8693038362477,28.161851522754752],[83.8699046861995,28.161727924287092],[83.87076500771337,28.161396952964143],[83.87128188813911,28.16115594481596],[83.87153848391186,28.161158445749464],[83.87196808199842,28.161032408840338],[83.87222499095607,28.161016842133805],[83.87265114953954,28.16113687711343],[83.87274974945356,28.1611708245006],[83.87277713428188,28.16117989003821],[83.87309612844626,28.161437466111554],[83.87349133777798,28.161900539648514],[83.87367134258594,28.162329478596472],[83.87342675088037,28.162981545235525],[83.8731245755484,28.163297262443855],[83.87283340367834,28.163452683281147],[83.8727496848439,28.16346393599498],[83.87265852562697,28.163477377446146],[83.87255148542792,28.163614918089433],[83.87211738595201,28.16404798248318],[83.87207224397241,28.1641990888646],[83.8720698674983,28.164370577052466],[83.87214889748054,28.164828837117707],[83.8723332152059,28.1654045066109],[83.87228538520822,28.16574529392582],[83.87198027056046,28.16614222253323],[83.87163314023287,28.16648044666175],[83.87148214705584,28.166572848856926],[83.87115671187817,28.16687274937859],[83.87102597560842,28.167044174712846],[83.87044257020956,28.167454294415723],[83.87022761475973,28.167528628683012],[83.86997064374057,28.167541945393815],[83.8695235391187,28.167383523896735],[83.86913933369111,28.167340322573864],[83.86901066011795,28.167358265563934],[83.86888273740655,28.167317503447194],[83.86856149225532,28.167351076089616],[83.86811226238773,28.167343823694143],[83.8676640945103,28.167262173759184],[83.86734353773235,28.167237041216055],[83.86689393187497,28.167270488536555],[83.86612383177916,28.1672584221826],[83.86548446892725,28.16709756183041],[83.865038364116,28.166880497714338],[83.86465484620494,28.166760524808648],[83.8642707028215,28.166697006160142],[83.86401548249196,28.166599602529363],[83.8636306515823,28.16655633910861],[83.86324475711768,28.166589848585716],[83.86266516523415,28.16669762989749],[83.8620841985035,28.166900189445695],[83.8616955535317,28.167125442487894],[83.86098422463382,28.167442973389825],[83.86065947856338,28.16768641889485],[83.86057207028747,28.167801453233736],[83.86037255790882,28.168257149125722],[83.86014891143229,28.16888664707012],[83.85975670244547,28.16933990475828],[83.85949629184165,28.169565283337317],[83.85908763982316,28.169695821434264],[83.8586374090389,28.169747273282383],[83.85799141688037,28.170006161807912],[83.85775332816814,28.1701774620027],[83.85751392613705,28.170423221554817],[83.85716541997829,28.170820087622097],[83.85677671285066,28.171045340897827],[83.85643202087788,28.171193884302518],[83.85623769830154,28.171286286239802],[83.85560883809467,28.17181387902706],[83.85519774699026,28.172115779268037],[83.85487437617529,28.172264510637355],[83.85461496584115,28.17243343488913],[83.85300311396854,28.172835739899732],[83.8527443918637,28.17296634065066],[83.85242139617529,28.173076622250292],[83.85152124729909,28.173141141212856],[83.85119893985436,28.17323329266692],[83.85093921772712,28.173402279994786],[83.85050955627679,28.173512437229725],[83.85031623419039,28.173548321752786],[83.84973870612939,28.173522876436902],[83.84928741222281,28.17363072058241],[83.84896648058053,28.173628157646966],[83.848001306822,28.173730874531476],[83.84767862392229,28.173841156089473],[83.84735387734517,28.174086790548312],[83.84713567059072,28.17435061800021],[83.84709065386515,28.174485970433512],[83.84685006395239,28.174826507955725],[83.84659621799454,28.175115092102768],[83.84650155817809,28.175223374477323],[83.84598161333963,28.175678695236],[83.84578578950956,28.175906386809963],[83.84563116949468,28.17624929975117],[83.84550043319497,28.1764206624365],[83.84543397027632,28.176592150685696],[83.84536888387743,28.176648479920054],[83.84511016169249,28.176779080570505],[83.84470219657861,28.176850850813683],[83.84386382037071,28.177109488611148],[83.84347467536561,28.177373190939768],[83.8433225553518,28.177544491292966],[83.84325571782072,28.177736234770464],[83.84314517625528,28.178002438623015],[83.8429493532929,28.17823019284278],[83.84260284858743,28.178514150644954],[83.8424070245601,28.178741904967946],[83.84191871680945,28.180002962773653],[83.84174533929821,28.180154006532124],[83.84146592246488,28.18022590266221],[83.8412714740505,28.180358816357803],[83.84118406655276,28.180491855854967],[83.84107139884532,28.180893535833412],[83.8409619202805,28.181064899405154],[83.84076716007364,28.181215880385462],[83.84055282956055,28.1812314476373],[83.84048924386322,28.18119299892936],[83.8400407014933,28.181111224829877],[83.83971870610318,28.181165052293558],[83.83954595378417,28.181277710153342],[83.83948061654628,28.18135435797977],[83.83936969976673,28.18164087990859],[83.83926022180447,28.181812242091976],[83.83903763789628,28.182441677156497],[83.8388400638662,28.182784527691403],[83.83872920909747,28.183071049104775],[83.83844516479704,28.183470166744204],[83.83764042631572,28.184381058544098],[83.83757471375019,28.18449609236549],[83.83722739637274,28.18483650455274],[83.83703263630409,28.184987486423097],[83.83653788861275,28.18515390925929],[83.83635907076109,28.185688629266327],[83.83648236702254,28.18607468054961],[83.83673577431011,28.186327754545058],[83.8370506409669,28.186790828739287],[83.83706764684688,28.187097793313313],[83.83702181708834,28.187327923798982],[83.83709890785974,28.187941917005347],[83.83707546106677,28.18809539922755],[83.83696310711206,28.188476698900395],[83.8368312444038,28.18870670379971],[83.83671888995201,28.18908800323339],[83.83684218513667,28.189474116308816],[83.83698899054318,28.18968642906747],[83.83698648914869,28.189878297914724],[83.83681298704913,28.190049598026295],[83.83653294453623,28.190159880451525],[83.83646785746261,28.190216209820274],[83.83637901126181,28.190446339834782],[83.83641877613285,28.19067659437093],[83.83656445544229,28.190985935823246],[83.83664586037791,28.191292963455258],[83.83664373483857,28.191446446247426],[83.83657620864828,28.19167657616565],[83.8364442843732,28.191924711141557],[83.83627046968108,28.192114079386457],[83.83618412470798,28.19215008979962],[83.83585881470111,28.192454366570896],[83.83570775906924,28.192549019086258],[83.83553606922672,28.19258490453251],[83.83510453318304,28.192810095915814],[83.83488951511002,28.19288430464736],[83.834757966066,28.193091803113447],[83.83449811847939,28.193301427083522],[83.83423720791015,28.193585447816712],[83.83384368578065,28.194174057960314],[83.83370819716538,28.194690771715774],[83.83355101299526,28.195207424054967],[83.83331211023386,28.195453120828912],[83.83266443070364,28.195849549242126],[83.83253431981483,28.195962270123452],[83.83238001164267,28.196266733915493],[83.83237682209023,28.196496988954106],[83.83249868026151,28.196977818534524],[83.83272538929779,28.197632635458685],[83.83272320081964,28.19778618115104],[83.8322972895676,28.199162334797226],[83.83213572833785,28.200004019247256],[83.83215279747333,28.200310984788054],[83.83231660793663,28.200850581230096],[83.83244171747062,28.20108321203091],[83.8325006767085,28.20146694939925],[83.83247397884996,28.2018506248064],[83.83209958799215,28.202612974054187],[83.83198717035921,28.202994273179794],[83.8319839818216,28.20322446569083],[83.83216373511239,28.20414779977096],[83.83215729438011,28.204608247836408],[83.83200117329574,28.205066194459487],[83.83123282236765,28.20643747177704],[83.83116417136387,28.206744374315644],[83.8311598569809,28.20705127662132],[83.83125933072209,28.20760887820941],[83.83129772019291,28.207915906474216],[83.83137012140021,28.20887518823757],[83.83153286904181,28.209491494069578],[83.83148266210924,28.210028589904287],[83.83128458737342,28.21040982630528],[83.83117579716739,28.210542802909792],[83.83106769392786,28.210637518513455],[83.830828479446,28.210844828988083],[83.83019749241906,28.211509898774036],[83.83008720171937,28.21173996603516],[83.83008401282261,28.2119701590994],[83.83014728606072,28.212046931647194],[83.83018811395316,28.21220047640132],[83.83044008265031,28.21256864711652],[83.83062771449283,28.212952572668947],[83.83068779890407,28.213259601191353],[83.83093901748224,28.213704544463663],[83.83106781559813,28.21404320611144],[83.83129046067559,28.21462806592252],[83.83200285066245,28.21576871366951],[83.83208525602218,28.215998968826558],[83.83208206715692,28.21622916180797],[83.83179545952922,28.216793077626928],[83.8315104774769,28.217352491688924],[83.83109719728823,28.21786432930633],[83.83106756146725,28.217900401765466],[83.83079214544237,28.218243065221944],[83.83059663499229,28.21843243320048],[83.83037748977115,28.218813544513775],[83.83028783076277,28.21911819676849],[83.83026244692496,28.21942509977013],[83.83017316226025,28.219729689183858],[83.83004155049672,28.219957443235977],[83.82965115453352,28.220300043571363],[83.82928101569668,28.220717040677936],[83.82899572133923,28.22124938423933],[83.82888474159031,28.22155622456433],[83.82857856467184,28.222011732748328],[83.82833922416533,28.222277748862584],[83.82855211642467,28.222413476570427],[83.8291315203378,28.222416414832814],[83.82951691429086,28.222477808254578],[83.82983747170739,28.222575274685774],[83.82998852800489,28.222519070540127],[83.83003192005138,28.22246267916125],[83.83055067651667,28.22215859043209],[83.83106755766907,28.221992229384355],[83.83113226943041,28.221971973086976],[83.83151803813507,28.221938589133572],[83.8317331810303,28.221864380025412],[83.83242662874135,28.22121975380613],[83.83294400939964,28.220956301086595],[83.83333046673029,28.22088453107087],[83.83390893298672,28.220869464535742],[83.83422924065357,28.220969118670194],[83.83448452265964,28.221104908627627],[83.83474080679837,28.221163863553063],[83.83519097498076,28.221130542359443],[83.83602903873908,28.220908101980502],[83.83648095730872,28.220739365852943],[83.83706154995433,28.22057300482745],[83.83762157184105,28.22030961513872],[83.83775130749193,28.220196894867385],[83.83898783344969,28.218945715024063],[83.83924849399163,28.21864362687762],[83.839422059228,28.21847220180593],[83.83968196844364,28.21824469709318],[83.84031289264753,28.217428332841994],[83.84061550597545,28.217221022852147],[83.84087504162764,28.21699564414735],[83.84100915401308,28.21679264658705],[83.84102797304136,28.216765638846656],[83.84140767937629,28.215621802903055],[83.84156236201636,28.215278889735274],[83.84167502965808,28.21487952257499],[83.84176681424469,28.214421512896877],[83.84177000376141,28.21419125817995],[83.84181439465347,28.21407847539109],[83.8419108694325,28.213275114025468],[83.84215408611966,28.212742770641245],[83.84254298165808,28.212479130381418],[83.84295144689312,28.212366785088115],[83.84333684032123,28.212369411742586],[83.84417546645093,28.21212890382375],[83.84492699795136,28.212001054694756],[83.84509937475745,28.211926782909256],[83.84559887464084,28.211415007253784],[83.84584165288102,28.210900732147856],[83.84592881139372,28.21078794849732],[83.84612325838435,28.210655034325477],[83.84640267617546,28.21058082531657],[83.84659749926881,28.210429843476494],[83.84683783914693,28.210087055655915],[83.84686941363918,28.209342274252712],[83.84698108108427,28.20899936128904],[83.84694231717685,28.208712652268403],[83.8469003640064,28.20863587933495],[83.84683671501048,28.20859743089806],[83.84660500383362,28.20830828341264],[83.84641618318555,28.208019198327808],[83.84635634912765,28.207694102000602],[83.84655267242351,28.207446092413726],[83.84661738449718,28.207410081458683],[83.84713213946921,28.20733612256521],[83.84726081252124,28.207338560855685],[83.84764439250219,28.20747660173872],[83.84815802219418,28.207499733955196],[83.84848014226831,28.207443780093115],[83.84927894164392,28.206972830150413],[83.84956148531306,28.20667074180743],[83.84997282639519,28.20634839726017],[83.85016865029542,28.20612070534238],[83.85038554382132,28.2059132699314],[83.85073242391206,28.205608930045855],[83.85101359107679,28.20540161954985],[83.85123148590858,28.20513554169047],[83.85147001266917,28.20490785025116],[83.85159943555699,28.20485152122665],[83.85192361957985,28.204626204507566],[83.85231138960339,28.20447541085324],[83.85276462158036,28.204211833831984],[83.85289335717819,28.20419395333365],[83.85315176648167,28.204081295598947],[83.85399033055751,28.20384072513418],[83.85424873981962,28.20372813031757],[83.85466033172153,28.20340809911749],[83.85533495891544,28.20259167198171],[83.85585290333046,28.202307901604367],[83.85617352241772,28.202369169918036],[83.8565567279191,28.20252534051492],[83.85674798669238,28.202640624748334],[83.85734202107781,28.203047495078156],[83.85751058452786,28.20325980699736],[83.8578920390189,28.203569460772695],[83.85846787941998,28.20374607586875],[83.85891792175603,28.203712628331292],[83.85917389276533,28.203789651617512],[83.8594948876314,28.20381253335775],[83.85962287341815,28.20385104452168],[83.85987984391389,28.20385354534242],[83.86024348014968,28.203876489960177]]]}},{"type":"Feature","properties":{"province":"Gandaki Province","district":"Syangja","municipality":"Phedikhola Rural Municipality","ward":"2","wardNumber":2,"sourceMunicipality":"Phedikhola","sourceType":"Gaunpalika"},"geometry":{"type":"Polygon","coordinates":[[[83.8926083381573,28.185355192367158],[83.89260458695394,28.185294236879493],[83.89266198366934,28.18520627362176],[83.89272857070664,28.18511149502571],[83.89283792447173,28.18501909372712],[83.89309914666096,28.18485223197886],[83.8936187164258,28.184651798676203],[83.89388100140671,28.18443529735293],[83.89391513955356,28.18436083785582],[83.89377977684792,28.183746844828967],[83.89377089875104,28.18367013542688],[83.89376652190718,28.183584360037155],[83.89376020674109,28.183566292260085],[83.89373669831511,28.183498584267205],[83.8937223806572,28.18346244923262],[83.89370337340628,28.18337210995764],[83.893546690138,28.182758116656778],[83.89350823900752,28.18266784018009],[83.89345584355081,28.182525548869112],[83.89341482904904,28.182448838410256],[83.8933373622932,28.182202765997797],[83.89332698335137,28.182103424315954],[83.89330991473608,28.182010897187865],[83.89324964213148,28.18175807324018],[83.89321888143995,28.18125923857194],[83.89307001350772,28.180764843770717],[83.89245703505647,28.17952304063679],[83.89229972656356,28.179247584433757],[83.89224726952807,28.179164060460597],[83.8921452316117,28.178951810250183],[83.89210903076372,28.178847967064886],[83.89180760584182,28.17780497277654],[83.89165104786744,28.17741442073527],[83.89134337081701,28.176845441316264],[83.891344308484,28.176807054568503],[83.89124714720913,28.17662418867291],[83.89100493193736,28.176226759424154],[83.8907487741886,28.17574355479756],[83.89064773735166,28.175492980775278],[83.8905520140969,28.175395827156706],[83.89029216717616,28.175131562192878],[83.89027497257058,28.175115744471835],[83.88938807973055,28.174318322315855],[83.88931086382036,28.174221231217437],[83.88901787892182,28.17394790062977],[83.88877347512968,28.173541468374356],[83.88874071365794,28.173485014362797],[83.88865937110201,28.173311150932808],[83.88862879655537,28.17304257208713],[83.88866737423176,28.172636327859543],[83.88898361795457,28.17193468434678],[83.88901619292518,28.171501369559234],[83.88903851325504,28.17146298353085],[83.88906583607236,28.1712350409864],[83.88913780161501,28.170300703832492],[83.88923752661823,28.16991484130356],[83.88961172928309,28.16914098900464],[83.89010416341046,28.168308557195715],[83.89011141680469,28.168021972285082],[83.8900830313584,28.16777590001992],[83.8898998380771,28.167281504568184],[83.88984513013311,28.16721823637722],[83.88937933147893,28.166913209378283],[83.8891785691262,28.166800175398695],[83.88880818032548,28.16662837546663],[83.88854183106754,28.166485957605182],[83.8883527603679,28.16643838130152],[83.88812617661985,28.166356982374758],[83.88808703659599,28.166356982628475],[83.88789740337424,28.16623719739444],[83.88780092933293,28.166237134399974],[83.88754564673353,28.166173677886412],[83.88703814504346,28.165915976915326],[83.88691053484358,28.165884280532545],[83.88669858087493,28.16579387853207],[83.8866177385008,28.16577568581721],[83.88657059594118,28.16577112185825],[83.88614306124906,28.165743739074628],[83.88605777846276,28.165723357657978],[83.88588852841197,28.165644209108056],[83.8857018336751,28.16540932742932],[83.88534626329512,28.16507729223023],[83.884923042811,28.164878296007437],[83.88475279186402,28.164837534568413],[83.88447450039581,28.164830531888022],[83.8842195925713,28.164749070557104],[83.88418845624315,28.164710684281374],[83.8841796405075,28.164633974114444],[83.88440916405621,28.16402704603162],[83.88441316548074,28.1638735632688],[83.88438984500051,28.16366812758401],[83.8843463289235,28.163557533145227],[83.88427317674743,28.163487512612722],[83.88402058220858,28.16331121018484],[83.88393217379512,28.16324118943507],[83.88383194962125,28.163155351842303],[83.88367982972511,28.163092020849252],[83.88398957095141,28.162850762256245],[83.88462437106564,28.162544360211005],[83.8851148039095,28.162391315416464],[83.88534939132343,28.16234411439294],[83.88552395659268,28.162308103527497],[83.88629005579043,28.162496097117028],[83.88669977080595,28.16250316212311],[83.88726485740361,28.16216737583683],[83.88753326963565,28.162133678825526],[83.88786964600283,28.16225358877456],[83.88837789719133,28.162700908577346],[83.88933281649858,28.16376690922718],[83.88942547529888,28.164067185623292],[83.88959747747937,28.164311069554206],[83.8899701783928,28.16444004536062],[83.89073271358154,28.164386467043453],[83.89121639449019,28.1642739972576],[83.89145160701092,28.164023610615292],[83.89155239523734,28.163798044501867],[83.89174990638895,28.163658254209437],[83.89269782275551,28.16351908837515],[83.89337651491508,28.162912410407365],[83.89368475447402,28.16281563205905],[83.89422333020953,28.16291759975499],[83.89506195594016,28.163469012022826],[83.89556889533506,28.163676949129812],[83.89614098346979,28.163686389241878],[83.89655570117584,28.16346776246915],[83.89689782932565,28.16321300095847],[83.89785474974909,28.162931543400564],[83.89891945998336,28.163160298674164],[83.89990789082555,28.163217441115634],[83.90037400297439,28.1631591109804],[83.90071294170005,28.162942672841588],[83.90093314980615,28.16270810406781],[83.90140901512737,28.16242858455189],[83.90184273913766,28.162309174486495],[83.90208876923782,28.162313926459102],[83.90243939988186,28.162594009023366],[83.9026927441024,28.162975621427844],[83.90370643445098,28.16366920061546],[83.90389613018172,28.163737095146182],[83.90451273613034,28.16379392460295],[83.90519880465668,28.163751475044972],[83.90580340516054,28.163715777111364],[83.90610558044077,28.163677641806412],[83.90658194615906,28.16351090475826],[83.90675782472833,28.162991940598662],[83.90719980286964,28.162166198130617],[83.90758425937604,28.161863984422297],[83.90769505064759,28.16150294098373],[83.90766772804763,28.161103447951017],[83.90798490896086,28.16056647846618],[83.9082872724451,28.160257511952832],[83.90835060898206,28.15987608796685],[83.90821011861502,28.15957581178809],[83.90834904670203,28.158668608214555],[83.90882797565212,28.158104692647413],[83.90891300737717,28.15770307428143],[83.90875920072573,28.157289890443256],[83.90830140441587,28.156617067547227],[83.90805299969074,28.15602551878297],[83.90792801628433,28.155093307143733],[83.90771124866717,28.154289696332818],[83.90777364682252,28.153912772984974],[83.90776826975834,28.153086717518],[83.90783523304037,28.15270310467695],[83.90793570838164,28.152326244078953],[83.9081895524934,28.15217294920446],[83.9092597654391,28.15214200296384],[83.90972706438836,28.15220552214334],[83.91040006608743,28.152497108051403],[83.91112327264251,28.152899226875334],[83.91200210067319,28.1535047174717],[83.91271449225324,28.153839191133127],[83.9139000594307,28.15410183120185],[83.91443194556676,28.154160785879853],[83.91527863709204,28.154253876140306],[83.9160071585379,28.154434804557926],[83.91669197683737,28.15469025489153],[83.91841643243275,28.15546767129928],[83.91882627295276,28.155722934195857],[83.91941943231089,28.156003142073327],[83.92030551339518,28.156213516312523],[83.92032276986906,28.156125553527755],[83.92042186918519,28.15603071257253],[83.92066677350809,28.155893235402758],[83.92073135943907,28.155884295288466],[83.92084984123268,28.1558324044083],[83.92092693285441,28.15579414312947],[83.9212956331281,28.15563859804569],[83.92154410065238,28.155426535330047],[83.92169259377741,28.155225789128895],[83.92189160603574,28.15500016092291],[83.92211606493237,28.15462336222359],[83.92224136147641,28.15434809425744],[83.92235302885238,28.15396673246664],[83.9223116378475,28.154036690499694],[83.92239210560096,28.15361012762337],[83.92248401524873,28.152863157368614],[83.9225309087291,28.152709675052353],[83.92257586236506,28.152635215766836],[83.92261193895676,28.152493049396647],[83.92279425721885,28.15212525332931],[83.92302621834736,28.151831979815327],[83.92320009639104,28.15173957809385],[83.923288003717,28.15166511846883],[83.92347920027362,28.1513244560842],[83.92355441668919,28.151157469422422],[83.92374948925108,28.150322473842667],[83.92371885351346,28.15012835507166],[83.92377731269123,28.150184808492465],[83.92359030512606,28.14994998939162],[83.92317171175596,28.149561563029202],[83.92308993086058,28.149405766868032],[83.92309587066786,28.149177824879565],[83.92316633488299,28.14894988283193],[83.9232562436936,28.148798713983048],[83.9235632330762,28.148537074337426],[83.92388404086628,28.148160338968847],[83.92394081226503,28.14804755567951],[83.92407229839903,28.147934772859717],[83.92448257698052,28.147449755324367],[83.9245361599335,28.147427186170926],[83.9247158512206,28.14712709803602],[83.92500977378158,28.1465494912984],[83.92514713830032,28.14621776876631],[83.9251982828013,28.145913116725264],[83.92520578537626,28.14562647032091],[83.92510324674915,28.14527655470131],[83.92501859050019,28.1447461485063],[83.92497244858933,28.14470544954367],[83.92487697564745,28.14466481189604],[83.92454078693999,28.144811355469418],[83.92425543028753,28.14505267636445],[83.92405666856116,28.1452783048843],[83.92397320037308,28.145350450903138],[83.92343412413383,28.145663917994685],[83.92309949896536,28.14578107744926],[83.92280851555728,28.145837343101572],[83.92272254547764,28.1458350300201],[83.9226553957848,28.145868915669087],[83.92220854080023,28.145814461703264],[83.9216324514024,28.145689987003546],[83.9214717657397,28.14568536106625],[83.92142943752766,28.145667293357675],[83.92092556226896,28.14565572672182],[83.92040230426366,28.145569701159076],[83.92025237332517,28.145567326015062],[83.91970848290461,28.14548580189824],[83.91932784084797,28.145377206858765],[83.91900384460959,28.145259672286638],[83.91865352642797,28.145191777179626],[83.91839217870366,28.145187088558078],[83.91820573480152,28.145085433319903],[83.91811982737904,28.145094373413645],[83.91799221689539,28.145053674368796],[83.91773437073866,28.14505804967315],[83.91764940145585,28.145028604156344],[83.91758100061584,28.145021851867906],[83.91704817737465,28.144971899765896],[83.9166997343674,28.144445807024525],[83.91661933030268,28.144233620154445],[83.91643563629256,28.143885954755408],[83.91614233975461,28.14361268713435],[83.9160144166085,28.14358999317291],[83.91579989912388,28.143587554742112],[83.9157565703537,28.143605684887977],[83.91558500687117,28.143601059081423],[83.9154547700676,28.143655136756514],[83.91526188546462,28.143652761036034],[83.91479815054757,28.143681831682052],[83.91471155485631,28.143717905387522],[83.91443201382262,28.14378767592789],[83.91424481854304,28.143832688954543],[83.91419417463017,28.14386200968497],[83.91415122091259,28.143859696699202],[83.91406462624758,28.143907085606173],[83.91367723159823,28.14398579583244],[83.91359157483332,28.143983544926538],[83.91328877413588,28.144100704510752],[83.91307125514675,28.144240495935854],[83.91270318010886,28.144395915753947],[83.91230040443774,28.144522140074752],[83.91225044890952,28.14451982754144],[83.91216385397765,28.144558151197042],[83.91173275491352,28.14466399454616],[83.91154237137714,28.144742767236178],[83.91141682454334,28.144887184715433],[83.91138468758284,28.144884934555954],[83.91105894125529,28.145069800453307],[83.91089487910989,28.145200588873674],[83.91071912630781,28.145297555552137],[83.91050548382849,28.145365137237775],[83.910419764165,28.145365074484086],[83.91024695031528,28.145428156090453],[83.91015972997411,28.145482234519676],[83.91006288064996,28.145509241896256],[83.90967748684653,28.145502239923104],[83.90956069396262,28.145470605836696],[83.90904725220547,28.145440909133207],[83.90896222048818,28.145420527653318],[83.90839113197863,28.145571384922878],[83.9082169420516,28.14568404265264],[83.90806538493003,28.145747248244817],[83.90725995878525,28.14626808863165],[83.90689213410839,28.146421320817417],[83.90656901349092,28.146493279865496],[83.90639582425274,28.146565425805438],[83.9062350764548,28.146572052426222],[83.9053686274609,28.146544419475646],[83.90525052142016,28.14655110890494],[83.90511303240069,28.14659612222142],[83.90478109566314,28.14649434214946],[83.90469712654561,28.146426572054224],[83.9044817337769,28.146338420402014],[83.90411184598574,28.14629078133349],[83.90353763155552,28.14629940917769],[83.90310178144509,28.14643451046008],[83.90291514939562,28.146533727394786],[83.90284224662605,28.14653366516221],[83.90280404509136,28.146547168842023],[83.90273939626037,28.14656742511393],[83.90267987323554,28.14660574889408],[83.90240952253251,28.146716155799268],[83.90190283357566,28.14698667249075],[83.901870008308,28.147040813468486],[83.90159740621029,28.147216677780705],[83.901476174088,28.147214364528153],[83.90126121904731,28.147236746070732],[83.90095941840241,28.147317769122985],[83.90087282331335,28.147353842177832],[83.90061460234288,28.147405545496326],[83.90044335027876,28.147403169666056],[83.89981211477472,28.147472689798906],[83.89975703178202,28.147447807353327],[83.89971370295356,28.14746581233819],[83.89937132501196,28.147458810348766],[83.89924365255114,28.147427113622683],[83.89910585159394,28.14737734821416],[83.89899005771677,28.147298325485313],[83.89884181483414,28.147228242155194],[83.89837364061218,28.147112770129798],[83.89805252074459,28.147105768532725],[83.89783731481408,28.14715978379238],[83.89775197117106,28.147139403260546],[83.89766637625519,28.147146092729393],[83.89736720257466,28.14711201997584],[83.89715556115291,28.14701261529217],[83.89702763800882,28.146989921674237],[83.89664712049523,28.146802303727924],[83.89647687029756,28.14675929078946],[83.89622477551387,28.1467839228389],[83.89575697559954,28.14700930144912],[83.89548443701575,28.147056502975552],[83.89513199237531,28.14716228320548],[83.8950962919617,28.147162283538105],[83.89487977355446,28.14725462303085],[83.89475147561257,28.147252309355906],[83.89453995929802,28.147141527351707],[83.8942033961813,28.146906582465604],[83.8935183277705,28.146556229818195],[83.89302051671012,28.146264705785875],[83.8927893055614,28.146102033348082],[83.89264106328285,28.146031950531423],[83.8919938218159,28.145798943495528],[83.89153852665929,28.145600010221685],[83.89118733336396,28.14540789129207],[83.8908073787385,28.1453082988099],[83.89072272221827,28.145267599793726],[83.89060911787416,28.145240403727655],[83.8905206464666,28.14521552124045],[83.89044486887887,28.145197391599883],[83.89035039594,28.14517475947763],[83.89016463921467,28.145382257850812],[83.88987434235486,28.145707040339662],[83.88970402939759,28.145754304528943],[83.88951520888871,28.145781250075704],[83.88918139679876,28.1456725930039],[83.88900708119695,28.145582190809623],[83.88847382015824,28.145085232241183],[83.88786978277139,28.14462659705405],[83.88764913747876,28.144470676390117],[83.8874588791485,28.144375711132145],[83.88722729240398,28.144213038015998],[83.8870789870968,28.14414295454168],[83.88673886017392,28.14405918001829],[83.88632414319073,28.144004664003027],[83.88604335123644,28.1440405488369],[83.88562144310514,28.14420947328272],[83.88542286879527,28.144184465739368],[83.88541255302235,28.144276993544477],[83.88523961253222,28.144416784497565],[83.88517590133088,28.14446867433807],[83.88493224850853,28.144574580026447],[83.88456836251908,28.14463747354331],[83.88444712969485,28.144635098285477],[83.8840953106168,28.144436164444805],[83.88389386073915,28.144366018078728],[83.88380757786608,28.144384023860205],[83.88360062567,28.144521626768963],[83.883491272396,28.144616216894114],[83.88333865289854,28.14478989245753],[83.88297601754932,28.145067224034552],[83.8822800698992,28.14530585664151],[83.8818874858114,28.145368749525794],[83.88171723472276,28.145325674020334],[83.88150340520298,28.145311982437775],[83.88141705995069,28.145347992854905],[83.88081408528043,28.145480656711584],[83.8806425203905,28.145487283801607],[83.88025537607729,28.145554677979288],[83.87999652955556,28.145626636689126],[83.87949946857688,28.145806813957883],[83.87956505610119,28.14576173905949],[83.87942050175417,28.145822506719192],[83.87906868304732,28.145903404933623],[83.87853392078316,28.14588496146607],[83.87844932646017,28.145844324449186],[83.87834466206986,28.145756111681216],[83.87824243685695,28.145561929369673],[83.87822405523401,28.145446832562985],[83.87822774383737,28.145293350215198],[83.87832334258546,28.14491423904145],[83.87833716069215,28.144790077380033],[83.87831752860578,28.144722432972326],[83.87828632885419,28.144684046108402],[83.87820111007662,28.144663665250196],[83.87812495615725,28.14470867881724],[83.87801947948664,28.144837278854194],[83.87778676721695,28.1453810005627],[83.87769685874908,28.1455411728872],[83.87762039190676,28.14559750149339],[83.8774757128882,28.145759924134293],[83.87701604080847,28.146066452047513],[83.87681183989642,28.146242315537236],[83.87638274209134,28.14655565728417],[83.87633209786286,28.146575913495568],[83.87611320336752,28.14676303065286],[83.87582397063247,28.146902696394108],[83.87486505021062,28.147118509661464],[83.87396959017302,28.14769549133949],[83.87375069533755,28.147882670581826],[83.87359351193098,28.14804278012432],[83.87338724712036,28.14813055656162],[83.87320830489985,28.14815750121953],[83.87305837457637,28.148155125896412],[83.87279852674935,28.148263219646783],[83.87275007155772,28.148328614320178],[83.87255506088539,28.14847515708483],[83.87178058457533,28.14878818622267],[83.87152336338538,28.148842076324755],[83.87118079770943,28.148857580744778],[83.87052017597888,28.148676402214267],[83.87017904896302,28.14859481560848],[83.86932998165696,28.148162938153444],[83.86898922977491,28.148061095701134],[83.86873269679295,28.14803827639782],[83.86761702942574,28.148289974821928],[83.86692883573903,28.148528543819904],[83.86675645793376,28.148620945950196],[83.86521025524466,28.149055072819127],[83.8648680656357,28.149050195737004],[83.86435393538761,28.14910158578677],[83.86401080761128,28.14917123111116],[83.86358258533382,28.149184359643456],[83.86324108299,28.149141159271863],[83.86298417465682,28.149156726377385],[83.86247348397968,28.14897792342487],[83.86210597188797,28.148880456613377],[83.8620205638829,28.14923924978716],[83.86180210773252,28.149539213196718],[83.86177766056525,28.14976940531936],[83.86192165131546,28.15015101736125],[83.86187238312633,28.15060909007955],[83.86208108579196,28.15097494737689],[83.86209784195346,28.15127966151239],[83.86194165758448,28.15173542092892],[83.86196153975428,28.151830198527573],[83.86210834483788,28.152042510791187],[83.86236356499244,28.15214204055313],[83.86287663147567,28.152167423139794],[83.86308952349809,28.15222856650934],[83.8633835707295,28.152614804897055],[83.86376621369779,28.152770850748322],[83.86395603370912,28.15294709053259],[83.8641000875485,28.15334902112866],[83.86431016624586,28.153617788289957],[83.86450136175459,28.153696998452148],[83.86475827053033,28.153681432149842],[83.86514172570364,28.153801404819315],[83.86552236823083,28.154092928398047],[83.86584117481192,28.154251225165087],[83.86654687511259,28.15426091557076],[83.86731866334951,28.154139818351798],[83.8676818622773,28.154162700125948],[83.86783041705593,28.154259916453373],[83.86784929886065,28.154413398932007],[83.86780559559182,28.15449010916802],[83.8674589030526,28.154790009308083],[83.86737005773485,28.15501782624626],[83.86738968993868,28.15515099036607],[83.86753724445957,28.155304597987996],[83.86792032551332,28.155424570643532],[83.86843276635929,28.155490528567825],[83.86896515253768,28.155649012329857],[83.86915672392546,28.155728161272386],[83.86926195038255,28.155845632794897],[83.86942419814805,28.15645743753181],[83.86952904950031,28.156610983109736],[83.86961401953434,28.156651745101918],[83.86980415209673,28.156825671288836],[83.86988730854125,28.1569792161781],[83.86996740012104,28.157360766105228],[83.8699800926944,28.157972383493178],[83.8700843180572,28.158164314695203],[83.87027451409338,28.15832023590355],[83.87052967218233,28.15843783325704],[83.8707219311227,28.15844027140985],[83.8713651095041,28.158334803026104],[83.87155736889235,28.15835756002019],[83.87213170775375,28.15859506790504],[83.87235979289575,28.158735171573728],[83.87250878640629,28.158737610029966],[83.87267903670927,28.15878062290276],[83.87274993873822,28.158843891111477],[83.87329626770126,28.159061080125156],[83.87346414239263,28.159248510186597],[83.87366996881029,28.15939317854391],[83.87383890746223,28.159481329220114],[83.87392387655507,28.159513026318233],[83.87413701878434,28.159544785855886],[83.87431020798005,28.159608178949036],[83.87447301845906,28.15981142641095],[83.8748704799926,28.160181910616057],[83.87510587942451,28.16034689716645],[83.87522136055398,28.16041472879153],[83.87516171298076,28.160513946253086],[83.87515483534864,28.16120233588074],[83.8750628626415,28.161685227407613],[83.87460381567459,28.16285619656417],[83.8744005510551,28.1635602152022],[83.87380001359396,28.164491801803383],[83.87324049187467,28.16518869305148],[83.87307167816601,28.16552935614606],[83.87274968319412,28.16591040548881],[83.8727311765227,28.16593303687902],[83.87235609765183,28.16677678420306],[83.87235284493224,28.16849216347516],[83.87226237370116,28.168835076454574],[83.8723249591534,28.168950235834696],[83.87221623177987,28.169081023489255],[83.87186078547491,28.16999254136783],[83.87142387146557,28.17061503636424],[83.87131214258812,28.170955761386786],[83.87107092677472,28.17135275294398],[83.87096007254851,28.171637024345127],[83.87085034429609,28.171808449874906],[83.87060606469466,28.17243338287988],[83.87051484316866,28.172832812885545],[83.87056879980666,28.173521264733346],[83.87036822450484,28.174035665994158],[83.87025261817541,28.17460652161509],[83.8702474291029,28.174951873125192],[83.87018390471506,28.17511429511336],[83.87009193298357,28.1753511778145],[83.87004541503896,28.175637761635777],[83.87004228865676,28.175868016710897],[83.87022792000445,28.176389545532576],[83.87043837401993,28.176660562571346],[83.87069321915172,28.176796227523475],[83.87088372753027,28.176972466889584],[83.8710543536603,28.17701097807096],[83.87111800245513,28.17706968299435],[83.87118021355445,28.177202909923533],[83.87111306275754,28.17743303985919],[83.87098307653271,28.17754582314128],[83.87083202069407,28.17762240752731],[83.87025242809636,28.17775050720391],[83.86941411501563,28.17799120249691],[83.8689645094973,28.177983950645327],[83.86844956687426,28.17807378915742],[83.86729482372016,28.17798469968921],[83.86678094355587,28.17797744710816],[83.86626531344109,28.17810560912467],[83.8661359525326,28.178182194706835],[83.86594156738492,28.1783129200581],[83.86576775299861,28.178484283201907],[83.86563601526427,28.178732418294597],[83.86561150629532,28.17896254868306],[83.8656947251776,28.179136412050937],[83.86586360018813,28.179310400351476],[83.86648133075128,28.179547970536017],[83.8669061143544,28.17980117047461],[83.86716058395112,28.17997747245583],[83.86722279463928,28.18013101745523],[83.86696163402632,28.180455737456096],[83.866015656016,28.18073019319532],[83.86575693387024,28.180863106940226],[83.86564858146826,28.180975889689147],[83.86553835239452,28.181205957094015],[83.86536322393455,28.181490165915406],[83.86527375265058,28.181776749607028],[83.86527131416278,28.181950488705862],[83.86554116434078,28.18258498761645],[83.86557999128611,28.182871633938923],[83.86544456573667,28.183388348863776],[83.86544081361635,28.183674995554856],[83.86550264917359,28.183846608371795],[83.86577637599629,28.18419439782595],[83.86606935977359,28.184711550067238],[83.86651333825641,28.185118232527273],[83.86661962841855,28.18519506769942],[83.8668804754355,28.184890540944387],[83.8670961818072,28.184778007871703],[83.86754753748347,28.184647469756282],[83.86780694747347,28.18446041502561],[83.86877712222794,28.183989652510828],[83.86922672810553,28.18399459118686],[83.8696116213673,28.1840355413925],[83.86993292884328,28.184017786084848],[83.87018921259512,28.18405867318259],[83.87102127345945,28.184296431427548],[83.87166176272142,28.1844347224229],[83.871981318931,28.184552382406157],[83.87268576966281,28.18471099133745],[83.87274979366558,28.184726871174174],[83.87276061016428,28.18472912177071],[83.8737855559014,28.18503471216858],[83.8748945325809,28.185387817237952],[83.87580099619159,28.185433768207066],[83.87721927524102,28.18600381218298],[83.87823271566374,28.18663887376396],[83.87870595558206,28.186862752231164],[83.87902438625005,28.18713833378237],[83.87964874386441,28.187527073363125],[83.88050894115123,28.187697061199092],[83.88099262168726,28.187738136246423],[83.88406220547081,28.187492440725695],[83.88487688564202,28.187244868485546],[83.88601118453906,28.186681578085075],[83.88624871145983,28.18668626770001],[83.8864816099921,28.186830934821568],[83.88673708091646,28.18738409767624],[83.88694678398278,28.18750388332142],[83.88744597019694,28.187648737959588],[83.88794209329149,28.18762654470452],[83.88869443729823,28.187426298741148],[83.89007657875999,28.186296592499765],[83.89036612467673,28.186174994262668],[83.89124414046532,28.185967995961654],[83.89174313909271,28.18579463292572],[83.8922900940711,28.185503922787305],[83.89248735495136,28.185336999375796],[83.8926083381573,28.185355192367158]]]}},{"type":"Feature","properties":{"province":"Gandaki Province","district":"Syangja","municipality":"Phedikhola Rural Municipality","ward":"5","wardNumber":5,"sourceMunicipality":"Phedikhola","sourceType":"Gaunpalika"},"geometry":{"type":"Polygon","coordinates":[[[83.82833922416533,28.222277748862584],[83.82857856467184,28.222011732748328],[83.82888474159031,28.22155622456433],[83.82899572133923,28.22124938423933],[83.82928101569668,28.220717040677936],[83.82965115453352,28.220300043571363],[83.83004155049672,28.219957443235977],[83.83017316226025,28.219729689183858],[83.83026244692496,28.21942509977013],[83.83028783076277,28.21911819676849],[83.83037748977115,28.218813544513775],[83.83059663499229,28.21843243320048],[83.83079214544237,28.218243065221944],[83.83106756146725,28.217900401765466],[83.83109719728823,28.21786432930633],[83.8315104774769,28.217352491688924],[83.83179545952922,28.216793077626928],[83.83208206715692,28.21622916180797],[83.83208525602218,28.215998968826558],[83.83200285066245,28.21576871366951],[83.83129046067559,28.21462806592252],[83.83106781559813,28.21404320611144],[83.83093901748224,28.213704544463663],[83.83068779890407,28.213259601191353],[83.83062771449283,28.212952572668947],[83.83044008265031,28.21256864711652],[83.83018811395316,28.21220047640132],[83.83014728606072,28.212046931647194],[83.83008401282261,28.2119701590994],[83.83008720171937,28.21173996603516],[83.83019749241906,28.211509898774036],[83.830828479446,28.210844828988083],[83.83106769392786,28.210637518513455],[83.83117579716739,28.210542802909792],[83.83128458737342,28.21040982630528],[83.83148266210924,28.210028589904287],[83.83153286904181,28.209491494069578],[83.83137012140021,28.20887518823757],[83.83129772019291,28.207915906474216],[83.83125933072209,28.20760887820941],[83.8311598569809,28.20705127662132],[83.83116417136387,28.206744374315644],[83.83123282236765,28.20643747177704],[83.83200117329574,28.205066194459487],[83.83215729438011,28.204608247836408],[83.83216373511239,28.20414779977096],[83.8319839818216,28.20322446569083],[83.83198717035921,28.202994273179794],[83.83209958799215,28.202612974054187],[83.83247397884996,28.2018506248064],[83.8325006767085,28.20146694939925],[83.83244171747062,28.20108321203091],[83.83231660793663,28.200850581230096],[83.83215279747333,28.200310984788054],[83.83213572833785,28.200004019247256],[83.8322972895676,28.199162334797226],[83.83272320081964,28.19778618115104],[83.83272538929779,28.197632635458685],[83.83249868026151,28.196977818534524],[83.83237682209023,28.196496988954106],[83.83238001164267,28.196266733915493],[83.83253431981483,28.195962270123452],[83.83266443070364,28.195849549242126],[83.83331211023386,28.195453120828912],[83.83355101299526,28.195207424054967],[83.83370819716538,28.194690771715774],[83.83384368578065,28.194174057960314],[83.83423720791015,28.193585447816712],[83.83449811847939,28.193301427083522],[83.834757966066,28.193091803113447],[83.83488951511002,28.19288430464736],[83.83510453318304,28.192810095915814],[83.83553606922672,28.19258490453251],[83.83570775906924,28.192549019086258],[83.83585881470111,28.192454366570896],[83.83618412470798,28.19215008979962],[83.83627046968108,28.192114079386457],[83.8364442843732,28.191924711141557],[83.83657620864828,28.19167657616565],[83.83664373483857,28.191446446247426],[83.83664586037791,28.191292963455258],[83.83656445544229,28.190985935823246],[83.83641877613285,28.19067659437093],[83.83637901126181,28.190446339834782],[83.83646785746261,28.190216209820274],[83.83653294453623,28.190159880451525],[83.83681298704913,28.190049598026295],[83.83698648914869,28.189878297914724],[83.83698899054318,28.18968642906747],[83.83684218513667,28.189474116308816],[83.83671888995201,28.18908800323339],[83.8368312444038,28.18870670379971],[83.83696310711206,28.188476698900395],[83.83707546106677,28.18809539922755],[83.83709890785974,28.187941917005347],[83.83702181708834,28.187327923798982],[83.83706764684688,28.187097793313313],[83.8370506409669,28.186790828739287],[83.83673577431011,28.186327754545058],[83.83648236702254,28.18607468054961],[83.83635907076109,28.185688629266327],[83.83653788861275,28.18515390925929],[83.83617456562999,28.185110584049674],[83.83591803164208,28.18509001522948],[83.83553420162643,28.18496991729556],[83.83441365870688,28.1839394261726],[83.83391040881656,28.183166948506624],[83.83365994056085,28.182703937813596],[83.83333019337917,28.181778228141894],[83.83314149851218,28.181507148162094],[83.83292935623054,28.181351164870367],[83.83280137169008,28.18131034016117],[83.83222346744651,28.181305150300602],[83.83209479473562,28.18132296822979],[83.83177498805763,28.181223376302533],[83.83139078185667,28.18114166451809],[83.831067786049,28.18100799949978],[83.83081581761218,28.180903968568742],[83.83017901712014,28.180456274002207],[83.82985745947957,28.18045371060071],[83.82934070397468,28.180622259902925],[83.82889059810164,28.18061719599882],[83.82844311916065,28.180440643183374],[83.82790904430746,28.18030228944864],[83.82784114379642,28.180550487819783],[83.82786171426204,28.180627260160907],[83.82815519841145,28.181090271613794],[83.82821628322392,28.181320589498725],[83.8281927744019,28.18147400884675],[83.82808329614717,28.181645371975083],[83.8277805575225,28.181834677302547],[83.82762768732609,28.182044301335736],[83.82760205254405,28.18235120428123],[83.82764256822095,28.182504749118298],[83.82755153372034,28.182888299473646],[83.82744024121645,28.183174821038392],[83.82700520379208,28.18363020427543],[83.82628937306617,28.184256699946044],[83.8259861967295,28.184464011239427],[83.82548650953932,28.184939587673906],[83.82488015795204,28.18539472119769],[83.82470778038402,28.185468993166282],[83.82444974715203,28.18552282123639],[83.82434139401337,28.185599405475372],[83.82380400522564,28.1857093121812],[83.82320484443908,28.185627350149836],[83.8228008186349,28.185412411816536],[83.82228912693222,28.18521541621848],[83.82143199434825,28.185187219470368],[83.82083320849928,28.185087127733325],[83.82059937148735,28.18494914951976],[83.82021885406208,28.18458079015106],[83.81975193040404,28.184250630719752],[83.81924023966684,28.1840536345645],[83.81898364357991,28.18401268514906],[83.81879213469763,28.18393341132673],[83.81828369499313,28.183506160236057],[83.81792743773931,28.18292786527447],[83.81778250866698,28.182580200498176],[83.81778901219752,28.182119752815467],[83.81772936480252,28.181774338737362],[83.81771379699799,28.1813704080073],[83.81765346172295,28.1810813855141],[83.81738423713804,28.180426504506094],[83.81721404880783,28.180329226096344],[83.8169593288652,28.180155112545485],[83.81666046724621,28.180073463120838],[83.816317588987,28.18007077472129],[83.81597427301321,28.18010640997737],[83.81554417567075,28.180198373816722],[83.81358244107291,28.181021801897355],[83.8127216817535,28.1812621211678],[83.8123779913763,28.181315824270957],[83.81220667726922,28.1812952560137],[83.81195095670397,28.181215919882376],[83.81180202633105,28.181118703343103],[83.8115457424711,28.181059685604687],[83.81120323999767,28.18103661623511],[83.8110312385374,28.181072501313416],[83.81060013974084,28.181259243483606],[83.81034066683374,28.181410100684754],[83.8099113816301,28.181463678574797],[83.8094405183759,28.18142016466152],[83.8094368922635,28.181670675619117],[83.80943439093444,28.18184447747307],[83.80949616345235,28.182016089999202],[83.80951454493804,28.182246282402723],[83.80950872955026,28.182650214299006],[83.80962902395825,28.18322600776845],[83.80983353791993,28.18391914980112],[83.81010632646903,28.1843257695371],[83.81020855142661,28.184671245976155],[83.81019729699311,28.185476982186813],[83.81017416274427,28.185592016841834],[83.81025513066743,28.18591942549547],[83.81040037186472,28.186267152599417],[83.81056768375129,28.18655629997772],[83.81056693337663,28.1866126914519],[83.8107975191186,28.186960669308508],[83.81079601876091,28.187075702897825],[83.81075081378582,28.187249441797654],[83.81061888931045,28.187477195866762],[83.81022642981456,28.18795289789854],[83.81005223923721,28.188124197379203],[83.80996445590522,28.188295561043297],[83.8099626435138,28.188410781949397],[83.8096488367433,28.189387569113812],[83.80947458391672,28.189558806337807],[83.80917215825994,28.189745735949426],[83.80899684290553,28.19001406472021],[83.80895132590334,28.19018555276701],[83.80894807428295,28.190415744922973],[83.8090090966956,28.19064600044577],[83.80938673736804,28.19122660880122],[83.80944776015271,28.1914568641068],[83.80942318787064,28.19168705669069],[83.80915608678647,28.192375071329074],[83.8091090696843,28.192661655131513],[83.80910431703538,28.193009194511347],[83.80914476918059,28.193180870535173],[83.80915958661868,28.193641192852503],[83.8090681146252,28.194042811320447],[83.80901453116972,28.194792031411726],[83.8090542958747,28.19502234863936],[83.8092653742732,28.195234786639563],[83.81033108463734,28.19566966537984],[83.81079688329048,28.196076472430395],[83.81096532112805,28.196288847728948],[83.81100614934061,28.196442393032054],[83.81099814471699,28.197017874568086],[83.81092655586447,28.197534651486407],[83.81086972017513,28.19851181326828],[83.81070997270469,28.199202266266937],[83.81070265635489,28.19971910545714],[83.8107398575373,28.200123098803108],[83.81082151308313,28.200412121953192],[83.81083739344315,28.200813802062783],[83.81083045312931,28.201312761121756],[83.81073172675318,28.202233344499845],[83.81072372385081,28.20280663718598],[83.81078380784149,28.20309559736162],[83.81085589667796,28.204075197730663],[83.81097550311523,28.204709571708293],[83.8110300227336,28.205400275244088],[83.81119445871668,28.20591961518419],[83.81144342616241,28.206497722939773],[83.81146080660656,28.206784369365923],[83.81143617276156,28.207014561719124],[83.81136933477408,28.207185987695937],[83.81138771700942,28.20741624223305],[83.81149069234789,28.207705264854784],[83.81189221632313,28.208132391153214],[83.81233750740392,28.20848049361953],[83.81276254112196,28.208754199608602],[83.81324828456218,28.20925816054224],[83.81352151143074,28.209662529418424],[83.8138746427771,28.21047101750596],[83.81412042116024,28.211279317207758],[83.81417925484479,28.211683436439582],[83.81426091002209,28.21197239662738],[83.81420670185928,28.212775820009266],[83.81411447946662,28.2132360176637],[83.81412310600143,28.21415697534142],[83.81414192591126,28.214328525582903],[83.81428541655009,28.214791349659663],[83.8143840148388,28.21542572319964],[83.8144863652318,28.215771137424188],[83.81456945901685,28.21594506402795],[83.81520507013474,28.216794439293356],[83.8153064203779,28.216930103723968],[83.8156028437085,28.217201308932886],[83.81615579985147,28.21755184952858],[83.81628303471518,28.217667133892213],[83.81642865133081,28.218012672587435],[83.81655294788945,28.21832207612092],[83.81668093280669,28.21838084426481],[83.8171482319651,28.218708752926247],[83.81740382770455,28.218846730973674],[83.81763616416258,28.219117873397305],[83.81788732026784,28.21959895311135],[83.81818336777374,28.219906293224412],[83.81888637976019,28.220259272993523],[83.81933498546593,28.220377244900845],[83.81984861471372,28.22045914444251],[83.82029797007344,28.220520663249204],[83.82053293276662,28.220599999197965],[83.82078921610747,28.22067933524845],[83.82130028190595,28.220953040890564],[83.82157575941363,28.22118592181135],[83.82180853426247,28.221436683703516],[83.82212734081519,28.221649183882313],[83.82244689699625,28.221805417530184],[83.82289512692815,28.221963964528967],[83.82315028439787,28.22212001036116],[83.82359632623238,28.22246817605298],[83.82398021906704,28.222624409486695],[83.82488036901617,28.222652605736318],[83.82533216294456,28.222542573641146],[83.82565428294491,28.222506876247724],[83.8259764034476,28.222509565258843],[83.8263609224016,28.2226251613312],[83.82661826801228,28.22262772520822],[83.8268770529937,28.222535511001468],[83.82765503141277,28.22208056541676],[83.82784872870766,28.222044679588194],[83.82804136310179,28.22208331586794],[83.82833922416533,28.222277748862584]]]}},{"type":"Feature","properties":{"province":"Gandaki Province","district":"Syangja","municipality":"Phedikhola Rural Municipality","ward":"3","wardNumber":3,"sourceMunicipality":"Phedikhola","sourceType":"Gaunpalika"},"geometry":{"type":"Polygon","coordinates":[[[83.86047986419273,28.149291889218084],[83.86013904971365,28.149171916527923],[83.85988220301216,28.14918748329501],[83.85962423203327,28.149279760460587],[83.85919257042634,28.149559154710573],[83.8586710632375,28.15010481420557],[83.8579294095962,28.151103919670177],[83.85764486602724,28.151557303244697],[83.85750994059151,28.152013062133058],[83.85756058363407,28.152929456075544],[83.85742809627752,28.15323173286635],[83.85716731114734,28.153495559826883],[83.85671364145097,28.153813277619996],[83.85677097424906,28.15428960492893],[83.85676540964884,28.15467103017264],[83.85674165111473,28.154824450373916],[83.85660910104065,28.15512672621336],[83.85658284120774,28.15545182210923],[83.85657171137196,28.156232613586695],[83.85652556887763,28.156460555869796],[83.85630604881412,28.15683947883299],[83.8561973207668,28.15695219997778],[83.85567862621176,28.15732412087844],[83.85505570662113,28.15750623689787],[83.85483931292647,28.157657281034115],[83.85470895130182,28.15779025778406],[83.85446779898118,28.158148863090094],[83.85437763934115,28.158455765310038],[83.85413679919353,28.15881437031887],[83.85394141363254,28.158985671070305],[83.85370407482294,28.159116334356305],[83.85346429757786,28.159400479829028],[83.85324340259602,28.15985611353249],[83.85291415446447,28.16038839472805],[83.85264786701843,28.16099525989866],[83.85253738742048,28.16124339559027],[83.8523405637233,28.161509535952217],[83.85214555342944,28.16165826741471],[83.85188726882917,28.161752794517234],[83.85163067333059,28.161729975598636],[83.85139752358124,28.161592060202352],[83.85120914134593,28.161302911816083],[83.85078410836825,28.16110841699837],[83.85024965856024,28.161062653253726],[83.84997036657633,28.16111654392333],[83.84973302742253,28.16124720748573],[83.84920976914937,28.161871828302758],[83.84901438343628,28.162043128234682],[83.84858334735969,28.162248063029924],[83.84847430647947,28.162381164377255],[83.847932166198,28.16283185883826],[83.84754552201234,28.16292401095232],[83.84688283678001,28.16285780315173],[83.84638958955222,28.16290919363611],[83.84587470992913,28.162998907048415],[83.84550763541085,28.163206154589346],[83.84524653707919,28.163487925302015],[83.84511442555528,28.163715741481543],[83.84489102884957,28.164324920288443],[83.84450150645186,28.166003663904114],[83.84434838690358,28.16621109964697],[83.84415325145497,28.166382399996948],[83.84406696945614,28.166418472528445],[83.84389252853619,28.166628158842087],[83.84358347491171,28.16723489982347],[83.8432584158572,28.167518983292013],[83.84273990928533,28.167818507793125],[83.8419645572567,28.168113281261828],[83.84144861422553,28.16826169947764],[83.84084951580495,28.168254197337998],[83.84025204281912,28.168113592690265],[83.8395675992731,28.168085709214377],[83.83924497890511,28.16817792343842],[83.8390079530034,28.168288206167162],[83.8388771538855,28.168441563754065],[83.83859048368912,28.16897159388823],[83.8382212827367,28.169332261612173],[83.83797862976307,28.16978789591464],[83.83788596946813,28.170245967347366],[83.8378100026041,28.171008754669646],[83.83772084361733,28.171236571135335],[83.8377187181227,28.171390053492935],[83.83749169476697,28.172229362939387],[83.83743711089238,28.172992149572938],[83.83730281131014,28.173373449085343],[83.83714931605141,28.173601203222216],[83.83671509034731,28.173997944238476],[83.8363053124638,28.174202816992594],[83.83582813328285,28.174597244809156],[83.83574210146864,28.174635506096426],[83.83554627829729,28.17484294160221],[83.83519946057417,28.175113333182093],[83.83496137149038,28.1752958864663],[83.83446374804828,28.175674434883653],[83.83428993287234,28.175863802932508],[83.83387802836262,28.176222220929837],[83.83344230245032,28.176772381897557],[83.83329087106475,28.176887291022876],[83.83243004951873,28.17722257592228],[83.8318261978337,28.177521976132116],[83.83156747611731,28.177670644789103],[83.83106766411545,28.1780311249731],[83.83070202784883,28.178294764419224],[83.83044405604413,28.1783509060868],[83.82906341483232,28.178987904790162],[83.8285001417244,28.179424970072134],[83.82819377631762,28.179862535612482],[83.82804165700595,28.180015768525315],[83.82790904430746,28.18030228944864],[83.82844311916065,28.180440643183374],[83.82889059810164,28.18061719599882],[83.82934070397468,28.180622259902925],[83.82985745947957,28.18045371060071],[83.83017901712014,28.180456274002207],[83.83081581761218,28.180903968568742],[83.831067786049,28.18100799949978],[83.83139078185667,28.18114166451809],[83.83177498805763,28.181223376302533],[83.83209479473562,28.18132296822979],[83.83222346744651,28.181305150300602],[83.83280137169008,28.18131034016117],[83.83292935623054,28.181351164870367],[83.83314149851218,28.181507148162094],[83.83333019337917,28.181778228141894],[83.83365994056085,28.182703937813596],[83.83391040881656,28.183166948506624],[83.83441365870688,28.1839394261726],[83.83553420162643,28.18496991729556],[83.83591803164208,28.18509001522948],[83.83617456562999,28.185110584049674],[83.83653788861275,28.18515390925929],[83.83703263630409,28.184987486423097],[83.83722739637274,28.18483650455274],[83.83757471375019,28.18449609236549],[83.83764042631572,28.184381058544098],[83.83844516479704,28.183470166744204],[83.83872920909747,28.183071049104775],[83.8388400638662,28.182784527691403],[83.83903763789628,28.182441677156497],[83.83926022180447,28.181812242091976],[83.83936969976673,28.18164087990859],[83.83948061654628,28.18135435797977],[83.83954595378417,28.181277710153342],[83.83971870610318,28.181165052293558],[83.8400407014933,28.181111224829877],[83.84048924386322,28.18119299892936],[83.84055282956055,28.1812314476373],[83.84076716007364,28.181215880385462],[83.8409619202805,28.181064899405154],[83.84107139884532,28.180893535833412],[83.84118406655276,28.180491855854967],[83.8412714740505,28.180358816357803],[83.84146592246488,28.18022590266221],[83.84174533929821,28.180154006532124],[83.84191871680945,28.180002962773653],[83.8424070245601,28.178741904967946],[83.84260284858743,28.178514150644954],[83.8429493532929,28.17823019284278],[83.84314517625528,28.178002438623015],[83.84325571782072,28.177736234770464],[83.8433225553518,28.177544491292966],[83.84347467536561,28.177373190939768],[83.84386382037071,28.177109488611148],[83.84470219657861,28.176850850813683],[83.84511016169249,28.176779080570505],[83.84536888387743,28.176648479920054],[83.84543397027632,28.176592150685696],[83.84550043319497,28.1764206624365],[83.84563116949468,28.17624929975117],[83.84578578950956,28.175906386809963],[83.84598161333963,28.175678695236],[83.84650155817809,28.175223374477323],[83.84659621799454,28.175115092102768],[83.84685006395239,28.174826507955725],[83.84709065386515,28.174485970433512],[83.84713567059072,28.17435061800021],[83.84735387734517,28.174086790548312],[83.84767862392229,28.173841156089473],[83.848001306822,28.173730874531476],[83.84896648058053,28.173628157646966],[83.84928741222281,28.17363072058241],[83.84973870612939,28.173522876436902],[83.85031623419039,28.173548321752786],[83.85050955627679,28.173512437229725],[83.85093921772712,28.173402279994786],[83.85119893985436,28.17323329266692],[83.85152124729909,28.173141141212856],[83.85242139617529,28.173076622250292],[83.8527443918637,28.17296634065066],[83.85300311396854,28.172835739899732],[83.85461496584115,28.17243343488913],[83.85487437617529,28.172264510637355],[83.85519774699026,28.172115779268037],[83.85560883809467,28.17181387902706],[83.85623769830154,28.171286286239802],[83.85643202087788,28.171193884302518],[83.85677671285066,28.171045340897827],[83.85716541997829,28.170820087622097],[83.85751392613705,28.170423221554817],[83.85775332816814,28.1701774620027],[83.85799141688037,28.170006161807912],[83.8586374090389,28.169747273282383],[83.85908763982316,28.169695821434264],[83.85949629184165,28.169565283337317],[83.85975670244547,28.16933990475828],[83.86014891143229,28.16888664707012],[83.86037255790882,28.168257149125722],[83.86057207028747,28.167801453233736],[83.86065947856338,28.16768641889485],[83.86098422463382,28.167442973389825],[83.8616955535317,28.167125442487894],[83.8620841985035,28.166900189445695],[83.86266516523415,28.16669762989749],[83.86324475711768,28.166589848585716],[83.8636306515823,28.16655633910861],[83.86401548249196,28.166599602529363],[83.8642707028215,28.166697006160142],[83.86465484620494,28.166760524808648],[83.865038364116,28.166880497714338],[83.86548446892725,28.16709756183041],[83.86612383177916,28.1672584221826],[83.86689393187497,28.167270488536555],[83.86734353773235,28.167237041216055],[83.8676640945103,28.167262173759184],[83.86811226238773,28.167343823694143],[83.86856149225532,28.167351076089616],[83.86888273740655,28.167317503447194],[83.86901066011795,28.167358265563934],[83.86913933369111,28.167340322573864],[83.8695235391187,28.167383523896735],[83.86997064374057,28.167541945393815],[83.87022761475973,28.167528628683012],[83.87044257020956,28.167454294415723],[83.87102597560842,28.167044174712846],[83.87115671187817,28.16687274937859],[83.87148214705584,28.166572848856926],[83.87163314023287,28.16648044666175],[83.87198027056046,28.16614222253323],[83.87228538520822,28.16574529392582],[83.8723332152059,28.1654045066109],[83.87214889748054,28.164828837117707],[83.8720698674983,28.164370577052466],[83.87207224397241,28.1641990888646],[83.87211738595201,28.16404798248318],[83.87255148542792,28.163614918089433],[83.87265852562697,28.163477377446146],[83.8727496848439,28.16346393599498],[83.87283340367834,28.163452683281147],[83.8731245755484,28.163297262443855],[83.87342675088037,28.162981545235525],[83.87367134258594,28.162329478596472],[83.87349133777798,28.161900539648514],[83.87309612844626,28.161437466111554],[83.87277713428188,28.16117989003821],[83.87274974945356,28.1611708245006],[83.87265114953954,28.16113687711343],[83.87222499095607,28.161016842133805],[83.87196808199842,28.161032408840338],[83.87153848391186,28.161158445749464],[83.87128188813911,28.16115594481596],[83.87076500771337,28.161396952964143],[83.8699046861995,28.161727924287092],[83.8693038362477,28.161851522754752],[83.86896120818429,28.161864713908113],[83.86844457826163,28.16208765407702],[83.8682729518915,28.1621236017092],[83.86801460513215,28.162233947181118],[83.86784197762223,28.162344416843073],[83.8674997250802,28.162359858959103],[83.86681909645382,28.16208158927117],[83.8662678273837,28.161731235306767],[83.86588749831566,28.16140138820041],[83.86569867873527,28.16115069008994],[83.86544489628041,28.160938314703763],[83.86521556091918,28.160534133108975],[83.86492188897128,28.16012976413818],[83.86475513948582,28.159822673433514],[83.86465235130792,28.159533588555693],[83.86469955682077,28.159228999524693],[83.86498228768711,28.158908780582856],[83.86545558948946,28.158726414505605],[83.86560764591395,28.15855730252306],[83.86581416181289,28.157587017940795],[83.86584311023054,28.157072428921218],[83.86606363074455,28.156618983338326],[83.86632472867912,28.156316832605754],[83.86647572202448,28.15622443051789],[83.86667217065575,28.155940221478716],[83.8666962429022,28.155768734095737],[83.86659107834092,28.155635444672335],[83.86640050767997,28.15549759183021],[83.86631522557643,28.155477210758868],[83.86622963070234,28.155495216007193],[83.86567279821385,28.15554429212965],[83.86532998239028,28.15557786451601],[83.86486112015098,28.155457766212383],[83.86460421122108,28.155473333595864],[83.86426027005353,28.1555813021162],[83.86382929686552,28.155804304981675],[83.86314172722551,28.15602249362716],[83.8628428663107,28.155981668772956],[83.86224483006438,28.15591564952503],[83.86198723340974,28.155967289546783],[83.86164504338757,28.155962412491213],[83.86138982320897,28.15586513388811],[83.86113535322421,28.155706900022004],[83.86094697093283,28.15543807031113],[83.86072982827629,28.15417626245435],[83.86064773530465,28.153945944207354],[83.86048061082455,28.15365917224],[83.86031598702247,28.153198536727714],[83.86025865360853,28.15274033973843],[83.86022995620225,28.151767554216253],[83.86022089069287,28.15090986438572],[83.8603543787554,28.150566951123558],[83.86072351686097,28.150172336049945],[83.86083637199708,28.14977296812921],[83.86079685696599,28.149544963807177],[83.86047986419273,28.149291889218084]]]}},{"type":"Feature","properties":{"province":"Gandaki Province","district":"Syangja","municipality":"Phedikhola Rural Municipality","ward":"1","wardNumber":1,"sourceMunicipality":"Phedikhola","sourceType":"Gaunpalika"},"geometry":{"type":"Polygon","coordinates":[[[83.92344067461859,28.176704163608044],[83.92415781741357,28.17560077667364],[83.92423459633108,28.17551737763951],[83.92449119260037,28.175115759545516],[83.9245061356843,28.17509093993392],[83.92464968927551,28.17472764577023],[83.92465575404685,28.174693823296327],[83.92482131620116,28.17431021076745],[83.92497337346627,28.1740439444413],[83.92496443211725,28.17396723507994],[83.92501945292044,28.173563240739988],[83.92500838682544,28.173520353257786],[83.92501782774855,28.173156996302684],[83.92509998328065,28.172667290101298],[83.92529136747088,28.172139260482826],[83.92533632225613,28.172064800509975],[83.92535039025428,28.17194063915178],[83.92554558863566,28.17145774792011],[83.92581787803886,28.170889142703984],[83.92597399848754,28.170663514544344],[83.92643460830358,28.169869343455236],[83.92646136813671,28.16986934385367],[83.92685138931414,28.169357193202483],[83.92692179057853,28.16929630034602],[83.92701620162016,28.16896464059423],[83.92701820211329,28.168887868351163],[83.92690397207856,28.168741075172026],[83.92686333119913,28.168664302518113],[83.92669658179575,28.168470119771108],[83.9264487397191,28.16824205260213],[83.9262130267309,28.167964345977218],[83.92593204619601,28.16776785097514],[83.92570289819044,28.16758035822613],[83.92552514492725,28.167338787088237],[83.92544111383013,28.167262014569634],[83.92497856648826,28.166722355783854],[83.92457385280441,28.166383569228312],[83.92419714910747,28.16603352788588],[83.9240215214567,28.16583259410664],[83.92398875887781,28.165798709171717],[83.92356385122162,28.165231980264824],[83.92333413956688,28.164983594475995],[83.92314744501017,28.164751026067538],[83.92301864754347,28.164507204132992],[83.92270753145223,28.164168480190938],[83.92244580918135,28.16382525340665],[83.92233608073774,28.16361981802462],[83.92231757387052,28.163263213569994],[83.92233351674558,28.163195505816123],[83.9223402074483,28.163168435706176],[83.92234414614623,28.16307365837457],[83.9224027927843,28.162881788916852],[83.9224474349249,28.162807391910313],[83.92248094793949,28.16273068213891],[83.92280994591029,28.162087618638772],[83.9228758450969,28.162022161721104],[83.92328987477025,28.161372408653115],[83.92331413468852,28.16126631499834],[83.92331607242633,28.161189604985516],[83.92319890389336,28.160758478305393],[83.9231952155687,28.160079090672955],[83.92319496518317,28.16000238126273],[83.9232010927289,28.159939174763227],[83.9232014679334,28.15985790117922],[83.9230512239196,28.15983752002315],[83.92300058060246,28.15980582336513],[83.92292455218049,28.15976974962612],[83.9227555511935,28.15966134295998],[83.92260730837226,28.15959126013834],[83.92220765992776,28.15928635714897],[83.92202096442195,28.159053788835365],[83.92193924650135,28.15888899049531],[83.9218769115816,28.15881221778987],[83.92182958088556,28.158656422109235],[83.92181913943926,28.1581599017601],[83.92184289854383,28.157834930740698],[83.92183183218471,28.157760409091022],[83.9218150136535,28.157656566092605],[83.921769872156,28.15758660810355],[83.92163207022782,28.157516587782762],[83.92151652729935,28.15742849860765],[83.92143287054881,28.157351600963267],[83.92134002404798,28.157204933108957],[83.92124873996765,28.15710334064417],[83.92077181164771,28.156793874409885],[83.92058086530375,28.156703535602045],[83.92031808031761,28.156506977682668],[83.92026656115496,28.156430204920937],[83.92025768270538,28.156353432806277],[83.92029144543498,28.15628578766871],[83.92030551339518,28.156213516312523],[83.91941943231089,28.156003142073327],[83.91882627295276,28.155722934195857],[83.91841643243275,28.15546767129928],[83.91669197683737,28.15469025489153],[83.9160071585379,28.154434804557926],[83.91527863709204,28.154253876140306],[83.91443194556676,28.154160785879853],[83.9139000594307,28.15410183120185],[83.91271449225324,28.153839191133127],[83.91200210067319,28.1535047174717],[83.91112327264251,28.152899226875334],[83.91040006608743,28.152497108051403],[83.90972706438836,28.15220552214334],[83.9092597654391,28.15214200296384],[83.9081895524934,28.15217294920446],[83.90793570838164,28.152326244078953],[83.90783523304037,28.15270310467695],[83.90776826975834,28.153086717518],[83.90777364682252,28.153912772984974],[83.90771124866717,28.154289696332818],[83.90792801628433,28.155093307143733],[83.90805299969074,28.15602551878297],[83.90830140441587,28.156617067547227],[83.90875920072573,28.157289890443256],[83.90891300737717,28.15770307428143],[83.90882797565212,28.158104692647413],[83.90834904670203,28.158668608214555],[83.90821011861502,28.15957581178809],[83.90835060898206,28.15987608796685],[83.9082872724451,28.160257511952832],[83.90798490896086,28.16056647846618],[83.90766772804763,28.161103447951017],[83.90769505064759,28.16150294098373],[83.90758425937604,28.161863984422297],[83.90719980286964,28.162166198130617],[83.90675782472833,28.162991940598662],[83.90658194615906,28.16351090475826],[83.90610558044077,28.163677641806412],[83.90580340516054,28.163715777111364],[83.90519880465668,28.163751475044972],[83.90451273613034,28.16379392460295],[83.90389613018172,28.163737095146182],[83.90370643445098,28.16366920061546],[83.9026927441024,28.162975621427844],[83.90243939988186,28.162594009023366],[83.90208876923782,28.162313926459102],[83.90184273913766,28.162309174486495],[83.90140901512737,28.16242858455189],[83.90093314980615,28.16270810406781],[83.90071294170005,28.162942672841588],[83.90037400297439,28.1631591109804],[83.89990789082555,28.163217441115634],[83.89891945998336,28.163160298674164],[83.89785474974909,28.162931543400564],[83.89689782932565,28.16321300095847],[83.89655570117584,28.16346776246915],[83.89614098346979,28.163686389241878],[83.89556889533506,28.163676949129812],[83.89506195594016,28.163469012022826],[83.89422333020953,28.16291759975499],[83.89368475447402,28.16281563205905],[83.89337651491508,28.162912410407365],[83.89269782275551,28.16351908837515],[83.89174990638895,28.163658254209437],[83.89155239523734,28.163798044501867],[83.89145160701092,28.164023610615292],[83.89121639449019,28.1642739972576],[83.89073271358154,28.164386467043453],[83.8899701783928,28.16444004536062],[83.88959747747937,28.164311069554206],[83.88942547529888,28.164067185623292],[83.88933281649858,28.16376690922718],[83.88837789719133,28.162700908577346],[83.88786964600283,28.16225358877456],[83.88753326963565,28.162133678825526],[83.88726485740361,28.16216737583683],[83.88669977080595,28.16250316212311],[83.88629005579043,28.162496097117028],[83.88552395659268,28.162308103527497],[83.88534939132343,28.16234411439294],[83.8851148039095,28.162391315416464],[83.88462437106564,28.162544360211005],[83.88398957095141,28.162850762256245],[83.88367982972511,28.163092020849252],[83.88383194962125,28.163155351842303],[83.88393217379512,28.16324118943507],[83.88402058220858,28.16331121018484],[83.88427317674743,28.163487512612722],[83.8843463289235,28.163557533145227],[83.88438984500051,28.16366812758401],[83.88441316548074,28.1638735632688],[83.88440916405621,28.16402704603162],[83.8841796405075,28.164633974114444],[83.88418845624315,28.164710684281374],[83.8842195925713,28.164749070557104],[83.88447450039581,28.164830531888022],[83.88475279186402,28.164837534568413],[83.884923042811,28.164878296007437],[83.88534626329512,28.16507729223023],[83.8857018336751,28.16540932742932],[83.88588852841197,28.165644209108056],[83.88605777846276,28.165723357657978],[83.88614306124906,28.165743739074628],[83.88657059594118,28.16577112185825],[83.8866177385008,28.16577568581721],[83.88669858087493,28.16579387853207],[83.88691053484358,28.165884280532545],[83.88703814504346,28.165915976915326],[83.88754564673353,28.166173677886412],[83.88780092933293,28.166237134399974],[83.88789740337424,28.16623719739444],[83.88808703659599,28.166356982628475],[83.88812617661985,28.166356982374758],[83.8883527603679,28.16643838130152],[83.88854183106754,28.166485957605182],[83.88880818032548,28.16662837546663],[83.8891785691262,28.166800175398695],[83.88937933147893,28.166913209378283],[83.88984513013311,28.16721823637722],[83.8898998380771,28.167281504568184],[83.8900830313584,28.16777590001992],[83.89011141680469,28.168021972285082],[83.89010416341046,28.168308557195715],[83.88961172928309,28.16914098900464],[83.88923752661823,28.16991484130356],[83.88913780161501,28.170300703832492],[83.88906583607236,28.1712350409864],[83.88903851325504,28.17146298353085],[83.88901619292518,28.171501369559234],[83.88898361795457,28.17193468434678],[83.88866737423176,28.172636327859543],[83.88862879655537,28.17304257208713],[83.88865937110201,28.173311150932808],[83.88874071365794,28.173485014362797],[83.88877347512968,28.173541468374356],[83.88901787892182,28.17394790062977],[83.88931086382036,28.174221231217437],[83.88938807973055,28.174318322315855],[83.89027497257058,28.175115744471835],[83.89029216717616,28.175131562192878],[83.8905520140969,28.175395827156706],[83.89064773735166,28.175492980775278],[83.8907487741886,28.17574355479756],[83.89100493193736,28.176226759424154],[83.89124714720913,28.17662418867291],[83.891344308484,28.176807054568503],[83.89134337081701,28.176845441316264],[83.89165104786744,28.17741442073527],[83.89180760584182,28.17780497277654],[83.89210903076372,28.178847967064886],[83.8921452316117,28.178951810250183],[83.89224726952807,28.179164060460597],[83.89229972656356,28.179247584433757],[83.89245703505647,28.17952304063679],[83.89307001350772,28.180764843770717],[83.89321888143995,28.18125923857194],[83.89324964213148,28.18175807324018],[83.89330991473608,28.182010897187865],[83.89332698335137,28.182103424315954],[83.8933373622932,28.182202765997797],[83.89341482904904,28.182448838410256],[83.89345584355081,28.182525548869112],[83.89350823900752,28.18266784018009],[83.893546690138,28.182758116656778],[83.89370337340628,28.18337210995764],[83.8937223806572,28.18346244923262],[83.89373669831511,28.183498584267205],[83.89376020674109,28.183566292260085],[83.89376652190718,28.183584360037155],[83.89377089875104,28.18367013542688],[83.89377977684792,28.183746844828967],[83.89391513955356,28.18436083785582],[83.89388100140671,28.18443529735293],[83.8936187164258,28.184651798676203],[83.89309914666096,28.18485223197886],[83.89283792447173,28.18501909372712],[83.89272857070664,28.18511149502571],[83.89266198366934,28.18520627362176],[83.89260458695394,28.185294236879493],[83.8926083381573,28.185355192367158],[83.8926102135447,28.1853890140357],[83.89273738617428,28.185540371929292],[83.89284498914478,28.185610392504074],[83.89300848680756,28.185763999742996],[83.8931242178043,28.186028140074427],[83.89327339828125,28.186414191173125],[83.89334980175175,28.18679792871632],[83.89334073598702,28.187256126107116],[83.89348841507332,28.187655680556908],[83.89358295091444,28.187960457696306],[83.89363453208665,28.18805529863862],[83.89367979883528,28.188303621222587],[83.89369780587197,28.188448038435162],[83.89368436323109,28.188560884734393],[83.89356956980946,28.188721056551476],[83.89313678290925,28.18903896244366],[83.89310333279772,28.1890954161302],[83.89305731573305,28.189221703412965],[83.89307538449063,28.18936168173015],[83.89345133778808,28.189768176919547],[83.89360720854017,28.189964671668953],[83.89364822378782,28.190043694933117],[83.89365535078306,28.190194927101402],[83.89355525083953,28.190334781086065],[83.89347809683447,28.19042274403958],[83.89319349088696,28.190664002500395],[83.89314884928959,28.190740712488758],[83.89310220611351,28.19089188188784],[83.89309951793487,28.191006977932012],[83.89314209620619,28.191131139164074],[83.89321237257224,28.191219228127952],[83.89325338815662,28.191296000849178],[83.89332653957854,28.19136602086517],[83.89345321281822,28.19144285615965],[83.89353855700159,28.191465488145752],[83.89362321364182,28.19151518961696],[83.89385417493621,28.19170949683532],[83.89390600596299,28.191786207151242],[83.89393520514847,28.19190374144661],[83.89393357924237,28.19197813886709],[83.8938243508183,28.192273725815603],[83.8937293153706,28.19243389733131],[83.89368198493834,28.19262345285623],[83.89369086266989,28.19270016306837],[83.89393101447615,28.192953113107496],[83.8941352161856,28.19320831232657],[83.89432522497975,28.19332584722516],[83.89462533637304,28.19350208642808],[83.89475107122556,28.19361955873232],[83.89483303910036,28.193775354695855],[83.89485267149026,28.193852127077868],[83.8948480448534,28.194041682577858],[83.89490675382099,28.194271938166985],[83.89503148813769,28.194427796832148],[83.89527326504887,28.19462429174501],[83.8956841065569,28.194918003514157],[83.89599084604026,28.195168765137932],[83.89636654870165,28.195541437088245],[83.89723118334588,28.196535167012314],[83.89729420695717,28.1965893705419],[83.89738042607993,28.196682022667822],[83.8978172774844,28.19712015130187],[83.89813026856562,28.197470192022916],[83.8983189641879,28.197646368963998],[83.89836129253301,28.19766674942136],[83.89844401088253,28.19776384093294],[83.89849503041526,28.19771420125264],[83.89860325803282,28.197416363939528],[83.89859919401727,28.19731483367076],[83.89858656448472,28.197231309580545],[83.89857968717729,28.1970687615664],[83.89856668177876,28.196978485261464],[83.89856005435905,28.19689958687837],[83.89855317728845,28.196829504019867],[83.89847458596309,28.196010201028283],[83.89847439823345,28.195926676009197],[83.89856030531516,28.19566266068834],[83.89876438161284,28.195317497229542],[83.89945076355335,28.194539331590875],[83.89998640228204,28.194153780469367],[83.900347911656,28.19410664201364],[83.9006817868219,28.193917274254872],[83.90076944463208,28.193842877288137],[83.9009463861671,28.193617311360303],[83.90102316442422,28.193540664007145],[83.9011131356943,28.193380428788515],[83.90131621236799,28.193105223040128],[83.90145482586824,28.19298575108262],[83.90192381444665,28.19271748505099],[83.90236535436577,28.19257331790576],[83.90245263711726,28.192507923073826],[83.90250296852449,28.192460597022944],[83.90257343197612,28.192377134667126],[83.90259325244223,28.192293610881634],[83.90259644067258,28.19228010650538],[83.9026447092509,28.192101804458407],[83.90266834253245,28.19200471351961],[83.90270679528493,28.191747512784595],[83.90271342296494,28.191472244119698],[83.90269372735682,28.191395409590243],[83.90269772911932,28.19123292426268],[83.90276631807342,28.191061436050965],[83.90296464160825,28.190835932805552],[83.90312520229969,28.190698329194426],[83.90329514020885,28.190468262095447],[83.9035788096594,28.189822947688405],[83.90367234501363,28.189493475754215],[83.90375856450676,28.189238525605926],[83.90382440161476,28.188972260312738],[83.90382802808972,28.188825529175286],[83.90385034880725,28.18878945647534],[83.90385491343841,28.18859758751419],[83.90387729618604,28.188559264202404],[83.90388292348771,28.18833132148327],[83.90390624563197,28.188254549096047],[83.90389805479911,28.188139453436488],[83.90391249741067,28.187990534117976],[83.90419973026597,28.187286515056794],[83.90423192949366,28.187189486507553],[83.90427657197353,28.187115027109716],[83.90436860665714,28.18680818732457],[83.90438648824394,28.186742730274993],[83.9043941162757,28.18671565997742],[83.90457737228529,28.18620344659267],[83.90481940073282,28.18577475904248],[83.90500015554635,28.185569511012268],[83.90520691977095,28.18537557871674],[83.90564689766465,28.185118566592767],[83.9059138720968,28.185005908378198],[83.90664664604164,28.184848424756687],[83.90677594478443,28.184812351414216],[83.9070467333494,28.18470194416818],[83.90713401602112,28.184636549872423],[83.90723311548129,28.184523704680455],[83.9072777567567,28.184449307464263],[83.90733615391468,28.184345527255655],[83.90747139173628,28.184074822590386],[83.90769760125555,28.183930530075447],[83.90792499953189,28.183835877761034],[83.90841036777407,28.18371659323583],[83.90886522598052,28.183513720597272],[83.9091764046054,28.183416879867263],[83.90958118056,28.183322353025485],[83.90989929956427,28.183304472063362],[83.91016971350007,28.183196316237908],[83.91027862858058,28.183126357528014],[83.91073755084969,28.182765626924446],[83.91079163377141,28.182738556892367],[83.91084865430331,28.1826912301374],[83.91091111587936,28.182643840907627],[83.91121066523917,28.18236869831542],[83.91168790655607,28.18201915799573],[83.91199277028035,28.18182522642396],[83.91246963546772,28.181604411700203],[83.91280207229782,28.18153689218183],[83.91327012230364,28.18158909495923],[83.91375374008462,28.18168643608315],[83.91443193181217,28.181770336026524],[83.91477068315665,28.181702816476324],[83.91513431845772,28.18168499877818],[83.91548782549071,28.181628794686542],[83.91582126322537,28.18151838779373],[83.91597675839583,28.181340209879203],[83.9161074327897,28.180807616527822],[83.91611368542047,28.180541287715304],[83.91627218175707,28.180189309983326],[83.91640348187308,28.1800201350939],[83.91702671476565,28.17952392704869],[83.91774623316292,28.17915875716083],[83.91799345114234,28.178980579919696],[83.91821034457658,28.178861107404018],[83.91835627452795,28.178737071322548],[83.91870033998869,28.17853188604144],[83.91962049667417,28.17812389166072],[83.92001164337204,28.17789163633235],[83.92009792515331,28.177864565537266],[83.92044611778631,28.177641374759315],[83.92053208749995,28.177625620875478],[83.92092354663703,28.17738429999776],[83.92109648600828,28.17730996562958],[83.92163312345299,28.177262827202533],[83.92186864954797,28.177267516179498],[83.92191097745933,28.177287834339975],[83.92203996315064,28.177281144771264],[83.92212493291356,28.177301463879623],[83.92241779224223,28.177297149372706],[83.92282838256583,28.177195807392934],[83.92334320015487,28.176778560053407],[83.923401784725,28.176762743430277],[83.92344067461859,28.176704163608044]]]}}]}