{"type":"FeatureCollection","features":[{"type":"Feature","properties":{"province":"Karnali Province","district":"Kalikot","municipality":"Sanni Triveni Rural Municipality","ward":"4","wardNumber":4,"sourceMunicipality":"Sanni Tribeni","sourceType":"Gaunpalika"},"geometry":{"type":"Polygon","coordinates":[[[81.59127040667893,29.247906969553224],[81.59146479759248,29.247585752258004],[81.59265595839405,29.24621292620858],[81.59348991302178,29.24536975134171],[81.59456445817963,29.244523264985034],[81.59587946783579,29.243885594038993],[81.59731470828302,29.243353391478593],[81.59815165685968,29.2429299025799],[81.59922613808003,29.242189385213738],[81.6008976042978,29.240920532614542],[81.6025701919134,29.23996527208147],[81.6036574809085,29.239888136482428],[81.60401528521736,29.241116313961374],[81.60498057361062,29.242163507301033],[81.60498674687251,29.243215002957577],[81.60451804246236,29.245004335396818],[81.6046487088848,29.245561124832935],[81.60476418192542,29.246054770865975],[81.60656585740503,29.246676161999254],[81.6064511752371,29.24751840721362],[81.60609964688989,29.248887429767823],[81.60542888156535,29.24957875000957],[81.60562345567025,29.24951917236666],[81.60873583781476,29.248663332531166],[81.6107699951436,29.248024481214678],[81.61292064343326,29.246753195145665],[81.6148345690464,29.2460087490256],[81.61651339239324,29.24610479674507],[81.61742736144944,29.246290111532097],[81.61749476376262,29.246165701508033],[81.618010091035,29.24574802238085],[81.6180908218749,29.244840631554727],[81.61834461855217,29.24404515151805],[81.61835481177563,29.243923241158928],[81.61850539592561,29.242114961815876],[81.6186273981278,29.240904983602533],[81.61870788015737,29.239959082212494],[81.6187883627367,29.239013242870517],[81.61938710236441,29.23814168154508],[81.61970666483055,29.237909992325047],[81.62033109666373,29.23745580374669],[81.6217937843843,29.2369209767544],[81.62252269508593,29.23631280642657],[81.62281901013358,29.235327583803027],[81.6238471032802,29.23430054410922],[81.62543690678544,29.233424367831294],[81.62663513469037,29.231945198114303],[81.62818017508032,29.23080288072825],[81.62899549368271,29.230232659830346],[81.62950651662855,29.229133531000755],[81.629911117918,29.228411823850337],[81.63102842643056,29.227801782540265],[81.63196992408798,29.22673891991721],[81.63248157056772,29.225752698940408],[81.6326292710911,29.224459008558853],[81.6317070505636,29.224151970298596],[81.63135409564687,29.22469975148213],[81.62907989530461,29.226373528917012],[81.62533870282249,29.227866923685813],[81.62402182166403,29.228342423208197],[81.62279716290927,29.228747590986394],[81.62163184006644,29.229093741289784],[81.62123512530695,29.229212958714143],[81.61925061362545,29.229802108749762],[81.61255774273255,29.230995069297922],[81.61103141009919,29.231209676360066],[81.6096834637311,29.231021730781578],[81.60890304219527,29.2310840522672],[81.6082206541629,29.23130829816819],[81.60805115221456,29.231363187475445],[81.60702094159278,29.23182831182666],[81.60595597131572,29.232076747580482],[81.60421730646175,29.232387067842975],[81.60100551934794,29.23277164358223],[81.60029480493995,29.233208075764345],[81.59919362178262,29.23420141677054],[81.59805655505274,29.234885729502377],[81.5966723358708,29.23532065301519],[81.59574854009068,29.235848297315485],[81.5949671098539,29.236406952092633],[81.5933684890125,29.237278314105843],[81.59142448847787,29.23813541780198],[81.59105865591532,29.23851840076716],[81.59087282260614,29.239403720187816],[81.59104638680796,29.23950006288684],[81.59139983618938,29.239333768586842],[81.59167294526581,29.238951159283374],[81.59178499268563,29.238641507144898],[81.59235896804257,29.238119986151517],[81.59260599627115,29.238337740156183],[81.59271266072015,29.23843208204893],[81.59210003651934,29.23949988772492],[81.59191257905188,29.240243041350844],[81.5917818355054,29.240654410858518],[81.59132133717503,29.241443948903605],[81.59122129788847,29.241503090623176],[81.59110000135001,29.241550977641893],[81.59085703192153,29.241689703303695],[81.59030963406417,29.241809482407607],[81.58906866366027,29.24178789838031],[81.58822946660258,29.242055592047052],[81.58681429046472,29.24295546471657],[81.58249292553121,29.245348303257526],[81.58166127975021,29.246500444456267],[81.58123741567374,29.247533616981336],[81.58051206196106,29.248610862322654],[81.57934147815514,29.249556938671596],[81.57815763500075,29.25078059633238],[81.57731686890038,29.251359756140488],[81.57716099566454,29.25143934000153],[81.57793991403199,29.251641346148297],[81.57914435651271,29.252581573035616],[81.5802291278873,29.253628455580134],[81.58068141677587,29.254091283888606],[81.58166524375736,29.253096378861187],[81.58369011033449,29.250774597094995],[81.58487958701092,29.249085990046307],[81.58690370574469,29.246660302372195],[81.58845387897918,29.245179948854332],[81.58855648306819,29.245012526045123],[81.58917545865853,29.245598767350366],[81.59038114865824,29.246748807146993],[81.59127040667893,29.247906969553224]]]}},{"type":"Feature","properties":{"province":"Karnali Province","district":"Kalikot","municipality":"Sanni Triveni Rural Municipality","ward":"5","wardNumber":5,"sourceMunicipality":"Sanni Tribeni","sourceType":"Gaunpalika"},"geometry":{"type":"Polygon","coordinates":[[[81.61685768356624,29.247845249033986],[81.6168979578317,29.247265141998504],[81.61742736144944,29.246290111532097],[81.61651339239324,29.24610479674507],[81.6148345690464,29.2460087490256],[81.61292064343326,29.246753195145665],[81.6107699951436,29.248024481214678],[81.60873583781476,29.248663332531166],[81.60562345567025,29.24951917236666],[81.60542888156535,29.24957875000957],[81.60609964688989,29.248887429767823],[81.6064511752371,29.24751840721362],[81.60656585740503,29.246676161999254],[81.60476418192542,29.246054770865975],[81.6046487088848,29.245561124832935],[81.60451804246236,29.245004335396818],[81.60498674687251,29.243215002957577],[81.60498057361062,29.242163507301033],[81.60401528521736,29.241116313961374],[81.6036574809085,29.239888136482428],[81.6025701919134,29.23996527208147],[81.6008976042978,29.240920532614542],[81.59922613808003,29.242189385213738],[81.59815165685968,29.2429299025799],[81.59731470828302,29.243353391478593],[81.59587946783579,29.243885594038993],[81.59456445817963,29.244523264985034],[81.59348991302178,29.24536975134171],[81.59265595839405,29.24621292620858],[81.59146479759248,29.247585752258004],[81.59127040667893,29.247906969553224],[81.59134755984573,29.248005936689243],[81.59255206296457,29.24905213306846],[81.59387511823674,29.24967808142785],[81.59471643164778,29.250103091062734],[81.59471699313329,29.250200119726774],[81.5955626098336,29.251247874774958],[81.59652665084255,29.25208300607031],[81.59832894970475,29.252812803551702],[81.5994114774855,29.253333718863225],[81.60041591595031,29.253690272819465],[81.60061616878573,29.254379851718824],[81.60122063570532,29.25521660416305],[81.60278683614202,29.25647092864426],[81.60362821333636,29.256783029893455],[81.60470774685106,29.256884196546135],[81.60662741003527,29.257085340640753],[81.60878641621781,29.257181518827693],[81.61118594809446,29.2574842603423],[81.61114180269163,29.257721767321375],[81.6112319584008,29.257938144675958],[81.61101412029525,29.258333507698264],[81.61184024960966,29.258104012177906],[81.61234175154496,29.25818454172431],[81.61318514255508,29.25760306901571],[81.61348775854628,29.25751773425179],[81.61536091600004,29.256988913501637],[81.61647816309411,29.256304538238663],[81.61652675516874,29.255503240958483],[81.61655664950185,29.255017974261122],[81.617280508943,29.253541112361276],[81.6172278875068,29.251952708378415],[81.61687577236373,29.25074485010562],[81.6165677337437,29.24968572259639],[81.61681859882452,29.24840053678609],[81.61685768356624,29.247845249033986]]]}},{"type":"Feature","properties":{"province":"Karnali Province","district":"Kalikot","municipality":"Sanni Triveni Rural Municipality","ward":"6","wardNumber":6,"sourceMunicipality":"Sanni Tribeni","sourceType":"Gaunpalika"},"geometry":{"type":"Polygon","coordinates":[[[81.5772999252234,29.300322366723965],[81.57738727091578,29.300283606859843],[81.57971167254641,29.299088846541164],[81.58090907648538,29.298338952995472],[81.58103162424425,29.298270747004583],[81.58180092300468,29.29784313054279],[81.58268013922526,29.297410576038946],[81.58366070480284,29.297018160057426],[81.58383071069699,29.296814289982912],[81.58451279385129,29.296001184788533],[81.58510428112744,29.29521558558595],[81.5858832136655,29.294458498404747],[81.58648294686225,29.29410833981089],[81.58732570728307,29.293937674974217],[81.58772273862628,29.29358838976277],[81.58790694167968,29.293052797319245],[81.58799960452201,29.292826731673433],[81.58825234062135,29.291900400271203],[81.58817087908375,29.291390812646796],[81.58832263580906,29.290688296231306],[81.58854509842939,29.290427847273573],[81.58912720212416,29.289926582147697],[81.58976063535835,29.289610121233675],[81.59011652388921,29.289398688957586],[81.5906674954804,29.288631282781715],[81.59157759745788,29.288209794421757],[81.59212775795139,29.28730247234138],[81.59224455815297,29.286920549067208],[81.59219448758249,29.286160387849222],[81.59219787054082,29.28573838978416],[81.59251374396979,29.285493258501358],[81.59330679782099,29.28531602814651],[81.59392710116296,29.28497474790846],[81.59413749588238,29.284858779124363],[81.5946086251335,29.283987841791646],[81.59472249110175,29.28331264481742],[81.59472012189144,29.282908713453153],[81.5948207275228,29.2825946228227],[81.59513467368437,29.281595833774045],[81.5952440991657,29.28104473577818],[81.59495137073982,29.28050226107902],[81.59449239617466,29.279705459273117],[81.59415746625224,29.279090899928157],[81.59411270809441,29.27847509359046],[81.59385993801752,29.277605210685312],[81.5939211523897,29.277397337886217],[81.59426922840255,29.276953461610603],[81.59455459806397,29.27622562684112],[81.59463525841923,29.275934167518386],[81.5950456098462,29.275352376104557],[81.59545727226603,29.27498952500913],[81.59602769684155,29.273608188703946],[81.59614893854918,29.273102166447664],[81.59627080308444,29.272702238241855],[81.59630988572688,29.272338756651553],[81.59634934343075,29.27204748435679],[81.59638611841847,29.271289137230312],[81.59667273695226,29.270671835293225],[81.59720619830136,29.27012330493872],[81.59774028550333,29.26946880675369],[81.59815232176936,29.26917810191918],[81.59816895447142,29.269058441259613],[81.59832821999782,29.267906918228306],[81.59844834261503,29.266985649719114],[81.59880123723894,29.26626425471342],[81.5997978751601,29.265612137221527],[81.60038378962518,29.265350004627436],[81.60082790134467,29.264941827255562],[81.60161795674527,29.264608738834827],[81.60201624680482,29.263731486558445],[81.60219269253982,29.263432838132697],[81.60301576456723,29.26280628929463],[81.60413657719663,29.262038514743352],[81.60435041088434,29.261865966557675],[81.60474831430011,29.26169948493052],[81.60524519580972,29.26139490151707],[81.60556775676223,29.261325697410324],[81.60574019688688,29.261336202119182],[81.6062247536118,29.26145361734945],[81.6067547652479,29.26165430750633],[81.60706638258075,29.261691321366214],[81.60740313613812,29.261628744656345],[81.60754900485485,29.26160105109355],[81.60764116609444,29.261528405493003],[81.60766280186797,29.26136585829717],[81.60762810222816,29.26126445269807],[81.60748956178213,29.260466279583305],[81.60766669589975,29.2601743839656],[81.60795486915657,29.2600534769554],[81.60848238738593,29.259721573159563],[81.60889536050988,29.259494073714567],[81.60914402146189,29.259224372102377],[81.60950216119163,29.258974553404933],[81.6103791848766,29.258774191670273],[81.61046459235111,29.258753499295246],[81.61101412029525,29.258333507698264],[81.6112319584008,29.257938144675958],[81.61114180269163,29.257721767321375],[81.61118594809446,29.2574842603423],[81.60878641621781,29.257181518827693],[81.60662741003527,29.257085340640753],[81.60470774685106,29.256884196546135],[81.60362821333636,29.256783029893455],[81.60278683614202,29.25647092864426],[81.60122063570532,29.25521660416305],[81.60061616878573,29.254379851718824],[81.60041591595031,29.253690272819465],[81.5994114774855,29.253333718863225],[81.59832894970475,29.252812803551702],[81.59652665084255,29.25208300607031],[81.5955626098336,29.251247874774958],[81.59471699313329,29.250200119726774],[81.59471643164778,29.250103091062734],[81.59387511823674,29.24967808142785],[81.59255206296457,29.24905213306846],[81.59134755984573,29.248005936689243],[81.59127040667893,29.247906969553224],[81.59038114865824,29.246748807146993],[81.58917545865853,29.245598767350366],[81.58855648306819,29.245012526045123],[81.58845387897918,29.245179948854332],[81.58690370574469,29.246660302372195],[81.58487958701092,29.249085990046307],[81.58369011033449,29.250774597094995],[81.58166524375736,29.253096378861187],[81.58068141677587,29.254091283888606],[81.5802291278873,29.253628455580134],[81.57914435651271,29.252581573035616],[81.57793991403199,29.251641346148297],[81.57716099566454,29.25143934000153],[81.57496583311912,29.252556703952486],[81.57429232234172,29.252911737652983],[81.57320252388124,29.253487331907994],[81.57206551516852,29.254480546972466],[81.57082315745038,29.255162857045487],[81.5696615821735,29.255801906091385],[81.56890402894918,29.256779996824168],[81.56812240593929,29.257713011161464],[81.5675179806807,29.258241346494426],[81.56696113639612,29.258753739743927],[81.56585458065928,29.259466998573075],[81.565019329641,29.25920203609462],[81.56472396617866,29.259313815281956],[81.56432305489388,29.25988191520557],[81.56378351509031,29.26132614457377],[81.56315332858571,29.261971888775932],[81.5625172080595,29.262243148273523],[81.56120062905347,29.26326637021119],[81.56083526479188,29.265745593464285],[81.5608088142923,29.265964594875648],[81.56073778367758,29.266161213724214],[81.56083567823777,29.26734549987964],[81.56096878402059,29.26780526132108],[81.56112256677298,29.26943836714027],[81.56134713973248,29.270276928366734],[81.56127027904435,29.27151153943657],[81.56190043303303,29.272968849739332],[81.56195700817116,29.273541768071773],[81.56215057666464,29.27387943178479],[81.56230594331961,29.274174395116486],[81.56173996886687,29.274801885092614],[81.56149887341455,29.275069148242217],[81.55918467568887,29.27548730568409],[81.55712683902036,29.275013017886586],[81.55598677085,29.275631560602616],[81.55520752489153,29.276476486730836],[81.55514743629598,29.27666854256722],[81.55501906827575,29.27708428746287],[81.55493747174586,29.277332859557212],[81.55477377630565,29.277875141962294],[81.55331082783024,29.279011707319114],[81.55285145306391,29.279855324617802],[81.54991887579614,29.28151702729447],[81.54819463859562,29.28279900769131],[81.54688856735454,29.28355583883655],[81.54638424164987,29.284198771515847],[81.54635344947785,29.286146342381763],[81.5458840712497,29.286942570308078],[81.5455992032885,29.28758681824356],[81.54512388539666,29.288355975790182],[81.54469033218994,29.289246856710793],[81.54386819662267,29.28991816905567],[81.54335362357423,29.290091775971764],[81.54282529257755,29.29045943982044],[81.54206430146651,29.291369697728538],[81.54183658569266,29.291641400389217],[81.54081254188438,29.29356589000176],[81.53915432355043,29.295204100571336],[81.5378616118698,29.297341774311754],[81.53767321171537,29.298362509475734],[81.53701449851302,29.300021424895824],[81.53688824060252,29.301466160239805],[81.53726118233357,29.30225895934786],[81.53765017807346,29.304001662696795],[81.53735510879449,29.3052010736349],[81.53620234524674,29.30605874905294],[81.53361540239075,29.307526835567508],[81.53358720326882,29.307542715166438],[81.53312483167682,29.308129068839694],[81.53195374618167,29.309065704749408],[81.53114986882159,29.30970300708399],[81.52948679068037,29.31023770589551],[81.52805465668473,29.312001144052697],[81.52692865049096,29.312962411939544],[81.52540718675796,29.313638591764683],[81.52457854503761,29.314607678923416],[81.52398126650677,29.31788875882284],[81.52319131758696,29.3193925031052],[81.52267245559727,29.321905984449696],[81.5226783690096,29.32356684650704],[81.52251048912183,29.3238496146312],[81.52251954647691,29.324357263530146],[81.52284790561902,29.32538044229307],[81.52326467450756,29.326306282051398],[81.5241486161131,29.32754384299493],[81.5252423808057,29.329177835266997],[81.52607698407107,29.330848898081644],[81.52641135085783,29.331517723063683],[81.5265077436835,29.332738144766708],[81.5274468898576,29.334194395965167],[81.52753972817901,29.334828144735436],[81.52783909013952,29.334955561482605],[81.52806142801025,29.334749315654367],[81.52819629468941,29.334561512183004],[81.5285159894287,29.333878753600114],[81.52861603656747,29.333307462112458],[81.52875396913068,29.33296617600341],[81.52911480216969,29.332398326565905],[81.52983115185985,29.33149513230291],[81.53017116316673,29.331008618968433],[81.53028114508564,29.330852512397485],[81.53073145159081,29.330171505234702],[81.53085518988118,29.329945315294303],[81.53095848224172,29.329755386332646],[81.53122978004754,29.329300755856384],[81.5314973863929,29.32901079888208],[81.53154152910425,29.32896328594014],[81.53203303687691,29.328399500982844],[81.53221736435952,29.32794286908502],[81.53237563092294,29.32668537716647],[81.53257427566481,29.326264819168326],[81.53278636320547,29.325814939559926],[81.53283738827574,29.325471714738903],[81.53305491229663,29.325220393693982],[81.53319509298125,29.325057347478594],[81.53390155678008,29.324609975021392],[81.53404186157239,29.324492067186306],[81.53407906383006,29.324460308325367],[81.53466010798017,29.32378105327407],[81.53502600889341,29.322985261304588],[81.53520514299998,29.322758884430367],[81.53520714584798,29.322646038923114],[81.53539097188549,29.322227856509453],[81.53548313578321,29.321999603447257],[81.53558249539931,29.321428311933293],[81.53567378198063,29.321274392883687],[81.53580846131689,29.321050453422885],[81.53608226191763,29.320483040282486],[81.53618162123023,29.319911748919484],[81.53631973888761,29.319746452168214],[81.536404897419,29.319646736487634],[81.53671420563546,29.319462811535033],[81.53710829513803,29.319352908727648],[81.5381119904262,29.31925407896749],[81.53868771614219,29.31880720501488],[81.53904429452395,29.31843116162095],[81.53917834781666,29.31833132182608],[81.53939367870608,29.318398156413053],[81.54039368221845,29.31845274632443],[81.5419508922196,29.31893384363251],[81.5424751549987,29.318866268099377],[81.54286924367466,29.318758616017377],[81.54313365845893,29.318610887816092],[81.54497180125979,29.318181409036995],[81.54563243267557,29.31784919440568],[81.54603127623649,29.31754973631529],[81.54642636634924,29.31740369838211],[81.54735704474028,29.316652927241734],[81.54759282272671,29.316566216813232],[81.54757869402806,29.316466999837374],[81.54771662684253,29.316125714298177],[81.5480259349773,29.31593941330305],[81.5482918519848,29.315714913214823],[81.54873940595029,29.31514893991427],[81.54900538517542,29.314924439376576],[81.54945813264973,29.31412827391931],[81.54950646654557,29.313900145358026],[81.54981984188942,29.313524288484764],[81.55021499400637,29.31337818811226],[81.55217999539973,29.31310381839406],[81.55270575924752,29.312959469608668],[81.55285262929615,29.31285731657895],[81.55297123782984,29.31277335564074],[81.55301957250302,29.312542976237236],[81.55308805405451,29.311398641710756],[81.55327225553685,29.310944260421014],[81.55372237532244,29.310263191461058],[81.5538602451017,29.30992190511345],[81.5538654383025,29.30969396330332],[81.55370075758007,29.309232076115826],[81.55380518516488,29.308432843071554],[81.55364112959336,29.30797089239548],[81.55378675852488,29.307286569308367],[81.55388379926522,29.307019866782397],[81.55392569169233,29.30690689683028],[81.55415297237538,29.306452391131835],[81.55455738503267,29.30588654229474],[81.55478729356727,29.30531694064822],[81.55486495248795,29.305036796773667],[81.55488196020447,29.304975779438028],[81.55501676394628,29.304785662634377],[81.55532838842201,29.304448192562596],[81.55559380376036,29.304259764895995],[81.55638348301615,29.304006012512556],[81.55729952068809,29.30390511840723],[81.55848053557274,29.30365649751049],[81.55883285965048,29.303472197272477],[81.55901186877736,29.30324588312468],[81.55907283176013,29.303094402291688],[81.5591039696419,29.303017504586883],[81.5591091630314,29.30278956280681],[81.55878555710555,29.301637846297535],[81.55872529171366,29.301211596019225],[81.55870991177373,29.301103376216954],[81.55872736890959,29.300299953671384],[81.55873149830353,29.300105896630466],[81.55873299947308,29.300033687579155],[81.55913735018088,29.299467839284503],[81.55953494242421,29.29920664236058],[81.56019175723458,29.2990256595487],[81.5607132668221,29.299073117428783],[81.56105789603122,29.299229604348106],[81.56148586558011,29.299582087881344],[81.56203524985693,29.30035375856428],[81.56267867489943,29.300784267553674],[81.56320287493146,29.300716628323315],[81.56373158055617,29.30041879723735],[81.564388332563,29.30023775202896],[81.56478035684444,29.300245133969167],[81.56501875776786,29.30040880978641],[81.56547017698834,29.300560359663017],[81.56612655340284,29.300417700804154],[81.56648675438345,29.30026722315308],[81.56682901248367,29.300123497413455],[81.56709186351566,29.30005260512999],[81.56852897162628,29.30003736768175],[81.56931083051771,29.300124277682198],[81.56970429329957,29.300054886441384],[81.57048658954655,29.30010572334453],[81.5708801154491,29.300036332450308],[81.5715328009934,29.300044842265724],[81.57179264807385,29.300127182436245],[81.57238499540293,29.300284860206478],[81.57270148917063,29.300369264495004],[81.57386911531248,29.300732072058782],[81.57503417526294,29.30120766253588],[81.57555687435087,29.301216671783816],[81.57581972549048,29.30114559073941],[81.57634986923256,29.300770987154063],[81.57687813663536,29.300511417946087],[81.57703476037557,29.300440836661906],[81.57713110961241,29.30039751171959],[81.5772999252234,29.300322366723965]]]}},{"type":"Feature","properties":{"province":"Karnali Province","district":"Kalikot","municipality":"Sanni Triveni Rural Municipality","ward":"7","wardNumber":7,"sourceMunicipality":"Sanni Tribeni","sourceType":"Gaunpalika"},"geometry":{"type":"Polygon","coordinates":[[[81.62348518816005,29.31514725477786],[81.62273721716403,29.315159749210558],[81.62195392033767,29.315070901610856],[81.62143710375852,29.31475742944125],[81.62040985193013,29.313823455434022],[81.61977719024259,29.312781642500994],[81.61883659629558,29.311887932496745],[81.61836892709692,29.31130788146405],[81.61780934487403,29.31095620926253],[81.617454774057,29.310867616990862],[81.61715884943709,29.310792278871496],[81.61651304412544,29.31064635367655],[81.61649097329789,29.310623847122145],[81.61625439452472,29.309920888036416],[81.61523007764607,29.309241926969555],[81.61516668083986,29.309086505766857],[81.61514406836856,29.307676278756535],[81.61500939907296,29.307227833650835],[81.61516535241759,29.305972529273717],[81.61518623827509,29.305803167241336],[81.61543657510725,29.306336827196855],[81.61595301443708,29.30679928120421],[81.61653917148868,29.30697934101584],[81.61980672380243,29.307133423685933],[81.62112553098524,29.307544747325068],[81.62176984176305,29.307340882512182],[81.6230953575455,29.306522345157237],[81.62364356796989,29.306379872347783],[81.62400239133613,29.306441394163222],[81.6277498983314,29.30509473017751],[81.62974953786934,29.304751277955567],[81.63057191791583,29.304404435251307],[81.63203537526296,29.30270732921258],[81.6330890958757,29.302203631267453],[81.63041998783773,29.30011098667491],[81.63020321891433,29.300033023696386],[81.62943005853279,29.29948610399968],[81.62926362608731,29.299100989273768],[81.6283993656435,29.29870567624641],[81.62800740493157,29.29869848180074],[81.6279635135028,29.298680663949014],[81.627531851442,29.298499918449522],[81.6270581767274,29.298188446788274],[81.6260216646363,29.297712669856068],[81.6255913174685,29.297439397635944],[81.62527570346242,29.29708435175637],[81.62524913137423,29.2970551559861],[81.6250378670959,29.296819208519615],[81.62447984845686,29.296390827034916],[81.62397354337506,29.295580771110348],[81.62356564433047,29.295183336658873],[81.62242384419729,29.294640351867848],[81.62106122365222,29.293132582040318],[81.62051878522207,29.291977486614197],[81.6202755096782,29.29165826536724],[81.62020479680962,29.291566049294456],[81.62013671004414,29.291476085011862],[81.61995526951267,29.291269335202916],[81.61962608718278,29.290896221833087],[81.6181246592216,29.289727611201997],[81.61790783072071,29.28951873496344],[81.61739839366581,29.289029210394997],[81.6169334159829,29.288334063864795],[81.61664106277541,29.28775770387463],[81.61649982757552,29.287397346076183],[81.61647500600414,29.287334264990047],[81.61609249315431,29.28687118734559],[81.61540498933155,29.286402729984825],[81.61523161143191,29.286360652969798],[81.61478063046746,29.286170966412367],[81.61467033862479,29.286124076887248],[81.61449733741746,29.286043613866543],[81.61411200790796,29.285734018148677],[81.61373243578299,29.28511520732941],[81.61343138671536,29.284920271538507],[81.61309013686481,29.28457210297549],[81.6129861017949,29.284281454103088],[81.61296647093474,29.284227375596227],[81.61289157550978,29.283652331108456],[81.61287100887647,29.283433517127445],[81.61280917265594,29.28342251259576],[81.612682502154,29.283229079902345],[81.61220957793269,29.282917544815614],[81.61184769558457,29.282551433869678],[81.61033201816886,29.28101715353459],[81.60968584071335,29.28066360492422],[81.60961256568113,29.280458543679522],[81.60947970896575,29.280086870960943],[81.60914358905869,29.27951069815644],[81.60887511929646,29.279053872877476],[81.6088491107398,29.279008859979808],[81.60829522143388,29.27838854667659],[81.60823063583666,29.2783414693779],[81.6081253470267,29.278265257926854],[81.60786612610696,29.278076887416827],[81.6070119388727,29.277261638324706],[81.60615956658971,29.27633354402714],[81.60574098275387,29.2755254265423],[81.60488986112131,29.274556632384737],[81.60458987565134,29.2743233109998],[81.60428445575793,29.27379896560034],[81.60425319379308,29.273744950048552],[81.60381898490714,29.272564473785792],[81.603758777349,29.27240229965693],[81.60341508740213,29.272166914138946],[81.60280911050417,29.271966536032462],[81.60242165368187,29.271731337753543],[81.60233624794832,29.27165500228155],[81.60216994010531,29.2712698865416],[81.60202945371236,29.271011121891497],[81.60196049195446,29.27088495865163],[81.60140923066625,29.270151862618036],[81.60041817877983,29.26935524275175],[81.60029538445512,29.26925646157031],[81.60012763773753,29.26894811918677],[81.60013689321066,29.268781070598475],[81.60001685558915,29.26827842223114],[81.60008726305291,29.2678944979978],[81.60029003428245,29.267469312954283],[81.6006087242855,29.26705719592744],[81.60094254542099,29.266606629392758],[81.60120377506084,29.266260218614008],[81.60139185213538,29.26587573275749],[81.60155104115469,29.265592964642547],[81.60159262584268,29.26522048036218],[81.60161795674527,29.264608738834827],[81.60082790134467,29.264941827255562],[81.60038378962518,29.265350004627436],[81.5997978751601,29.265612137221527],[81.59880123723894,29.26626425471342],[81.59844834261503,29.266985649719114],[81.59832821999782,29.267906918228306],[81.59816895447142,29.269058441259613],[81.59815232176936,29.26917810191918],[81.59774028550333,29.26946880675369],[81.59720619830136,29.27012330493872],[81.59667273695226,29.270671835293225],[81.59638611841847,29.271289137230312],[81.59634934343075,29.27204748435679],[81.59630988572688,29.272338756651553],[81.59627080308444,29.272702238241855],[81.59614893854918,29.273102166447664],[81.59602769684155,29.273608188703946],[81.59545727226603,29.27498952500913],[81.5950456098462,29.275352376104557],[81.59463525841923,29.275934167518386],[81.59455459806397,29.27622562684112],[81.59426922840255,29.276953461610603],[81.5939211523897,29.277397337886217],[81.59385993801752,29.277605210685312],[81.59411270809441,29.27847509359046],[81.59415746625224,29.279090899928157],[81.59449239617466,29.279705459273117],[81.59495137073982,29.28050226107902],[81.5952440991657,29.28104473577818],[81.59513467368437,29.281595833774045],[81.5948207275228,29.2825946228227],[81.59472012189144,29.282908713453153],[81.59472249110175,29.28331264481742],[81.5946086251335,29.283987841791646],[81.59413749588238,29.284858779124363],[81.59392710116296,29.28497474790846],[81.59412748250091,29.28546801984248],[81.59389175522223,29.286313015217267],[81.59353616607763,29.287370696038742],[81.59378361926686,29.288425633780975],[81.59402919945883,29.289268509082092],[81.5950247537469,29.290035808014252],[81.59512146564326,29.29084548397732],[81.59536948000591,29.292006452605058],[81.59513312723244,29.29285144798143],[81.5955028091204,29.294221791810077],[81.59586874798785,29.295064105123824],[81.59647602740728,29.29601139017481],[81.59720616029433,29.297274019105714],[81.59733200617309,29.29822348688275],[81.59769925463549,29.29927786226594],[81.59830472526237,29.299906991941306],[81.59974715503306,29.299478570561398],[81.60047111366677,29.299687389788968],[81.60110365425854,29.30053527103734],[81.6009599684131,29.300951141144846],[81.6010902416796,29.302638387616845],[81.60110015708705,29.30432850903231],[81.60110757889962,29.30559438041638],[81.60147863146663,29.307280628690858],[81.60208728468169,29.30833388271861],[81.6031748744247,29.309066860225148],[81.6040186932137,29.309169087754125],[81.60497912737044,29.308742786702545],[81.60570570664471,29.309371291792516],[81.60595646305934,29.311060289517982],[81.60608430486184,29.31232566296272],[81.60633256815068,29.313590411668276],[81.6071845568724,29.315064604048324],[81.60887917901819,29.31653486684874],[81.61105342571965,29.317684792582813],[81.61202595998212,29.319158298304746],[81.61311754146824,29.320525274459342],[81.61360602271037,29.321682869313555],[81.61433721695258,29.32305146734772],[81.61506391979364,29.323788253867242],[81.6158734093634,29.32416137274962],[81.61595513328642,29.32382696339505],[81.61626938393779,29.323417159386146],[81.61723988929118,29.322622874684235],[81.61801600911583,29.321829463412723],[81.61835433265381,29.32135626661868],[81.61871785210009,29.320905575763543],[81.61920029778844,29.32009096793661],[81.61951567306623,29.31977131522849],[81.6197335097779,29.319492736138063],[81.61978065519294,29.319298491469997],[81.61985156414244,29.31889199820343],[81.61999599824811,29.318611480749535],[81.62112402364652,29.31631588265689],[81.62266693096215,29.315771615589224],[81.62336413904826,29.315355377202042],[81.62348518816005,29.31514725477786]]]}},{"type":"Feature","properties":{"province":"Karnali Province","district":"Kalikot","municipality":"Sanni Triveni Rural Municipality","ward":"9","wardNumber":9,"sourceMunicipality":"Sanni Tribeni","sourceType":"Gaunpalika"},"geometry":{"type":"Polygon","coordinates":[[[81.633415341826,29.373158197497673],[81.63394430634631,29.37225987780602],[81.63523843316912,29.371664780565794],[81.63695329411478,29.370275580529654],[81.63716140852166,29.367921017233297],[81.637412921806,29.365076623497824],[81.63782771383192,29.36446763701271],[81.63823456121592,29.364118226713103],[81.63904349386378,29.364139116930165],[81.64087873899668,29.365132241840083],[81.64177920943514,29.36494507221385],[81.64237838492538,29.364263004437046],[81.64277930497042,29.363087664029194],[81.64203900218372,29.360372171612152],[81.64265707317739,29.358814534382024],[81.64268024342077,29.352159894996852],[81.64173424070292,29.349174571253865],[81.64150297625638,29.348444603975214],[81.6408777177636,29.345672096696273],[81.6408572117425,29.345579693708988],[81.64063547553495,29.34318661411676],[81.64067361808335,29.342999122541887],[81.6407754142733,29.342497663696474],[81.63792491587043,29.3409431124872],[81.63681069152118,29.340169935895723],[81.63608779655061,29.339785251828836],[81.63548425885777,29.339542174112655],[81.63525386002554,29.339450768972153],[81.63461474584582,29.33918530898208],[81.63405885102222,29.338944232098235],[81.63339078974762,29.338559298549644],[81.63283358488172,29.338101595355795],[81.63236047158244,29.337812755367565],[81.63138523817416,29.337014009763685],[81.63057588066462,29.33616944009228],[81.63001630600519,29.335321372743323],[81.62983755369416,29.335044664594346],[81.6290926003127,29.333892880388703],[81.62653071786237,29.331984666204445],[81.6258914174832,29.331671754802798],[81.62477993796288,29.331313636756583],[81.62436340536972,29.331218604128697],[81.62355822913759,29.33093126024737],[81.62261162830521,29.33027905811408],[81.62225043116436,29.330158893707022],[81.6212180548006,29.329046742570032],[81.62096640110494,29.328732022283667],[81.62068898453524,29.328636303687084],[81.62030015079162,29.328541021593473],[81.61943801761915,29.328107259102563],[81.61896359461349,29.327574722919167],[81.61783698885773,29.326936834955156],[81.61733692679113,29.32674508529238],[81.61733337191956,29.32616285222322],[81.61635807641946,29.32531671731894],[81.61584806331918,29.325718454027378],[81.61569694465938,29.325644681230944],[81.61564711739054,29.32538541680382],[81.61562229927705,29.32511252410753],[81.61583576796762,29.324317231167765],[81.6158734093634,29.32416137274962],[81.61506391979364,29.323788253867242],[81.61433721695258,29.32305146734772],[81.61360602271037,29.321682869313555],[81.61311754146824,29.320525274459342],[81.61202595998212,29.319158298304746],[81.61105342571965,29.317684792582813],[81.60887917901819,29.31653486684874],[81.6071845568724,29.315064604048324],[81.60633256815068,29.313590411668276],[81.60608430486184,29.31232566296272],[81.60595646305934,29.311060289517982],[81.60570570664471,29.309371291792516],[81.60497912737044,29.308742786702545],[81.6040186932137,29.309169087754125],[81.6031748744247,29.309066860225148],[81.60208728468169,29.30833388271861],[81.60147863146663,29.307280628690858],[81.60110757889962,29.30559438041638],[81.60110015708705,29.30432850903231],[81.6010902416796,29.302638387616845],[81.6009599684131,29.300951141144846],[81.60110365425854,29.30053527103734],[81.60047111366677,29.299687389788968],[81.59974715503306,29.299478570561398],[81.59830472526237,29.299906991941306],[81.59769925463549,29.29927786226594],[81.59733200617309,29.29822348688275],[81.59720616029433,29.297274019105714],[81.59647602740728,29.29601139017481],[81.59586874798785,29.295064105123824],[81.5955028091204,29.294221791810077],[81.59513312723244,29.29285144798143],[81.59536948000591,29.292006452605058],[81.59512146564326,29.29084548397732],[81.5950247537469,29.290035808014252],[81.59402919945883,29.289268509082092],[81.59378361926686,29.288425633780975],[81.59353616607763,29.287370696038742],[81.59389175522223,29.286313015217267],[81.59412748250091,29.28546801984248],[81.59392710116296,29.28497474790846],[81.59330679782099,29.28531602814651],[81.59251374396979,29.285493258501358],[81.59219787054082,29.28573838978416],[81.59219448758249,29.286160387849222],[81.59224455815297,29.286920549067208],[81.59212775795139,29.28730247234138],[81.59157759745788,29.288209794421757],[81.5906674954804,29.288631282781715],[81.59011652388921,29.289398688957586],[81.58976063535835,29.289610121233675],[81.58912720212416,29.289926582147697],[81.58854509842939,29.290427847273573],[81.58832263580906,29.290688296231306],[81.58817087908375,29.291390812646796],[81.58825234062135,29.291900400271203],[81.58799960452201,29.292826731673433],[81.58790694167968,29.293052797319245],[81.58772273862628,29.29358838976277],[81.58732570728307,29.293937674974217],[81.58648294686225,29.29410833981089],[81.5858832136655,29.294458498404747],[81.58510428112744,29.29521558558595],[81.58451279385129,29.296001184788533],[81.58383071069699,29.296814289982912],[81.58366070480284,29.297018160057426],[81.58268013922526,29.297410576038946],[81.58180092300468,29.29784313054279],[81.58103162424425,29.298270747004583],[81.58090907648538,29.298338952995472],[81.57971167254641,29.299088846541164],[81.57738727091578,29.300283606859843],[81.5772999252234,29.300322366723965],[81.57738832030753,29.30116136413278],[81.57793413576731,29.302307581740145],[81.57824817667245,29.30331944518659],[81.57856072156066,29.30406047831507],[81.57856527324056,29.304870528939766],[81.57833886051351,29.305816991194153],[81.57872824829359,29.30649000567409],[81.57888848083616,29.307502491479617],[81.57881693791856,29.30851603838241],[81.57843522057472,29.309194607469056],[81.57697240990797,29.309469483268206],[81.57574168752244,29.309813320277538],[81.57443118928649,29.30981899364934],[81.57358349215667,29.309822609760833],[81.57250470669558,29.309827285850353],[81.5713482680544,29.309764503832955],[81.57051832912146,29.309727420342625],[81.57038615081193,29.3099040961081],[81.57016142298924,29.311053618066353],[81.57062846168225,29.311929380739528],[81.57147809185736,29.31226423825043],[81.57217210391708,29.312394347431155],[81.57186897550626,29.313208019930276],[81.57141103847937,29.31408777272449],[81.57141515378456,29.31483017793744],[81.57142007944817,29.315707935393828],[81.57103892378308,29.316384254207872],[81.56988473021367,29.316727716500868],[81.56873009921091,29.317003408796676],[81.5674213471765,29.31734524369817],[81.56650073665665,29.318026119462978],[81.56596651917474,29.318973891103767],[81.56555410639423,29.31936600124136],[81.5661705641506,29.321067070452596],[81.56687436547118,29.32295507001638],[81.56726786771473,29.32437048972333],[81.56735487369113,29.326127943260193],[81.56790368155784,29.32781350676718],[81.56822333401492,29.32983848014456],[81.5676189450572,29.33207050212593],[81.56774234658769,29.333419336424868],[81.56764033161384,29.335920068787733],[81.56710867007354,29.337339416640653],[81.56680741002329,29.33862466472542],[81.56611819773077,29.33950541501162],[81.56550614018818,29.340250438626],[81.56497142394039,29.341130503191373],[81.5648997559127,29.342143987387402],[81.56513464692488,29.342819937787237],[81.5649837693667,29.343359844698565],[81.56468095011424,29.344374326494478],[81.56484080731578,29.34545451989156],[81.56507788094034,29.346534402044888],[81.56515927529969,29.34727643327905],[81.56501176351094,29.34842564359066],[81.5650184972529,29.349641874924366],[81.56486842755179,29.350452611439092],[81.5647186094076,29.35119563967373],[81.56487659515723,29.3519373594078],[81.56534307398115,29.352680083013432],[81.56527059793159,29.35342273707073],[81.56504424814416,29.35430149213392],[81.5648154647252,29.35484402330166],[81.56489717114783,29.35565376239715],[81.56536327556506,29.356326527661057],[81.56563724879199,29.35672027155497],[81.56567507780586,29.35657791743793],[81.5657763640192,29.356721897885386],[81.56912254664368,29.358472325937512],[81.56965073730493,29.359189793321903],[81.57044944741166,29.36117663488961],[81.57154446744173,29.36259131342195],[81.57194328601229,29.363884821985586],[81.57174725779683,29.36498232888915],[81.5718303357812,29.366033513194115],[81.57244879872611,29.36744568552305],[81.57182540493952,29.369513096713302],[81.57238573706879,29.369862706154283],[81.57296521060451,29.369720295469165],[81.5734458873085,29.370104101463202],[81.57391861568583,29.371013686129793],[81.57494087013215,29.371602808871902],[81.57616814468409,29.37189303353766],[81.57723530865641,29.371425846445632],[81.578298402914,29.371260998438515],[81.57857969306268,29.371564402891327],[81.57939398635705,29.372630413277086],[81.5799019816257,29.3732691065504],[81.58044724735552,29.373566824726254],[81.5819482516171,29.3738422980692],[81.5868222858622,29.374333124346432],[81.58774701519874,29.37418909382931],[81.58813485172885,29.3740926943322],[81.58874264701745,29.3739410318939],[81.58960372365273,29.374047823475806],[81.59159665658768,29.374842267225024],[81.594897225527,29.374773411510066],[81.59856562732283,29.37438008911316],[81.60244520814776,29.375741345845473],[81.60504894087676,29.376228206627324],[81.60711535550475,29.376029235026238],[81.6079184700715,29.37623993061481],[81.60989593609673,29.378625028942107],[81.61017297362211,29.378960004922128],[81.6123452288189,29.37953669986162],[81.61618200405448,29.37939714062174],[81.62129522626148,29.37762680543094],[81.62427667262168,29.377610648314935],[81.62514382121734,29.377216167316725],[81.6254787805601,29.375962241190614],[81.62623739789271,29.37489362366563],[81.6304221333133,29.37365305813782],[81.63209114789287,29.37337662182561],[81.633415341826,29.373158197497673]]]}},{"type":"Feature","properties":{"province":"Karnali Province","district":"Kalikot","municipality":"Sanni Triveni Rural Municipality","ward":"8","wardNumber":8,"sourceMunicipality":"Sanni Tribeni","sourceType":"Gaunpalika"},"geometry":{"type":"Polygon","coordinates":[[[81.56563724879199,29.35672027155497],[81.56536327556506,29.356326527661057],[81.56489717114783,29.35565376239715],[81.5648154647252,29.35484402330166],[81.56504424814416,29.35430149213392],[81.56527059793159,29.35342273707073],[81.56534307398115,29.352680083013432],[81.56487659515723,29.3519373594078],[81.5647186094076,29.35119563967373],[81.56486842755179,29.350452611439092],[81.5650184972529,29.349641874924366],[81.56501176351094,29.34842564359066],[81.56515927529969,29.34727643327905],[81.56507788094034,29.346534402044888],[81.56484080731578,29.34545451989156],[81.56468095011424,29.344374326494478],[81.5649837693667,29.343359844698565],[81.56513464692488,29.342819937787237],[81.5648997559127,29.342143987387402],[81.56497142394039,29.341130503191373],[81.56550614018818,29.340250438626],[81.56611819773077,29.33950541501162],[81.56680741002329,29.33862466472542],[81.56710867007354,29.337339416640653],[81.56764033161384,29.335920068787733],[81.56774234658769,29.333419336424868],[81.5676189450572,29.33207050212593],[81.56822333401492,29.32983848014456],[81.56790368155784,29.32781350676718],[81.56735487369113,29.326127943260193],[81.56726786771473,29.32437048972333],[81.56687436547118,29.32295507001638],[81.5661705641506,29.321067070452596],[81.56555410639423,29.31936600124136],[81.56596651917474,29.318973891103767],[81.56650073665665,29.318026119462978],[81.5674213471765,29.31734524369817],[81.56873009921091,29.317003408796676],[81.56988473021367,29.316727716500868],[81.57103892378308,29.316384254207872],[81.57142007944817,29.315707935393828],[81.57141515378456,29.31483017793744],[81.57141103847937,29.31408777272449],[81.57186897550626,29.313208019930276],[81.57217210391708,29.312394347431155],[81.57147809185736,29.31226423825043],[81.57062846168225,29.311929380739528],[81.57016142298924,29.311053618066353],[81.57038615081193,29.3099040961081],[81.57051832912146,29.309727420342625],[81.5713482680544,29.309764503832955],[81.57250470669558,29.309827285850353],[81.57358349215667,29.309822609760833],[81.57443118928649,29.30981899364934],[81.57574168752244,29.309813320277538],[81.57697240990797,29.309469483268206],[81.57843522057472,29.309194607469056],[81.57881693791856,29.30851603838241],[81.57888848083616,29.307502491479617],[81.57872824829359,29.30649000567409],[81.57833886051351,29.305816991194153],[81.57856527324056,29.304870528939766],[81.57856072156066,29.30406047831507],[81.57824817667245,29.30331944518659],[81.57793413576731,29.302307581740145],[81.57738832030753,29.30116136413278],[81.5772999252234,29.300322366723965],[81.57713110961241,29.30039751171959],[81.57703476037557,29.300440836661906],[81.57687813663536,29.300511417946087],[81.57634986923256,29.300770987154063],[81.57581972549048,29.30114559073941],[81.57555687435087,29.301216671783816],[81.57503417526294,29.30120766253588],[81.57386911531248,29.300732072058782],[81.57270148917063,29.300369264495004],[81.57238499540293,29.300284860206478],[81.57179264807385,29.300127182436245],[81.5715328009934,29.300044842265724],[81.5708801154491,29.300036332450308],[81.57048658954655,29.30010572334453],[81.56970429329957,29.300054886441384],[81.56931083051771,29.300124277682198],[81.56852897162628,29.30003736768175],[81.56709186351566,29.30005260512999],[81.56682901248367,29.300123497413455],[81.56648675438345,29.30026722315308],[81.56612655340284,29.300417700804154],[81.56547017698834,29.300560359663017],[81.56501875776786,29.30040880978641],[81.56478035684444,29.300245133969167],[81.564388332563,29.30023775202896],[81.56373158055617,29.30041879723735],[81.56320287493146,29.300716628323315],[81.56267867489943,29.300784267553674],[81.56203524985693,29.30035375856428],[81.56148586558011,29.299582087881344],[81.56105789603122,29.299229604348106],[81.5607132668221,29.299073117428783],[81.56019175723458,29.2990256595487],[81.55953494242421,29.29920664236058],[81.55913735018088,29.299467839284503],[81.55873299947308,29.300033687579155],[81.55873149830353,29.300105896630466],[81.55872736890959,29.300299953671384],[81.55870991177373,29.301103376216954],[81.55872529171366,29.301211596019225],[81.55878555710555,29.301637846297535],[81.5591091630314,29.30278956280681],[81.5591039696419,29.303017504586883],[81.55907283176013,29.303094402291688],[81.55901186877736,29.30324588312468],[81.55883285965048,29.303472197272477],[81.55848053557274,29.30365649751049],[81.55729952068809,29.30390511840723],[81.55638348301615,29.304006012512556],[81.55559380376036,29.304259764895995],[81.55532838842201,29.304448192562596],[81.55501676394628,29.304785662634377],[81.55488196020447,29.304975779438028],[81.55486495248795,29.305036796773667],[81.55478729356727,29.30531694064822],[81.55455738503267,29.30588654229474],[81.55415297237538,29.306452391131835],[81.55392569169233,29.30690689683028],[81.55388379926522,29.307019866782397],[81.55378675852488,29.307286569308367],[81.55364112959336,29.30797089239548],[81.55380518516488,29.308432843071554],[81.55370075758007,29.309232076115826],[81.5538654383025,29.30969396330332],[81.5538602451017,29.30992190511345],[81.55372237532244,29.310263191461058],[81.55327225553685,29.310944260421014],[81.55308805405451,29.311398641710756],[81.55301957250302,29.312542976237236],[81.55297123782984,29.31277335564074],[81.55285262929615,29.31285731657895],[81.55270575924752,29.312959469608668],[81.55217999539973,29.31310381839406],[81.55021499400637,29.31337818811226],[81.54981984188942,29.313524288484764],[81.54950646654557,29.313900145358026],[81.54945813264973,29.31412827391931],[81.54900538517542,29.314924439376576],[81.54873940595029,29.31514893991427],[81.5482918519848,29.315714913214823],[81.5480259349773,29.31593941330305],[81.54771662684253,29.316125714298177],[81.54757869402806,29.316466999837374],[81.54759282272671,29.316566216813232],[81.54735704474028,29.316652927241734],[81.54642636634924,29.31740369838211],[81.54603127623649,29.31754973631529],[81.54563243267557,29.31784919440568],[81.54497180125979,29.318181409036995],[81.54313365845893,29.318610887816092],[81.54286924367466,29.318758616017377],[81.5424751549987,29.318866268099377],[81.5419508922196,29.31893384363251],[81.54039368221845,29.31845274632443],[81.53939367870608,29.318398156413053],[81.53917834781666,29.31833132182608],[81.53904429452395,29.31843116162095],[81.53868771614219,29.31880720501488],[81.5381119904262,29.31925407896749],[81.53710829513803,29.319352908727648],[81.53671420563546,29.319462811535033],[81.536404897419,29.319646736487634],[81.53631973888761,29.319746452168214],[81.53618162123023,29.319911748919484],[81.53608226191763,29.320483040282486],[81.53580846131689,29.321050453422885],[81.53567378198063,29.321274392883687],[81.53558249539931,29.321428311933293],[81.53548313578321,29.321999603447257],[81.53539097188549,29.322227856509453],[81.53520714584798,29.322646038923114],[81.53520514299998,29.322758884430367],[81.53502600889341,29.322985261304588],[81.53466010798017,29.32378105327407],[81.53407906383006,29.324460308325367],[81.53404186157239,29.324492067186306],[81.53390155678008,29.324609975021392],[81.53319509298125,29.325057347478594],[81.53305491229663,29.325220393693982],[81.53283738827574,29.325471714738903],[81.53278636320547,29.325814939559926],[81.53257427566481,29.326264819168326],[81.53237563092294,29.32668537716647],[81.53221736435952,29.32794286908502],[81.53203303687691,29.328399500982844],[81.53154152910425,29.32896328594014],[81.5314973863929,29.32901079888208],[81.53122978004754,29.329300755856384],[81.53095848224172,29.329755386332646],[81.53085518988118,29.329945315294303],[81.53073145159081,29.330171505234702],[81.53028114508564,29.330852512397485],[81.53017116316673,29.331008618968433],[81.52983115185985,29.33149513230291],[81.52911480216969,29.332398326565905],[81.52875396913068,29.33296617600341],[81.52861603656747,29.333307462112458],[81.5285159894287,29.333878753600114],[81.52819629468941,29.334561512183004],[81.52806142801025,29.334749315654367],[81.52783909013952,29.334955561482605],[81.52832108266288,29.33515900185177],[81.5303664072078,29.336139250976498],[81.53094786626293,29.336879287288177],[81.53129793421375,29.337090041143924],[81.53259278348858,29.338213135709523],[81.53302581310822,29.33889284035604],[81.53378027994148,29.33936142506869],[81.5345349961718,29.339875147366048],[81.53515310445123,29.33999000020751],[81.53648453999395,29.340467656718364],[81.53777558840366,29.34083921823263],[81.53909196098482,29.341021162483145],[81.53987418597065,29.34160696891967],[81.54081815654659,29.34247417179266],[81.54209875410329,29.3434212147605],[81.54250321649947,29.34367904572567],[81.54290861137963,29.344241528177395],[81.54309917684103,29.3447101052225],[81.54371896847044,29.345154367962078],[81.5446359300557,29.345881717466355],[81.54533606585831,29.34627821700143],[81.5460114984028,29.346981806043523],[81.54682272781753,29.348059319098866],[81.54758455185092,29.349868234016167],[81.54858132042375,29.352980346185706],[81.54888054844315,29.353662862805184],[81.54923398249628,29.354485045488815],[81.54940003104484,29.355425323200702],[81.54937807029661,29.356366411308098],[81.54907107445668,29.35663842532287],[81.54872493403276,29.357179204544316],[81.54902584431696,29.35828365671301],[81.54948532292667,29.358823320534942],[81.55040396907893,29.359830439451294],[81.55106620971505,29.360592671068552],[81.55179453927666,29.361178601206905],[81.55230822476243,29.36185793189625],[81.5537404311678,29.363499242823586],[81.55517226629445,29.364950998161603],[81.55709747125263,29.36664889433326],[81.55704945618645,29.366457274891268],[81.55770192487222,29.364349102173527],[81.55786556993854,29.36306003786069],[81.55802188286926,29.36279308713295],[81.55861586620621,29.36235734133697],[81.55899407898607,29.361924781261262],[81.55948659197558,29.361071974678822],[81.55949622947476,29.360476237134677],[81.55951286171448,29.360453606355808],[81.55969956093921,29.360215851276553],[81.5600828332501,29.360108199289105],[81.56065568324783,29.359699648127744],[81.56146880665594,29.359542674295998],[81.56166551090205,29.359248590228265],[81.56234296418727,29.358765081798797],[81.56510083933277,29.357893671457326],[81.5654233424742,29.357524504923084],[81.56563724879199,29.35672027155497]]]}},{"type":"Feature","properties":{"province":"Karnali Province","district":"Kalikot","municipality":"Sanni Triveni Rural Municipality","ward":"3","wardNumber":3,"sourceMunicipality":"Sanni Tribeni","sourceType":"Gaunpalika"},"geometry":{"type":"Polygon","coordinates":[[[81.57716099566454,29.25143934000153],[81.57731686890038,29.251359756140488],[81.57815763500075,29.25078059633238],[81.57934147815514,29.249556938671596],[81.58051206196106,29.248610862322654],[81.58123741567374,29.247533616981336],[81.58166127975021,29.246500444456267],[81.58249292553121,29.245348303257526],[81.58681429046472,29.24295546471657],[81.58822946660258,29.242055592047052],[81.58906866366027,29.24178789838031],[81.59030963406417,29.241809482407607],[81.59085703192153,29.241689703303695],[81.59110000135001,29.241550977641893],[81.59122129788847,29.241503090623176],[81.59132133717503,29.241443948903605],[81.5917818355054,29.240654410858518],[81.59191257905188,29.240243041350844],[81.59210003651934,29.23949988772492],[81.59271266072015,29.23843208204893],[81.59260599627115,29.238337740156183],[81.59235896804257,29.238119986151517],[81.59178499268563,29.238641507144898],[81.59167294526581,29.238951159283374],[81.59139983618938,29.239333768586842],[81.59104638680796,29.23950006288684],[81.59087282260614,29.239403720187816],[81.59105865591532,29.23851840076716],[81.59142448847787,29.23813541780198],[81.5933684890125,29.237278314105843],[81.5949671098539,29.236406952092633],[81.59574854009068,29.235848297315485],[81.5966723358708,29.23532065301519],[81.59805655505274,29.234885729502377],[81.59919362178262,29.23420141677054],[81.60029480493995,29.233208075764345],[81.60100551934794,29.23277164358223],[81.60421730646175,29.232387067842975],[81.60595597131572,29.232076747580482],[81.60702094159278,29.23182831182666],[81.60805115221456,29.231363187475445],[81.6082206541629,29.23130829816819],[81.60890304219527,29.2310840522672],[81.6096834637311,29.231021730781578],[81.61103141009919,29.231209676360066],[81.61255774273255,29.230995069297922],[81.61925061362545,29.229802108749762],[81.62123512530695,29.229212958714143],[81.62163184006644,29.229093741289784],[81.62279716290927,29.228747590986394],[81.62402182166403,29.228342423208197],[81.62533870282249,29.227866923685813],[81.62907989530461,29.226373528917012],[81.63135409564687,29.22469975148213],[81.6317070505636,29.224151970298596],[81.62932335615369,29.222651314840284],[81.6284088303748,29.22203055973267],[81.62613717106346,29.22105287171406],[81.62568056294322,29.220847431185113],[81.62539626924445,29.220733644850032],[81.6247283948475,29.220468246742307],[81.62377622694204,29.220091375433455],[81.6230998545535,29.21948750278887],[81.62208460733348,29.218571597158796],[81.62087290885864,29.217814486396303],[81.61986847750457,29.216984231286936],[81.61895183405187,29.215860203520403],[81.61887318130948,29.21573647849769],[81.61823232868767,29.214719485661078],[81.61786194913307,29.21397426234849],[81.61742379025016,29.213506933063293],[81.61660830276661,29.212851793426733],[81.61527812126087,29.212162889149425],[81.61412794212237,29.211664979993532],[81.61339154772725,29.211009465835645],[81.61324974775536,29.210734821202983],[81.61234977248697,29.211323358805412],[81.61043840662141,29.212383710513638],[81.60900491271502,29.213231942218496],[81.60769408334878,29.21449929925529],[81.60626171322522,29.215451311811005],[81.60543243579819,29.217136233206812],[81.60436076100325,29.218298686946458],[81.60460995711182,29.219874902455025],[81.60429707927034,29.22047651314544],[81.60329220333614,29.22009076258074],[81.60125299678019,29.21978402427699],[81.59945431722255,29.219582256936487],[81.59777642933292,29.219695832450288],[81.59633969327724,29.21991212967726],[81.59454525273613,29.220549670304028],[81.59310720648132,29.220556093364056],[81.59166978271745,29.220774578123052],[81.58987472011168,29.22120224530496],[81.58867601528603,29.221207544510683],[81.58699569639111,29.220795216775695],[81.58483569519525,29.220382757615063],[81.58172094596343,29.220712256049058],[81.57848421906999,29.220620253318717],[81.57681239891608,29.22055984047156],[81.57654384080166,29.221745685188377],[81.5765818468343,29.222316415408404],[81.5769317742374,29.223486075755183],[81.57694552475267,29.223763531980318],[81.57697377683395,29.224318569881174],[81.5768410863646,29.225314298560228],[81.57645185955877,29.22644199906337],[81.5764344709189,29.226900134022998],[81.57619511981987,29.227569139240753],[81.57594345175126,29.228217827270356],[81.57561125384991,29.22884657000685],[81.57549120381992,29.229126900696336],[81.57539009233759,29.229790781931836],[81.57536964185623,29.230158701514668],[81.5753079204784,29.23084946620362],[81.57513790961205,29.231382807850956],[81.57494764493724,29.231749163739938],[81.57476181479142,29.23233214442498],[81.57479069237118,29.232900686842168],[81.5748830876207,29.233886352020583],[81.574902528519,29.234148053576828],[81.57490214863563,29.23442107157203],[81.5750642551586,29.23557122327116],[81.57505343169176,29.236054177320383],[81.57503279186493,29.236498807375035],[81.57506154435453,29.237042529800696],[81.57511087073391,29.237349245364012],[81.57533800218908,29.23850358675721],[81.57544502631193,29.239588530999278],[81.57547422084237,29.23985923561057],[81.57534059390952,29.240705982673337],[81.57533271173347,29.24100613334438],[81.57525942895123,29.241356172654648],[81.57521178183012,29.24158211280761],[81.57498643787375,29.242120142932357],[81.5749062174802,29.242269373649886],[81.57477597658769,29.242558832354565],[81.57457595918552,29.242794335990933],[81.57425601933372,29.24321320524552],[81.57405124761716,29.243638327738676],[81.57399053277646,29.243927411444652],[81.57391006072247,29.244153414236354],[81.5738100183549,29.244433620352634],[81.57349438721573,29.245172896141764],[81.57342410586071,29.24548911348401],[81.57342335252588,29.245689984236034],[81.57352238470303,29.246032460876595],[81.57367193729736,29.246320735229624],[81.57387488153532,29.24683432544405],[81.57398429240263,29.247183616864586],[81.57415459772803,29.247846313381782],[81.57426594264732,29.24843254895482],[81.57421985584661,29.2489179408579],[81.5740691650937,29.249482729445415],[81.57405359119453,29.249796446607427],[81.57405283427126,29.250243264904768],[81.57410390873932,29.250748475870125],[81.57428265567133,29.25128701168399],[81.57443095579605,29.251708386507655],[81.57444451267057,29.252403340936098],[81.57429232234172,29.252911737652983],[81.57496583311912,29.252556703952486],[81.57716099566454,29.25143934000153]]]}},{"type":"Feature","properties":{"province":"Karnali Province","district":"Kalikot","municipality":"Sanni Triveni Rural Municipality","ward":"2","wardNumber":2,"sourceMunicipality":"Sanni Tribeni","sourceType":"Gaunpalika"},"geometry":{"type":"Polygon","coordinates":[[[81.61324974775536,29.210734821202983],[81.6131410848136,29.2105231959729],[81.61300147238643,29.21029819078407],[81.61257683527693,29.208754357838412],[81.61250808126758,29.207245039391914],[81.61245838023368,29.20689324824562],[81.61229114799725,29.20570027094145],[81.61234031830607,29.2039128721893],[81.61313613353592,29.20300661546789],[81.6141608446489,29.20232499048056],[81.61652414542871,29.200438839162175],[81.61698433178985,29.19965586452786],[81.61737324580376,29.19855967283286],[81.61736734633548,29.19586994596168],[81.61722139619759,29.192988912145857],[81.616896417727,29.191654517142197],[81.61607219703231,29.189713187481225],[81.61521793166055,29.189965314229482],[81.61270659175021,29.19081859811031],[81.61055526225269,29.191670135473906],[81.60852466241872,29.19283482838438],[81.6071404386088,29.193603787847778],[81.60709017327902,29.19336709283444],[81.60780464287124,29.19262819762421],[81.60803818456658,29.19157557890948],[81.6070758908878,29.190950384286587],[81.60623439126114,29.190532189505966],[81.60610860877836,29.189481191612643],[81.60574554313095,29.1888532531268],[81.60466114652702,29.18791271473744],[81.60406011057376,29.18759955355778],[81.60369392615719,29.1864435229641],[81.60320819713075,29.185290366223263],[81.6029648016671,29.184659616333995],[81.60260229785116,29.18413545784038],[81.60216013076955,29.184060743241258],[81.60188408539241,29.18424473217811],[81.60080785873797,29.18466934343066],[81.59960834602529,29.184358800965718],[81.59912935011718,29.18446707786716],[81.59780960435286,29.18415697100368],[81.59697128462842,29.184266805678668],[81.59553380263486,29.18427322833918],[81.59433597087313,29.184382372034293],[81.5928997979939,29.18460085682133],[81.591704462249,29.1851319358599],[81.59062754999457,29.185346549193856],[81.58942859723811,29.185245817745244],[81.58823026732327,29.185251055196865],[81.58679340873316,29.18536344663221],[81.58583541802719,29.185471466719953],[81.58475906611123,29.185898141907526],[81.58392074876278,29.185901820724578],[81.58296219678054,29.185905997952204],[81.58224404867907,29.186012958713306],[81.58164425938119,29.185911734173487],[81.58020552797416,29.185811938044495],[81.57924635305983,29.185712335195994],[81.57897656502232,29.1856344973417],[81.57873415306004,29.18608912741006],[81.57875209316077,29.186413910287992],[81.5786980691491,29.186637663209023],[81.57864404122608,29.187093671048665],[81.57874913403636,29.187725107130294],[81.57876188050666,29.188275644327565],[81.57868065403056,29.188801797829363],[81.57865089203034,29.18888088254481],[81.57839247098258,29.18958152288064],[81.5782847975034,29.190085232036008],[81.57828403984229,29.190529737413375],[81.57834980745562,29.191021445011554],[81.57856163026874,29.19153497303401],[81.57874907033015,29.191938093383804],[81.57895995597636,29.192390790881284],[81.57949839465044,29.193358831626853],[81.57971052927446,29.193921999056727],[81.57971002335671,29.194285292935255],[81.57966830989241,29.194987248544308],[81.57977459586763,29.19524401262118],[81.58118328977,29.19705674787895],[81.58154359967229,29.198011970472045],[81.58161205229142,29.198745061242473],[81.58159441986832,29.198806015990343],[81.58143172394007,29.199373180832527],[81.58023255210198,29.201319049729978],[81.57993380110605,29.20215297863644],[81.57953413836164,29.202892628201],[81.57919042717957,29.204083347915002],[81.57910138080236,29.20494347420571],[81.57892587462558,29.205059319097888],[81.57879238210464,29.205341962556766],[81.57871159730651,29.205610853637484],[81.57873741193364,29.20607786582569],[81.57890953199858,29.20661865105338],[81.57898867851465,29.207191508134297],[81.57897460532567,29.207554864535687],[81.57878683707037,29.20811758947646],[81.57853223345087,29.20858578585477],[81.57838486004914,29.20891363086015],[81.5784378154538,29.209064613112737],[81.57853097416462,29.209156704174966],[81.57873123686606,29.209205470217803],[81.57897689425738,29.209100629632108],[81.57893656250224,29.20935801796833],[81.5790663552724,29.20979752295509],[81.57901614731284,29.209906054427904],[81.5782791558239,29.211497887869797],[81.57797722085267,29.212006908343902],[81.57801047522024,29.212541565865198],[81.57804672272253,29.213611004565],[81.57808509200738,29.21494670911371],[81.57806025349902,29.216016460582193],[81.57776131325919,29.21695429405632],[81.57733914006148,29.21781129043996],[81.57704331932743,29.21918900382675],[81.57697816534436,29.219493967991564],[81.57695809318163,29.219586619700515],[81.57693920505066,29.219999615854057],[81.57681239891608,29.22055984047156],[81.57848421906999,29.220620253318717],[81.58172094596343,29.220712256049058],[81.58483569519525,29.220382757615063],[81.58699569639111,29.220795216775695],[81.58867601528603,29.221207544510683],[81.58987472011168,29.22120224530496],[81.59166978271745,29.220774578123052],[81.59310720648132,29.220556093364056],[81.59454525273613,29.220549670304028],[81.59633969327724,29.21991212967726],[81.59777642933292,29.219695832450288],[81.59945431722255,29.219582256936487],[81.60125299678019,29.21978402427699],[81.60329220333614,29.22009076258074],[81.60429707927034,29.22047651314544],[81.60460995711182,29.219874902455025],[81.60436076100325,29.218298686946458],[81.60543243579819,29.217136233206812],[81.60626171322522,29.215451311811005],[81.60769408334878,29.21449929925529],[81.60900491271502,29.213231942218496],[81.61043840662141,29.212383710513638],[81.61234977248697,29.211323358805412],[81.61324974775536,29.210734821202983]]]}},{"type":"Feature","properties":{"province":"Karnali Province","district":"Kalikot","municipality":"Sanni Triveni Rural Municipality","ward":"1","wardNumber":1,"sourceMunicipality":"Sanni Tribeni","sourceType":"Gaunpalika"},"geometry":{"type":"Polygon","coordinates":[[[81.61607219703231,29.189713187481225],[81.61590320177592,29.189314568958228],[81.61401428399179,29.186076034977372],[81.61343383161905,29.18489849513827],[81.6128358661566,29.18413851501967],[81.6121395486893,29.18348056431842],[81.61097680822782,29.182653182684156],[81.61061636830539,29.182043312288275],[81.61055728454946,29.18194428294945],[81.61027513915086,29.180325366788313],[81.61005551320584,29.17906493211306],[81.60972308940434,29.178084953374814],[81.60967338478588,29.177938410236163],[81.60917121295765,29.176724422810015],[81.60840281484701,29.175495803840914],[81.60710853227854,29.17414770602667],[81.606155928936,29.173612787402327],[81.60476803543763,29.173063923375643],[81.60309185018909,29.172238848742893],[81.60164374958202,29.171498427864964],[81.59999869672313,29.17093268025829],[81.59912774343674,29.170832765934765],[81.59688307838641,29.170946647782014],[81.59539758195791,29.170623723631298],[81.59440540299933,29.170021097226158],[81.5934712461655,29.169312253328535],[81.5923190726802,29.168484685275285],[81.5907229779597,29.167796714788132],[81.58911781535741,29.167232905555164],[81.58887047266339,29.16713918776476],[81.58871528236324,29.16754605486389],[81.58843986126125,29.167822570834282],[81.58780454810469,29.168464001585722],[81.58763172601584,29.16892288390209],[81.58745878171769,29.169151511251137],[81.58732835611873,29.169267168983712],[81.58650303734679,29.169613823148595],[81.58588485775815,29.170099458382],[81.58572166965457,29.17022649406575],[81.58550527129263,29.170493756957374],[81.58538334484919,29.170774088366723],[81.58455468993724,29.17267326045182],[81.58377413257989,29.17343710052776],[81.58371792279858,29.173496054701175],[81.58326154780029,29.174407441534754],[81.58292022114134,29.175097202242835],[81.58280034853952,29.176061295770456],[81.58241836484716,29.177741846820638],[81.58210861265779,29.17842916988045],[81.58205469177834,29.180054146121794],[81.58205830877168,29.180685956748942],[81.58216244750304,29.18239152010289],[81.58179299115146,29.182654843079884],[81.58103807163023,29.183195243506642],[81.58057126051092,29.18374783679653],[81.5799146307076,29.184161387914468],[81.57947914527755,29.18468684979179],[81.57897656502232,29.1856344973417],[81.57924635305983,29.185712335195994],[81.58020552797416,29.185811938044495],[81.58164425938119,29.185911734173487],[81.58224404867907,29.186012958713306],[81.58296219678054,29.185905997952204],[81.58392074876278,29.185901820724578],[81.58475906611123,29.185898141907526],[81.58583541802719,29.185471466719953],[81.58679340873316,29.18536344663221],[81.58823026732327,29.185251055196865],[81.58942859723811,29.185245817745244],[81.59062754999457,29.185346549193856],[81.591704462249,29.1851319358599],[81.5928997979939,29.18460085682133],[81.59433597087313,29.184382372034293],[81.59553380263486,29.18427322833918],[81.59697128462842,29.184266805678668],[81.59780960435286,29.18415697100368],[81.59912935011718,29.18446707786716],[81.59960834602529,29.184358800965718],[81.60080785873797,29.18466934343066],[81.60188408539241,29.18424473217811],[81.60216013076955,29.184060743241258],[81.60260229785116,29.18413545784038],[81.6029648016671,29.184659616333995],[81.60320819713075,29.185290366223263],[81.60369392615719,29.1864435229641],[81.60406011057376,29.18759955355778],[81.60466114652702,29.18791271473744],[81.60574554313095,29.1888532531268],[81.60610860877836,29.189481191612643],[81.60623439126114,29.190532189505966],[81.6070758908878,29.190950384286587],[81.60803818456658,29.19157557890948],[81.60780464287124,29.19262819762421],[81.60709017327902,29.19336709283444],[81.6071404386088,29.193603787847778],[81.60852466241872,29.19283482838438],[81.61055526225269,29.191670135473906],[81.61270659175021,29.19081859811031],[81.61521793166055,29.189965314229482],[81.61607219703231,29.189713187481225]]]}}]}