{"type":"FeatureCollection","features":[{"type":"Feature","properties":{"province":"Karnali Province","district":"Kalikot","municipality":"Khandachakra Municipality","ward":"11","wardNumber":11,"sourceMunicipality":"Khandachakra","sourceType":"Nagarpalika"},"geometry":{"type":"Polygon","coordinates":[[[81.70136603906975,29.21196637144344],[81.70179152253,29.211366200793485],[81.70285787451233,29.2106361859278],[81.70481661899775,29.21054468082926],[81.70741667238364,29.21028950941533],[81.7080884938827,29.209990304054433],[81.70903779088677,29.210012321010414],[81.70998421714711,29.20971168151486],[81.71114441542557,29.209168471839977],[81.71138613776142,29.208792614833513],[81.71172959915593,29.207500051413383],[81.71190699252044,29.206560340758433],[81.71202448355497,29.20588726942085],[81.71210978003806,29.204921049154684],[81.71210547491881,29.20430274333127],[81.71179237144288,29.20328450336431],[81.71155816705901,29.202613304150226],[81.71117879714367,29.200949998670705],[81.71099036144395,29.200199464283276],[81.71129011333986,29.199284074090997],[81.71146575846814,29.19818194041866],[81.71143646468063,29.196088013261093],[81.71127510801753,29.194879344078597],[81.71022273300674,29.19322197163158],[81.70950034980841,29.19214258375935],[81.70924694674831,29.191764845287544],[81.70875389465162,29.19102731129336],[81.70742641501727,29.189368997045076],[81.70662312570757,29.18829911175877],[81.70628350362887,29.18789699051519],[81.70552797891594,29.187041293384564],[81.7042683236945,29.186350639435485],[81.70340488476577,29.18541423021698],[81.70223483109157,29.184373287041446],[81.70112736004886,29.18357353938108],[81.69894779758128,29.18259210262067],[81.6979183532344,29.181979161042495],[81.69732888489857,29.18161442284444],[81.6970577219585,29.18144662008672],[81.69640618161279,29.18016148593653],[81.69563371700941,29.179064342709015],[81.6954134592824,29.178151572786895],[81.69516512216768,29.177642858588204],[81.69485750932859,29.177403034299804],[81.6943360021405,29.177189090630698],[81.69205120767272,29.17650367708978],[81.69030373889774,29.17608397161737],[81.68922759209241,29.17530879449369],[81.6892280370551,29.17480102066996],[81.68845256363467,29.17419352106784],[81.68770759530442,29.174111614292308],[81.686238100424,29.17410784671154],[81.68508504392398,29.173748227676498],[81.68425279459917,29.17348845536264],[81.6831509447487,29.173094701626756],[81.6820579099012,29.172768531635672],[81.68140772959107,29.17253039178688],[81.68012418412009,29.17226392404529],[81.67959585950838,29.17217632999122],[81.67879850021198,29.171839660208384],[81.67820915600561,29.171569574066908],[81.67777918397636,29.171287486480704],[81.67741111082165,29.17102753123397],[81.67711100425117,29.170557452344358],[81.67684109415305,29.170179713754553],[81.67623406538999,29.16926437537072],[81.67592363541159,29.16926818577535],[81.67587386680292,29.169223297395856],[81.67563271563813,29.169016921209817],[81.67528871460664,29.16871401609472],[81.6750049234143,29.168462751225324],[81.67470137600415,29.168141591787816],[81.67423520457902,29.167730965616197],[81.67340446054834,29.167193611284475],[81.67277353864459,29.1668447518688],[81.67105383509772,29.166113267866365],[81.6704034652295,29.16594052207304],[81.669748467185,29.16593701353221],[81.66823851542507,29.166224393881873],[81.66771631921833,29.166087097532973],[81.66723926565581,29.165963118373753],[81.66652036554345,29.16612015643719],[81.66608551408929,29.166070386603],[81.66530359754658,29.165724526773637],[81.6642693969765,29.165436305200522],[81.66421513223816,29.165093578550604],[81.6643578193564,29.164497155885613],[81.66444029635589,29.163925801461847],[81.66441398349946,29.16333250180523],[81.66442111594213,29.162946576517335],[81.66427337754756,29.16266074067859],[81.66378682245941,29.162363023173206],[81.66301603105647,29.16224497973973],[81.66190555153185,29.161982015315058],[81.6611614615323,29.161708051603092],[81.66075537369524,29.161434778777473],[81.66053910746795,29.161185390907985],[81.660357673777,29.16054988950321],[81.66022256610833,29.160133140790347],[81.65942483953873,29.159216363371353],[81.65930373268372,29.159074820019434],[81.65885006373367,29.158889760571718],[81.6579567283383,29.158709134895588],[81.65671075768952,29.1585415088738],[81.6548960710749,29.158491786527915],[81.653846610026,29.158521658373008],[81.65315616309947,29.158389674461286],[81.65276383001202,29.15815009957283],[81.65243902325258,29.157912526505505],[81.65206019367291,29.157758664466314],[81.6515458119989,29.157734088570702],[81.65105812346594,29.15795758644893],[81.6507730134514,29.158101124760872],[81.65038017618248,29.15818433281313],[81.64979139013181,29.15817588547918],[81.6492905145856,29.15804515415493],[81.64881658829187,29.157806016409094],[81.6484651473892,29.157521116172635],[81.64814071445845,29.15734218465318],[81.64763983764765,29.157306231378033],[81.64674512019414,29.1575069048164],[81.64632546133593,29.15751796636331],[81.64593287609975,29.157434124451193],[81.64411263614477,29.156605735911555],[81.64297608709016,29.15615308941025],[81.64205893136737,29.155848364765983],[81.6412031726062,29.15559071696129],[81.64094038717172,29.15550387583044],[81.64082716010118,29.15527205666968],[81.64043563369898,29.155470298139257],[81.64017797184118,29.155584328350063],[81.63979200915499,29.155838836617523],[81.63961881592512,29.155990879079457],[81.63931519756217,29.156260892175474],[81.63827678185827,29.15775294312638],[81.63762702469248,29.158480399065386],[81.63700340554492,29.158975349279736],[81.63675912254793,29.159168278499614],[81.63658536811914,29.159245861681686],[81.6358040041822,29.159592578906704],[81.63545593257597,29.1597454326561],[81.634701079443,29.16001300230821],[81.63458759857839,29.160054201178852],[81.63337113048901,29.16051575939239],[81.63267611114439,29.16089817666778],[81.6323823077742,29.161201949437228],[81.63215621855223,29.161435390920683],[81.6318372188554,29.161716781614007],[81.63180908250362,29.16174172613319],[81.63059305080218,29.162279995603665],[81.62955083481886,29.162855840091108],[81.62898692641129,29.16335266698627],[81.62846597422308,29.163621427075178],[81.6281873670757,29.163776156887895],[81.62811877723647,29.163814854882546],[81.62755443202512,29.164234971654828],[81.62703615996979,29.165153547787007],[81.62688747787666,29.165219689785225],[81.62660155425142,29.165345160893164],[81.62603640129325,29.165424553199774],[81.6256889548803,29.16557728105482],[81.62499455798283,29.166189890094316],[81.62477853361435,29.166495539958067],[81.62464860627965,29.16668784485498],[81.62458945881644,29.16669272054354],[81.62412684555926,29.166726475494386],[81.6236042066835,29.166929778709697],[81.62325875625655,29.16741654325137],[81.62153098590764,29.17093355446172],[81.62092592838925,29.17196760072194],[81.62040547294588,29.172540950271273],[81.61988501845346,29.173001454417093],[81.61945078693128,29.17326971551203],[81.61880028141593,29.173920399475424],[81.61862727338028,29.174225798961285],[81.61828480774265,29.17575511883483],[81.61815481634578,29.176060332113924],[81.61793854266195,29.176327595589644],[81.6175043724368,29.176711015034776],[81.61680872972633,29.177018847329233],[81.61611365011801,29.177211583720155],[81.61524475025293,29.177788742849273],[81.6142008521327,29.177904139773016],[81.61402703652254,29.17786656405245],[81.61376487746836,29.17767600534117],[81.61342313114392,29.17717885508479],[81.61337192450976,29.17710458319049],[81.61332171851065,29.177098080429676],[81.61263195812266,29.176992917180115],[81.61244069779049,29.177043429565682],[81.61176231305632,29.17722478713221],[81.61117152102315,29.17754793786398],[81.61084977202684,29.177723173155677],[81.61032807171033,29.17787677458703],[81.60972308940434,29.178084953374814],[81.61005551320584,29.17906493211306],[81.61027513915086,29.180325366788313],[81.61055728454946,29.18194428294945],[81.61061636830539,29.182043312288275],[81.61097680822782,29.182653182684156],[81.6121395486893,29.18348056431842],[81.6128358661566,29.18413851501967],[81.61343383161905,29.18489849513827],[81.61401428399179,29.186076034977372],[81.61590320177592,29.189314568958228],[81.61607219703231,29.189713187481225],[81.616896417727,29.191654517142197],[81.61722139619759,29.192988912145857],[81.61736734633548,29.19586994596168],[81.61737324580376,29.19855967283286],[81.61698433178985,29.19965586452786],[81.61652414542871,29.200438839162175],[81.6141608446489,29.20232499048056],[81.61313613353592,29.20300661546789],[81.61234031830607,29.2039128721893],[81.61229114799725,29.20570027094145],[81.61245838023368,29.20689324824562],[81.61250808126758,29.207245039391914],[81.61257683527693,29.208754357838412],[81.61300147238643,29.21029819078407],[81.6131410848136,29.2105231959729],[81.61324974775536,29.210734821202983],[81.61339154772725,29.211009465835645],[81.61412794212237,29.211664979993532],[81.61527812126087,29.212162889149425],[81.61660830276661,29.212851793426733],[81.61742379025016,29.213506933063293],[81.61786194913307,29.21397426234849],[81.61823232868767,29.214719485661078],[81.61887318130948,29.21573647849769],[81.61895183405187,29.215860203520403],[81.61986847750457,29.216984231286936],[81.62087290885864,29.217814486396303],[81.62208460733348,29.218571597158796],[81.6230998545535,29.21948750278887],[81.62377622694204,29.220091375433455],[81.6247283948475,29.220468246742307],[81.62539626924445,29.220733644850032],[81.62599125767353,29.21990497093915],[81.62633109688052,29.218371212974354],[81.62632454811249,29.217297022018133],[81.62876617394626,29.21651838506343],[81.63050398147011,29.214978014985284],[81.63259160930777,29.21343589955379],[81.63416102334232,29.21296815488552],[81.63607745270056,29.21204059290885],[81.63729130884641,29.2106538243686],[81.63885654603516,29.20942104363941],[81.63989895511449,29.20849540870808],[81.64146256880525,29.207109082326607],[81.64250747424744,29.206490288397564],[81.64459697054787,29.2054083695609],[81.64616332839898,29.204480115101653],[81.64860738633449,29.20416136222717],[81.65070811189089,29.204764938315225],[81.6522870695121,29.205831331791806],[81.65438324017113,29.2058211025063],[81.65577821338819,29.20535391851981],[81.65594822707547,29.204585882278504],[81.65436764562597,29.203368319947746],[81.65261568000693,29.202609639824395],[81.65173673437869,29.201695487176345],[81.64908979193702,29.197569871088028],[81.64820030464683,29.194967847848897],[81.64696779776854,29.19344163670686],[81.64625636942927,29.19145254440767],[81.64572275304968,29.189920651834083],[81.64606678879566,29.18788587098491],[81.6462342263059,29.18792563444942],[81.64885596621708,29.188219813141096],[81.650947583169,29.187444672673085],[81.65199647967465,29.18759072739569],[81.65339793911389,29.188197671367035],[81.65566387240008,29.187421594546517],[81.65915239498358,29.186637216281287],[81.66124525804875,29.186166539282997],[81.66334367428135,29.186463025554822],[81.66439849689678,29.187529663072635],[81.66650227619468,29.188746731102178],[81.6679069809905,29.189811621665577],[81.66773802842016,29.190733140479185],[81.66792082980926,29.19195750172078],[81.6694967936336,29.192563384207357],[81.67055536106075,29.19409028163222],[81.67144247831905,29.19623179532762],[81.67285023934177,29.197756945881483],[81.67564923084932,29.198356590559875],[81.6766138997364,29.198965468013732],[81.67784990265362,29.200951751868093],[81.6792629049955,29.203244003204645],[81.67961409579947,29.203549096056673],[81.68119087275036,29.204152603940727],[81.68277014395927,29.205218746245624],[81.68469312156904,29.20536224748173],[81.68626627867464,29.20550762036554],[81.6880143145935,29.205652120272934],[81.68942656923949,29.207790763705457],[81.69065103011526,29.20808898940802],[81.69223105121993,29.20915506984331],[81.69450428441837,29.209450119339174],[81.69678176084766,29.210356660435522],[81.69941105287366,29.211570484194347],[81.70136603906975,29.21196637144344]]]}},{"type":"Feature","properties":{"province":"Karnali Province","district":"Kalikot","municipality":"Khandachakra Municipality","ward":"5","wardNumber":5,"sourceMunicipality":"Khandachakra","sourceType":"Nagarpalika"},"geometry":{"type":"Polygon","coordinates":[[[81.66771631921833,29.166087097532973],[81.6678057401782,29.165303619013084],[81.66755196912499,29.164433860668794],[81.66704311762842,29.162477655636085],[81.66704149578287,29.162227207565262],[81.66745346799587,29.16192731164506],[81.66835651031225,29.161126211548627],[81.66903452262515,29.16072566492204],[81.67027494874696,29.15952345125513],[81.67083661055374,29.158724098067395],[81.67185007518684,29.15752300688732],[81.67252553059787,29.15672302980504],[81.673992728504,29.155521944247557],[81.67534607185945,29.15431910660158],[81.67579980756022,29.15421758200305],[81.67590436657119,29.152921765376178],[81.67634899300788,29.15152492292345],[81.67633851276459,29.149931893228025],[81.67678376250277,29.148636580406333],[81.67666342064369,29.14754050799841],[81.67677558972768,29.147391027635493],[81.67756302851394,29.14634222887907],[81.67800946437178,29.145243286338406],[81.67856832017584,29.143945161504934],[81.67765904182941,29.143651940396083],[81.6773132349264,29.14285707841595],[81.6771929537779,29.141862535629233],[81.67741579667334,29.141263424249694],[81.67831665449783,29.14016217407035],[81.67842058939875,29.138769329400727],[81.67898013099615,29.13757054675884],[81.68010838428829,29.13666891966774],[81.68055743983348,29.135969406891736],[81.68066455735585,29.13497367809269],[81.68133845248337,29.133972829966876],[81.68167178249236,29.13287669992278],[81.68143970475747,29.132180617666883],[81.68053048897917,29.13188514579798],[81.68019054745153,29.131886829647062],[81.67973300799638,29.13129346341113],[81.67905125102381,29.131197615291097],[81.67870806593,29.130700652998925],[81.67870344966215,29.130003385891186],[81.67818739042313,29.129209459189056],[81.67749914713887,29.128016977030363],[81.6769265675929,29.127123958772305],[81.67714753979175,29.12622701028461],[81.67734136480793,29.12611773094033],[81.67838995832321,29.12552344304367],[81.67929062835849,29.124424443516304],[81.68064290978093,29.123122263774913],[81.68188601522112,29.122418696759237],[81.6830133953449,29.121417790695276],[81.68357742857957,29.12091621227119],[81.68380020886393,29.12031703933055],[81.68345377850325,29.11942296003154],[81.6825386989252,29.118231663196823],[81.6811720691515,29.117342761799957],[81.68072191061766,29.116498821880658],[81.68022259700612,29.11647655978453],[81.67903753554896,29.11564761538435],[81.6784976481272,29.115323139589254],[81.67791699338049,29.11514333036778],[81.67689879038845,29.115457536004072],[81.6768430189208,29.115475978111654],[81.67606165032149,29.116134350093173],[81.67474001772953,29.11661485078059],[81.6742502671887,29.116786583466475],[81.67358426113863,29.11702008241115],[81.67255036851617,29.11709753057181],[81.67155118067527,29.116876891636135],[81.67126551073687,29.11681287030999],[81.66961057138245,29.116821104117665],[81.66928162893335,29.11722221765603],[81.6680460856059,29.118101712216788],[81.6663320528897,29.118617969080823],[81.66546378460589,29.11876669072619],[81.66393208099635,29.118666018703074],[81.66314746800423,29.118852689521137],[81.66207530272115,29.11947404715761],[81.66162287473388,29.119950181452374],[81.66142084969569,29.120713903208006],[81.66146822940028,29.121584658934864],[81.66101891949828,29.122568505300908],[81.66032058046025,29.12337073234359],[81.65945356070979,29.123630048972544],[81.6581298707756,29.123708807228805],[81.65688815016897,29.123750992585784],[81.65569093905563,29.12423074508629],[81.65523489365079,29.12405018737721],[81.65402757827486,29.12293009493217],[81.65321971135427,29.122789606999483],[81.65243534700842,29.123120632673064],[81.65185924729563,29.12355894179785],[81.65168580296869,29.123771939586934],[81.65132497218644,29.124216003487025],[81.65038053530306,29.12534663703982],[81.64976167146952,29.12564071645298],[81.64860485329973,29.126009623958428],[81.64773646117139,29.12604993804002],[81.64500099649194,29.125408781944184],[81.64358934770044,29.124688928961305],[81.64218162758318,29.12458738377666],[81.64059027019891,29.12491996296944],[81.63968204542012,29.12528762266428],[81.638030410064,29.12594992287134],[81.6372881855032,29.1263528456508],[81.63780178782967,29.128358752319084],[81.63792696408441,29.13229140716617],[81.6378920382082,29.134852783787107],[81.63765609890703,29.137327131481175],[81.63746263280284,29.138564617517364],[81.63832862326291,29.140284568897513],[81.639747884831,29.141999526163676],[81.64020392590108,29.142484798990882],[81.64025600367557,29.142793702035483],[81.64035058896678,29.14364395237741],[81.64017933107293,29.14400811977041],[81.64013474671378,29.14438291757493],[81.63983594146605,29.14469575555776],[81.63946885368757,29.145403771785826],[81.63946665058066,29.146394437012553],[81.63917877952984,29.147221739231284],[81.63947205936365,29.148502055524997],[81.63917261575249,29.14964982618631],[81.63919962602367,29.149658766836495],[81.63896171680905,29.150151783947386],[81.63861049538964,29.15185946755946],[81.63866488644982,29.152136737029146],[81.63883407089298,29.152469899580655],[81.63900381510285,29.153003932886666],[81.63902719804936,29.153042132120596],[81.6390765286644,29.15312540672938],[81.63922170502184,29.15331652702858],[81.63938557749644,29.15351658757754],[81.63965586197003,29.153885386826044],[81.6398986993846,29.154182164245693],[81.6407366287324,29.15508743873864],[81.64082716010118,29.15527205666968],[81.64094038717172,29.15550387583044],[81.6412031726062,29.15559071696129],[81.64205893136737,29.155848364765983],[81.64297608709016,29.15615308941025],[81.64411263614477,29.156605735911555],[81.64593287609975,29.157434124451193],[81.64632546133593,29.15751796636331],[81.64674512019414,29.1575069048164],[81.64763983764765,29.157306231378033],[81.64814071445845,29.15734218465318],[81.6484651473892,29.157521116172635],[81.64881658829187,29.157806016409094],[81.6492905145856,29.15804515415493],[81.64979139013181,29.15817588547918],[81.65038017618248,29.15818433281313],[81.6507730134514,29.158101124760872],[81.65105812346594,29.15795758644893],[81.6515458119989,29.157734088570702],[81.65206019367291,29.157758664466314],[81.65243902325258,29.157912526505505],[81.65276383001202,29.15815009957283],[81.65315616309947,29.158389674461286],[81.653846610026,29.158521658373008],[81.6548960710749,29.158491786527915],[81.65671075768952,29.1585415088738],[81.6579567283383,29.158709134895588],[81.65885006373367,29.158889760571718],[81.65930373268372,29.159074820019434],[81.65942483953873,29.159216363371353],[81.66022256610833,29.160133140790347],[81.660357673777,29.16054988950321],[81.66053910746795,29.161185390907985],[81.66075537369524,29.161434778777473],[81.6611614615323,29.161708051603092],[81.66190555153185,29.161982015315058],[81.66301603105647,29.16224497973973],[81.66378682245941,29.162363023173206],[81.66427337754756,29.16266074067859],[81.66442111594213,29.162946576517335],[81.66441398349946,29.16333250180523],[81.66444029635589,29.163925801461847],[81.6643578193564,29.164497155885613],[81.66421513223816,29.165093578550604],[81.6642693969765,29.165436305200522],[81.66530359754658,29.165724526773637],[81.66608551408929,29.166070386603],[81.66652036554345,29.16612015643719],[81.66723926565581,29.165963118373753],[81.66771631921833,29.166087097532973]]]}},{"type":"Feature","properties":{"province":"Karnali Province","district":"Kalikot","municipality":"Khandachakra Municipality","ward":"6","wardNumber":6,"sourceMunicipality":"Khandachakra","sourceType":"Nagarpalika"},"geometry":{"type":"Polygon","coordinates":[[[81.70104864021054,29.114554853537122],[81.7008376223604,29.114517528188177],[81.6989678671789,29.113437377168683],[81.6980550894313,29.113078824604827],[81.69668894854696,29.112939268917923],[81.69569919193668,29.113454408851393],[81.69512408914686,29.11411178258841],[81.69450978029474,29.115058241207397],[81.69348094081737,29.115864715953453],[81.69193309726292,29.11641648595529],[81.69118737775356,29.116348145057785],[81.69065736442197,29.116350890057557],[81.69019412641319,29.11635326053977],[81.6894505296765,29.11650154537106],[81.68841907050312,29.116944601526917],[81.68759138244738,29.116912770624925],[81.68701166310986,29.116877378455136],[81.68638787150459,29.116408921679415],[81.68526077815218,29.114925411446876],[81.68472051480018,29.114637070831588],[81.68461935144794,29.114691709937134],[81.68368980472246,29.11518840808435],[81.68208292980285,29.116250451579788],[81.68092630072005,29.11650907723872],[81.68072191061766,29.116498821880658],[81.6811720691515,29.117342761799957],[81.6825386989252,29.118231663196823],[81.68345377850325,29.11942296003154],[81.68380020886393,29.12031703933055],[81.68357742857957,29.12091621227119],[81.6830133953449,29.121417790695276],[81.68188601522112,29.122418696759237],[81.68064290978093,29.123122263774913],[81.67929062835849,29.124424443516304],[81.67838995832321,29.12552344304367],[81.67734136480793,29.12611773094033],[81.67714753979175,29.12622701028461],[81.6769265675929,29.127123958772305],[81.67749914713887,29.128016977030363],[81.67818739042313,29.129209459189056],[81.67870344966215,29.130003385891186],[81.67870806593,29.130700652998925],[81.67905125102381,29.131197615291097],[81.67973300799638,29.13129346341113],[81.68019054745153,29.131886829647062],[81.68053048897917,29.13188514579798],[81.68143970475747,29.132180617666883],[81.68167178249236,29.13287669992278],[81.68133845248337,29.133972829966876],[81.68066455735585,29.13497367809269],[81.68055743983348,29.135969406891736],[81.68010838428829,29.13666891966774],[81.67898013099615,29.13757054675884],[81.67842058939875,29.138769329400727],[81.67831665449783,29.14016217407035],[81.67741579667334,29.141263424249694],[81.6771929537779,29.141862535629233],[81.6773132349264,29.14285707841595],[81.67765904182941,29.143651940396083],[81.67856832017584,29.143945161504934],[81.67800946437178,29.145243286338406],[81.67756302851394,29.14634222887907],[81.67677558972768,29.147391027635493],[81.67666342064369,29.14754050799841],[81.67678376250277,29.148636580406333],[81.67633851276459,29.149931893228025],[81.67634899300788,29.15152492292345],[81.67590436657119,29.152921765376178],[81.67579980756022,29.15421758200305],[81.67534607185945,29.15431910660158],[81.673992728504,29.155521944247557],[81.67252553059787,29.15672302980504],[81.67185007518684,29.15752300688732],[81.67083661055374,29.158724098067395],[81.67027494874696,29.15952345125513],[81.66903452262515,29.16072566492204],[81.66835651031225,29.161126211548627],[81.66745346799587,29.16192731164506],[81.66704149578287,29.162227207565262],[81.66704311762842,29.162477655636085],[81.66755196912499,29.164433860668794],[81.6678057401782,29.165303619013084],[81.66771631921833,29.166087097532973],[81.66823851542507,29.166224393881873],[81.669748467185,29.16593701353221],[81.6704034652295,29.16594052207304],[81.67105383509772,29.166113267866365],[81.67277353864459,29.1668447518688],[81.67340446054834,29.167193611284475],[81.67423520457902,29.167730965616197],[81.67470137600415,29.168141591787816],[81.6750049234143,29.168462751225324],[81.67528871460664,29.16871401609472],[81.67563271563813,29.169016921209817],[81.67587386680292,29.169223297395856],[81.67592363541159,29.16926818577535],[81.67623406538999,29.16926437537072],[81.67684109415305,29.170179713754553],[81.67711100425117,29.170557452344358],[81.67741111082165,29.17102753123397],[81.67777918397636,29.171287486480704],[81.67820915600561,29.171569574066908],[81.67879850021198,29.171839660208384],[81.67959585950838,29.17217632999122],[81.68012418412009,29.17226392404529],[81.68140772959107,29.17253039178688],[81.6820579099012,29.172768531635672],[81.6831509447487,29.173094701626756],[81.68425279459917,29.17348845536264],[81.68508504392398,29.173748227676498],[81.686238100424,29.17410784671154],[81.68770759530442,29.174111614292308],[81.68845256363467,29.17419352106784],[81.6892280370551,29.17480102066996],[81.68922759209241,29.17530879449369],[81.69030373889774,29.17608397161737],[81.69205120767272,29.17650367708978],[81.6943360021405,29.177189090630698],[81.69485750932859,29.177403034299804],[81.69516512216768,29.177642858588204],[81.6954134592824,29.178151572786895],[81.69563371700941,29.179064342709015],[81.69640618161279,29.18016148593653],[81.6970577219585,29.18144662008672],[81.69732888489857,29.18161442284444],[81.6973248301428,29.18102099811172],[81.6974584610055,29.179774634612496],[81.69773358329246,29.178529835066758],[81.69871741375559,29.17715500482905],[81.69970398786595,29.17627882140146],[81.7009696166753,29.174651983059007],[81.70223942524922,29.17365014068186],[81.70379184321244,29.172522764995986],[81.70491934937377,29.171395321725186],[81.70561807341763,29.169897764837703],[81.70632278698737,29.169271213941904],[81.70745540982782,29.168892927930806],[81.70815750249595,29.167891829706555],[81.7081472079211,29.166398016207303],[81.70827728209218,29.164655257132804],[81.70840928984727,29.16328485639592],[81.70882871051772,29.16241160495231],[81.70967541644512,29.161784305129096],[81.71023782749275,29.16103440355214],[81.71093985819401,29.16003549349034],[81.71093386824009,29.159164550006867],[81.71092869015838,29.15841764402041],[81.71049809981295,29.157672983077276],[81.71020694277661,29.156553025916676],[81.70886068104943,29.156686550343284],[81.70800380591174,29.15581784827451],[81.70742773053163,29.15457747813332],[81.70798926855186,29.153703478212755],[81.70826326698099,29.15233232881037],[81.7075450144551,29.150966357588448],[81.70796362457521,29.14996907012378],[81.7085244126998,29.1490927563019],[81.70972400449592,29.14821538718259],[81.71027774359432,29.146222121484946],[81.7106954182599,29.145098421077407],[81.71111396603253,29.14410100800797],[81.71181418668262,29.14285171224398],[81.71223011387382,29.141479751568674],[81.71278915471669,29.14035749066503],[81.71306458933283,29.13911044075633],[81.71291567176192,29.138116085083876],[81.71304992632408,29.13699381958523],[81.71332043157693,29.135126212187217],[81.71316546148064,29.133258600477408],[81.71244901818959,29.132143265096],[81.7121527461571,29.13027858993874],[81.71143461864942,29.128912680682696],[81.71043244551453,29.127548269826548],[81.70971862359481,29.126805106547042],[81.70957064182599,29.125934849027264],[81.70871401756365,29.12506839782852],[81.70785477235613,29.123827274627157],[81.70756548750118,29.12295776586231],[81.70812446548253,29.12183331734308],[81.70868662700602,29.12108341636812],[81.7082553513709,29.120214656754392],[81.70853009807698,29.11896760586194],[81.70818266151895,29.118427881848508],[81.70796182406859,29.118722402715097],[81.70654809157921,29.119352634450422],[81.70484769579905,29.119485717214477],[81.70371463886447,29.119615805803146],[81.70286737323599,29.120118943880712],[81.70187986307143,29.120871090558964],[81.70117458880824,29.12137347992717],[81.70018364734905,29.12162691824202],[81.69978386980216,29.121694371659324],[81.69945407264137,29.120635556919353],[81.70023945213379,29.119336184554527],[81.70068151845878,29.117641442483468],[81.70033365254541,29.116546617495484],[81.70100785854854,29.115647236527078],[81.70104864021054,29.114554853537122]]]}},{"type":"Feature","properties":{"province":"Karnali Province","district":"Kalikot","municipality":"Khandachakra Municipality","ward":"7","wardNumber":7,"sourceMunicipality":"Khandachakra","sourceType":"Nagarpalika"},"geometry":{"type":"Polygon","coordinates":[[[81.71931259870763,29.185941060767178],[81.71756684380777,29.18369388249727],[81.71758092344697,29.18285213561154],[81.71753541811638,29.18204902502316],[81.71840251780255,29.180555033558843],[81.71870025927085,29.18029170908228],[81.71897774550615,29.179886280952285],[81.71877648922111,29.179408951720696],[81.71946251177746,29.178511695770244],[81.71941845030616,29.177273081583998],[81.71970844884547,29.17635987963521],[81.7194048480554,29.175321259409742],[81.71925649281887,29.174428433416224],[81.71897351663182,29.17394478794006],[81.71866040998837,29.173109289105305],[81.71874519902224,29.172641777844532],[81.71887494939948,29.171709131209216],[81.71973347702104,29.170655268907264],[81.71983020663927,29.170331987257732],[81.71956029280675,29.170252211593272],[81.71931582351576,29.170312163484994],[81.71874991303106,29.170922211571806],[81.71851057131768,29.17097991319594],[81.71833688111504,29.170960592973803],[81.71801420253325,29.170501954973275],[81.71782478065899,29.168781260770466],[81.71772900067586,29.168314622144713],[81.71664273361186,29.166939457107805],[81.7164342864079,29.166450873696355],[81.7162833598271,29.1660974564492],[81.7160344590218,29.165622626830825],[81.71593098709353,29.165345606515967],[81.71581556971938,29.1651950608842],[81.71583395563607,29.1649715582086],[81.71603266201927,29.164528242891055],[81.7159375749273,29.163702812338517],[81.71585617408189,29.163362523966725],[81.71584492427675,29.16303536562195],[81.71618806006917,29.16265444523601],[81.71636863164397,29.162466204306202],[81.71647736223724,29.16229184146899],[81.71645935979338,29.16202113741211],[81.71629705191025,29.161782815247935],[81.71599050059193,29.16160394667183],[81.71588233732585,29.161396947289145],[81.71591942270169,29.16081002578056],[81.71596526529194,29.159913950634607],[81.71592994877125,29.159264259607205],[81.71591231885812,29.159140223064803],[81.71585824110893,29.15875686067974],[81.71591282837907,29.158472277602904],[81.71600355681261,29.15802721074327],[81.71648224613574,29.15745148426736],[81.71686133185558,29.157149337285112],[81.71715070077273,29.15653178446075],[81.7173131415439,29.156230760722437],[81.71754829833563,29.1558504011726],[81.71799979229776,29.155155264688624],[81.71884013139055,29.153735858285007],[81.71902114318205,29.153330991231137],[81.71902158612264,29.152929310625723],[81.71913032042147,29.15257895918703],[81.71941931084797,29.152184721324712],[81.71974769176062,29.151720401136004],[81.71957713459493,29.151224879497438],[81.71947879541383,29.15047397057787],[81.7194221604587,29.149648352779696],[81.71948719859009,29.148738586110458],[81.71988742181604,29.148075271183554],[81.72035898499864,29.14741158164916],[81.72038743684732,29.147147441826554],[81.72045835441995,29.146097760267743],[81.72057271526724,29.145720275240453],[81.72068688816884,29.14540824758472],[81.72090116197535,29.145082153999365],[81.72107804752815,29.144641152006386],[81.72155879584471,29.144379080193016],[81.72171091877345,29.144168394908718],[81.72179158760456,29.14329695317747],[81.72194821462034,29.14291021624555],[81.7224298375141,29.142672901782337],[81.72266424235238,29.142468594363777],[81.72285971198124,29.141014294906313],[81.72315645263812,29.140816364886795],[81.72322817450375,29.14031503134836],[81.7229121999042,29.13887929428235],[81.72303925259031,29.13858302167615],[81.72316155144459,29.138415348577304],[81.7229099605629,29.138098565331692],[81.7224958128902,29.137417048249837],[81.72227967608424,29.13692402623391],[81.72204590569737,29.136480768594314],[81.7218927327286,29.135806881430923],[81.72200809443743,29.135395512190456],[81.72218291208394,29.135311114257643],[81.7223327217417,29.135141065933617],[81.72246527818784,29.134707065634373],[81.72235880664041,29.134274312076528],[81.72210952791731,29.134009419471482],[81.72218131038196,29.133616430000757],[81.72230955116055,29.13330208887713],[81.72226022395802,29.133058641727654],[81.72204126836368,29.132883838524123],[81.72205865383415,29.13261294635484],[81.72217545203297,29.132321174706213],[81.72221409422157,29.132147249483687],[81.72229262606287,29.13198432747682],[81.72239710557892,29.131855165700305],[81.72246156830701,29.131793898019566],[81.72252416014126,29.13137158747066],[81.72254623348235,29.131220293390214],[81.7230076153683,29.129848020623413],[81.7234060331111,29.128661176832015],[81.72353371532084,29.12808732223103],[81.72368477552709,29.127820183432455],[81.72370634710042,29.12778173494802],[81.72387835808883,29.127207630617896],[81.72406518421332,29.126820769176398],[81.72413677578625,29.12667372730917],[81.72435099487448,29.12579472177866],[81.72442990768191,29.125221178860716],[81.72446286125155,29.124984047375758],[81.7244726161009,29.124914026612068],[81.72447755577511,29.12487789168171],[81.72403846793858,29.123736176254027],[81.72368890494404,29.123280039185186],[81.72316490396445,29.12259458188628],[81.72290005729587,29.122298179999838],[81.72229033914071,29.121378528486765],[81.72227821485673,29.121028799949784],[81.72228728754243,29.120577417793125],[81.722371702712,29.11996773987405],[81.72233206520313,29.119814507201145],[81.72245705468104,29.119509169395872],[81.72245599700611,29.1191661937097],[81.72232289208448,29.118593711501802],[81.72243962855207,29.11820497398351],[81.72249490242518,29.118021920558032],[81.72286361961787,29.11700668957817],[81.72257951180596,29.116981178330697],[81.72224483039982,29.116439141294926],[81.72190721552238,29.115567694273185],[81.7212799907635,29.11462778606434],[81.72003452740482,29.114016218240845],[81.71864438392288,29.11347760776578],[81.71756442189378,29.112828968093933],[81.71648483229194,29.11232705903697],[81.71576656286028,29.11214130829121],[81.71470210081212,29.111865028563948],[81.71375117722586,29.111942228331014],[81.7131757628797,29.11252751803176],[81.71284863189014,29.113073049518174],[81.71214742383711,29.113404013779228],[81.7115701999309,29.113734291945246],[81.71070417900513,29.114102203340146],[81.71008319297634,29.11414158229421],[81.70942549815214,29.11472724737189],[81.70897101099867,29.11487409781344],[81.70826780723729,29.114913913775823],[81.70781095071071,29.114625261553197],[81.70689811017121,29.11426677124168],[81.70546744981783,29.113802681642802],[81.70451752656525,29.113841558009177],[81.70447444788077,29.113843995169887],[81.70381487969959,29.114246918963506],[81.7031980130213,29.11479626086866],[81.70286713750745,29.114798007258443],[81.70203919967233,29.114730103031484],[81.70104864021054,29.114554853537122],[81.70100785854854,29.115647236527078],[81.70033365254541,29.116546617495484],[81.70068151845878,29.117641442483468],[81.70023945213379,29.119336184554527],[81.69945407264137,29.120635556919353],[81.69978386980216,29.121694371659324],[81.70018364734905,29.12162691824202],[81.70117458880824,29.12137347992717],[81.70187986307143,29.120871090558964],[81.70286737323599,29.120118943880712],[81.70371463886447,29.119615805803146],[81.70484769579905,29.119485717214477],[81.70654809157921,29.119352634450422],[81.70796182406859,29.118722402715097],[81.70818266151895,29.118427881848508],[81.70853009807698,29.11896760586194],[81.7082553513709,29.120214656754392],[81.70868662700602,29.12108341636812],[81.70812446548253,29.12183331734308],[81.70756548750118,29.12295776586231],[81.70785477235613,29.123827274627157],[81.70871401756365,29.12506839782852],[81.70957064182599,29.125934849027264],[81.70971862359481,29.126805106547042],[81.71043244551453,29.127548269826548],[81.71143461864942,29.128912680682696],[81.7121527461571,29.13027858993874],[81.71244901818959,29.132143265096],[81.71316546148064,29.133258600477408],[81.71332043157693,29.135126212187217],[81.71304992632408,29.13699381958523],[81.71291567176192,29.138116085083876],[81.71306458933283,29.13911044075633],[81.71278915471669,29.14035749066503],[81.71223011387382,29.141479751568674],[81.71181418668262,29.14285171224398],[81.71111396603253,29.14410100800797],[81.7106954182599,29.145098421077407],[81.71027774359432,29.146222121484946],[81.70972400449592,29.14821538718259],[81.7085244126998,29.1490927563019],[81.70796362457521,29.14996907012378],[81.7075450144551,29.150966357588448],[81.70826326698099,29.15233232881037],[81.70798926855186,29.153703478212755],[81.70742773053163,29.15457747813332],[81.70800380591174,29.15581784827451],[81.70886068104943,29.156686550343284],[81.71020694277661,29.156553025916676],[81.71049809981295,29.157672983077276],[81.71092869015838,29.15841764402041],[81.71093386824009,29.159164550006867],[81.71093985819401,29.16003549349034],[81.71023782749275,29.16103440355214],[81.70967541644512,29.161784305129096],[81.70882871051772,29.16241160495231],[81.70840928984727,29.16328485639592],[81.70827728209218,29.164655257132804],[81.7081472079211,29.166398016207303],[81.70815750249595,29.167891829706555],[81.70745540982782,29.168892927930806],[81.70632278698737,29.169271213941904],[81.70561807341763,29.169897764837703],[81.70491934937377,29.171395321725186],[81.70379184321244,29.172522764995986],[81.70223942524922,29.17365014068186],[81.7009696166753,29.174651983059007],[81.69970398786595,29.17627882140146],[81.69871741375559,29.17715500482905],[81.69773358329246,29.178529835066758],[81.6974584610055,29.179774634612496],[81.6973248301428,29.18102099811172],[81.69732888489857,29.18161442284444],[81.6979183532344,29.181979161042495],[81.69894779758128,29.18259210262067],[81.70112736004886,29.18357353938108],[81.70223483109157,29.184373287041446],[81.70340488476577,29.18541423021698],[81.7042683236945,29.186350639435485],[81.70552797891594,29.187041293384564],[81.70628350362887,29.18789699051519],[81.70662312570757,29.18829911175877],[81.70742641501727,29.189368997045076],[81.70875389465162,29.19102731129336],[81.70924694674831,29.191764845287544],[81.70950034980841,29.19214258375935],[81.71148955826239,29.191026216525536],[81.71344456973819,29.18961232280315],[81.71507295510948,29.18838960738794],[81.71655934233539,29.187648218978897],[81.71728462265014,29.187292310352547],[81.71858638185338,29.18616836965086],[81.71931259870763,29.185941060767178]]]}},{"type":"Feature","properties":{"province":"Karnali Province","district":"Kalikot","municipality":"Khandachakra Municipality","ward":"2","wardNumber":2,"sourceMunicipality":"Khandachakra","sourceType":"Nagarpalika"},"geometry":{"type":"Polygon","coordinates":[[[81.61206869768684,29.15934904738255],[81.6116730558579,29.158761932851565],[81.611323056426,29.158255779950963],[81.61073915958444,29.157443847831978],[81.61038784775333,29.15683616584839],[81.61061500860399,29.156022742461772],[81.61049085625166,29.154700977704756],[81.6102504761322,29.153178903645458],[81.60977806990248,29.151655576394507],[81.60930809720165,29.150436901057535],[81.6092963429215,29.150403140509745],[81.60848332130114,29.14800130224114],[81.60766446824513,29.146684906196246],[81.60696321935383,29.145568821210887],[81.60707651980863,29.14506061022558],[81.60660779336223,29.14414883801928],[81.60613906691891,29.143237002142303],[81.60521246770661,29.14313739942997],[81.60405084834558,29.14253339676643],[81.60254409402448,29.142235541326134],[81.60080600307873,29.14193874731504],[81.60000313198441,29.142235700148525],[81.59987989995538,29.142044455142646],[81.59860504503898,29.14184706955932],[81.5976784450683,29.141749655644322],[81.597211590458,29.141142472042734],[81.5966320610504,29.140941906382974],[81.59605602216651,29.141452236908403],[81.59594091486981,29.14155432776401],[81.5948286832812,29.141362946196242],[81.59493166211976,29.141272233471636],[81.59540266273557,29.14060216697119],[81.59549408260801,29.139958667369935],[81.5958624843352,29.139110797111467],[81.59619992985476,29.13878658155537],[81.59663228647572,29.13842810657865],[81.59706613980563,29.138317828717298],[81.59768819359496,29.138005931896263],[81.59827097975273,29.137766368852702],[81.59860929787486,29.137597885929985],[81.59982113921103,29.13713889046378],[81.60047132673145,29.136896764261994],[81.60104073147266,29.136799429768033],[81.60150109676172,29.13661906936876],[81.60243670464779,29.136400516518005],[81.60301111611369,29.135944326378507],[81.6032383360885,29.135358844725836],[81.6033300670543,29.134776238030337],[81.60350382637561,29.134380561013835],[81.6036512625945,29.133998513581506],[81.60389486050593,29.133672483211818],[81.60392737366165,29.133629471274688],[81.60449840465702,29.13348018356307],[81.60449746853577,29.1333198864489],[81.60408026222598,29.13241699156752],[81.60314873077922,29.131789296980408],[81.60294047122282,29.131336662123577],[81.6029351703791,29.130431834156756],[81.60313650740335,29.12970656074467],[81.60313232907804,29.12898447366038],[81.60240712812772,29.1282633791392],[81.601479900328,29.12835770847234],[81.59983794815223,29.129540849250414],[81.59829741395461,29.130362385000325],[81.59768385537687,29.13127001835076],[81.59686421985248,29.132088311786603],[81.59666020083169,29.132360013813823],[81.59614743712436,29.13281589222442],[81.59604514760811,29.13290660518315],[81.59552926562513,29.132818635160056],[81.59490735084695,29.132277469559412],[81.59439059822508,29.131918796075155],[81.59377442030457,29.132372859491255],[81.59367630846985,29.133187909700418],[81.5940928914072,29.134000777587328],[81.59378951154251,29.134997191711726],[81.59327730930829,29.135541032982303],[81.5923474631952,29.135093890498815],[81.59162169916476,29.134372733707227],[81.59058750596297,29.13365301056028],[81.58986124286646,29.132843764669875],[81.58903636907388,29.13275710443826],[81.58831216368863,29.13230671332786],[81.58769087369757,29.131765610005225],[81.58717206207301,29.131136044527413],[81.58593472091027,29.1309609785025],[81.58469831332798,29.13105661687379],[81.58377058786043,29.13097039381256],[81.58294365707899,29.13052050230172],[81.58252819622209,29.129890437052538],[81.58221489939895,29.12925768520656],[81.58169565328356,29.12844531591403],[81.58076374844357,29.127724968643147],[81.5801435815868,29.12736660665343],[81.57983147092676,29.126824131225106],[81.57928901833525,29.12666851680733],[81.5797911294767,29.127756279423576],[81.57979911073393,29.129177883905832],[81.58010357335914,29.1309863552649],[81.58085001826267,29.13266429425034],[81.58071611792921,29.135122325606996],[81.5796904656173,29.136031643415844],[81.57896135648127,29.137327827162636],[81.57843401960149,29.138171818924373],[81.57823149994347,29.13849541119767],[81.57868239582629,29.140174596529494],[81.57913104745691,29.141337067280602],[81.57943264230938,29.14262882474794],[81.57943844142119,29.14366231554796],[81.57944168411855,29.144239985622356],[81.57873385407612,29.14419115003912],[81.57788408753706,29.144610013176948],[81.57845154282785,29.145300284854716],[81.57856426799272,29.145579680871453],[81.57887318649094,29.1463410325626],[81.57917746741798,29.147763703549252],[81.57927943606818,29.148300299078766],[81.58011203132702,29.150415617525308],[81.5801569096262,29.151300002326423],[81.58014427422007,29.15168367721916],[81.58009742271237,29.153071645894666],[81.57972608246895,29.153887881497866],[81.57973013552026,29.154605467019746],[81.57973269200248,29.15506810258589],[81.57974731058188,29.155851019255167],[81.58022672838328,29.15673353447525],[81.58100450558013,29.157892320757615],[81.58134406265069,29.158500128076742],[81.58221623801721,29.160543050127394],[81.58251602901967,29.161151044209497],[81.58260079831977,29.162053247726394],[81.58283299629763,29.162988837010985],[81.58319312274972,29.163682232013134],[81.58387142775474,29.164633706940617],[81.58434947420655,29.165290592511774],[81.58459218816311,29.165465584079968],[81.58542063816184,29.16477370311283],[81.58657022240463,29.16324545579649],[81.58760862504616,29.162629350136033],[81.58934540996873,29.162520150935023],[81.59061234652289,29.16129599387028],[81.59095124668904,29.159870579873786],[81.59163958701363,29.15875057161948],[81.59314366057691,29.15854077810923],[81.59464773503504,29.15822945372575],[81.59569025401288,29.158326369986785],[81.59766536048137,29.1594345921842],[81.59836367927086,29.16004071573616],[81.59940738301538,29.160342941802273],[81.60114466624975,29.16033514701067],[81.6027655932465,29.160327851313724],[81.60403708173799,29.15991368246152],[81.60507904026672,29.15980741337673],[81.60531037857973,29.1598063529856],[81.6059998412101,29.15888927947543],[81.60599560019608,29.158178508127236],[81.60668562360081,29.1573607764134],[81.60784499809489,29.157558597669773],[81.60830954445504,29.157863380339677],[81.60900973343269,29.158774093374838],[81.61017210173547,29.159479625710702],[81.61040468667446,29.15968162536168],[81.61156169123782,29.159473265435533],[81.61206869768684,29.15934904738255]]]}},{"type":"Feature","properties":{"province":"Karnali Province","district":"Kalikot","municipality":"Khandachakra Municipality","ward":"1","wardNumber":1,"sourceMunicipality":"Khandachakra","sourceType":"Nagarpalika"},"geometry":{"type":"Polygon","coordinates":[[[81.64082716010118,29.15527205666968],[81.6407366287324,29.15508743873864],[81.6398986993846,29.154182164245693],[81.63965586197003,29.153885386826044],[81.63938557749644,29.15351658757754],[81.63922170502184,29.15331652702858],[81.6390765286644,29.15312540672938],[81.63902719804936,29.153042132120596],[81.63827203564689,29.153149592116634],[81.63758045349243,29.15366060938254],[81.63665559993021,29.153868097613305],[81.63549934432638,29.15417823777316],[81.63422742089752,29.154387347085546],[81.63318627378973,29.154595396312953],[81.63261528757498,29.155920465318133],[81.63099816486572,29.15653737792191],[81.62961113359965,29.1569501079934],[81.62810525088359,29.156855626005054],[81.62678400309875,29.15667005625507],[81.62671453912498,29.156659052183183],[81.62578837413645,29.15676494760473],[81.62475209291357,29.157683704724004],[81.62359639908483,29.158097563291722],[81.62186036371426,29.1582072002055],[81.61989299030895,29.15841936476857],[81.6185052721173,29.158730502214116],[81.61676979631382,29.159043136685508],[81.61445647552354,29.159459982493765],[81.61376108823724,29.15936163330279],[81.6128337404155,29.159162813584043],[81.61206869768684,29.15934904738255],[81.61156169123782,29.159473265435533],[81.61040468667446,29.15968162536168],[81.61017210173547,29.159479625710702],[81.60900973343269,29.158774093374838],[81.60830954445504,29.157863380339677],[81.60784499809489,29.157558597669773],[81.60668562360081,29.1573607764134],[81.60599560019608,29.158178508127236],[81.6059998412101,29.15888927947543],[81.60531037857973,29.1598063529856],[81.60507904026672,29.15980741337673],[81.60403708173799,29.15991368246152],[81.6027655932465,29.160327851313724],[81.60114466624975,29.16033514701067],[81.59940738301538,29.160342941802273],[81.59836367927086,29.16004071573616],[81.59766536048137,29.1594345921842],[81.59569025401288,29.158326369986785],[81.59464773503504,29.15822945372575],[81.59314366057691,29.15854077810923],[81.59163958701363,29.15875057161948],[81.59095124668904,29.159870579873786],[81.59061234652289,29.16129599387028],[81.58934540996873,29.162520150935023],[81.58760862504616,29.162629350136033],[81.58657022240463,29.16324545579649],[81.58542063816184,29.16477370311283],[81.58459218816311,29.165465584079968],[81.58547188755561,29.16610259408447],[81.58751190295425,29.166630710129347],[81.58887047266339,29.16713918776476],[81.58911781535741,29.167232905555164],[81.5907229779597,29.167796714788132],[81.5923190726802,29.168484685275285],[81.5934712461655,29.169312253328535],[81.59440540299933,29.170021097226158],[81.59539758195791,29.170623723631298],[81.59688307838641,29.170946647782014],[81.59912774343674,29.170832765934765],[81.59999869672313,29.17093268025829],[81.60164374958202,29.171498427864964],[81.60309185018909,29.172238848742893],[81.60476803543763,29.173063923375643],[81.606155928936,29.173612787402327],[81.60710853227854,29.17414770602667],[81.60840281484701,29.175495803840914],[81.60917121295765,29.176724422810015],[81.60967338478588,29.177938410236163],[81.60972308940434,29.178084953374814],[81.61032807171033,29.17787677458703],[81.61084977202684,29.177723173155677],[81.61117152102315,29.17754793786398],[81.61176231305632,29.17722478713221],[81.61244069779049,29.177043429565682],[81.61263195812266,29.176992917180115],[81.61332171851065,29.177098080429676],[81.61337192450976,29.17710458319049],[81.61342313114392,29.17717885508479],[81.61376487746836,29.17767600534117],[81.61402703652254,29.17786656405245],[81.6142008521327,29.177904139773016],[81.61524475025293,29.177788742849273],[81.61611365011801,29.177211583720155],[81.61680872972633,29.177018847329233],[81.6175043724368,29.176711015034776],[81.61793854266195,29.176327595589644],[81.61815481634578,29.176060332113924],[81.61828480774265,29.17575511883483],[81.61862727338028,29.174225798961285],[81.61880028141593,29.173920399475424],[81.61945078693128,29.17326971551203],[81.61988501845346,29.173001454417093],[81.62040547294588,29.172540950271273],[81.62092592838925,29.17196760072194],[81.62153098590764,29.17093355446172],[81.62325875625655,29.16741654325137],[81.6236042066835,29.166929778709697],[81.62412684555926,29.166726475494386],[81.62458945881644,29.16669272054354],[81.62464860627965,29.16668784485498],[81.62477853361435,29.166495539958067],[81.62499455798283,29.166189890094316],[81.6256889548803,29.16557728105482],[81.62603640129325,29.165424553199774],[81.62660155425142,29.165345160893164],[81.62688747787666,29.165219689785225],[81.62703615996979,29.165153547787007],[81.62755443202512,29.164234971654828],[81.62811877723647,29.163814854882546],[81.6281873670757,29.163776156887895],[81.62846597422308,29.163621427075178],[81.62898692641129,29.16335266698627],[81.62955083481886,29.162855840091108],[81.63059305080218,29.162279995603665],[81.63180908250362,29.16174172613319],[81.6318372188554,29.161716781614007],[81.63215621855223,29.161435390920683],[81.6323823077742,29.161201949437228],[81.63267611114439,29.16089817666778],[81.63337113048901,29.16051575939239],[81.63458759857839,29.160054201178852],[81.634701079443,29.16001300230821],[81.63545593257597,29.1597454326561],[81.6358040041822,29.159592578906704],[81.63658536811914,29.159245861681686],[81.63675912254793,29.159168278499614],[81.63700340554492,29.158975349279736],[81.63762702469248,29.158480399065386],[81.63827678185827,29.15775294312638],[81.63931519756217,29.156260892175474],[81.63961881592512,29.155990879079457],[81.63979200915499,29.155838836617523],[81.64017797184118,29.155584328350063],[81.64043563369898,29.155470298139257],[81.64082716010118,29.15527205666968]]]}},{"type":"Feature","properties":{"province":"Karnali Province","district":"Kalikot","municipality":"Khandachakra Municipality","ward":"4","wardNumber":4,"sourceMunicipality":"Khandachakra","sourceType":"Nagarpalika"},"geometry":{"type":"Polygon","coordinates":[[[81.63902719804936,29.153042132120596],[81.63900381510285,29.153003932886666],[81.63883407089298,29.152469899580655],[81.63866488644982,29.152136737029146],[81.63861049538964,29.15185946755946],[81.63896171680905,29.150151783947386],[81.63919962602367,29.149658766836495],[81.63917261575249,29.14964982618631],[81.63947205936365,29.148502055524997],[81.63917877952984,29.147221739231284],[81.63946665058066,29.146394437012553],[81.63946885368757,29.145403771785826],[81.63983594146605,29.14469575555776],[81.64013474671378,29.14438291757493],[81.64017933107293,29.14400811977041],[81.64035058896678,29.14364395237741],[81.64025600367557,29.142793702035483],[81.64020392590108,29.142484798990882],[81.639747884831,29.141999526163676],[81.63832862326291,29.140284568897513],[81.63746263280284,29.138564617517364],[81.63765609890703,29.137327131481175],[81.6378920382082,29.134852783787107],[81.63792696408441,29.13229140716617],[81.63780178782967,29.128358752319084],[81.6372881855032,29.1263528456508],[81.63702621011127,29.126378912479694],[81.63534438310451,29.126544880044772],[81.63455839678902,29.126620830580254],[81.63398086036143,29.126950732809387],[81.63294977381011,29.127501758151453],[81.63245620479034,29.128011839808448],[81.63154866608626,29.128487718416608],[81.63059817806842,29.12867501218997],[81.62948038120646,29.128608043033154],[81.62865057172749,29.128248677305926],[81.62789422426336,29.128123569974154],[81.62778036889327,29.128106063505122],[81.62703789489721,29.128472849651402],[81.62662741722366,29.1291291624199],[81.62609202105595,29.129531087031133],[81.62485267139033,29.12986410762002],[81.62344594953512,29.129942927114914],[81.62286573090533,29.129837326921205],[81.62103967704785,29.12901081392784],[81.6192561987227,29.128292457668756],[81.61859394735573,29.128331648973077],[81.61751522722572,29.128239547332264],[81.61710825953188,29.128313689139343],[81.61663357977963,29.128340691857716],[81.6156572696284,29.128509979906134],[81.61326323411885,29.128735268367112],[81.61240834656294,29.12880015202271],[81.61158034706018,29.128731747921965],[81.61130924214308,29.12884121447653],[81.61112097985296,29.12905652559483],[81.61090551874497,29.12935536024637],[81.61055581680777,29.12986919497981],[81.61032597557214,29.130120766074953],[81.6099845225182,29.13083765985411],[81.60962012664878,29.13137187411883],[81.60936533744805,29.131745356028613],[81.60908297434688,29.132139343747834],[81.60854276251006,29.132606599284852],[81.60789338623,29.132979638598233],[81.60716817093274,29.133125110832907],[81.60570317694868,29.133251318130426],[81.60471329922949,29.133422857262353],[81.60449840465702,29.13348018356307],[81.60392737366165,29.133629471274688],[81.60389486050593,29.133672483211818],[81.60492861874654,29.134195836483514],[81.60621051957585,29.135713233937732],[81.60691470002324,29.13733703061933],[81.60773224292123,29.138452617400812],[81.60819672620059,29.138755149120346],[81.60901065097252,29.139360710800965],[81.61040235982769,29.139760469489456],[81.611562731174,29.14016141289379],[81.61190911556551,29.139956732144977],[81.61272615869184,29.141072255930364],[81.6133099294505,29.14188193811796],[81.61400937042738,29.14269112057096],[81.6144782202408,29.143706674280967],[81.61518021794198,29.144922038502425],[81.61576274236596,29.145528598316076],[81.61622859977763,29.145934910558974],[81.61657866311549,29.146441000379802],[81.61681673750456,29.147455363541216],[81.61728434079821,29.148267857174268],[81.61752060681329,29.14897750495922],[81.6174079300338,29.149587370412043],[81.61787615758733,29.150397613291926],[81.61776653831095,29.151415785465883],[81.6176945029889,29.15194193899129],[81.61858245902204,29.152325936899434],[81.61985687824489,29.15242160500469],[81.62113005027248,29.152314150636098],[81.62205247171364,29.151700606555885],[81.62262719988678,29.150987090718946],[81.6237945885405,29.150392680349892],[81.62483383189368,29.15209381657493],[81.62530586487613,29.153515488498773],[81.62600861145877,29.154832320384827],[81.62647696273586,29.155746281050742],[81.62678400309875,29.15667005625507],[81.62810525088359,29.156855626005054],[81.62961113359965,29.1569501079934],[81.63099816486572,29.15653737792191],[81.63261528757498,29.155920465318133],[81.63318627378973,29.154595396312953],[81.63422742089752,29.154387347085546],[81.63549934432638,29.15417823777316],[81.63665559993021,29.153868097613305],[81.63758045349243,29.15366060938254],[81.63827203564689,29.153149592116634],[81.63902719804936,29.153042132120596]]]}},{"type":"Feature","properties":{"province":"Karnali Province","district":"Kalikot","municipality":"Khandachakra Municipality","ward":"3","wardNumber":3,"sourceMunicipality":"Khandachakra","sourceType":"Nagarpalika"},"geometry":{"type":"Polygon","coordinates":[[[81.62678400309875,29.15667005625507],[81.62647696273586,29.155746281050742],[81.62600861145877,29.154832320384827],[81.62530586487613,29.153515488498773],[81.62483383189368,29.15209381657493],[81.6237945885405,29.150392680349892],[81.62262719988678,29.150987090718946],[81.62205247171364,29.151700606555885],[81.62113005027248,29.152314150636098],[81.61985687824489,29.15242160500469],[81.61858245902204,29.152325936899434],[81.6176945029889,29.15194193899129],[81.61776653831095,29.151415785465883],[81.61787615758733,29.150397613291926],[81.6174079300338,29.149587370412043],[81.61752060681329,29.14897750495922],[81.61728434079821,29.148267857174268],[81.61681673750456,29.147455363541216],[81.61657866311549,29.146441000379802],[81.61622859977763,29.145934910558974],[81.61576274236596,29.145528598316076],[81.61518021794198,29.144922038502425],[81.6144782202408,29.143706674280967],[81.61400937042738,29.14269112057096],[81.6133099294505,29.14188193811796],[81.61272615869184,29.141072255930364],[81.61190911556551,29.139956732144977],[81.611562731174,29.14016141289379],[81.61040235982769,29.139760469489456],[81.60901065097252,29.139360710800965],[81.60819672620059,29.138755149120346],[81.60773224292123,29.138452617400812],[81.60691470002324,29.13733703061933],[81.60621051957585,29.135713233937732],[81.60492861874654,29.134195836483514],[81.60389486050593,29.133672483211818],[81.6036512625945,29.133998513581506],[81.60350382637561,29.134380561013835],[81.6033300670543,29.134776238030337],[81.6032383360885,29.135358844725836],[81.60301111611369,29.135944326378507],[81.60243670464779,29.136400516518005],[81.60150109676172,29.13661906936876],[81.60104073147266,29.136799429768033],[81.60047132673145,29.136896764261994],[81.59982113921103,29.13713889046378],[81.59860929787486,29.137597885929985],[81.59827097975273,29.137766368852702],[81.59768819359496,29.138005931896263],[81.59706613980563,29.138317828717298],[81.59663228647572,29.13842810657865],[81.59619992985476,29.13878658155537],[81.5958624843352,29.139110797111467],[81.59549408260801,29.139958667369935],[81.59540266273557,29.14060216697119],[81.59493166211976,29.141272233471636],[81.5948286832812,29.141362946196242],[81.59594091486981,29.14155432776401],[81.59605602216651,29.141452236908403],[81.5966320610504,29.140941906382974],[81.597211590458,29.141142472042734],[81.5976784450683,29.141749655644322],[81.59860504503898,29.14184706955932],[81.59987989995538,29.142044455142646],[81.60000313198441,29.142235700148525],[81.60080600307873,29.14193874731504],[81.60254409402448,29.142235541326134],[81.60405084834558,29.14253339676643],[81.60521246770661,29.14313739942997],[81.60613906691891,29.143237002142303],[81.60660779336223,29.14414883801928],[81.60707651980863,29.14506061022558],[81.60696321935383,29.145568821210887],[81.60766446824513,29.146684906196246],[81.60848332130114,29.14800130224114],[81.6092963429215,29.150403140509745],[81.60930809720165,29.150436901057535],[81.60977806990248,29.151655576394507],[81.6102504761322,29.153178903645458],[81.61049085625166,29.154700977704756],[81.61061500860399,29.156022742461772],[81.61038784775333,29.15683616584839],[81.61073915958444,29.157443847831978],[81.611323056426,29.158255779950963],[81.6116730558579,29.158761932851565],[81.61206869768684,29.15934904738255],[81.6128337404155,29.159162813584043],[81.61376108823724,29.15936163330279],[81.61445647552354,29.159459982493765],[81.61676979631382,29.159043136685508],[81.6185052721173,29.158730502214116],[81.61989299030895,29.15841936476857],[81.62186036371426,29.1582072002055],[81.62359639908483,29.158097563291722],[81.62475209291357,29.157683704724004],[81.62578837413645,29.15676494760473],[81.62671453912498,29.156659052183183],[81.62678400309875,29.15667005625507]]]}},{"type":"Feature","properties":{"province":"Karnali Province","district":"Kalikot","municipality":"Khandachakra Municipality","ward":"8","wardNumber":8,"sourceMunicipality":"Khandachakra","sourceType":"Nagarpalika"},"geometry":{"type":"Polygon","coordinates":[[[81.7598579069272,29.133274616192995],[81.75980151098413,29.133209534303404],[81.75969328432491,29.133088247737007],[81.7588828601699,29.13253551407429],[81.75799871896304,29.13210725344455],[81.75756680907539,29.131827604542817],[81.75681009255095,29.131247488910205],[81.75624963417096,29.130966337369085],[81.75599072664767,29.13079853562088],[81.7556018937673,29.13061116388049],[81.754349743731,29.129751710648797],[81.75408964868649,29.129507198424978],[81.75383074086707,29.12933945859532],[81.75240602539166,29.128517077110203],[81.75212535996813,29.128272690319324],[81.75175797331399,29.12802873970382],[81.75063356172635,29.12705575384631],[81.75050301431516,29.126866884869365],[81.75020040323533,29.12660461722362],[81.74972229452838,29.125889777249743],[81.74958900430633,29.125229269289733],[81.74958681950245,29.124929181339855],[81.74943364132089,29.124627653667098],[81.74912884567775,29.124062922000427],[81.74858764867952,29.123499563764316],[81.7483928900967,29.12331338140372],[81.74796166694246,29.123126259906662],[81.7469427894039,29.122524884567518],[81.74431194140301,29.120860680652683],[81.74269152733812,29.119960273517915],[81.74148333500955,29.11884099464126],[81.74094450870375,29.118697258469446],[81.7397431809864,29.118523381877935],[81.73899583932986,29.118236414552236],[81.73824862380259,29.117877238422615],[81.73712932822092,29.117592330453917],[81.73655035830558,29.117667720920867],[81.73539335425282,29.117856951288267],[81.73431619810655,29.117718336035722],[81.73385846764063,29.1173192142249],[81.732527101528,29.116383237896443],[81.73151228241042,29.116242122764024],[81.73056004728298,29.116139019252785],[81.72911199941485,29.116146880517153],[81.72821103060213,29.116296227199776],[81.72729336832816,29.116447886219305],[81.72572220679749,29.116673060746745],[81.72386324730161,29.117084786061994],[81.72332460632153,29.11704939413284],[81.72286361961787,29.11700668957817],[81.72249490242518,29.118021920558032],[81.72243962855207,29.11820497398351],[81.72232289208448,29.118593711501802],[81.72245599700611,29.1191661937097],[81.72245705468104,29.119509169395872],[81.72233206520313,29.119814507201145],[81.722371702712,29.11996773987405],[81.72228728754243,29.120577417793125],[81.72227821485673,29.121028799949784],[81.72229033914071,29.121378528486765],[81.72290005729587,29.122298179999838],[81.72316490396445,29.12259458188628],[81.72368890494404,29.123280039185186],[81.72403846793858,29.123736176254027],[81.72447755577511,29.12487789168171],[81.7244726161009,29.124914026612068],[81.72446286125155,29.124984047375758],[81.72442990768191,29.125221178860716],[81.72435099487448,29.12579472177866],[81.72413677578625,29.12667372730917],[81.72406518421332,29.126820769176398],[81.72387835808883,29.127207630617896],[81.72370634710042,29.12778173494802],[81.72368477552709,29.127820183432455],[81.72353371532084,29.12808732223103],[81.7234060331111,29.128661176832015],[81.7230076153683,29.129848020623413],[81.72254623348235,29.131220293390214],[81.72252416014126,29.13137158747066],[81.72246156830701,29.131793898019566],[81.72239710557892,29.131855165700305],[81.72229262606287,29.13198432747682],[81.72221409422157,29.132147249483687],[81.72217545203297,29.132321174706213],[81.72205865383415,29.13261294635484],[81.72204126836368,29.132883838524123],[81.72226022395802,29.133058641727654],[81.72230955116055,29.13330208887713],[81.72218131038196,29.133616430000757],[81.72210952791731,29.134009419471482],[81.72235880664041,29.134274312076528],[81.72246527818784,29.134707065634373],[81.7223327217417,29.135141065933617],[81.72218291208394,29.135311114257643],[81.72200809443743,29.135395512190456],[81.7218927327286,29.135806881430923],[81.72204590569737,29.136480768594314],[81.72227967608424,29.13692402623391],[81.7224958128902,29.137417048249837],[81.7229099605629,29.138098565331692],[81.72316155144459,29.138415348577304],[81.72303925259031,29.13858302167615],[81.7229121999042,29.13887929428235],[81.72322817450375,29.14031503134836],[81.72315645263812,29.140816364886795],[81.72285971198124,29.141014294906313],[81.72266424235238,29.142468594363777],[81.7224298375141,29.142672901782337],[81.72194821462034,29.14291021624555],[81.72179158760456,29.14329695317747],[81.72171091877345,29.144168394908718],[81.72155879584471,29.144379080193016],[81.72107804752815,29.144641152006386],[81.72090116197535,29.145082153999365],[81.72068688816884,29.14540824758472],[81.72057271526724,29.145720275240453],[81.72045835441995,29.146097760267743],[81.72038743684732,29.147147441826554],[81.72035898499864,29.14741158164916],[81.71988742181604,29.148075271183554],[81.71948719859009,29.148738586110458],[81.7194221604587,29.149648352779696],[81.71947879541383,29.15047397057787],[81.71957713459493,29.151224879497438],[81.71974769176062,29.151720401136004],[81.71941931084797,29.152184721324712],[81.71913032042147,29.15257895918703],[81.71902158612264,29.152929310625723],[81.71902114318205,29.153330991231137],[81.71884013139055,29.153735858285007],[81.71799979229776,29.155155264688624],[81.71754829833563,29.1558504011726],[81.7173131415439,29.156230760722437],[81.71715070077273,29.15653178446075],[81.71686133185558,29.157149337285112],[81.71648224613574,29.15745148426736],[81.71600355681261,29.15802721074327],[81.71591282837907,29.158472277602904],[81.71585824110893,29.15875686067974],[81.71591231885812,29.159140223064803],[81.71708907741451,29.15913392185873],[81.71864572618986,29.159398579853736],[81.7200391411908,29.158571977792636],[81.72112156376004,29.157746997363272],[81.72236035612165,29.157058808847395],[81.7229805944572,29.156782422221756],[81.72422325501375,29.156640331748363],[81.72639814624254,29.15635545955226],[81.72748425027443,29.15607651482816],[81.72872753590559,29.155932111529008],[81.72981164222176,29.155380148646163],[81.73135961791569,29.15441713317754],[81.73244085412098,29.153456675304543],[81.73337302134371,29.153313956954843],[81.73399232482437,29.152902092315635],[81.73445038865485,29.151807401112556],[81.73460008220466,29.150987475424024],[81.7364578654405,29.14988510962557],[81.73722180675901,29.14796955591324],[81.73799685488694,29.14769454632914],[81.73954058581612,29.146183119414353],[81.7407771934806,29.145221788529437],[81.74200556565876,29.143030597104737],[81.74222909121318,29.142747328675235],[81.74278348312596,29.143163957102413],[81.74511842493706,29.143559410643267],[81.74652232237565,29.144235311905017],[81.74694254116771,29.144490203908866],[81.74710316278727,29.144570541573767],[81.74744466472846,29.144782982892497],[81.74848794859516,29.1438542215063],[81.74913095008941,29.143281998420907],[81.74998578845434,29.14223695073081],[81.75117061624428,29.142040718705182],[81.75288565920626,29.140706471499445],[81.75364007059474,29.140702228114378],[81.75481522504138,29.139181482030956],[81.75567405683577,29.138702788129475],[81.75609898044965,29.137849667695853],[81.75733046124213,29.136845261689214],[81.75738485784562,29.13679981135115],[81.75824150653914,29.135944257367417],[81.75867129697752,29.135752268016752],[81.758772347708,29.134898705776976],[81.75941453805177,29.134233893182948],[81.7598579069272,29.133274616192995]]]}},{"type":"Feature","properties":{"province":"Karnali Province","district":"Kalikot","municipality":"Khandachakra Municipality","ward":"10","wardNumber":10,"sourceMunicipality":"Khandachakra","sourceType":"Nagarpalika"},"geometry":{"type":"Polygon","coordinates":[[[81.76604055887029,29.142432557937017],[81.76546096952852,29.142086074915984],[81.76516354571613,29.14193433933359],[81.76494671810612,29.141633185909573],[81.76414430163037,29.1407148461402],[81.7640134442745,29.14039518759346],[81.7639030945229,29.140073154993036],[81.76387241358344,29.138791590865342],[81.7638913622489,29.138489127753612],[81.7636734704973,29.138224047661584],[81.76279281191965,29.139136242931702],[81.76193816100735,29.14018135295596],[81.76044057044601,29.141798810910746],[81.75894229316472,29.14332155420663],[81.75744395434275,29.144844109919347],[81.75701690959816,29.145415147208983],[81.75626873897284,29.146272390736847],[81.7554119027479,29.14703316677494],[81.7544512074209,29.148363172226468],[81.75391967893904,29.14940872255249],[81.75336176994891,29.1501023574352],[81.75285100467713,29.150739289308632],[81.7515690588912,29.152355499635654],[81.75050444047027,29.154254670258194],[81.75018599845205,29.15491761114763],[81.75008288686706,29.155581554199127],[81.74912138042653,29.156816844006244],[81.74837714060847,29.158240378261365],[81.74752155245275,29.159192898805852],[81.74694263954802,29.15957525424328],[81.74648671534848,29.159691721483465],[81.74638835581484,29.160370481744764],[81.74693761728139,29.161048874645388],[81.74742054955959,29.16111827542028],[81.74788534838281,29.16123306361764],[81.75009043415547,29.161299669811587],[81.75069035393014,29.16098039507585],[81.75115796964232,29.160851362127033],[81.75285593323433,29.160385994511564],[81.7546549444794,29.15916184255749],[81.75633596768108,29.15840995280164],[81.75645638935812,29.1583551247995],[81.75664477603647,29.15818707828273],[81.7571754203752,29.157716946226003],[81.75746711299466,29.15639299790722],[81.7573407087973,29.155021719069584],[81.75733583284719,29.15496757828961],[81.7577506291025,29.153958787129092],[81.7575597634551,29.15263527200736],[81.75808693014592,29.15056985924846],[81.75945803980517,29.1486078606504],[81.75981399854183,29.147809317579995],[81.76089329251504,29.14706529845709],[81.76215396718374,29.14642399957608],[81.76243995525672,29.146083902738344],[81.76287062583522,29.145571444238804],[81.76323020265231,29.145357323244816],[81.76376554419893,29.144404236950763],[81.76400557574647,29.144190739158667],[81.76484589948646,29.143813637733448],[81.7653215916046,29.142966956806042],[81.76604055887029,29.142432557937017]]]}},{"type":"Feature","properties":{"province":"Karnali Province","district":"Kalikot","municipality":"Khandachakra Municipality","ward":"9","wardNumber":9,"sourceMunicipality":"Khandachakra","sourceType":"Nagarpalika"},"geometry":{"type":"Polygon","coordinates":[[[81.74693761728139,29.161048874645388],[81.74638835581484,29.160370481744764],[81.74648671534848,29.159691721483465],[81.74694263954802,29.15957525424328],[81.74752155245275,29.159192898805852],[81.74837714060847,29.158240378261365],[81.74912138042653,29.156816844006244],[81.75008288686706,29.155581554199127],[81.75018599845205,29.15491761114763],[81.75050444047027,29.154254670258194],[81.7515690588912,29.152355499635654],[81.75285100467713,29.150739289308632],[81.75336176994891,29.1501023574352],[81.75391967893904,29.14940872255249],[81.7544512074209,29.148363172226468],[81.7554119027479,29.14703316677494],[81.75626873897284,29.146272390736847],[81.75701690959816,29.145415147208983],[81.75744395434275,29.144844109919347],[81.75894229316472,29.14332155420663],[81.76044057044601,29.141798810910746],[81.76193816100735,29.14018135295596],[81.76279281191965,29.139136242931702],[81.7636734704973,29.138224047661584],[81.76316460034582,29.13754096661561],[81.7626451594147,29.137072322856707],[81.76249266823919,29.136788863233853],[81.76229703662256,29.136489898544703],[81.76162279608668,29.13541732655318],[81.7614246620943,29.135131866072452],[81.76125360169335,29.134853031712964],[81.76004041025348,29.133539884127728],[81.75990967609249,29.133333008737665],[81.7598579069272,29.133274616192995],[81.75941453805177,29.134233893182948],[81.758772347708,29.134898705776976],[81.75867129697752,29.135752268016752],[81.75824150653914,29.135944257367417],[81.75738485784562,29.13679981135115],[81.75733046124213,29.136845261689214],[81.75609898044965,29.137849667695853],[81.75567405683577,29.138702788129475],[81.75481522504138,29.139181482030956],[81.75364007059474,29.140702228114378],[81.75288565920626,29.140706471499445],[81.75117061624428,29.142040718705182],[81.74998578845434,29.14223695073081],[81.74913095008941,29.143281998420907],[81.74848794859516,29.1438542215063],[81.74744466472846,29.144782982892497],[81.74710316278727,29.144570541573767],[81.74694254116771,29.144490203908866],[81.74652232237565,29.144235311905017],[81.74511842493706,29.143559410643267],[81.74278348312596,29.143163957102413],[81.74222909121318,29.142747328675235],[81.74200556565876,29.143030597104737],[81.7407771934806,29.145221788529437],[81.73954058581612,29.146183119414353],[81.73799685488694,29.14769454632914],[81.73722180675901,29.14796955591324],[81.7364578654405,29.14988510962557],[81.73460008220466,29.150987475424024],[81.73445038865485,29.151807401112556],[81.73399232482437,29.152902092315635],[81.73337302134371,29.153313956954843],[81.73244085412098,29.153456675304543],[81.73135961791569,29.15441713317754],[81.72981164222176,29.155380148646163],[81.72872753590559,29.155932111529008],[81.72748425027443,29.15607651482816],[81.72639814624254,29.15635545955226],[81.72422325501375,29.156640331748363],[81.7229805944572,29.156782422221756],[81.72236035612165,29.157058808847395],[81.72112156376004,29.157746997363272],[81.7200391411908,29.158571977792636],[81.71864572618986,29.159398579853736],[81.71708907741451,29.15913392185873],[81.71591231885812,29.159140223064803],[81.71592994877125,29.159264259607205],[81.71596526529194,29.159913950634607],[81.71591942270169,29.16081002578056],[81.71588233732585,29.161396947289145],[81.71599050059193,29.16160394667183],[81.71629705191025,29.161782815247935],[81.71645935979338,29.16202113741211],[81.71647736223724,29.16229184146899],[81.71636863164397,29.162466204306202],[81.71618806006917,29.16265444523601],[81.71584492427675,29.16303536562195],[81.71585617408189,29.163362523966725],[81.7159375749273,29.163702812338517],[81.71603266201927,29.164528242891055],[81.71583395563607,29.1649715582086],[81.71581556971938,29.1651950608842],[81.71593098709353,29.165345606515967],[81.7160344590218,29.165622626830825],[81.7162833598271,29.1660974564492],[81.7164342864079,29.166450873696355],[81.71664273361186,29.166939457107805],[81.71772900067586,29.168314622144713],[81.71782478065899,29.168781260770466],[81.71801420253325,29.170501954973275],[81.71833688111504,29.170960592973803],[81.71851057131768,29.17097991319594],[81.71874991303106,29.170922211571806],[81.71931582351576,29.170312163484994],[81.71956029280675,29.170252211593272],[81.71983020663927,29.170331987257732],[81.71973347702104,29.170655268907264],[81.71887494939948,29.171709131209216],[81.71874519902224,29.172641777844532],[81.71866040998837,29.173109289105305],[81.71897351663182,29.17394478794006],[81.71925649281887,29.174428433416224],[81.7194048480554,29.175321259409742],[81.71970844884547,29.17635987963521],[81.71941845030616,29.177273081583998],[81.71946251177746,29.178511695770244],[81.71877648922111,29.179408951720696],[81.71897774550615,29.179886280952285],[81.71870025927085,29.18029170908228],[81.71840251780255,29.180555033558843],[81.71753541811638,29.18204902502316],[81.71758092344697,29.18285213561154],[81.71756684380777,29.18369388249727],[81.71931259870763,29.185941060767178],[81.72044533027014,29.186670600312823],[81.72305600672934,29.186746713870185],[81.72321100252628,29.186750404030967],[81.72444921978537,29.18693553437206],[81.72583480267416,29.187311597639347],[81.7278579359618,29.18793917880208],[81.72946571953747,29.18891879696039],[81.7323451143472,29.189604842447586],[81.73391338905937,29.19017165057786],[81.7350459350664,29.190772401852406],[81.73668916998915,29.19165699173373],[81.73814890363593,29.192224362195123],[81.73995451690824,29.192884575719614],[81.74240379772789,29.194529459911475],[81.74408679212178,29.195828921458308],[81.74514868347946,29.196684996881963],[81.74546925519965,29.195758041121092],[81.74531402844114,29.19438694975125],[81.74467913119696,29.192219681635308],[81.74418997811068,29.18992300254245],[81.74329780166744,29.187278779682305],[81.74285414836854,29.186290672591863],[81.74222118670676,29.18428357660532],[81.74096206538579,29.181194594540507],[81.73967385586361,29.179157295042575],[81.73900943499837,29.177852217103094],[81.73896699401796,29.17695883001004],[81.73923937210182,29.175231076136992],[81.73969980525874,29.1746237774872],[81.7401160392477,29.173601482426324],[81.7406397925724,29.16982112936517],[81.74179880547311,29.169031722411276],[81.74302597285666,29.167966548165115],[81.74331339805906,29.167716728301993],[81.7442562821288,29.16583856248974],[81.74528464058889,29.16369813379249],[81.74584192814513,29.16272022813788],[81.74619369450558,29.16212480692575],[81.74693761728139,29.161048874645388]]]}}]}