{"type":"FeatureCollection","features":[{"type":"Feature","properties":{"province":"Karnali Province","district":"Dailekh","municipality":"Dungeshwar Rural Municipality","ward":"1","wardNumber":1,"sourceMunicipality":"Dungeshwor","sourceType":"Gaunpalika"},"geometry":{"type":"Polygon","coordinates":[[[81.7128561975766,28.810255018977802],[81.71285707355966,28.810196314501102],[81.71265194776642,28.80924059443247],[81.71235790941292,28.808492934418346],[81.71229645271207,28.80820441099597],[81.71229870700775,28.80797646924832],[81.71217479268162,28.80745806603577],[81.71218174103122,28.80688708611483],[81.71222851287622,28.806600252396414],[81.71233968271697,28.806373999300178],[81.71236475852695,28.80610760910827],[81.71225865860258,28.80595243761324],[81.71197999293219,28.80575981566851],[81.71187301658259,28.805663348375877],[81.71172271061668,28.80560320427935],[81.71142291318573,28.805408456499976],[81.71133757016382,28.805293859626104],[81.71123309772337,28.805007774048494],[81.71123528826672,28.80485435376764],[81.71125779759463,28.804777456973387],[81.71136809173571,28.8046076578295],[81.7115430972406,28.804437485094397],[81.71167646404042,28.80417272127003],[81.71211369731927,28.80375973010707],[81.71265659242157,28.803535670491286],[81.71298328083815,28.803348931425226],[81.71329033848977,28.80300877248588],[81.71333504452193,28.802895739544258],[81.71333823752919,28.80260909314815],[81.71319268774813,28.802208161900822],[81.71323764495284,28.802036424672153],[81.7135860912008,28.801849623620825],[81.71369494670802,28.80175647255152],[81.713783231205,28.80164312759168],[81.71382831238047,28.801489457559324],[81.7139382314179,28.801358045129327],[81.71432812997207,28.80124757963578],[81.71445949249267,28.801154366587017],[81.7148710870005,28.801025833045237],[81.71494049313507,28.800682420776113],[81.71485965589565,28.800285615744347],[81.71486253572932,28.800053235645162],[81.71502060060358,28.799655245570747],[81.71502792291702,28.799138406297722],[81.71494652152941,28.798852258695693],[81.71491007642123,28.79839431164503],[81.71484718008642,28.798277339168717],[81.71485694250084,28.797647654439764],[81.71477491551308,28.797361506990885],[81.71471289428094,28.797188080212525],[81.71456553103518,28.796899994544958],[81.71433238431517,28.796612345050665],[81.71418564534719,28.796324321014403],[81.71384758735799,28.79586118170356],[81.71369815718624,28.795746896865133],[81.71352590621912,28.79566655804715],[81.71309424343727,28.795662177853202],[81.71257410896797,28.79575288633066],[81.71214006875854,28.795881544238927],[81.71196750406423,28.795839655046418],[81.71173266793326,28.795685106519883],[81.71160455781238,28.795588701825917],[81.71147720044264,28.795415649549394],[81.71130964213343,28.795068983766],[81.71120823465773,28.794667864611345],[81.71095420557499,28.794321635571052],[81.71084948225017,28.794089754215925],[81.71087931307433,28.793575103428093],[81.71081816831264,28.793345222770423],[81.71084737394908,28.792830572175056],[81.71064042990945,28.792256213688734],[81.71060198125046,28.791969879466308],[81.71060642518853,28.791683170310712],[81.71070472353911,28.790883874087093],[81.71068753313905,28.790615358140524],[81.7106526518108,28.790101019225062],[81.71054648912379,28.789945847554137],[81.7103762399,28.78977298261979],[81.71003273803176,28.78963481253857],[81.7093412891647,28.78966562727091],[81.70856637492274,28.789484690399593],[81.70839249605544,28.789539704678496],[81.70801966273689,28.78989824273184],[81.70784534590331,28.78997132500176],[81.70751759398117,28.790196450500193],[81.70664926339148,28.790492152097364],[81.70638935242042,28.790509279455968],[81.70570040763303,28.790348162049444],[81.7052651839746,28.7901044609204],[81.70514363943062,28.79003518917786],[81.70475831031597,28.789782172924543],[81.70448164724662,28.78949477376361],[81.70420761350485,28.789031321395523],[81.70410476729788,28.788686594521984],[81.70410651922786,28.788573748765767],[81.70398254048443,28.788229146373748],[81.70398792215141,28.78788379512532],[81.70394703400247,28.787712494463797],[81.70395241618999,28.787369456751925],[81.70399956151238,28.787141327914444],[81.70444442809308,28.786344661410023],[81.70455716261105,28.786059704121257],[81.70471091034001,28.785889655296582],[81.7047566793006,28.785738236790408],[81.70475937101442,28.78556668670479],[81.70461025471616,28.785391445393774],[81.70428976212737,28.78515843601853],[81.70403216636184,28.785042399282506],[81.70356111904506,28.784710921748022],[81.70272549810103,28.78424358838741],[81.7021711714894,28.78372067847144],[81.70165867206214,28.78331492924416],[81.70108102175976,28.782925245488325],[81.70080198192787,28.782768759835488],[81.70073770786063,28.782730684750454],[81.70067393425298,28.782672354798052],[81.70013930150044,28.782302802634295],[81.69953751521739,28.782048659500706],[81.69900231853649,28.781697112762092],[81.69834051465065,28.78117476462515],[81.69785008625355,28.780710122600333],[81.69673636402496,28.780027597884544],[81.69658793533719,28.779854607809607],[81.69644219758469,28.779510192579],[81.6960409301706,28.778875814448085],[81.69583135728618,28.77847069340382],[81.69579053194799,28.778299454975237],[81.69555650914529,28.778068135105176],[81.69495534958708,28.777793672322012],[81.69478278500863,28.77775165871072],[81.69452750464961,28.777502520178636],[81.69392672084476,28.777189671291538],[81.69375415568535,28.77714765730816],[81.69340846271938,28.77716297040665],[81.69323577453343,28.77710295066065],[81.69293791612742,28.77679529465455],[81.69285194695554,28.776775475813945],[81.69231230707331,28.776710513049046],[81.69153514006145,28.77664454740493],[81.69084206570395,28.776711310013187],[81.69040702421587,28.77687829111075],[81.69027522238515,28.776991760583776],[81.69001362159075,28.77713980153725],[81.68935599130388,28.777723152567194],[81.68926851972962,28.777761912889197],[81.6890720067856,28.777873505872797],[81.68855143432611,28.777982220122514],[81.68778926642754,28.77835400767248],[81.68759100180046,28.778580571929492],[81.68736741003366,28.779053458205045],[81.68716983411133,28.77920562602534],[81.68665120078191,28.7792173111143],[81.6862202267746,28.779115713561563],[81.68596081674654,28.779112522585486],[81.68570096869006,28.779129650018945],[81.68500651777995,28.779273059329554],[81.68465838407535,28.77942153612903],[81.68396167897006,28.77981545634406],[81.68352788811761,28.779982500618456],[81.68326916528332,28.779979184420206],[81.68275316090289,28.779801251445246],[81.68223552939065,28.779776800790092],[81.68197593005254,28.779832314974186],[81.68171495496064,28.779982543267636],[81.68151831588494,28.780170846114167],[81.68134406090192,28.78026424679196],[81.68110390500405,28.78045279938408],[81.68093027601064,28.780546200306226],[81.68058383180745,28.780638223095753],[81.67999710657452,28.780918736462063],[81.6797791475542,28.78108684586339],[81.67929758395277,28.781578984853862],[81.67895013796155,28.781727399394338],[81.67868985155005,28.781782850054917],[81.67856011514324,28.781819609345547],[81.67843150479666,28.78174127289582],[81.67849371316522,28.781953085221524],[81.67859831153888,28.78218277955282],[81.67868040049146,28.782489244614844],[81.6787594223929,28.7830259653623],[81.67894905239284,28.783334245971236],[81.67937464428277,28.78377656747284],[81.68039908049373,28.784628954780395],[81.68052568750645,28.784802069053406],[81.68058977329929,28.784898786062985],[81.68071600550067,28.78511022390732],[81.6807093711868,28.785568420759425],[81.68074994514431,28.785798426823877],[81.68110594369752,28.78656840599925],[81.68120672392998,28.787102689277514],[81.68135346221088,28.787411156620276],[81.68147762911505,28.787794145458115],[81.68138302225243,28.788406198894872],[81.68140114994084,28.788634015878763],[81.68152456487526,28.789093776609654],[81.68173457638406,28.789478579345033],[81.68183623321237,28.78993846548565],[81.68187611959802,28.79016840892736],[81.68186353935343,28.791086927550342],[81.68177187423244,28.791466538533076],[81.681806628783,28.792077905209517],[81.68195036305586,28.792616564874802],[81.68194222550888,28.79322818176657],[81.68184311252587,28.794142636464997],[81.6818574856027,28.794679606968423],[81.68187655319987,28.794851032006893],[81.68191769198256,28.794965941495246],[81.68195901794788,28.795119174394376],[81.6822312366627,28.795713539006375],[81.68229300667205,28.795945670477355],[81.68224567246507,28.796250571886038],[81.68217795538821,28.796478826004197],[81.68217664108272,28.79657360375854],[81.68214749809452,28.797108635558274],[81.68218819808911,28.797261868481204],[81.68218444222065,28.7975687707924],[81.68213785962264,28.797796962447737],[81.68213347818005,28.79810161356143],[81.68202067983898,28.798483536912638],[81.68188762656426,28.79870991436229],[81.68184198199059,28.798881651785084],[81.68184085493365,28.798996748210534],[81.68181383992501,28.799378234985028],[81.68185378842016,28.79960824073124],[81.6818951146006,28.79976147363567],[81.68203884870556,28.80028656690926],[81.6821215008644,28.800586280624973],[81.68231087783127,28.801045667461732],[81.68252364113148,28.801353759914658],[81.68297117777311,28.801818651334262],[81.68305533116444,28.802048407182525],[81.68313842139928,28.80231648659899],[81.68293959090389,28.802753050316966],[81.68247972103866,28.803360160526868],[81.6823691137415,28.803588663787973],[81.6823434105647,28.8039701504349],[81.6824471320563,28.80435326411832],[81.68265977027856,28.804641038874077],[81.68304516208313,28.80489411720386],[81.68388578889817,28.805036542835754],[81.68420941132966,28.805059741109957],[81.6845960541265,28.805217979512705],[81.68478856283708,28.805352395985437],[81.6850248382232,28.805450426884406],[81.68581650094154,28.8061280098942],[81.68600688141565,28.80643616511445],[81.68619550687113,28.806972324597417],[81.6861706187756,28.807277101057664],[81.68603743908268,28.807582501726618],[81.68544814589966,28.808167666954137],[81.68540143695853,28.808472505886307],[81.68546383172463,28.80870238653967],[81.68533077664887,28.809025792224585],[81.68511319349805,28.80915776579866],[81.68468034088825,28.809286361749685],[81.68424780194172,28.809358502342878],[81.68398901689505,28.80935531170845],[81.68366533213202,28.80933211312599],[81.68355629036377,28.809407134049984],[81.68348995032892,28.809540609848877],[81.68350964340203,28.809712035360793],[81.68355240834785,28.80979080959436],[81.68365888397959,28.809905344184234],[81.68398087821973,28.81008196236525],[81.6842569767958,28.81046645275473],[81.68434257008411,28.810524720790323],[81.68474696556643,28.81104394037401],[81.68506751936081,28.811371790088526],[81.68527571318967,28.812063557342018],[81.68533929753487,28.81217827952224],[81.68542432860136,28.812254615070596],[81.68572475174851,28.812449425639777],[81.68604762203755,28.812549333606974],[81.68682303661602,28.812692009197953],[81.68714659648961,28.812694888386954],[81.68740632020463,28.81263943739916],[81.68766679540437,28.81250946523963],[81.6880566937994,28.812378806485366],[81.68902856024144,28.8123896952693],[81.6896749273076,28.81249241962254],[81.6901282860157,28.81246079079418],[81.69097292034556,28.812221729929977],[81.69149393298179,28.811959533262204],[81.69188545986263,28.811695772934122],[81.69227498285774,28.8116057506722],[81.69251213380656,28.81162701004695],[81.69298299394403,28.812012815644074],[81.69313185891455,28.812244510723783],[81.69349405220116,28.81266913912692],[81.69387531046593,28.813359971149715],[81.69430015014741,28.813958088459753],[81.69489736498176,28.814652299141276],[81.69528162942586,28.815018160613153],[81.69560281050303,28.81525116994613],[81.69599126832114,28.815294311377723],[81.69631401402245,28.81537390119],[81.69657261112624,28.81543348445224],[81.69672291612363,28.81549362843903],[81.69749770534757,28.815731081733066],[81.69833864658926,28.815796673054034],[81.69859849478233,28.815761477675526],[81.69944507015705,28.815330610319165],[81.6998996801769,28.81520182806142],[81.70054661075383,28.815286484464018],[81.70138561109047,28.815543881878433],[81.70157974703046,28.81554513448192],[81.70190474516761,28.81547349170793],[81.70209994526437,28.81535964795675],[81.70240475094414,28.815152716425914],[81.70275401252397,28.814794301835473],[81.70314635289381,28.81445376925335],[81.70353662686199,28.81428703674825],[81.70405457207337,28.814331681038926],[81.70457051410362,28.814471165095846],[81.70521788260706,28.814515185116168],[81.70526521360922,28.814508121222868],[81.70593077812863,28.81440759912481],[81.70658096488572,28.81412664880656],[81.7069945621383,28.813806309143644],[81.7070822224177,28.81369296424505],[81.70717126013173,28.81340819437085],[81.70739147402712,28.813007578735903],[81.70765689527316,28.81238108605286],[81.70781039365407,28.812152395162258],[81.70809481908141,28.81177403722829],[81.70885699093742,28.81109303353471],[81.70918230218352,28.810983004863495],[81.70976539829398,28.81091217756447],[81.71021831855593,28.81091662181041],[81.71034667945818,28.81095650957148],[81.71060602757538,28.81093938239141],[81.71079972497994,28.81097895885185],[81.71151130573651,28.810966213033737],[81.71190107922942,28.81081742359067],[81.71268363224476,28.81031009572409],[81.7128561975766,28.810255018977802]]]}},{"type":"Feature","properties":{"province":"Karnali Province","district":"Dailekh","municipality":"Dungeshwar Rural Municipality","ward":"5","wardNumber":5,"sourceMunicipality":"Dungeshwor","sourceType":"Gaunpalika"},"geometry":{"type":"Polygon","coordinates":[[[81.75429436492514,28.75730462020682],[81.7543860905179,28.75706717626009],[81.75465251331755,28.75636159692827],[81.75474361600068,28.75594135005149],[81.75476838037659,28.75555980107334],[81.75468522898979,28.755215010861082],[81.7546060849499,28.75444816021628],[81.75460758701283,28.754296990993737],[81.75460840100557,28.754238286585565],[81.75442403400439,28.75316740761471],[81.75438339730502,28.752860754948664],[81.75413287815856,28.75194141951487],[81.75389967227972,28.751480094618834],[81.75366496338081,28.751151933300708],[81.75347214337258,28.750961187218493],[81.75319266444491,28.750825082450167],[81.7529351952981,28.750630209850126],[81.7526125140977,28.7504559678955],[81.75215990860991,28.75028022355122],[81.7518372892148,28.75010598175547],[81.75164302942584,28.750066530612465],[81.75138380649952,28.750065652338744],[81.75093076305268,28.749928232577076],[81.75073725434021,28.749812008151494],[81.75063065349866,28.74967715556567],[81.75056782039537,28.74948566111888],[81.75046103210737,28.749330614571925],[81.74988369764888,28.7487154897389],[81.74913342383377,28.748096800556468],[81.74855333574216,28.747729936362035],[81.747151500965,28.74730667198166],[81.74694817489919,28.747249152814035],[81.74574791552213,28.74691047859719],[81.74391117632969,28.745819388101],[81.74286334774283,28.745565615049838],[81.74006355012465,28.745073315356223],[81.73895851620233,28.744607666587402],[81.73720086863311,28.743554401420237],[81.7363893216863,28.74294496367634],[81.7333206902738,28.741248870514514],[81.73192442935225,28.740141654823454],[81.7310868082587,28.739640686817154],[81.72825906549986,28.73895870590571],[81.72629244916098,28.7390414580923],[81.72454375025161,28.737486983828042],[81.7238980118098,28.737140687682835],[81.72315980113491,28.736839966353113],[81.72191128793692,28.735409095106416],[81.72126410568656,28.73549830133978],[81.720018089085,28.73442859913484],[81.71887722085513,28.7344911049661],[81.71742922382938,28.735514327229005],[81.71501355130721,28.736468142836333],[81.71330407833122,28.7376461571864],[81.7112555997528,28.73905611151117],[81.71063559857859,28.74032766517706],[81.71032403766681,28.74073328098166],[81.70932396256302,28.741555510916672],[81.70836321642479,28.74223976316102],[81.70526541512699,28.742901424123875],[81.70510435377541,28.7429360566774],[81.70399330044415,28.74364143961655],[81.7029849715892,28.74449524083742],[81.70263883539366,28.74491229760911],[81.70234365403637,28.74546220536694],[81.70223329496129,28.74581937183552],[81.70172534275842,28.74654407816716],[81.70107895771731,28.747718665683017],[81.70098104437862,28.747823007809263],[81.70076046099055,28.747862516894276],[81.69974782974731,28.747883574396873],[81.69961821829568,28.747843623883472],[81.69912940932183,28.74789125779378],[81.69828840746356,28.747733139442953],[81.69733624088029,28.747410847172876],[81.69627965662825,28.747280922037486],[81.69496216118954,28.747274156203442],[81.69316949242692,28.7467846802486],[81.69207852159137,28.746670634102053],[81.69117193386224,28.746361658235745],[81.69073689591396,28.746316453277913],[81.69021770030537,28.74631232147025],[81.6896798098883,28.746389587655784],[81.6886141533722,28.74672217396927],[81.68763078176104,28.74681300203501],[81.68613508989816,28.747073374241374],[81.6843753630727,28.747197391282356],[81.6839389498905,28.74713192984955],[81.68328225308998,28.747940909545672],[81.6825420285611,28.748504316499552],[81.68154814870869,28.748953875531516],[81.68065624228882,28.749524845338186],[81.67982117267208,28.749887817905677],[81.67904469058162,28.749997841521687],[81.67759926365471,28.750519603225676],[81.67701397888304,28.750703088398016],[81.67700821533793,28.751490693571277],[81.67689735561672,28.75187261689644],[81.67668152005787,28.752155822648955],[81.67600432023589,28.752675968295044],[81.67440970876689,28.753406101777344],[81.6739034479268,28.75392543668636],[81.67441731170427,28.755182123439667],[81.67485371474284,28.75593591193448],[81.67514037384022,28.756710766885973],[81.67606388876759,28.758136883250252],[81.67618217724728,28.758607960819187],[81.67618805416474,28.758630529402474],[81.67661226998305,28.75907522757143],[81.67686479605729,28.7595162346242],[81.67696883158696,28.75976618427223],[81.67716077662509,28.75993904922036],[81.67761062937493,28.760194004612206],[81.67819147008848,28.760410011257086],[81.67941798974526,28.760769380577596],[81.67986915742428,28.760927369813448],[81.68025573830583,28.761103675311002],[81.68077218004308,28.761263603613383],[81.68096493856964,28.761361821811544],[81.6819335497769,28.761639101602594],[81.6831584419485,28.76213163400559],[81.68412335995242,28.762620913455134],[81.68444604333985,28.762720821904747],[81.68464111723713,28.762686001365886],[81.68503408094712,28.762460626601],[81.68542817180246,28.762122344291473],[81.68555959702765,28.762047199101854],[81.68568945839422,28.762030757792434],[81.68594843036827,28.76207233542849],[81.68618282872787,28.76228327525127],[81.68626429185603,28.76258974043149],[81.68608559416946,28.762969787889926],[81.68579860567155,28.763348083318572],[81.68572970182196,28.763576399486475],[81.6856781119204,28.764109305060167],[81.68575744809017,28.76458725870082],[81.68586229756842,28.764760497895242],[81.68599103201565,28.764859091313497],[81.68618460417701,28.764898729984115],[81.68640093614376,28.764881852501265],[81.68665859337293,28.76501820738335],[81.68680658407163,28.765211516254404],[81.68680433070843,28.765364998492],[81.68673692855657,28.765534547804354],[81.68656079647874,28.765725038788602],[81.6862996342696,28.765834693070815],[81.6859094867874,28.765906647239404],[81.68577780963957,28.76603818471085],[81.68571028217066,28.766189728285354],[81.68602852143368,28.766576283160493],[81.68619958428971,28.76669269355588],[81.68670926829276,28.767272369807564],[81.6875019343382,28.767758020767253],[81.6879310929456,28.767974714214013],[81.68850905607115,28.768323823024556],[81.68857295369843,28.76840247146071],[81.6889576571041,28.768673680199594],[81.68934098377454,28.769041730660547],[81.69002504662144,28.7695460108842],[81.69191355837751,28.770445733160948],[81.69292036607284,28.771049859066622],[81.69317614729842,28.771283242433736],[81.69347525610948,28.771496121471106],[81.69394348803453,28.771999211027044],[81.69423959399936,28.772421963990226],[81.69457458554551,28.77311298247349],[81.69463604332688,28.773304539603902],[81.69483343188611,28.773134304001296],[81.69503132257267,28.772945938265515],[81.69556128213483,28.772227796337866],[81.69582463465073,28.771964659536902],[81.6960433444736,28.77181461835756],[81.69621759825034,28.771739223072768],[81.69641548849374,28.771550920028183],[81.69674261421966,28.771346112938655],[81.69726594011121,28.771083917091186],[81.69761613897766,28.770784207892785],[81.69796521089974,28.77059734409016],[81.69848653395107,28.770432176920036],[81.69909414035259,28.770325214221597],[81.69952630282074,28.770311715464114],[81.69983185794975,28.77014310703951],[81.70020525355032,28.76976656310662],[81.70073383694887,28.76914319804828],[81.70120002331781,28.76838479309271],[81.70159555311776,28.767969800680465],[81.7021626465657,28.767653151842776],[81.70285747314182,28.76747129326107],[81.70301046985603,28.76737564210954],[81.70396758563427,28.76696897074443],[81.70449410319245,28.766517156704793],[81.7047138148734,28.766251955984576],[81.70500211739152,28.765796888882026],[81.70509359294226,28.765493987755008],[81.70526528792954,28.765129758554995],[81.70526516337432,28.765114003712952],[81.70546993107342,28.764907570512467],[81.70562248975324,28.764832237092136],[81.70577410970762,28.764815672010226],[81.70582281476607,28.764828988489587],[81.70605315074836,28.764893197496882],[81.70631212239694,28.76493477539182],[81.70656971841628,28.765052999751973],[81.70682887864702,28.765035873003487],[81.70700075473128,28.765077824652487],[81.70726010232464,28.765080952872744],[81.70830099823819,28.764843082392233],[81.70855978299586,28.764866529682234],[81.70959291811417,28.765107111368764],[81.70993823575229,28.76513005954003],[81.71037083674483,28.76509624198796],[81.71071383885835,28.765254604830613],[81.71101163458773,28.765544255534756],[81.71126916741105,28.765660167374424],[81.71178717498739,28.765666487413466],[81.71196136655621,28.765573024240712],[81.71226848730439,28.765253184118183],[81.71246518853907,28.765082885699663],[81.71255134596736,28.76504637646287],[81.71289691430121,28.76501293237773],[81.71323979183902,28.765169106811644],[81.71367095336576,28.76519161887354],[81.71384420686607,28.765156860569427],[81.7141046186648,28.765026824981426],[81.71445050081273,28.764952807368118],[81.71479600599862,28.764919363626746],[81.71505485330151,28.764940559999147],[81.71557355030988,28.764852039948234],[81.71583352367058,28.764760515554503],[81.71600627667661,28.764741449121367],[81.71643631267706,28.764804597468906],[81.71678375881156,28.764674125448604],[81.71721867583524,28.764412303591065],[81.7177376853073,28.764285397174536],[81.71808450556976,28.764154925533155],[81.71849772719236,28.763911295773926],[81.71875720066376,28.763839964697198],[81.71918880059597,28.763844408988735],[81.71936067718941,28.763884109948595],[81.71953330614177,28.763847100373834],[81.71966448175431,28.763753887470298],[81.7197967845767,28.763527510042078],[81.71988688481409,28.763222358619096],[81.7198890760965,28.763068876430122],[81.71974577868592,28.762532592645346],[81.71977123042784,28.762227753071336],[81.71985982836817,28.762076084576943],[81.71999094221921,28.76196480380809],[81.72014444024693,28.761756368755456],[81.72025636151797,28.761451155373045],[81.72030357166605,28.761146253868816],[81.72041392748228,28.76099446092504],[81.72058755613222,28.760921315807433],[81.7206951592739,28.760923005356954],[81.72086828779845,28.76086792865688],[81.72102065959153,28.760772340167374],[81.7211091325645,28.7606026031034],[81.72128438883384,28.760394044229077],[81.72146308730738,28.75993953794701],[81.72142094774613,28.759863077391422],[81.72133610419775,28.759804809008724],[81.72094952302872,28.759646633698356],[81.72062871766356,28.759452010453003],[81.72048072730483,28.7592587021451],[81.72041808087916,28.75908752657909],[81.72044252962608,28.758915913693357],[81.72055763857063,28.758709916612382],[81.7206214758346,28.758689286423078],[81.72087701067252,28.758606640354287],[81.7212821026914,28.758478107223507],[81.72269870042021,28.758341832473793],[81.72354727487686,28.75800336761809],[81.72500476604759,28.757677349998197],[81.7253714665769,28.75765053382436],[81.72674860570933,28.758017781028204],[81.72716588798848,28.757988402303784],[81.72817802275053,28.757696390079897],[81.72960987701694,28.757548737611767],[81.72999033355654,28.75746540484668],[81.73042350043582,28.757255472636185],[81.73117635568684,28.756596850481028],[81.7326381019421,28.75597068189963],[81.73411272755084,28.755441355957228],[81.73520420556848,28.75513302682468],[81.73688784303785,28.754844022578464],[81.73734851760138,28.75480095293942],[81.7397344159837,28.75476978229985],[81.74017651814783,28.754902762780112],[81.74114944091312,28.75541192349108],[81.74210773630692,28.75557141760095],[81.74278968168862,28.755493152277385],[81.74317107763905,28.755382748875125],[81.74395344119445,28.7549271238225],[81.74453109704416,28.754862986072272],[81.74560737444028,28.75504211257446],[81.74611100240382,28.755007732715764],[81.74694801432797,28.754323791653864],[81.74707887625542,28.754359177939747],[81.74727232181948,28.754475464415698],[81.74798258499001,28.75476718273616],[81.74869466352594,28.754964060457652],[81.74901765791972,28.75509991642001],[81.74927550278494,28.75525646518033],[81.74966320973729,28.75539194670175],[81.75017977562334,28.75564408863844],[81.75078368748717,28.755859595721248],[81.7515588488017,28.756266035686956],[81.75339234436738,28.756869607614505],[81.75429436492514,28.75730462020682]]]}},{"type":"Feature","properties":{"province":"Karnali Province","district":"Dailekh","municipality":"Dungeshwar Rural Municipality","ward":"6","wardNumber":6,"sourceMunicipality":"Dungeshwor","sourceType":"Gaunpalika"},"geometry":{"type":"Polygon","coordinates":[[[81.69231230707331,28.776710513049046],[81.69257440800138,28.776542154034843],[81.69275091552521,28.77631558935661],[81.69286421205919,28.7760126272616],[81.69330732597814,28.775331056630968],[81.69379164119684,28.774782464170737],[81.69390562760576,28.77440279146125],[81.69406181498377,28.774099579052972],[81.69428402944084,28.773719282687644],[81.69463604332688,28.773304539603902],[81.69457458554551,28.77311298247349],[81.69423959399936,28.772421963990226],[81.69394348803453,28.771999211027044],[81.69347525610948,28.771496121471106],[81.69317614729842,28.771283242433736],[81.69292036607284,28.771049859066622],[81.69191355837751,28.770445733160948],[81.69002504662144,28.7695460108842],[81.68934098377454,28.769041730660547],[81.6889576571041,28.768673680199594],[81.68857295369843,28.76840247146071],[81.68850905607115,28.768323823024556],[81.6879310929456,28.767974714214013],[81.6875019343382,28.767758020767253],[81.68670926829276,28.767272369807564],[81.68619958428971,28.76669269355588],[81.68602852143368,28.766576283160493],[81.68571028217066,28.766189728285354],[81.68577780963957,28.76603818471085],[81.6859094867874,28.765906647239404],[81.6862996342696,28.765834693070815],[81.68656079647874,28.765725038788602],[81.68673692855657,28.765534547804354],[81.68680433070843,28.765364998492],[81.68680658407163,28.765211516254404],[81.68665859337293,28.76501820738335],[81.68640093614376,28.764881852501265],[81.68618460417701,28.764898729984115],[81.68599103201565,28.764859091313497],[81.68586229756842,28.764760497895242],[81.68575744809017,28.76458725870082],[81.6856781119204,28.764109305060167],[81.68572970182196,28.763576399486475],[81.68579860567155,28.763348083318572],[81.68608559416946,28.762969787889926],[81.68626429185603,28.76258974043149],[81.68618282872787,28.76228327525127],[81.68594843036827,28.76207233542849],[81.68568945839422,28.762030757792434],[81.68555959702765,28.762047199101854],[81.68542817180246,28.762122344291473],[81.68503408094712,28.762460626601],[81.68464111723713,28.762686001365886],[81.68444604333985,28.762720821904747],[81.68412335995242,28.762620913455134],[81.6831584419485,28.76213163400559],[81.6819335497769,28.761639101602594],[81.68096493856964,28.761361821811544],[81.68077218004308,28.761263603613383],[81.68025573830583,28.761103675311002],[81.67986915742428,28.760927369813448],[81.67941798974526,28.760769380577596],[81.67819147008848,28.760410011257086],[81.67761062937493,28.760194004612206],[81.67716077662509,28.75993904922036],[81.67696883158696,28.75976618427223],[81.67686479605729,28.7595162346242],[81.67661226998305,28.75907522757143],[81.67618805416474,28.758630529402474],[81.67618217724728,28.758607960819187],[81.67606388876759,28.758136883250252],[81.67514037384022,28.756710766885973],[81.67485371474284,28.75593591193448],[81.67441731170427,28.755182123439667],[81.6739034479268,28.75392543668636],[81.67440970876689,28.753406101777344],[81.67600432023589,28.752675968295044],[81.67668152005787,28.752155822648955],[81.67689735561672,28.75187261689644],[81.67700821533793,28.751490693571277],[81.67701397888304,28.750703088398016],[81.67759926365471,28.750519603225676],[81.67904469058162,28.749997841521687],[81.67982117267208,28.749887817905677],[81.68065624228882,28.749524845338186],[81.68154814870869,28.748953875531516],[81.6825420285611,28.748504316499552],[81.68328225308998,28.747940909545672],[81.6839389498905,28.74713192984955],[81.68362164491481,28.746973317335463],[81.68346321480374,28.746631152370316],[81.6835523816936,28.74606648806576],[81.68439165342674,28.744796186642805],[81.6851857123112,28.74414225386004],[81.68592461966443,28.743784157105942],[81.68643431936124,28.743305397281993],[81.68666597588417,28.74280331480922],[81.68675976970697,28.742170880269732],[81.68680024354218,28.740726394206213],[81.68685964497153,28.740421430481884],[81.68723010483919,28.73989377989712],[81.68754935290198,28.739675469609132],[81.68775812041413,28.739586445367216],[81.68891787256103,28.73936383083173],[81.689292204182,28.73914758342769],[81.68965322245768,28.738653755407388],[81.68953198973783,28.738618243835685],[81.68948484796448,28.73855078609803],[81.68943132815946,28.738492393275234],[81.68936949329154,28.738436313604044],[81.6892652051642,28.738344284863413],[81.68881329172433,28.73786145084844],[81.6881195484554,28.736619266166],[81.68790253735098,28.73603365449033],[81.68774473187419,28.73579070669539],[81.68738309966477,28.73550368080356],[81.68614450799853,28.735509981449002],[81.68567064152461,28.735577871086598],[81.68216038351137,28.735514376679124],[81.6815501564458,28.735285052567527],[81.68147188225902,28.734962706461143],[81.68160762452555,28.73466868415225],[81.68199202452881,28.73433265280683],[81.6826616575083,28.733943483140834],[81.68390925843414,28.733451977961224],[81.68564929539782,28.733000802869434],[81.68613729500332,28.73274792120368],[81.6864818657377,28.732486535781486],[81.68723903626034,28.731787651880342],[81.68780613398935,28.731103206645564],[81.68783721837764,28.73037418117408],[81.68802829690732,28.729935366988045],[81.68771205290817,28.729934738337693],[81.68571005344546,28.729653821082227],[81.68406056545902,28.72908444860214],[81.6823131677497,28.72839597705241],[81.68095966471525,28.727949205539957],[81.67998867969638,28.727550203006345],[81.67874597608574,28.726513822464316],[81.67755691615052,28.725655432600075],[81.67726431037,28.725338774096976],[81.6766603412485,28.724782103547078],[81.67608006973886,28.724132844842842],[81.67553311841436,28.723783548294463],[81.6748481157985,28.723457507728916],[81.67438337994606,28.723353722059763],[81.67340788909345,28.723252556109582],[81.66753010922186,28.723615722181332],[81.66655530173784,28.72381239462148],[81.6637935683276,28.724232174065943],[81.66358392632243,28.724280623879665],[81.66279587691287,28.72446285589057],[81.66079580124541,28.72519248453831],[81.65972476908593,28.725459488691204],[81.6579027671009,28.725707603555392],[81.65417123295121,28.726037158109875],[81.65208044740852,28.725975053995935],[81.65134529564924,28.725910901743845],[81.6498734895805,28.726069182354752],[81.6498781144035,28.726200095346318],[81.6501031274263,28.726878234256155],[81.65006804514276,28.727304922138366],[81.65034325033537,28.72895322086796],[81.65061877582427,28.730030665109577],[81.65073605133318,28.731289348361628],[81.65072602936355,28.732564410134962],[81.65120768919682,28.734053851942374],[81.65142618455887,28.73573847419905],[81.65132776765392,28.736077509585662],[81.65101158343604,28.73628437969162],[81.6491064804936,28.736999880713242],[81.64844447811443,28.737190366251376],[81.64824865333684,28.73730414766133],[81.6483614956755,28.73816108757731],[81.64837343680294,28.738219792505372],[81.64838256452438,28.738246800179045],[81.64848722119984,28.73882178262391],[81.6485861147168,28.740114412996196],[81.64903282759387,28.741326274239004],[81.64906539186899,28.742039295508913],[81.64939955156368,28.74399881226125],[81.64961962625328,28.744595739900674],[81.64964144188446,28.744918396939745],[81.64946205531892,28.745415728868124],[81.64878142214141,28.745497995098532],[81.64801794870868,28.74543390537326],[81.64667381067578,28.74588721028064],[81.64595146699149,28.746484190339],[81.64570218107646,28.74685773437052],[81.6456587235889,28.747079111249292],[81.64569266530614,28.74770179393859],[81.6458079508071,28.74822932555133],[81.64629349139807,28.74941624171232],[81.64712152877445,28.75110705933006],[81.64859393269644,28.75284671098565],[81.64874641841817,28.753486901213215],[81.64908171643788,28.754597792934206],[81.64912822681883,28.75506474317007],[81.64944420194004,28.756363064757558],[81.64971379250156,28.757092969369133],[81.65025617151899,28.758024624500546],[81.65059710325933,28.758607424296898],[81.65072202284604,28.758819050273225],[81.65087657563322,28.759170280197484],[81.65123920744722,28.75951832347445],[81.65151712148284,28.759731326278853],[81.6515592615019,28.75981010031375],[81.65181554180482,28.760041358427657],[81.65228333423107,28.760621284151128],[81.65263714154176,28.761601262494],[81.6529976441989,28.762123044643726],[81.65329562607319,28.76247140064485],[81.65338115765815,28.762529668214487],[81.65416625085416,28.763572983164106],[81.65450412005066,28.764151281814627],[81.6548407988782,28.76484473910057],[81.65519429222428,28.765881109353877],[81.6552997668774,28.766054349582188],[81.65538316988065,28.766286355659606],[81.65544055855467,28.76686158730655],[81.65548226000317,28.766976371752335],[81.65547856792881,28.76720437590183],[81.65534432473144,28.767548037760083],[81.65512455002361,28.767831180696543],[81.65496854913053,28.76817496812188],[81.6549000192964,28.768479994042483],[81.6551794361885,28.768521509195967],[81.65552606783002,28.76844761643994],[81.65647517470654,28.768476823454243],[81.65681848975515,28.768594798998194],[81.65707683640325,28.76863418822133],[81.65716236781944,28.768692456339807],[81.65767831014813,28.768870389594298],[81.65836362555194,28.769201056753978],[81.65879184572904,28.76947201604658],[81.6594306407023,28.77005113046914],[81.65981258966382,28.770514146016723],[81.66004848933851,28.770650626197597],[81.6601547777233,28.77074715591488],[81.66026150506553,28.770823366921213],[81.66066790376698,28.77109445092386],[81.66071004351323,28.771173224250763],[81.66085984863257,28.771269504129783],[81.66115620467795,28.771653932915967],[81.66134821140409,28.771829048818006],[81.6614536239455,28.772002288193292],[81.66192285830451,28.77238815719608],[81.66204959039226,28.772579339159307],[81.66219989556093,28.77265755132249],[81.66236958148279,28.7728507346776],[81.66247643298964,28.772947327493927],[81.66266693898515,28.77319690287693],[81.66300950218648,28.773391588000923],[81.66317975196519,28.77358477205535],[81.66358321135519,28.773878425124142],[81.66371369741567,28.773972578821922],[81.66422857505158,28.77418889830089],[81.66474270311294,28.774461671988245],[81.66514860159972,28.77475307454527],[81.66589487340177,28.77539252022398],[81.66641125364258,28.77552994107013],[81.66684222838936,28.775536823241612],[81.66710332858946,28.775404600200552],[81.66738687610818,28.77517978669142],[81.66760658729112,28.774894393502034],[81.6678693780216,28.774629067972526],[81.6683054842719,28.7743289848641],[81.66847867564151,28.774273971387153],[81.66899580691663,28.774336869994062],[81.66968274905629,28.774611020398396],[81.67010890426883,28.774960940491177],[81.6702154429935,28.775095793534785],[81.67082252814227,28.776401684226624],[81.67109887684201,28.776747851192987],[81.67141824350111,28.777019309619313],[81.67188991707634,28.777274201743303],[81.67274836085686,28.777626501927518],[81.67355990724045,28.778247568850297],[81.67405165136717,28.778540722459166],[81.67439527854556,28.77869695999593],[81.67516900439168,28.778914219614848],[81.67531974809829,28.7789541079041],[81.67544804502467,28.778994058378007],[81.67570601637568,28.77907402236346],[81.6760496438493,28.77923025945416],[81.67639220791449,28.77942488334396],[81.67705394898267,28.779949669596927],[81.67769086563992,28.78070239735852],[81.67843150479666,28.78174127289582],[81.67856011514324,28.781819609345547],[81.67868985155005,28.781782850054917],[81.67895013796155,28.781727399394338],[81.67929758395277,28.781578984853862],[81.6797791475542,28.78108684586339],[81.67999710657452,28.780918736462063],[81.68058383180745,28.780638223095753],[81.68093027601064,28.780546200306226],[81.68110390500405,28.78045279938408],[81.68134406090192,28.78026424679196],[81.68151831588494,28.780170846114167],[81.68171495496064,28.779982543267636],[81.68197593005254,28.779832314974186],[81.68223552939065,28.779776800790092],[81.68275316090289,28.779801251445246],[81.68326916528332,28.779979184420206],[81.68352788811761,28.779982500618456],[81.68396167897006,28.77981545634406],[81.68465838407535,28.77942153612903],[81.68500651777995,28.779273059329554],[81.68570096869006,28.779129650018945],[81.68596081674654,28.779112522585486],[81.6862202267746,28.779115713561563],[81.68665120078191,28.7792173111143],[81.68716983411133,28.77920562602534],[81.68736741003366,28.779053458205045],[81.68759100180046,28.778580571929492],[81.68778926642754,28.77835400767248],[81.68855143432611,28.777982220122514],[81.6890720067856,28.777873505872797],[81.68926851972962,28.777761912889197],[81.68935599130388,28.777723152567194],[81.69001362159075,28.77713980153725],[81.69027522238515,28.776991760583776],[81.69040702421587,28.77687829111075],[81.69084206570395,28.776711310013187],[81.69153514006145,28.77664454740493],[81.69231230707331,28.776710513049046]]]}},{"type":"Feature","properties":{"province":"Karnali Province","district":"Dailekh","municipality":"Dungeshwar Rural Municipality","ward":"2","wardNumber":2,"sourceMunicipality":"Dungeshwor","sourceType":"Gaunpalika"},"geometry":{"type":"Polygon","coordinates":[[[81.75771629701889,28.769573006493957],[81.75728451025768,28.769458093583808],[81.75702566457431,28.769342181511142],[81.75678876551154,28.769172003779357],[81.75629252011603,28.768904045446263],[81.75577426466702,28.768694790639373],[81.7553428558914,28.768444462336003],[81.75426414750791,28.767680976633045],[81.75394077979028,28.767414270290843],[81.75378966198515,28.767241343088003],[81.7535301959442,28.766782393429693],[81.75322833745726,28.766382397748757],[81.75296874768323,28.76580841330067],[81.75281770118664,28.76510289246199],[81.75270948357199,28.76430015541732],[81.75273099725327,28.763898350200055],[81.75316317593818,28.76275401939988],[81.75337996181976,28.761552294142128],[81.75346624827348,28.761265210698465],[81.7535528525814,28.76057869800871],[81.75370385387568,28.7601197527866],[81.75376882378868,28.759546209536587],[81.7539202614718,28.759145906027463],[81.75387737777358,28.75860681066509],[81.75387312612436,28.758552669204416],[81.75427491920412,28.757354384271565],[81.75429436492514,28.75730462020682],[81.75339234436738,28.756869607614505],[81.7515588488017,28.756266035686956],[81.75078368748717,28.755859595721248],[81.75017977562334,28.75564408863844],[81.74966320973729,28.75539194670175],[81.74927550278494,28.75525646518033],[81.74901765791972,28.75509991642001],[81.74869466352594,28.754964060457652],[81.74798258499001,28.75476718273616],[81.74727232181948,28.754475464415698],[81.74707887625542,28.754359177939747],[81.74694801432797,28.754323791653864],[81.74611100240382,28.755007732715764],[81.74560737444028,28.75504211257446],[81.74453109704416,28.754862986072272],[81.74395344119445,28.7549271238225],[81.74317107763905,28.755382748875125],[81.74278968168862,28.755493152277385],[81.74210773630692,28.75557141760095],[81.74114944091312,28.75541192349108],[81.74017651814783,28.754902762780112],[81.7397344159837,28.75476978229985],[81.73734851760138,28.75480095293942],[81.73688784303785,28.754844022578464],[81.73520420556848,28.75513302682468],[81.73411272755084,28.755441355957228],[81.7326381019421,28.75597068189963],[81.73117635568684,28.756596850481028],[81.73042350043582,28.757255472636185],[81.72999033355654,28.75746540484668],[81.72960987701694,28.757548737611767],[81.72817802275053,28.757696390079897],[81.72716588798848,28.757988402303784],[81.72674860570933,28.758017781028204],[81.7253714665769,28.75765053382436],[81.72500476604759,28.757677349998197],[81.72354727487686,28.75800336761809],[81.72269870042021,28.758341832473793],[81.7212821026914,28.758478107223507],[81.72087701067252,28.758606640354287],[81.7206214758346,28.758689286423078],[81.72055763857063,28.758709916612382],[81.72044252962608,28.758915913693357],[81.72041808087916,28.75908752657909],[81.72048072730483,28.7592587021451],[81.72062871766356,28.759452010453003],[81.72094952302872,28.759646633698356],[81.72133610419775,28.759804809008724],[81.72142094774613,28.759863077391422],[81.72146308730738,28.75993953794701],[81.72128438883384,28.760394044229077],[81.7211091325645,28.7606026031034],[81.72102065959153,28.760772340167374],[81.72086828779845,28.76086792865688],[81.7206951592739,28.760923005356954],[81.72058755613222,28.760921315807433],[81.72041392748228,28.76099446092504],[81.72030357166605,28.761146253868816],[81.72025636151797,28.761451155373045],[81.72014444024693,28.761756368755456],[81.71999094221921,28.76196480380809],[81.71985982836817,28.762076084576943],[81.71977123042784,28.762227753071336],[81.71974577868592,28.762532592645346],[81.7198890760965,28.763068876430122],[81.71988688481409,28.763222358619096],[81.7197967845767,28.763527510042078],[81.71966448175431,28.763753887470298],[81.71953330614177,28.763847100373834],[81.71936067718941,28.763884109948595],[81.71918880059597,28.763844408988735],[81.71875720066376,28.763839964697198],[81.71849772719236,28.763911295773926],[81.71808450556976,28.764154925533155],[81.7177376853073,28.764285397174536],[81.71721867583524,28.764412303591065],[81.71678375881156,28.764674125448604],[81.71643631267706,28.764804597468906],[81.71600627667661,28.764741449121367],[81.71583352367058,28.764760515554503],[81.71557355030988,28.764852039948234],[81.71505485330151,28.764940559999147],[81.71479600599862,28.764919363626746],[81.71445050081273,28.764952807368118],[81.7141046186648,28.765026824981426],[81.71384420686607,28.765156860569427],[81.71367095336576,28.76519161887354],[81.71323979183902,28.765169106811644],[81.71289691430121,28.76501293237773],[81.71255134596736,28.76504637646287],[81.71246518853907,28.765082885699663],[81.71226848730439,28.765253184118183],[81.71196136655621,28.765573024240712],[81.71178717498739,28.765666487413466],[81.71126916741105,28.765660167374424],[81.71101163458773,28.765544255534756],[81.71071383885835,28.765254604830613],[81.71037083674483,28.76509624198796],[81.70993823575229,28.76513005954003],[81.70959291811417,28.765107111368764],[81.70855978299586,28.764866529682234],[81.70830099823819,28.764843082392233],[81.70726010232464,28.765080952872744],[81.70700075473128,28.765077824652487],[81.70682887864702,28.765035873003487],[81.70656971841628,28.765052999751973],[81.70631212239694,28.76493477539182],[81.70605315074836,28.764893197496882],[81.70582281476607,28.764828988489587],[81.70577410970762,28.764815672010226],[81.70562248975324,28.764832237092136],[81.70546993107342,28.764907570512467],[81.70526516337432,28.765114003712952],[81.70526528792954,28.765129758554995],[81.70509359294226,28.765493987755008],[81.70500211739152,28.765796888882026],[81.7047138148734,28.766251955984576],[81.70449410319245,28.766517156704793],[81.70396758563427,28.76696897074443],[81.70301046985603,28.76737564210954],[81.70285747314182,28.76747129326107],[81.7021626465657,28.767653151842776],[81.70159555311776,28.767969800680465],[81.70120002331781,28.76838479309271],[81.70073383694887,28.76914319804828],[81.70020525355032,28.76976656310662],[81.69983185794975,28.77014310703951],[81.69952630282074,28.770311715464114],[81.69909414035259,28.770325214221597],[81.69848653395107,28.770432176920036],[81.69796521089974,28.77059734409016],[81.69761613897766,28.770784207892785],[81.69726594011121,28.771083917091186],[81.69674261421966,28.771346112938655],[81.69641548849374,28.771550920028183],[81.69621759825034,28.771739223072768],[81.6960433444736,28.77181461835756],[81.69582463465073,28.771964659536902],[81.69556128213483,28.772227796337866],[81.69503132257267,28.772945938265515],[81.69483343188611,28.773134304001296],[81.69463604332688,28.773304539603902],[81.69428402944084,28.773719282687644],[81.69406181498377,28.774099579052972],[81.69390562760576,28.77440279146125],[81.69379164119684,28.774782464170737],[81.69330732597814,28.775331056630968],[81.69286421205919,28.7760126272616],[81.69275091552521,28.77631558935661],[81.69257440800138,28.776542154034843],[81.69231230707331,28.776710513049046],[81.69285194695554,28.776775475813945],[81.69293791612742,28.77679529465455],[81.69323577453343,28.77710295066065],[81.69340846271938,28.77716297040665],[81.69375415568535,28.77714765730816],[81.69392672084476,28.777189671291538],[81.69452750464961,28.777502520178636],[81.69478278500863,28.77775165871072],[81.69495534958708,28.777793672322012],[81.69555650914529,28.778068135105176],[81.69579053194799,28.778299454975237],[81.69583135728618,28.77847069340382],[81.6960409301706,28.778875814448085],[81.69644219758469,28.779510192579],[81.69658793533719,28.779854607809607],[81.69673636402496,28.780027597884544],[81.69785008625355,28.780710122600333],[81.69834051465065,28.78117476462515],[81.69900231853649,28.781697112762092],[81.69953751521739,28.782048659500706],[81.70013930150044,28.782302802634295],[81.70067393425298,28.782672354798052],[81.70073770786063,28.782730684750454],[81.70080198192787,28.782768759835488],[81.70108102175976,28.782925245488325],[81.70165867206214,28.78331492924416],[81.7021711714894,28.78372067847144],[81.70272549810103,28.78424358838741],[81.70356111904506,28.784710921748022],[81.70403216636184,28.785042399282506],[81.70428976212737,28.78515843601853],[81.70461025471616,28.785391445393774],[81.70475937101442,28.78556668670479],[81.7047566793006,28.785738236790408],[81.70471091034001,28.785889655296582],[81.70455716261105,28.786059704121257],[81.70444442809308,28.786344661410023],[81.70399956151238,28.787141327914444],[81.70395241618999,28.787369456751925],[81.70394703400247,28.787712494463797],[81.70398792215141,28.78788379512532],[81.70398254048443,28.788229146373748],[81.70410651922786,28.788573748765767],[81.70410476729788,28.788686594521984],[81.70420761350485,28.789031321395523],[81.70448164724662,28.78949477376361],[81.70475831031597,28.789782172924543],[81.70514363943062,28.79003518917786],[81.7052651839746,28.7901044609204],[81.70570040763303,28.790348162049444],[81.70638935242042,28.790509279455968],[81.70664926339148,28.790492152097364],[81.70751759398117,28.790196450500193],[81.70784534590331,28.78997132500176],[81.70801966273689,28.78989824273184],[81.70839249605544,28.789539704678496],[81.70856637492274,28.789484690399593],[81.7093412891647,28.78966562727091],[81.71003273803176,28.78963481253857],[81.7103762399,28.78977298261979],[81.71054648912379,28.789945847554137],[81.7106526518108,28.790101019225062],[81.71068753313905,28.790615358140524],[81.71070472353911,28.790883874087093],[81.71060642518853,28.791683170310712],[81.71060198125046,28.791969879466308],[81.71064042990945,28.792256213688734],[81.71084737394908,28.792830572175056],[81.71081816831264,28.793345222770423],[81.71087931307433,28.793575103428093],[81.71084948225017,28.794089754215925],[81.71095420557499,28.794321635571052],[81.71120823465773,28.794667864611345],[81.71130964213343,28.795068983766],[81.71147720044264,28.795415649549394],[81.71160455781238,28.795588701825917],[81.71173266793326,28.795685106519883],[81.71196750406423,28.795839655046418],[81.71214006875854,28.795881544238927],[81.71257410896797,28.79575288633066],[81.71309424343727,28.795662177853202],[81.71352590621912,28.79566655804715],[81.71369815718624,28.795746896865133],[81.71384758735799,28.79586118170356],[81.71418564534719,28.796324321014403],[81.71433238431517,28.796612345050665],[81.71456553103518,28.796899994544958],[81.71471289428094,28.797188080212525],[81.71477491551308,28.797361506990885],[81.71485694250084,28.797647654439764],[81.71484718008642,28.798277339168717],[81.71491007642123,28.79839431164503],[81.71494652152941,28.798852258695693],[81.71502792291702,28.799138406297722],[81.71502060060358,28.799655245570747],[81.71486253572932,28.800053235645162],[81.71485965589565,28.800285615744347],[81.71494049313507,28.800682420776113],[81.7148710870005,28.801025833045237],[81.71445949249267,28.801154366587017],[81.71432812997207,28.80124757963578],[81.7139382314179,28.801358045129327],[81.71382831238047,28.801489457559324],[81.713783231205,28.80164312759168],[81.71369494670802,28.80175647255152],[81.7135860912008,28.801849623620825],[81.71323764495284,28.802036424672153],[81.71319268774813,28.802208161900822],[81.71333823752919,28.80260909314815],[81.71333504452193,28.802895739544258],[81.71329033848977,28.80300877248588],[81.71298328083815,28.803348931425226],[81.71265659242157,28.803535670491286],[81.71211369731927,28.80375973010707],[81.71167646404042,28.80417272127003],[81.7115430972406,28.804437485094397],[81.71136809173571,28.8046076578295],[81.71125779759463,28.804777456973387],[81.71123528826672,28.80485435376764],[81.71123309772337,28.805007774048494],[81.71133757016382,28.805293859626104],[81.71142291318573,28.805408456499976],[81.71172271061668,28.80560320427935],[81.71187301658259,28.805663348375877],[81.71197999293219,28.80575981566851],[81.71225865860258,28.80595243761324],[81.71236475852695,28.80610760910827],[81.71233968271697,28.806373999300178],[81.71222851287622,28.806600252396414],[81.71218174103122,28.80688708611483],[81.71217479268162,28.80745806603577],[81.71229870700775,28.80797646924832],[81.71229645271207,28.80820441099597],[81.71235790941292,28.808492934418346],[81.71265194776642,28.80924059443247],[81.71285707355966,28.810196314501102],[81.7128561975766,28.810255018977802],[81.71305120980445,28.810199817714444],[81.71363424235571,28.81012899035198],[81.71441347772614,28.80988792795078],[81.71454240096561,28.809907560562927],[81.7146721378269,28.80987073875478],[81.71551458001862,28.80987981302773],[81.71616413812804,28.80979291967121],[81.71752508791593,28.809846575125643],[81.71791273305878,28.8099460459544],[81.71804096770988,28.810062706405564],[81.7181252465952,28.810215752774273],[81.71811654668574,28.810901766569014],[81.71798286619469,28.811204916273045],[81.71776365496042,28.811470117061194],[81.71697716144449,28.81214680637164],[81.71671674955866,28.81227903041519],[81.71660795672243,28.812392437114756],[81.71643269972124,28.812619064558415],[81.71632065192804,28.813001050119304],[81.71623330471358,28.813152718349347],[81.7160584235441,28.813340959658355],[81.71588485686995,28.813434360273202],[81.71536553472647,28.813563516778235],[81.71510562168183,28.813675484322328],[81.7148882254752,28.8138278394504],[81.71475723704997,28.813977444421447],[81.71471284311376,28.814131114270015],[81.7147538556285,28.81432279589538],[81.71507547350157,28.814515105699183],[81.71565581567484,28.814694790082612],[81.71623690835014,28.81479551281441],[81.7167545408611,28.81479951963607],[81.71688321245995,28.814877857240756],[81.71707640941342,28.81493775125293],[81.71720520743702,28.81503409378942],[81.71733425523779,28.81507404453218],[81.71804107833056,28.815480983910852],[81.71927054190233,28.81549250111527],[81.71939952693515,28.815532389316278],[81.71998162104069,28.81559472658122],[81.72056045967311,28.815925641799595],[81.72100949889494,28.816293317327784],[81.72184918761846,28.816453560962174],[81.72217205806118,28.816553406664738],[81.72255945204721,28.816711582225633],[81.72307445439239,28.81698410495221],[81.72339751217827,28.817101955907532],[81.72365473266035,28.81723824869057],[81.72378428113501,28.81725781843165],[81.72462058918828,28.817763350245983],[81.72481459848676,28.817841313498853],[81.7249440845475,28.81784281481277],[81.72578371065151,28.81810233774594],[81.72629827519161,28.818392866113484],[81.72649341172526,28.818358045754177],[81.72668767270076,28.818379554106947],[81.72683847879273,28.81841937959311],[81.7269040669904,28.81836261413735],[81.72697015487886,28.81828546726811],[81.7271262192106,28.81788747730533],[81.72717674697503,28.817316310029298],[81.72722145296107,28.817203214580324],[81.72726578242826,28.817126255325817],[81.72754876731668,28.816919385166017],[81.7276825722197,28.816636553209683],[81.72761986334966,28.816463127151604],[81.72745067815363,28.81617522799546],[81.72740997835888,28.815945223010754],[81.727762869573,28.815379185811153],[81.72772686463519,28.814806141448074],[81.72783803475508,28.81457763886331],[81.72794739003405,28.81446423129479],[81.72807762706984,28.814409341426153],[81.72820673718503,28.81444929285822],[81.72846420688876,28.81462390868846],[81.72872242801378,28.814721815706488],[81.72902429166618,28.814745012874898],[81.72919867072197,28.81466955494826],[81.72939568639883,28.814442866194753],[81.7293994418751,28.81415846985205],[81.72946953580634,28.813738347795223],[81.7296230973032,28.81353216419256],[81.72994890907182,28.81340181620877],[81.7303379308386,28.81342451459397],[81.73061978821576,28.813332678237302],[81.73066355502569,28.813276099846153],[81.73054458414508,28.812473300989065],[81.73057122474368,28.812073746305032],[81.73068176967773,28.811845243066788],[81.73072847931448,28.81156065957781],[81.73067040157022,28.81104644580262],[81.73067503340243,28.8107011569558],[81.7307437517037,28.81035999477046],[81.73098897646116,28.809790017752704],[81.73099385980947,28.809390525836456],[81.73104050612669,28.80910369241868],[81.73119725848356,28.808705640032105],[81.73113367369177,28.808590917702038],[81.73087708033276,28.808359909498755],[81.73081437142143,28.80818642067178],[81.73081906558106,28.807843445381224],[81.73086370859075,28.807730349928146],[81.73110430213791,28.80750334866603],[81.73110542942986,28.807390502928623],[81.73099964206244,28.80719700781907],[81.7308715333789,28.80710066548166],[81.73074411208387,28.806927613459713],[81.73070228572082,28.806812766562032],[81.7305104662313,28.806581384316747],[81.73040561817356,28.80635175291354],[81.73040974899544,28.806008714905296],[81.73049797168423,28.80589537007469],[81.73065028086621,28.805781713253634],[81.73071674429087,28.80566849353799],[81.73069692725642,28.805497130201847],[81.73044590377324,28.80486437967216],[81.73044703051796,28.804751533920747],[81.73051437119283,28.80457967153409],[81.73071138637357,28.804352920159204],[81.73095567332616,28.803841584878384],[81.73130825003405,28.803329688426906],[81.73150733061512,28.802933699421096],[81.7315100856005,28.802703507252467],[81.73141030616392,28.802074445977457],[81.73143569482906,28.80176960728754],[81.73154548813979,28.80163588201019],[81.73161063860267,28.801599371629884],[81.73204292693819,28.801585809938615],[81.73221661820399,28.801510414899127],[81.73230477849351,28.80139707025728],[81.73241907855791,28.8008841710781],[81.73244753336112,28.800369520352223],[81.73246422906762,28.80028593294623],[81.73249392966352,28.80014132832953],[81.73262773374925,28.79985630857756],[81.73262948620207,28.799741212817622],[81.73239802997729,28.799338466832605],[81.73231594066421,28.799050068626954],[81.73242754840537,28.798803498113056],[81.73253709104415,28.798710409307258],[81.73279881608097,28.798580311100554],[81.73299338946318,28.798563558310676],[81.73323191799598,28.798508045223468],[81.73331876344308,28.798471472937138],[81.73366902492936,28.798189706459695],[81.73386578842772,28.798019408474733],[81.7339984663186,28.797849422121114],[81.73417866655261,28.797336148992407],[81.73444151807482,28.79710908496889],[81.73472982065014,28.79665389200208],[81.73512303594812,28.796374189600012],[81.73553525562558,28.796243343066752],[81.73579629266503,28.79611324512576],[81.73590627345288,28.7959998375245],[81.73612742406034,28.795660115536936],[81.73632425003852,28.795510135955197],[81.7365202627213,28.795416485639873],[81.73717101080052,28.79523243854106],[81.7375629114396,28.79504513836579],[81.73771584538626,28.79493379471866],[81.73789191471515,28.794745553762347],[81.73821904018334,28.79453837144856],[81.73841411447414,28.79450348837635],[81.73867352534118,28.794504304256666],[81.73880257296912,28.794544254613562],[81.73895319157396,28.794565949895325],[81.73903928631627,28.794603837612794],[81.73910262110344,28.79468248611929],[81.73942499185429,28.79480027374827],[81.7395553531892,28.79476351487933],[81.73981776735998,28.79455670671996],[81.74007880503996,28.794426671377884],[81.74046939195183,28.794316206324734],[81.74079351342894,28.794318897988614],[81.741309580925,28.794478574916955],[81.74195513547646,28.794560793410625],[81.74227606692395,28.794755353950332],[81.74240511466722,28.794795242270883],[81.74278988146463,28.795048132944267],[81.74285459283739,28.79505000993962],[81.74317934142191,28.7949579860484],[81.74343981658959,28.794845956035566],[81.74369947796903,28.794790317525223],[81.74402541557855,28.794603516079015],[81.74435066433391,28.794493424822576],[81.7447379341825,28.794554446721207],[81.74486785886083,28.794537943507905],[81.74502010536565,28.79442422467139],[81.74506443548273,28.794349515199528],[81.74519523607476,28.794274369305484],[81.74539006064815,28.794198787520642],[81.74571380783557,28.79416540571569],[81.74597522160194,28.79399698420555],[81.74610495814186,28.79396022468543],[81.74642807927125,28.794001240596675],[81.74691382667409,28.793863142492288],[81.74694758995224,28.79383813524274],[81.74735399726214,28.793524485530074],[81.74800087399949,28.79299058609488],[81.74843235147945,28.7927805288693],[81.74892829300313,28.79245506385801],[81.74901463791342,28.792436559044045],[81.74944580396645,28.792188178325567],[81.75022216428147,28.79184308536054],[81.75082651943653,28.791634406091816],[81.75160269235617,28.791271245085213],[81.75244364186338,28.790736222700996],[81.75278871351658,28.790449954125513],[81.75287487090078,28.79041113116835],[81.753586398216,28.789782079209132],[81.75388808017604,28.789342578905373],[81.75418989141781,28.78865488000191],[81.75444850295334,28.787660466818707],[81.75479264265404,28.786898058595717],[81.75490068873297,28.786516073236328],[81.75494333409516,28.786208857859798],[81.75492158410887,28.785597491517592],[81.75496472877981,28.78536936239118],[81.75496448328565,28.7850624594234],[81.75502888691605,28.784757433541316],[81.7553093747739,28.78422328006089],[81.75582614006156,28.78359303753804],[81.75617152864612,28.782999867644236],[81.75642932487341,28.782161186606114],[81.75666623456766,28.78162503202536],[81.75679554034758,28.781089438774746],[81.75679548537968,28.780554656988745],[81.7567516606065,28.780250254346438],[81.75677373425737,28.780019937347355],[81.75670840442665,28.779485467064706],[81.75655729367729,28.778874723993177],[81.75621136507567,28.77788149070302],[81.75621068437708,28.77734664699774],[81.75610284295473,28.776505523294063],[81.75621039099265,28.775972431130267],[81.75631824751143,28.775741552080824],[81.75674885567379,28.77507342246208],[81.75715814234674,28.774558901515615],[81.75722298145223,28.774405044172326],[81.75750340418932,28.774042440777713],[81.75771899123541,28.773659831026315],[81.75789068979759,28.773049590884586],[81.75797710440878,28.772514247529983],[81.7579768591604,28.77213288548399],[81.75791183841129,28.77190306783974],[81.75788983523033,28.771521830340745],[81.75778161383282,28.770985359127632],[81.75776017280872,28.770680832393882],[81.75780288144762,28.770299158616957],[81.7577813770716,28.77006915315114],[81.75784578070471,28.76976412648642],[81.75771629701889,28.769573006493957]]]}},{"type":"Feature","properties":{"province":"Karnali Province","district":"Dailekh","municipality":"Dungeshwar Rural Municipality","ward":"3","wardNumber":3,"sourceMunicipality":"Dungeshwor","sourceType":"Gaunpalika"},"geometry":{"type":"Polygon","coordinates":[[[81.7707874794752,28.768991225933046],[81.77082011650876,28.768986475487985],[81.77105758655621,28.76854734879913],[81.77155415682975,28.76797581134114],[81.77179206432645,28.767593139112662],[81.77272036796202,28.766353410575437],[81.77345471559354,28.76574211336706],[81.77438288680816,28.765093683210083],[81.77472839566664,28.764807352866924],[81.77505220943948,28.764521147276653],[81.77533269495842,28.764178737269457],[81.7754623713113,28.76396817743143],[81.77565688947409,28.763432209431475],[81.77604530940951,28.761753283155283],[81.7762832801663,28.76129602641001],[81.77671476384286,28.76068428888412],[81.77686600991119,28.760532184062022],[81.77731925207206,28.759920258828153],[81.77794505808797,28.75934797268978],[81.77846344617032,28.75889146906091],[81.77872386042465,28.758693601792665],[81.7788404046837,28.7586071395383],[81.77900084183706,28.75848885680948],[81.77939437012247,28.758109749950815],[81.77958969515761,28.75803416728093],[81.77982928775316,28.757881562215836],[81.7802637662842,28.75767594432776],[81.78052499222458,28.75750520939122],[81.78087249949323,28.757392617811302],[81.78199986449656,28.757207825482666],[81.78286537754381,28.7571937679416],[81.78312604009061,28.75711993704675],[81.78338588743652,28.75710274712338],[81.78355957855848,28.757045293900575],[81.78433968657083,28.756916639890413],[81.78537770149059,28.75701899376617],[81.7857223921417,28.757136531688666],[81.78598286626358,28.757042506547773],[81.78637583227714,28.756681405028232],[81.78653089466263,28.756355498012905],[81.786815507119,28.75597476474931],[81.78716752374208,28.755365651778504],[81.78728069792902,28.7548301208809],[81.78772406868035,28.753685664725353],[81.78781254077441,28.753533996703506],[81.78803037532417,28.753381516495196],[81.78804083321567,28.752214737183365],[81.78810967594187,28.75183300031541],[81.78819890154098,28.751527786717133],[81.78855091706313,28.75091867431632],[81.78863076125273,28.750812144457253],[81.78883615542586,28.750537940506835],[81.78892469159089,28.75030718692217],[81.78897384366714,28.749695382508463],[81.7888530615675,28.748700901858346],[81.78885932263373,28.748089284946186],[81.78892747797751,28.747707486380012],[81.78912768554484,28.747171518503567],[81.78930400627166,28.746868119004276],[81.78943486963841,28.746734268088957],[81.78956654592648,28.746620549150975],[81.78974080134022,28.74646838096641],[81.78982846046193,28.746373041607225],[81.79041637375342,28.746069459009544],[81.7906130751718,28.745917166312694],[81.79078920770806,28.74559338549009],[81.79083629394307,28.745211773767366],[81.790947965392,28.744829725232208],[81.79104282520326,28.743989667469798],[81.79115593746356,28.743454198903365],[81.79116013330614,28.74299381402421],[81.79125280107249,28.742383948988067],[81.79132020522313,28.74215338135861],[81.79140805239491,28.742001650356766],[81.79145369796609,28.741771146053424],[81.7918519851926,28.740857194111967],[81.7919180113362,28.74078011007138],[81.79207269943484,28.740418130337908],[81.79249130400295,28.739731870861316],[81.79266768760164,28.73934944776061],[81.79274210493378,28.73835609507774],[81.79263613027796,28.73814459394939],[81.79255191514146,28.737838190848766],[81.79217222404377,28.736725610760033],[81.7921509662805,28.736707667934105],[81.79210857734913,28.736610889001422],[81.79178846337301,28.736093733748657],[81.7915742619614,28.735785890527005],[81.79114548286508,28.735285114455767],[81.79086863455228,28.7348264142814],[81.79050431630336,28.734383905369697],[81.78945080643928,28.7334603732611],[81.78927968211956,28.733267252831713],[81.78874805949245,28.732193931883238],[81.78863076746553,28.732009564468864],[81.7884066256826,28.73165433232532],[81.78823506388956,28.731481592228217],[81.78778346043399,28.731172809589296],[81.78756813042645,28.73105664795708],[81.78705075100949,28.73086339844698],[81.7867279450515,28.730668963542445],[81.78614841990833,28.730207447085327],[81.78604119414783,28.730072656060837],[81.78565906064814,28.729305364110804],[81.78519052019465,28.728536321195325],[81.78504096659343,28.72830700188938],[81.78487002949359,28.728131949043753],[81.78426881122692,28.727593847495854],[81.78356011406709,28.72707212385739],[81.78237980833113,28.726031931082137],[81.78115592314953,28.72506863623403],[81.78025309090356,28.724507461844468],[81.77973614977702,28.72427345012134],[81.77896217689697,28.723828873853453],[81.77857653574814,28.72351965345614],[81.77806028294395,28.723211245404094],[81.77785795847697,28.723115340191992],[81.7773723412352,28.722881203465075],[81.77659686620913,28.72256972871913],[81.77537009970057,28.72198554433082],[81.77517634010368,28.72192796350868],[81.77375218329632,28.721649553546587],[81.77310375095354,28.721646483331245],[81.77258399269141,28.721719436681777],[81.7718025058424,28.722057840408752],[81.7706962104924,28.722375609476536],[81.77050107260541,28.722469259928953],[81.77004564984347,28.722600481088914],[81.76971958771135,28.72273095335751],[81.76874089868171,28.72333680794451],[81.76802205875369,28.723848637711068],[81.76736993270238,28.72420892398998],[81.76704293137597,28.72447481168594],[81.76678239406793,28.724568836335763],[81.76649997361109,28.724719376877495],[81.76623937452584,28.724793083985844],[81.76604480116691,28.724791894035583],[81.76558994077861,28.72490504653478],[81.76539455311764,28.72497837869307],[81.76504610637595,28.725206004039038],[81.76426562184513,28.72543162507131],[81.76392055629519,28.725332029676835],[81.76379219756203,28.725197363830524],[81.76362188720938,28.72492978293653],[81.76358193824154,28.724623067820207],[81.76361446515234,28.723550941086017],[81.76375227762345,28.72278740583263],[81.76375584737121,28.72240379367176],[81.76369626931854,28.721867010549637],[81.76356985102345,28.72156079379304],[81.76338310423259,28.720794629576414],[81.76339888124102,28.719262242929158],[81.76334575151272,28.7181138430943],[81.76328542320809,28.71765376927388],[81.76328967994985,28.717272470179314],[81.76324047810371,28.71692968129716],[81.7631683331957,28.716429159339125],[81.7631051868196,28.716276051365682],[81.76304141377133,28.716217720885325],[81.76280902037615,28.71567968519045],[81.7626597795211,28.715488690069865],[81.76242375563271,28.715334266910595],[81.76225119177882,28.715274372970025],[81.76205674247801,28.715293501741314],[81.76127989013193,28.715133196316582],[81.7606962329877,28.715129688506384],[81.75894707696673,28.71494542803185],[81.75888192707865,28.71496387058998],[81.75804155285584,28.71469103190478],[81.75771899626893,28.714516851626705],[81.75724826181536,28.714110978268476],[81.75615354768296,28.713356619356833],[81.75576834510245,28.713009014051845],[81.75551244062834,28.712662909438468],[81.75519132483285,28.712335184637883],[81.75497712100842,28.71218069951032],[81.75441766427679,28.711908488527143],[81.75402970719678,28.711791074988806],[81.75364074800669,28.711809013341483],[81.75292835632786,28.71170697573454],[81.75169532961183,28.711736408618222],[81.75065937927725,28.711577413546106],[81.75046537034304,28.711479195192577],[81.75001495589697,28.71113190094331],[81.7497795582751,28.71088276264528],[81.74965232566429,28.710632938148482],[81.74924524084103,28.71026507564051],[81.74879394979688,28.70997648658315],[81.7484715807244,28.70982031176558],[81.74808356124004,28.709702835509827],[81.74756762118955,28.709412370233483],[81.74696214597428,28.709228371705613],[81.74694870360251,28.70922168268133],[81.74623212517345,28.708887139273386],[81.74432184529525,28.708796153975836],[81.74391369269577,28.708728442944164],[81.74314552629684,28.70887935378773],[81.74245332866664,28.708907979673626],[81.74165546418098,28.709020691336697],[81.74116302677379,28.709163290814196],[81.73939248127031,28.709461858702113],[81.73930069547262,28.709511997318156],[81.73868533619422,28.7097433088762],[81.73795242808872,28.71026182829494],[81.73678842074811,28.710730827921246],[81.73557090193174,28.710595275036933],[81.73455090039644,28.710066046557667],[81.73423177970339,28.710094801701356],[81.73364199264158,28.710314671855713],[81.73267249493709,28.710879577245134],[81.7315767654437,28.711226291653386],[81.73051005117668,28.71124334751745],[81.72911427855604,28.71105459031762],[81.72784611932462,28.71063714112504],[81.72713522758872,28.710561986279664],[81.72640133007751,28.71029965169211],[81.72611579318753,28.709737045377622],[81.72591103252833,28.709462775971897],[81.72585182319126,28.709413447647897],[81.72579642769185,28.709359619369412],[81.72540416222702,28.708901355595625],[81.7250517917035,28.708011840844875],[81.72484459557133,28.707566207335958],[81.72417191385853,28.706913070736224],[81.72384160476105,28.70671394643388],[81.72317429455919,28.706455738018317],[81.72205493694534,28.706346632031543],[81.72131690852572,28.70641608185542],[81.72075638255129,28.706610882768285],[81.71997714585564,28.707019056457437],[81.7195873083626,28.707278315924466],[81.71933839786738,28.707559458012298],[81.71912081077876,28.707939755043522],[81.71911780402621,28.708334683282363],[81.71946173871049,28.70884958789349],[81.71951775695644,28.709079531052463],[81.71945610656363,28.709240077552483],[81.71942259263425,28.70929890712326],[81.7193571294549,28.70935798610602],[81.7181703631375,28.709887815486773],[81.71749022164549,28.710654220949436],[81.71735773066155,28.710930237721325],[81.71726794124095,28.711278213581153],[81.7172653729671,28.711650635561913],[81.71711193462379,28.712050876369243],[81.71687690500057,28.712302573103123],[81.71622965371448,28.712829595102104],[81.71538826741191,28.7133282953602],[81.71537576289964,28.713371244562357],[81.71490537953015,28.714691626907964],[81.71479219937316,28.715547501724743],[81.71449888861541,28.716463017462132],[81.714391967617,28.71692846527102],[81.71419738241889,28.717771272725805],[81.71394444578827,28.71981943363807],[81.71394024760076,28.720426486932325],[81.71414524942448,28.721393523137774],[81.71421394595055,28.722550863338434],[81.71459219820588,28.72367944856645],[81.71477550465528,28.724560833832665],[81.71527179734346,28.72590548405283],[81.71519950511225,28.726946163829048],[81.71486799746991,28.727516640169394],[81.71392694391386,28.728340809316165],[81.71365220624799,28.728978618411237],[81.71356878226372,28.73026762008609],[81.71367806225679,28.731081735425924],[81.7137635924115,28.731236969093416],[81.71568706241419,28.731513384388485],[81.7162809711602,28.731693068693687],[81.71757420599477,28.731814805803722],[81.71815210992388,28.731895210254198],[81.71864454393577,28.73201456380852],[81.71902818728984,28.732053078846825],[81.71977033882338,28.732277028024946],[81.72265028325906,28.73331323829469],[81.72311614555768,28.73338976602674],[81.72386561069347,28.733656540024526],[81.72469691921202,28.73399958726437],[81.72583302608717,28.73462984703959],[81.72848726294309,28.735504694703263],[81.72962693845363,28.735724146257386],[81.73081794504972,28.736058507053407],[81.73153396301636,28.736203619942387],[81.73388458460278,28.737129604718668],[81.7363358659173,28.738343925305617],[81.73732035807127,28.738609326359498],[81.73778997167719,28.738667723293517],[81.73799167084775,28.738765879393714],[81.73852424540377,28.738850972822032],[81.74074913842261,28.739366835614238],[81.74249454204231,28.739594233755454],[81.74482078681267,28.740037263971324],[81.74674444508948,28.740317742423667],[81.74694795794478,28.74039557977583],[81.74739468662487,28.74056463413811],[81.74756656141234,28.74069905000856],[81.74881114217624,28.741608393072468],[81.74932526752727,28.742070409182418],[81.75028761429344,28.74316855423603],[81.75069457620543,28.743495842385546],[81.75142252667703,28.744229690340624],[81.75249141306787,28.745442307929764],[81.75285510703465,28.745808106607466],[81.7535410453063,28.74638653361778],[81.75377650542936,28.746637921880787],[81.75499112689297,28.748348499637533],[81.75505496118716,28.748501608069766],[81.75550168238439,28.749194127985056],[81.75556489120221,28.74934723665611],[81.75562929005959,28.749405566997986],[81.7559060128727,28.749866643031528],[81.75607757461684,28.750039445517878],[81.75626914320782,28.750329469800853],[81.75673737022808,28.751155029325794],[81.75683977571056,28.751766022457716],[81.75698801464388,28.75209243226539],[81.75691942126174,28.752435781889556],[81.75696224901237,28.752514555524858],[81.75696030804185,28.752686106037398],[81.7568499506046,28.752914609591155],[81.75641165304906,28.753485772803117],[81.7561501765682,28.75371289899071],[81.75560696892475,28.753939334601213],[81.75508645848676,28.754032543444236],[81.75480428869054,28.75414469823669],[81.75460840100557,28.754238286585565],[81.75460758701283,28.754296990993737],[81.7546060849499,28.75444816021628],[81.75468522898979,28.755215010861082],[81.75476838037659,28.75555980107334],[81.75474361600068,28.75594135005149],[81.75465251331755,28.75636159692827],[81.7543860905179,28.75706717626009],[81.75429436492514,28.75730462020682],[81.75427491920412,28.757354384271565],[81.75387312612436,28.758552669204416],[81.75387737777358,28.75860681066509],[81.7539202614718,28.759145906027463],[81.75376882378868,28.759546209536587],[81.75370385387568,28.7601197527866],[81.7535528525814,28.76057869800871],[81.75346624827348,28.761265210698465],[81.75337996181976,28.761552294142128],[81.75316317593818,28.76275401939988],[81.75273099725327,28.763898350200055],[81.75270948357199,28.76430015541732],[81.75281770118664,28.76510289246199],[81.75296874768323,28.76580841330067],[81.75322833745726,28.766382397748757],[81.7535301959442,28.766782393429693],[81.75378966198515,28.767241343088003],[81.75394077979028,28.767414270290843],[81.75426414750791,28.767680976633045],[81.7553428558914,28.768444462336003],[81.75577426466702,28.768694790639373],[81.75629252011603,28.768904045446263],[81.75678876551154,28.769172003779357],[81.75702566457431,28.769342181511142],[81.75728451025768,28.769458093583808],[81.75771629701889,28.769573006493957],[81.75782427414808,28.769628836756716],[81.75849314759819,28.769859786952303],[81.75944275327325,28.770032722534843],[81.75961556745301,28.77010843441003],[81.75987466456911,28.770165641461656],[81.76013401220347,28.770166456870314],[81.76056561020224,28.770261051501393],[81.76099745980054,28.77029925542816],[81.76134252716645,28.770376281430142],[81.76246537922563,28.77094989956583],[81.76298325988887,28.771102700001343],[81.76350101472335,28.77133220978656],[81.76376017364494,28.77138941689833],[81.76401945845053,28.771390169769393],[81.76453765594738,28.771236130497076],[81.76479681774782,28.771121724898954],[81.76540136259469,28.77077981866777],[81.76600590622334,28.770530439220536],[81.76632984362074,28.770341324188795],[81.7666749123813,28.770244550259072],[81.7671065122602,28.770246554792962],[81.76736554764884,28.77020673403193],[81.76779758745943,28.77009364268708],[81.76848853998692,28.76974904851072],[81.76883385838049,28.7696929109034],[81.76917942792286,28.76957806833981],[81.76961128111147,28.76935000586547],[81.77004288382054,28.769178272859268],[81.77064736395546,28.769005540995828],[81.7707874794752,28.768991225933046]]]}},{"type":"Feature","properties":{"province":"Karnali Province","district":"Dailekh","municipality":"Dungeshwar Rural Municipality","ward":"4","wardNumber":4,"sourceMunicipality":"Dungeshwor","sourceType":"Gaunpalika"},"geometry":{"type":"Polygon","coordinates":[[[81.71538826741191,28.7133282953602],[81.71518731702787,28.71333610740315],[81.71395973061627,28.71332677925819],[81.71325840287713,28.713425300079603],[81.7120252431882,28.71399820462272],[81.71156375271569,28.714285033515505],[81.71114133821693,28.714655075661355],[81.71092693937918,28.715035309349354],[81.7107105914909,28.71625060139555],[81.71044485961978,28.716714609534147],[81.7102415304615,28.716927795094595],[81.71012079572185,28.71705483125873],[81.70961547690375,28.717289894300045],[81.70876020704826,28.718014285297304],[81.70807769601227,28.718356378245947],[81.70732971803977,28.718953795350505],[81.70648220614962,28.719321580617045],[81.70559280120793,28.71991974668791],[81.70526623512555,28.720282537208355],[81.70452675776258,28.721101018855602],[81.70370713389292,28.72133326546535],[81.70279553268016,28.721863786469726],[81.70242382570554,28.722188440471633],[81.7008584181228,28.72258472627792],[81.70008711858222,28.723256727582374],[81.69936301525154,28.72456260331016],[81.69909841037706,28.72490701367299],[81.69807682738883,28.725675039947948],[81.69634422387445,28.726640804356546],[81.69578869943564,28.726849047269408],[81.69491105344335,28.72711305259302],[81.69386896784279,28.727504343346236],[81.69214587205511,28.7281743959993],[81.69107220989336,28.72872829678555],[81.68863940746365,28.729521565158347],[81.68844539593346,28.729606024532053],[81.68802829690732,28.729935366988045],[81.68783721837764,28.73037418117408],[81.68780613398935,28.731103206645564],[81.68723903626034,28.731787651880342],[81.6864818657377,28.732486535781486],[81.68613729500332,28.73274792120368],[81.68564929539782,28.733000802869434],[81.68390925843414,28.733451977961224],[81.6826616575083,28.733943483140834],[81.68199202452881,28.73433265280683],[81.68160762452555,28.73466868415225],[81.68147188225902,28.734962706461143],[81.6815501564458,28.735285052567527],[81.68216038351137,28.735514376679124],[81.68567064152461,28.735577871086598],[81.68614450799853,28.735509981449002],[81.68738309966477,28.73550368080356],[81.68774473187419,28.73579070669539],[81.68790253735098,28.73603365449033],[81.6881195484554,28.736619266166],[81.68881329172433,28.73786145084844],[81.6892652051642,28.738344284863413],[81.68936949329154,28.738436313604044],[81.68943132815946,28.738492393275234],[81.68948484796448,28.73855078609803],[81.68953198973783,28.738618243835685],[81.68965322245768,28.738653755407388],[81.689292204182,28.73914758342769],[81.68891787256103,28.73936383083173],[81.68775812041413,28.739586445367216],[81.68754935290198,28.739675469609132],[81.68723010483919,28.73989377989712],[81.68685964497153,28.740421430481884],[81.68680024354218,28.740726394206213],[81.68675976970697,28.742170880269732],[81.68666597588417,28.74280331480922],[81.68643431936124,28.743305397281993],[81.68592461966443,28.743784157105942],[81.6851857123112,28.74414225386004],[81.68439165342674,28.744796186642805],[81.6835523816936,28.74606648806576],[81.68346321480374,28.746631152370316],[81.68362164491481,28.746973317335463],[81.6839389498905,28.74713192984955],[81.6843753630727,28.747197391282356],[81.68613508989816,28.747073374241374],[81.68763078176104,28.74681300203501],[81.6886141533722,28.74672217396927],[81.6896798098883,28.746389587655784],[81.69021770030537,28.74631232147025],[81.69073689591396,28.746316453277913],[81.69117193386224,28.746361658235745],[81.69207852159137,28.746670634102053],[81.69316949242692,28.7467846802486],[81.69496216118954,28.747274156203442],[81.69627965662825,28.747280922037486],[81.69733624088029,28.747410847172876],[81.69828840746356,28.747733139442953],[81.69912940932183,28.74789125779378],[81.69961821829568,28.747843623883472],[81.69974782974731,28.747883574396873],[81.70076046099055,28.747862516894276],[81.70098104437862,28.747823007809263],[81.70107895771731,28.747718665683017],[81.70172534275842,28.74654407816716],[81.70223329496129,28.74581937183552],[81.70234365403637,28.74546220536694],[81.70263883539366,28.74491229760911],[81.7029849715892,28.74449524083742],[81.70399330044415,28.74364143961655],[81.70510435377541,28.7429360566774],[81.70526541512699,28.742901424123875],[81.70836321642479,28.74223976316102],[81.70932396256302,28.741555510916672],[81.71032403766681,28.74073328098166],[81.71063559857859,28.74032766517706],[81.7112555997528,28.73905611151117],[81.71330407833122,28.7376461571864],[81.71501355130721,28.736468142836333],[81.71742922382938,28.735514327229005],[81.71887722085513,28.7344911049661],[81.720018089085,28.73442859913484],[81.72126410568656,28.73549830133978],[81.72191128793692,28.735409095106416],[81.72315980113491,28.736839966353113],[81.7238980118098,28.737140687682835],[81.72454375025161,28.737486983828042],[81.72629244916098,28.7390414580923],[81.72825906549986,28.73895870590571],[81.7310868082587,28.739640686817154],[81.73192442935225,28.740141654823454],[81.7333206902738,28.741248870514514],[81.7363893216863,28.74294496367634],[81.73720086863311,28.743554401420237],[81.73895851620233,28.744607666587402],[81.74006355012465,28.745073315356223],[81.74286334774283,28.745565615049838],[81.74391117632969,28.745819388101],[81.74574791552213,28.74691047859719],[81.74694817489919,28.747249152814035],[81.747151500965,28.74730667198166],[81.74855333574216,28.747729936362035],[81.74913342383377,28.748096800556468],[81.74988369764888,28.7487154897389],[81.75046103210737,28.749330614571925],[81.75056782039537,28.74948566111888],[81.75063065349866,28.74967715556567],[81.75073725434021,28.749812008151494],[81.75093076305268,28.749928232577076],[81.75138380649952,28.750065652338744],[81.75164302942584,28.750066530612465],[81.7518372892148,28.75010598175547],[81.75215990860991,28.75028022355122],[81.7526125140977,28.7504559678955],[81.7529351952981,28.750630209850126],[81.75319266444491,28.750825082450167],[81.75347214337258,28.750961187218493],[81.75366496338081,28.751151933300708],[81.75389967227972,28.751480094618834],[81.75413287815856,28.75194141951487],[81.75438339730502,28.752860754948664],[81.75442403400439,28.75316740761471],[81.75460840100557,28.754238286585565],[81.75480428869054,28.75414469823669],[81.75508645848676,28.754032543444236],[81.75560696892475,28.753939334601213],[81.7561501765682,28.75371289899071],[81.75641165304906,28.753485772803117],[81.7568499506046,28.752914609591155],[81.75696030804185,28.752686106037398],[81.75696224901237,28.752514555524858],[81.75691942126174,28.752435781889556],[81.75698801464388,28.75209243226539],[81.75683977571056,28.751766022457716],[81.75673737022808,28.751155029325794],[81.75626914320782,28.750329469800853],[81.75607757461684,28.750039445517878],[81.7559060128727,28.749866643031528],[81.75562929005959,28.749405566997986],[81.75556489120221,28.74934723665611],[81.75550168238439,28.749194127985056],[81.75505496118716,28.748501608069766],[81.75499112689297,28.748348499637533],[81.75377650542936,28.746637921880787],[81.7535410453063,28.74638653361778],[81.75285510703465,28.745808106607466],[81.75249141306787,28.745442307929764],[81.75142252667703,28.744229690340624],[81.75069457620543,28.743495842385546],[81.75028761429344,28.74316855423603],[81.74932526752727,28.742070409182418],[81.74881114217624,28.741608393072468],[81.74756656141234,28.74069905000856],[81.74739468662487,28.74056463413811],[81.74694795794478,28.74039557977583],[81.74674444508948,28.740317742423667],[81.74482078681267,28.740037263971324],[81.74249454204231,28.739594233755454],[81.74074913842261,28.739366835614238],[81.73852424540377,28.738850972822032],[81.73799167084775,28.738765879393714],[81.73778997167719,28.738667723293517],[81.73732035807127,28.738609326359498],[81.7363358659173,28.738343925305617],[81.73388458460278,28.737129604718668],[81.73153396301636,28.736203619942387],[81.73081794504972,28.736058507053407],[81.72962693845363,28.735724146257386],[81.72848726294309,28.735504694703263],[81.72583302608717,28.73462984703959],[81.72469691921202,28.73399958726437],[81.72386561069347,28.733656540024526],[81.72311614555768,28.73338976602674],[81.72265028325906,28.73331323829469],[81.71977033882338,28.732277028024946],[81.71902818728984,28.732053078846825],[81.71864454393577,28.73201456380852],[81.71815210992388,28.731895210254198],[81.71757420599477,28.731814805803722],[81.7162809711602,28.731693068693687],[81.71568706241419,28.731513384388485],[81.7137635924115,28.731236969093416],[81.71367806225679,28.731081735425924],[81.71356878226372,28.73026762008609],[81.71365220624799,28.728978618411237],[81.71392694391386,28.728340809316165],[81.71486799746991,28.727516640169394],[81.71519950511225,28.726946163829048],[81.71527179734346,28.72590548405283],[81.71477550465528,28.724560833832665],[81.71459219820588,28.72367944856645],[81.71421394595055,28.722550863338434],[81.71414524942448,28.721393523137774],[81.71394024760076,28.720426486932325],[81.71394444578827,28.71981943363807],[81.71419738241889,28.717771272725805],[81.714391967617,28.71692846527102],[81.71449888861541,28.716463017462132],[81.71479219937316,28.715547501724743],[81.71490537953015,28.714691626907964],[81.71537576289964,28.713371244562357],[81.71538826741191,28.7133282953602]]]}}]}