{"type":"FeatureCollection","features":[{"type":"Feature","properties":{"province":"Karnali Province","district":"Kalikot","municipality":"Narharinath Rural Municipality","ward":"2","wardNumber":2,"sourceMunicipality":"Naraharinath","sourceType":"Gaunpalika"},"geometry":{"type":"Polygon","coordinates":[[[81.57897656502232,29.1856344973417],[81.57947914527755,29.18468684979179],[81.5799146307076,29.184161387914468],[81.58057126051092,29.18374783679653],[81.58103807163023,29.183195243506642],[81.58179299115146,29.182654843079884],[81.58148969286647,29.182340247987206],[81.58068533597587,29.18164197053826],[81.57988496843068,29.181751493921613],[81.57902164483103,29.18154085900085],[81.57889641450404,29.181216450157443],[81.57849764601087,29.180726238771506],[81.57847145158716,29.180527805695995],[81.57804773547102,29.18006028888954],[81.57754742747673,29.179590832766127],[81.57750498418896,29.178886938172408],[81.57769281655126,29.178213679935677],[81.57750012108069,29.178013681318397],[81.57673190135544,29.177446068798332],[81.5760001360366,29.17660975243748],[81.57545913146556,29.175738802652173],[81.57503566583316,29.17530285727065],[81.57457424708616,29.174869349800797],[81.57403386784993,29.173998338562992],[81.57360871858027,29.173259991300505],[81.5738366834601,29.172990477563328],[81.57406396322277,29.17258786197448],[81.57371789852192,29.172320780254264],[81.5733525149206,29.172042568846106],[81.57311823541681,29.172215054325104],[81.57275308489572,29.173026787934635],[81.57226495056624,29.173787067841314],[81.57214570585063,29.174543538200993],[81.5718413933405,29.175192475476827],[81.57141459589934,29.175898364242027],[81.57086256660031,29.17638587594003],[81.57012603108141,29.176768167066783],[81.56951285430983,29.177255865500626],[81.56902340879222,29.177907801376882],[81.56902521609838,29.178246337733174],[81.56896350525848,29.178233082890035],[81.5687816796799,29.178719036398135],[81.56847736634907,29.179370223495823],[81.56798667374845,29.179803282242506],[81.56731571576712,29.180887029902863],[81.5669772037963,29.181411992600008],[81.56707236302205,29.18153796764034],[81.56732344669848,29.18229287980518],[81.56751331618253,29.183264667144744],[81.5677645849862,29.18418200188923],[81.56770705154219,29.18494047299698],[81.56782858841429,29.185526646677136],[81.56771035622045,29.185533959550465],[81.56765288689225,29.186184087665836],[81.56746981215639,29.18656169583019],[81.56759709972657,29.187265216685553],[81.56747548562113,29.187588434991863],[81.56698479442575,29.187915462716525],[81.56637099385692,29.188297129762063],[81.56600309921252,29.188621408133663],[81.56563545341403,29.189002077245796],[81.56502402199781,29.189814809187542],[81.56477930007763,29.190086573357714],[81.56428792096548,29.19041360119732],[81.56355038612786,29.190741687861514],[81.56299673724702,29.190850088283298],[81.56225739393787,29.19085320552547],[81.56145721455721,29.190910775365747],[81.56125232192532,29.191058253670032],[81.5611340914679,29.190954972114277],[81.56026470560346,29.19057722610764],[81.56017448413687,29.190537025950658],[81.5601430972096,29.190561969947574],[81.5596687914295,29.19060228917291],[81.5598425410904,29.19086561857385],[81.56019091359437,29.19143278901505],[81.56027806923994,29.191621969930438],[81.5600643588295,29.19192524407334],[81.55963394046938,29.192231703812748],[81.55946268560757,29.192421944891535],[81.55946411925514,29.19268595986647],[81.56011323595457,29.192985617934664],[81.5607188372621,29.193211004146217],[81.56106509050981,29.193399125933862],[81.56162810998316,29.193814192226398],[81.56244948143414,29.193998068007012],[81.56292359953274,29.193921613718107],[81.56335744666013,29.194260531107766],[81.56262397874119,29.194414754413266],[81.56189300710763,29.194871442832365],[81.56163671372295,29.19540278322287],[81.56107855775925,29.195860973101066],[81.56086372324398,29.19608753680706],[81.56095237387808,29.196542984542617],[81.56151639289655,29.197032572072693],[81.56221002266024,29.19759830817655],[81.56311911070068,29.19804801416165],[81.56368206792531,29.19846314215676],[81.56420444176315,29.19921686902312],[81.56416448020987,29.19978572367985],[81.56395070525939,29.200204093707686],[81.5639887195334,29.200208407738636],[81.56375268933604,29.20044184864488],[81.56348651481177,29.201151553411172],[81.56343923328961,29.202025059150067],[81.56303808121336,29.2020538131203],[81.56257059144495,29.202033239055364],[81.56205014479727,29.20199028213695],[81.56155470995544,29.201809598694922],[81.5611131039639,29.2018339759906],[81.56077522434387,29.20190536710671],[81.56041214754141,29.20206491007704],[81.56009984025494,29.202090976657548],[81.55978672517689,29.201862155257803],[81.55949936974118,29.20165790467882],[81.55910928404607,29.201684470306343],[81.55851143159262,29.201709533537784],[81.55767967775854,29.20175809992806],[81.55744708514801,29.202032114924272],[81.55708450675765,29.20228412280977],[81.55677338624727,29.202423097294258],[81.5569569511363,29.20272018586834],[81.55716627612577,29.203014900419145],[81.55721960566238,29.20324259271715],[81.55742911858141,29.20346966175034],[81.55779356852636,29.203560629908697],[81.55823473774015,29.203443725874877],[81.55852134463363,29.20353506871965],[81.5588347107226,29.20369168113427],[81.55922597958966,29.2039878974232],[81.5595647320693,29.204076740436758],[81.56008530346348,29.204144516303597],[81.56040092190638,29.204242485679607],[81.56040036017497,29.204147708672902],[81.5609403763214,29.204240241583527],[81.56164251699549,29.20433202687481],[81.56245325831502,29.204565605137315],[81.56331814483653,29.204798871174262],[81.56380202083359,29.204512480824572],[81.56403354932745,29.204281352915043],[81.56404367687371,29.20436931635762],[81.56480052297911,29.204603081006518],[81.56582653471413,29.204788272360997],[81.5662604441868,29.205115873843734],[81.56717922494623,29.20544373067726],[81.56777506982138,29.205867674639236],[81.56831751749098,29.206386645754353],[81.56875267390821,29.20695344226505],[81.56918676825745,29.20742321003953],[81.56989146528778,29.20798888451658],[81.57064912185183,29.208364753545872],[81.57146179456839,29.20902470709785],[81.57211508938222,29.210062206548514],[81.5730930675843,29.21119529999221],[81.57385359130777,29.212184912178394],[81.57418058229524,29.212704755457384],[81.57478104134331,29.213931997719197],[81.57521862817256,29.215020071886286],[81.57584659600258,29.21634196747049],[81.57639172547982,29.21733470246637],[81.57666631790555,29.218136878340896],[81.57693953638986,29.218799138579623],[81.57704331932743,29.21918900382675],[81.57733914006148,29.21781129043996],[81.57776131325919,29.21695429405632],[81.57806025349902,29.216016460582193],[81.57808509200738,29.21494670911371],[81.57804672272253,29.213611004565],[81.57801047522024,29.212541565865198],[81.57797722085267,29.212006908343902],[81.5782791558239,29.211497887869797],[81.57901614731284,29.209906054427904],[81.5790663552724,29.20979752295509],[81.57893656250224,29.20935801796833],[81.57897689425738,29.209100629632108],[81.57873123686606,29.209205470217803],[81.57853097416462,29.209156704174966],[81.5784378154538,29.209064613112737],[81.57838486004914,29.20891363086015],[81.57853223345087,29.20858578585477],[81.57878683707037,29.20811758947646],[81.57897460532567,29.207554864535687],[81.57898867851465,29.207191508134297],[81.57890953199858,29.20661865105338],[81.57873741193364,29.20607786582569],[81.57871159730651,29.205610853637484],[81.57879238210464,29.205341962556766],[81.57892587462558,29.205059319097888],[81.57910138080236,29.20494347420571],[81.57919042717957,29.204083347915002],[81.57953413836164,29.202892628201],[81.57993380110605,29.20215297863644],[81.58023255210198,29.201319049729978],[81.58143172394007,29.199373180832527],[81.58159441986832,29.198806015990343],[81.58161205229142,29.198745061242473],[81.58154359967229,29.198011970472045],[81.58118328977,29.19705674787895],[81.57977459586763,29.19524401262118],[81.57966830989241,29.194987248544308],[81.57971002335671,29.194285292935255],[81.57971052927446,29.193921999056727],[81.57949839465044,29.193358831626853],[81.57895995597636,29.192390790881284],[81.57874907033015,29.191938093383804],[81.57856163026874,29.19153497303401],[81.57834980745562,29.191021445011554],[81.57828403984229,29.190529737413375],[81.5782847975034,29.190085232036008],[81.57839247098258,29.18958152288064],[81.57865089203034,29.18888088254481],[81.57868065403056,29.188801797829363],[81.57876188050666,29.188275644327565],[81.57874913403636,29.187725107130294],[81.57864404122608,29.187093671048665],[81.5786980691491,29.186637663209023],[81.57875209316077,29.186413910287992],[81.57873415306004,29.18608912741006],[81.57897656502232,29.1856344973417]]]}},{"type":"Feature","properties":{"province":"Karnali Province","district":"Kalikot","municipality":"Narharinath Rural Municipality","ward":"1","wardNumber":1,"sourceMunicipality":"Naraharinath","sourceType":"Gaunpalika"},"geometry":{"type":"Polygon","coordinates":[[[81.58179299115146,29.182654843079884],[81.58216244750304,29.18239152010289],[81.58205830877168,29.180685956748942],[81.58205469177834,29.180054146121794],[81.58210861265779,29.17842916988045],[81.58241836484716,29.177741846820638],[81.58280034853952,29.176061295770456],[81.58292022114134,29.175097202242835],[81.58326154780029,29.174407441534754],[81.58371792279858,29.173496054701175],[81.58377413257989,29.17343710052776],[81.58455468993724,29.17267326045182],[81.58538334484919,29.170774088366723],[81.58550527129263,29.170493756957374],[81.58572166965457,29.17022649406575],[81.58588485775815,29.170099458382],[81.58650303734679,29.169613823148595],[81.58732835611873,29.169267168983712],[81.58745878171769,29.169151511251137],[81.58763172601584,29.16892288390209],[81.58780454810469,29.168464001585722],[81.58843986126125,29.167822570834282],[81.58871528236324,29.16754605486389],[81.58887047266339,29.16713918776476],[81.58751190295425,29.166630710129347],[81.58547188755561,29.16610259408447],[81.58459218816311,29.165465584079968],[81.58434947420655,29.165290592511774],[81.58387142775474,29.164633706940617],[81.58319312274972,29.163682232013134],[81.58283299629763,29.162988837010985],[81.58260079831977,29.162053247726394],[81.58251602901967,29.161151044209497],[81.58221623801721,29.160543050127394],[81.58134406265069,29.158500128076742],[81.58100450558013,29.157892320757615],[81.58022672838328,29.15673353447525],[81.57974731058188,29.155851019255167],[81.57973269200248,29.15506810258589],[81.57973013552026,29.154605467019746],[81.57972608246895,29.153887881497866],[81.58009742271237,29.153071645894666],[81.58014427422007,29.15168367721916],[81.5801569096262,29.151300002326423],[81.58011203132702,29.150415617525308],[81.57927943606818,29.148300299078766],[81.57917746741798,29.147763703549252],[81.57887318649094,29.1463410325626],[81.57856426799272,29.145579680871453],[81.57845154282785,29.145300284854716],[81.57788408753706,29.144610013176948],[81.57724754594115,29.143865849910757],[81.576513335461,29.143469600339984],[81.57565964664892,29.142848219819403],[81.57498190465884,29.141860485026587],[81.57443483019499,29.1413595814901],[81.5740578789397,29.141065616011772],[81.57278585126917,29.139978844559277],[81.57219100537402,29.139667746745907],[81.57187264115936,29.13926968829024],[81.57127823235957,29.139030798540663],[81.57024809515923,29.138809534740304],[81.56959435116455,29.138534696550572],[81.56880931448083,29.137876868577873],[81.56811312397416,29.137132955319604],[81.56709913093472,29.136096951860715],[81.56660126536032,29.13542206071253],[81.56519536204252,29.135080505727405],[81.5642049289948,29.13480710169158],[81.56441673637674,29.13629785407122],[81.56448625478136,29.13678724850192],[81.56372607627017,29.137846550045165],[81.56252698420043,29.138668527024777],[81.56182082650112,29.139632738664172],[81.56182687411254,29.140736187825382],[81.56106488804468,29.141364488490286],[81.55964527929086,29.14194582967986],[81.55817838239398,29.143777599210292],[81.55810239900791,29.14493099907358],[81.55810944441468,29.14622625454674],[81.55800775924943,29.147621286895568],[81.55785130162315,29.14910903444063],[81.55692967941319,29.150649600311493],[81.5568781501733,29.15122751932877],[81.55753901283796,29.15208902943014],[81.55787287355803,29.153096329079624],[81.55829032574997,29.15434244935949],[81.5584065993313,29.155639456081452],[81.55907026995564,29.156884641698184],[81.55923875742775,29.15774820968663],[81.56028544661358,29.15908867783052],[81.56154691763022,29.159516755936757],[81.56193274208857,29.16014019323058],[81.56161359711159,29.16172565419854],[81.56178114987833,29.162397416085334],[81.56236260173485,29.16364285106254],[81.56225649027922,29.164221018950485],[81.56094985100258,29.16542698249353],[81.56068154598756,29.166436775484932],[81.5610399867569,29.166985940241812],[81.5613991144887,29.16753729373128],[81.56134908006933,29.16849876343627],[81.56053344343857,29.16946128552139],[81.55988554999047,29.171002917582452],[81.55934214551613,29.171675421130235],[81.56005752902368,29.172489355462968],[81.5598683262899,29.172923417975344],[81.5597622142977,29.17349927347396],[81.55856237273402,29.174273799247366],[81.55730632663335,29.174759676519514],[81.55722404131669,29.174992431637786],[81.55698275176451,29.175672690418256],[81.5561670533212,29.176637401205173],[81.55480558107124,29.177843551858583],[81.55563063204076,29.178607348355843],[81.5548718850584,29.18000281046395],[81.55525814762223,29.1805789217564],[81.55652229962979,29.181582355661575],[81.55639291576564,29.182975200517426],[81.55749892910991,29.185035380808838],[81.55711939983047,29.18570938643407],[81.55619540633869,29.18686640254286],[81.55614462664495,29.187586425337663],[81.5560391360603,29.1884037883672],[81.5557645910909,29.18864635627717],[81.55638337985629,29.189174081124456],[81.55747484417721,29.18997064029642],[81.55782359909048,29.1901226264286],[81.55814884761698,29.190121255319113],[81.55860664556843,29.19012157258254],[81.5586940540565,29.190121199107747],[81.55939012981706,29.19019504130648],[81.56017448413687,29.190537025950658],[81.56026470560346,29.19057722610764],[81.5611340914679,29.190954972114277],[81.56125232192532,29.191058253670032],[81.56145721455721,29.190910775365747],[81.56225739393787,29.19085320552547],[81.56299673724702,29.190850088283298],[81.56355038612786,29.190741687861514],[81.56428792096548,29.19041360119732],[81.56477930007763,29.190086573357714],[81.56502402199781,29.189814809187542],[81.56563545341403,29.189002077245796],[81.56600309921252,29.188621408133663],[81.56637099385692,29.188297129762063],[81.56698479442575,29.187915462716525],[81.56747548562113,29.187588434991863],[81.56759709972657,29.187265216685553],[81.56746981215639,29.18656169583019],[81.56765288689225,29.186184087665836],[81.56771035622045,29.185533959550465],[81.56782858841429,29.185526646677136],[81.56770705154219,29.18494047299698],[81.5677645849862,29.18418200188923],[81.56751331618253,29.183264667144744],[81.56732344669848,29.18229287980518],[81.56707236302205,29.18153796764034],[81.5669772037963,29.181411992600008],[81.56731571576712,29.180887029902863],[81.56798667374845,29.179803282242506],[81.56847736634907,29.179370223495823],[81.5687816796799,29.178719036398135],[81.56896350525848,29.178233082890035],[81.56902521609838,29.178246337733174],[81.56902340879222,29.177907801376882],[81.56951285430983,29.177255865500626],[81.57012603108141,29.176768167066783],[81.57086256660031,29.17638587594003],[81.57141459589934,29.175898364242027],[81.5718413933405,29.175192475476827],[81.57214570585063,29.174543538200993],[81.57226495056624,29.173787067841314],[81.57275308489572,29.173026787934635],[81.57311823541681,29.172215054325104],[81.5733525149206,29.172042568846106],[81.57371789852192,29.172320780254264],[81.57406396322277,29.17258786197448],[81.5738366834601,29.172990477563328],[81.57360871858027,29.173259991300505],[81.57403386784993,29.173998338562992],[81.57457424708616,29.174869349800797],[81.57503566583316,29.17530285727065],[81.57545913146556,29.175738802652173],[81.5760001360366,29.17660975243748],[81.57673190135544,29.177446068798332],[81.57750012108069,29.178013681318397],[81.57769281655126,29.178213679935677],[81.57750498418896,29.178886938172408],[81.57754742747673,29.179590832766127],[81.57804773547102,29.18006028888954],[81.57847145158716,29.180527805695995],[81.57849764601087,29.180726238771506],[81.57889641450404,29.181216450157443],[81.57902164483103,29.18154085900085],[81.57988496843068,29.181751493921613],[81.58068533597587,29.18164197053826],[81.58148969286647,29.182340247987206],[81.58179299115146,29.182654843079884]]]}},{"type":"Feature","properties":{"province":"Karnali Province","district":"Kalikot","municipality":"Narharinath Rural Municipality","ward":"3","wardNumber":3,"sourceMunicipality":"Naraharinath","sourceType":"Gaunpalika"},"geometry":{"type":"Polygon","coordinates":[[[81.57695809318163,29.219586619700515],[81.57697816534436,29.219493967991564],[81.57704331932743,29.21918900382675],[81.57693953638986,29.218799138579623],[81.57666631790555,29.218136878340896],[81.57639172547982,29.21733470246637],[81.57584659600258,29.21634196747049],[81.57521862817256,29.215020071886286],[81.57478104134331,29.213931997719197],[81.57418058229524,29.212704755457384],[81.57385359130777,29.212184912178394],[81.5730930675843,29.21119529999221],[81.57211508938222,29.210062206548514],[81.57146179456839,29.20902470709785],[81.57064912185183,29.208364753545872],[81.56989146528778,29.20798888451658],[81.56918676825745,29.20742321003953],[81.56875267390821,29.20695344226505],[81.56831751749098,29.206386645754353],[81.56777506982138,29.205867674639236],[81.56717922494623,29.20544373067726],[81.5662604441868,29.205115873843734],[81.56582653471413,29.204788272360997],[81.56480052297911,29.204603081006518],[81.56404367687371,29.20436931635762],[81.56403354932745,29.204281352915043],[81.56380202083359,29.204512480824572],[81.56331814483653,29.204798871174262],[81.56245325831502,29.204565605137315],[81.56164251699549,29.20433202687481],[81.5609403763214,29.204240241583527],[81.56040036017497,29.204147708672902],[81.56040092190638,29.204242485679607],[81.56008530346348,29.204144516303597],[81.5595647320693,29.204076740436758],[81.55922597958966,29.2039878974232],[81.5588347107226,29.20369168113427],[81.55852134463363,29.20353506871965],[81.55823473774015,29.203443725874877],[81.55779356852636,29.203560629908697],[81.55742911858141,29.20346966175034],[81.55721960566238,29.20324259271715],[81.55716627612577,29.203014900419145],[81.5569569511363,29.20272018586834],[81.55677338624727,29.202423097294258],[81.55708450675765,29.20228412280977],[81.55744708514801,29.202032114924272],[81.55767967775854,29.20175809992806],[81.55851143159262,29.201709533537784],[81.55910928404607,29.201684470306343],[81.55949936974118,29.20165790467882],[81.55978672517689,29.201862155257803],[81.56009984025494,29.202090976657548],[81.56041214754141,29.20206491007704],[81.56077522434387,29.20190536710671],[81.5611131039639,29.2018339759906],[81.56155470995544,29.201809598694922],[81.56205014479727,29.20199028213695],[81.56257059144495,29.202033239055364],[81.56303808121336,29.2020538131203],[81.56343923328961,29.202025059150067],[81.56348651481177,29.201151553411172],[81.56375268933604,29.20044184864488],[81.5639887195334,29.200208407738636],[81.56395070525939,29.200204093707686],[81.56416448020987,29.19978572367985],[81.56420444176315,29.19921686902312],[81.56368206792531,29.19846314215676],[81.56311911070068,29.19804801416165],[81.56221002266024,29.19759830817655],[81.56151639289655,29.197032572072693],[81.56095237387808,29.196542984542617],[81.56086372324398,29.19608753680706],[81.56107855775925,29.195860973101066],[81.56163671372295,29.19540278322287],[81.56189300710763,29.194871442832365],[81.56262397874119,29.194414754413266],[81.56335744666013,29.194260531107766],[81.56292359953274,29.193921613718107],[81.56244948143414,29.193998068007012],[81.56162810998316,29.193814192226398],[81.56106509050981,29.193399125933862],[81.5607188372621,29.193211004146217],[81.56011323595457,29.192985617934664],[81.55946411925514,29.19268595986647],[81.55946268560757,29.192421944891535],[81.55963394046938,29.192231703812748],[81.5600643588295,29.19192524407334],[81.56027806923994,29.191621969930438],[81.56019091359437,29.19143278901505],[81.5598425410904,29.19086561857385],[81.5596687914295,29.19060228917291],[81.5601430972096,29.190561969947574],[81.56017448413687,29.190537025950658],[81.55939012981706,29.19019504130648],[81.5586940540565,29.190121199107747],[81.55860664556843,29.19012157258254],[81.55814884761698,29.190121255319113],[81.55782359909048,29.1901226264286],[81.55747484417721,29.18997064029642],[81.55638337985629,29.189174081124456],[81.5557645910909,29.18864635627717],[81.55538581706244,29.188981888018958],[81.5549682163892,29.18927928285414],[81.55429507856151,29.189755914507064],[81.55370002170504,29.191006274270595],[81.55307346310742,29.1915369853892],[81.55159845759268,29.19212070154524],[81.55122892479667,29.193232460578677],[81.55116752392917,29.193417763658395],[81.55023872891009,29.19371046421523],[81.54871238226073,29.194917237346722],[81.54779019576293,29.19645774063489],[81.54763230369039,29.197708542854375],[81.54780147949684,29.198572110780212],[81.54867086289563,29.19918461374314],[81.54895484287616,29.19938423787573],[81.5488496652629,29.20015189915031],[81.54786610085397,29.20044478566146],[81.5471071862013,29.200526926067454],[81.54556809968716,29.200693394386917],[81.54538471494395,29.200910768326704],[81.5449967483289,29.20136820991571],[81.54445471529195,29.20233173667079],[81.54347040185736,29.202480143326042],[81.54243231313542,29.202915383379466],[81.5419995093265,29.203878410799533],[81.54207766306371,29.203941305479322],[81.54331874331616,29.20492917259805],[81.54370986935976,29.206416863124403],[81.54459018643736,29.20750775576729],[81.54497483571723,29.207287321504488],[81.54553455025724,29.207097709951483],[81.54657069535001,29.207016761106587],[81.54734767648782,29.20705190493556],[81.54812671578296,29.207463972727957],[81.54851648519083,29.20772861722002],[81.54938292982489,29.208255344585993],[81.5500831920033,29.208489421487755],[81.5507234946971,29.208703429605734],[81.55102654461345,29.20885335223548],[81.55120216393173,29.209459657567276],[81.55155053763617,29.210026827366402],[81.55207284921227,29.21078061724733],[81.55250762952089,29.211385862355616],[81.5528137354126,29.212104451826455],[81.55280291596631,29.212248932097527],[81.55275045788409,29.21229425692104],[81.55188881273885,29.21267467138176],[81.55171867736348,29.213205699410455],[81.55159087490773,29.21347246389719],[81.5512463667181,29.21362506709336],[81.55094736903698,29.214231116088122],[81.55077966649029,29.21510280777348],[81.55078403081349,29.215899354051764],[81.55108720411219,29.216200508435726],[81.55169573601815,29.216956174658577],[81.55252059920042,29.217747104027296],[81.55317108795857,29.218274703481345],[81.55338897652685,29.218727339144518],[81.55344999539268,29.218955031416677],[81.55412563018946,29.21878073865325],[81.55468571954545,29.218656521197083],[81.55528376049202,29.218523176585446],[81.55534153300235,29.218509360523598],[81.5560613701637,29.2184251568206],[81.55634028825123,29.218392400400013],[81.55699203705178,29.218315198380196],[81.55858295211601,29.218412308562055],[81.55899123065416,29.218500901802496],[81.55971994598266,29.218409883129187],[81.5605989656039,29.218498669815265],[81.56120769381663,29.21868791997071],[81.56207677243252,29.21872262802896],[81.56256652143045,29.218677683226062],[81.56294516607774,29.218644490598194],[81.56346736075973,29.218872501488832],[81.564250586313,29.219444615760608],[81.5649030790171,29.21974871218135],[81.56559846750689,29.21978416849904],[81.56646673590527,29.219667644506224],[81.5669882465005,29.21966540031425],[81.56751000448537,29.219816638535153],[81.5682056424321,29.219892668781558],[81.5687276490158,29.22019732644458],[81.56937995652208,29.22034800396016],[81.57076992260794,29.22026762115975],[81.57163881680326,29.22015103510721],[81.57233357946745,29.220188679080007],[81.57337734726055,29.220414382843956],[81.57355097528823,29.220413634897096],[81.57376118114647,29.2203925053872],[81.57394043671904,29.220362311955224],[81.57424924279154,29.22027522706838],[81.57477006727333,29.22013087833525],[81.575225680037,29.21995739514241],[81.57576257338673,29.219826425729362],[81.57605624793086,29.219782291742046],[81.57636511712293,29.219708773345406],[81.57660933482374,29.21966482612116],[81.57695809318163,29.219586619700515]]]}},{"type":"Feature","properties":{"province":"Karnali Province","district":"Kalikot","municipality":"Narharinath Rural Municipality","ward":"4","wardNumber":4,"sourceMunicipality":"Naraharinath","sourceType":"Gaunpalika"},"geometry":{"type":"Polygon","coordinates":[[[81.57694552475267,29.223763531980318],[81.5769317742374,29.223486075755183],[81.5765818468343,29.222316415408404],[81.57654384080166,29.221745685188377],[81.57681239891608,29.22055984047156],[81.57693920505066,29.219999615854057],[81.57695809318163,29.219586619700515],[81.57660933482374,29.21966482612116],[81.57636511712293,29.219708773345406],[81.57605624793086,29.219782291742046],[81.57576257338673,29.219826425729362],[81.575225680037,29.21995739514241],[81.57477006727333,29.22013087833525],[81.57424924279154,29.22027522706838],[81.57394043671904,29.220362311955224],[81.57376118114647,29.2203925053872],[81.57355097528823,29.220413634897096],[81.57337734726055,29.220414382843956],[81.57233357946745,29.220188679080007],[81.57163881680326,29.22015103510721],[81.57076992260794,29.22026762115975],[81.56937995652208,29.22034800396016],[81.5687276490158,29.22019732644458],[81.5682056424321,29.219892668781558],[81.56751000448537,29.219816638535153],[81.5669882465005,29.21966540031425],[81.56646673590527,29.219667644506224],[81.56559846750689,29.21978416849904],[81.5649030790171,29.21974871218135],[81.564250586313,29.219444615760608],[81.56346736075973,29.218872501488832],[81.56294516607774,29.218644490598194],[81.56256652143045,29.218677683226062],[81.56207677243252,29.21872262802896],[81.56120769381663,29.21868791997071],[81.5605989656039,29.218498669815265],[81.55971994598266,29.218409883129187],[81.55899123065416,29.218500901802496],[81.55858295211601,29.218412308562055],[81.55699203705178,29.218315198380196],[81.55634028825123,29.218392400400013],[81.5560613701637,29.2184251568206],[81.55534153300235,29.218509360523598],[81.55528376049202,29.218523176585446],[81.55468571954545,29.218656521197083],[81.55412563018946,29.21878073865325],[81.55344999539268,29.218955031416677],[81.55338897652685,29.218727339144518],[81.55317108795857,29.218274703481345],[81.55252059920042,29.217747104027296],[81.55169573601815,29.216956174658577],[81.55108720411219,29.216200508435726],[81.55078403081349,29.215899354051764],[81.55077966649029,29.21510280777348],[81.55094736903698,29.214231116088122],[81.5512463667181,29.21362506709336],[81.55159087490773,29.21347246389719],[81.55171867736348,29.213205699410455],[81.55188881273885,29.21267467138176],[81.55275045788409,29.21229425692104],[81.55280291596631,29.212248932097527],[81.5528137354126,29.212104451826455],[81.55250762952089,29.211385862355616],[81.55207284921227,29.21078061724733],[81.55155053763617,29.210026827366402],[81.55120216393173,29.209459657567276],[81.55102654461345,29.20885335223548],[81.5507234946971,29.208703429605734],[81.5500831920033,29.208489421487755],[81.54938292982489,29.208255344585993],[81.54851648519083,29.20772861722002],[81.54812671578296,29.207463972727957],[81.54734767648782,29.20705190493556],[81.54657069535001,29.207016761106587],[81.54553455025724,29.207097709951483],[81.54497483571723,29.207287321504488],[81.54459018643736,29.20750775576729],[81.54486722312667,29.207851859953188],[81.54498187591294,29.208860094899578],[81.54449442638237,29.20982337166748],[81.54394796732488,29.209970033122605],[81.54263372016631,29.209878365486492],[81.54224745876557,29.209191659715625],[81.5397789153805,29.207998905475293],[81.53861792722206,29.20708293489938],[81.53841918137041,29.20595772767398],[81.5377940833006,29.20509590543309],[81.53556873486919,29.20536889578012],[81.53505110229584,29.20525141826852],[81.53449476450521,29.20535519217615],[81.53371427854194,29.205509477260307],[81.53273746315492,29.20599404588942],[81.53157925841185,29.20698019562326],[81.53061288587227,29.20736548486762],[81.52944062059994,29.20787562083364],[81.52879599253409,29.208440028291133],[81.52829666690967,29.209132537836027],[81.52779727989437,29.209800227843488],[81.52703504218968,29.210518554159506],[81.52553914034709,29.211876122101522],[81.52515761422765,29.21233800303115],[81.52498053971672,29.21279901136958],[81.52465602513615,29.213851878433193],[81.52415682409047,29.21457139598751],[81.5234670499539,29.215379749916053],[81.522380174097,29.217022281377414],[81.5219966329067,29.218357417883613],[81.52177621882554,29.219533948306015],[81.52141438674795,29.219964069567126],[81.52084966725387,29.22033410862088],[81.52023499386434,29.220487709429396],[81.51909293273953,29.220638864346412],[81.5178042482674,29.22117638159549],[81.51783225754755,29.221250779099172],[81.51765124036616,29.221957796743443],[81.51608622686562,29.224845499851124],[81.51470228139068,29.227694131358994],[81.5142176529986,29.228163075597028],[81.51349642277815,29.229384424833444],[81.51245007758317,29.230045106276016],[81.51061030964897,29.230519285748358],[81.50965112129033,29.23124729983575],[81.5085716439959,29.231610205794425],[81.50828027714547,29.231992689652287],[81.50795889065074,29.23294621478489],[81.50791285981367,29.233788086105456],[81.50777204566367,29.234438525717298],[81.50772150730172,29.235666259726266],[81.50832853024937,29.236932138417988],[81.50828763944588,29.236984216035317],[81.50871429988071,29.23703223475442],[81.50958275509309,29.237028932439944],[81.51036255825805,29.236567868678776],[81.51114254594142,29.236260225584896],[81.51201081556222,29.23610569106903],[81.51296362233772,29.235643941709842],[81.51357222571892,29.235795056248023],[81.51461300222623,29.235409705902402],[81.51556393848915,29.23456884526726],[81.51599473772337,29.233881148554424],[81.51650633839758,29.231897885527484],[81.51762816053399,29.230521557924583],[81.5188386379609,29.229375049086133],[81.51962049603995,29.229448704712816],[81.52074880042053,29.229367632298345],[81.52178913947041,29.228905446861905],[81.52291401543143,29.228140548604813],[81.5242155151242,29.22783084802741],[81.52621196370247,29.227592801978577],[81.5272538588756,29.227588689073706],[81.52864725208319,29.22826915484996],[81.52925392372973,29.228038844595467],[81.53047206762128,29.228415345177055],[81.53177549798959,29.228486881426495],[81.53316433922693,29.228404561201522],[81.53463865534805,29.227940630405936],[81.5351514828917,29.22748731626904],[81.53593828225974,29.227402925882476],[81.53654987973805,29.228009736182177],[81.5368127857219,29.22846674813408],[81.53698840839978,29.22884511143037],[81.53733934353322,29.2295296908699],[81.53768940587679,29.23006310229596],[81.53769302124745,29.230746864954128],[81.53726128733702,29.23120668200868],[81.53700193540361,29.231435621699806],[81.53709395516022,29.232425912801762],[81.53692313182303,29.232959129370222],[81.53632007629433,29.233877704621865],[81.53580324143098,29.234793717147497],[81.53563235514625,29.235326933928558],[81.53520292836198,29.236242572145823],[81.53486084580035,29.23723460937439],[81.53477749040415,29.2379209346333],[81.53509855185244,29.237806779646636],[81.53564426220983,29.237612791535515],[81.53596920189129,29.237381352586173],[81.53607686837238,29.23730645721311],[81.53624320533915,29.235782574940117],[81.53719114876743,29.234406744760904],[81.5384010648148,29.233183338236053],[81.5395262528682,29.232492774207678],[81.54065368669663,29.232106861691385],[81.54117226502481,29.231646670431992],[81.54047338565837,29.23096577528508],[81.53933978197242,29.230056432125163],[81.53916091693942,29.22906651485882],[81.53945879314854,29.22821464328969],[81.5396786852551,29.228455153657347],[81.53994321182435,29.229214567338584],[81.540379308952,29.229594183837197],[81.54142151770301,29.22951323540938],[81.5427235136773,29.229431226773514],[81.54420107152998,29.229578662200332],[81.54541765756578,29.22965038587213],[81.54672008904336,29.22964508677472],[81.54699738381684,29.229551375074525],[81.54810756050956,29.229181342165703],[81.54941099184785,29.22925262941098],[81.55045132906704,29.2289436758388],[81.55149160334139,29.22863478491521],[81.5528793862018,29.228247687892996],[81.55391991162435,29.2278620249345],[81.55513468710961,29.227705680907455],[81.55747789435765,29.22739136612432],[81.55834023982896,29.226169205609118],[81.55921056436337,29.226544700738376],[81.56059953192684,29.226387608813027],[81.56233438224821,29.226075725103843],[81.56337815028965,29.226299241168185],[81.56407154217385,29.226068369276668],[81.56502597017415,29.225834186669793],[81.56589554682796,29.22606063788849],[81.56693482270495,29.225598202113602],[81.56814891426392,29.2252116655469],[81.56910527427866,29.22543774304202],[81.57049505137765,29.22543182032605],[81.57153588848016,29.225122742351143],[81.57257479097245,29.224583471478873],[81.57326687297162,29.224124657122175],[81.57474175078438,29.223813708598733],[81.5757842083078,29.22380921893345],[81.57694552475267,29.223763531980318]]]}},{"type":"Feature","properties":{"province":"Karnali Province","district":"Kalikot","municipality":"Narharinath Rural Municipality","ward":"9","wardNumber":9,"sourceMunicipality":"Naraharinath","sourceType":"Gaunpalika"},"geometry":{"type":"Polygon","coordinates":[[[81.5239260669656,29.173344488914697],[81.52427163457192,29.173424391275006],[81.52615946628198,29.17401046123686],[81.52663996030186,29.174069483546788],[81.52722861513908,29.17441015363088],[81.52927124598828,29.175604841159892],[81.52994818668958,29.17585260941113],[81.5315493546504,29.17595459562909],[81.53220741694804,29.17590458853567],[81.5335410484368,29.175854152388006],[81.533824969094,29.17580557937054],[81.53475969666732,29.175941755367777],[81.53500660317454,29.17594757269875],[81.53664472314055,29.175981602277904],[81.53703556156256,29.17585369405283],[81.53805062996429,29.17610009114358],[81.53947478987098,29.176392193285846],[81.54005425533315,29.176685474053706],[81.5407680819278,29.177104543338498],[81.54107038316148,29.17713493064738],[81.54149798122415,29.177273101559834],[81.54189813389675,29.177217339884706],[81.54254644370627,29.17712894636316],[81.54280235450769,29.177028607877197],[81.54232331141203,29.17615271971628],[81.54185252340542,29.17513472772362],[81.54153617280481,29.17391061536725],[81.54153118593372,29.172958335923287],[81.54160397792965,29.172005807273557],[81.54183139016104,29.171122551244007],[81.54182721365888,29.17033725827849],[81.54213620828614,29.170169025095205],[81.54260082422482,29.17003174066575],[81.54283216371381,29.16989313949838],[81.54275251570313,29.169417312112298],[81.54275002246442,29.168941235102476],[81.54305876754478,29.168736865529596],[81.54352250886167,29.168531874219287],[81.54383187730487,29.16846291946022],[81.54380161776638,29.16833213099283],[81.54375297725,29.16812256919477],[81.54344067730922,29.16778302844676],[81.54340197537714,29.16774933007936],[81.54374612018465,29.166829502369183],[81.54459276861202,29.16587604513831],[81.54544004191074,29.16492027453024],[81.54659780590148,29.16409867290375],[81.54744913171292,29.163892121826688],[81.54853404319643,29.163887633930184],[81.54946383198762,29.163951475994203],[81.55078189083828,29.16414917492178],[81.55127938873376,29.164377309954936],[81.55132478333623,29.16421457532379],[81.55170918684259,29.163736939821582],[81.55178328780902,29.163057366157517],[81.55108153348854,29.162243369384928],[81.55061467584012,29.161839119656747],[81.54975948504963,29.161298888635926],[81.54874867453506,29.160621491127074],[81.5478931100281,29.16001348960527],[81.54703760747722,29.159405426361868],[81.5464943433494,29.15913459017891],[81.54548428101332,29.15859485786167],[81.54470662090397,29.15798654440908],[81.5439296435673,29.157648936547595],[81.54330510949363,29.1567014633418],[81.54275978554944,29.156157547477573],[81.54244854675485,29.155888027461543],[81.54198312300066,29.155754545409746],[81.54136282702328,29.15561937290446],[81.54120758192903,29.155552351676455],[81.54105127658684,29.155282145945502],[81.54128043487634,29.154737426036778],[81.54127900086912,29.154464346040353],[81.54081251647455,29.15412549068765],[81.5404239348254,29.153923989375556],[81.53980195634888,29.15345034354103],[81.53902703919903,29.15338575252252],[81.53747645441692,29.153188926441405],[81.53584983784333,29.15319547148454],[81.53430099868993,29.153337057049733],[81.53290765566881,29.15347801959938],[81.53199305729383,29.153596730526168],[81.53199199357681,29.153630615394917],[81.53195929007842,29.153897005693583],[81.53198972823732,29.154567077876745],[81.53196633591456,29.155135869092454],[81.5319623327861,29.155235148520898],[81.5313879215035,29.155641385996653],[81.53067264204407,29.15615421534447],[81.52979429692456,29.156958815518646],[81.52923019912554,29.157500342652853],[81.52827626427151,29.15821947955261],[81.52732964541832,29.158882162452645],[81.52645186423074,29.15954453434247],[81.52559571778508,29.16017970968733],[81.52430609295882,29.16087983720388],[81.52329839049894,29.161409542757106],[81.52262344266089,29.161655919828174],[81.52238009948286,29.161706493772833],[81.5217092202764,29.16173399388686],[81.52078949843028,29.16162695203514],[81.52029218631577,29.161531918270228],[81.51977249031064,29.161463954314748],[81.5195781668833,29.161426378379637],[81.5187839904384,29.161479071970973],[81.518199453561,29.161677685180535],[81.51800431404821,29.161861236702475],[81.51764048489116,29.162110868156116],[81.51754888670254,29.16217438587987],[81.5169561594186,29.162280472292746],[81.51625827171819,29.16217937180561],[81.51569030729061,29.162107094137532],[81.51523651476946,29.161849325393252],[81.5147505219881,29.161578177281864],[81.51413410359511,29.1614473811455],[81.51384192892678,29.161504957632978],[81.51243976770495,29.161828535296138],[81.51214753325911,29.161743882477182],[81.51182372597391,29.161514936072255],[81.51120881740685,29.16078615279689],[81.51114498519276,29.16048631323619],[81.51087020114618,29.16002923842572],[81.51064267874851,29.159915014677807],[81.51017237459791,29.15994389318645],[81.50973345625953,29.1600854915962],[81.50892120609358,29.160381944039575],[81.5081581034972,29.160481901063722],[81.50728939760454,29.160541595979794],[81.50652742430428,29.160341402604605],[81.50608957406517,29.16018285121592],[81.50565172037456,29.16015515011275],[81.50503442286437,29.1602386673023],[81.50410919650867,29.160307676333176],[81.50268090451006,29.160290466476454],[81.50152321659222,29.16027451031042],[81.49876373185904,29.160368379478236],[81.49770851824812,29.16040837837562],[81.49769782665648,29.160440450603605],[81.49765274467319,29.160562110165337],[81.49762398311026,29.160638507707652],[81.49759315740715,29.160722031104918],[81.49756489532699,29.16079724073086],[81.4975381971772,29.16085050635294],[81.49752575389708,29.16087520099881],[81.49749743027812,29.160931404509533],[81.49747216928425,29.160981481495252],[81.49744634653187,29.16103280836403],[81.49741914748897,29.161086886510038],[81.4973919495521,29.161141214580326],[81.49736512619208,29.16119416746131],[81.49734092876261,29.161242556404805],[81.49731497982329,29.16129357052606],[81.49728940705761,29.16134458535111],[81.49726727280277,29.161388598322745],[81.49724945359365,29.161406415167942],[81.4972018723971,29.16145474175419],[81.49717830033599,29.161478560870897],[81.49712871849943,29.161528762734736],[81.4971030205885,29.161554831925486],[81.49707638509499,29.161581965341572],[81.49702930448247,29.161629352991643],[81.49698497407864,29.161674428218333],[81.4969649666897,29.161694434397422],[81.49695464969136,29.161704937319133],[81.49694733398911,29.161717315146884],[81.49693182811208,29.161744135852324],[81.49691719719657,29.16176895556999],[81.49690494226313,29.161789898687207],[81.49689493842358,29.161807028732838],[81.49688199485503,29.16182940972889],[81.49687055294147,29.16184904088642],[81.49685560977402,29.16187448540388],[81.49684935675648,29.16188530151156],[81.49684791857003,29.161886239102632],[81.49684791856106,29.161887426403702],[81.49673381181051,29.16195325698221],[81.49671574103758,29.162070666110722],[81.49556178084637,29.163494382195633],[81.4951475437197,29.16463096109043],[81.49506942702428,29.166165784689767],[81.49494286430891,29.16710724684116],[81.49464586614211,29.16778531737771],[81.4941956258272,29.16825182350685],[81.4939801632701,29.16863399597958],[81.49405760932159,29.169906432607593],[81.49394917393498,29.17115023335984],[81.49354399981254,29.172451547174354],[81.49351210173545,29.17316925760113],[81.49340005105262,29.17366833979013],[81.49335490157075,29.17416723642482],[81.4937213962567,29.175393475505203],[81.49377760119079,29.17558053040813],[81.49360783324049,29.1766372762577],[81.49386672980091,29.177534417534993],[81.49479239290407,29.177533303074963],[81.49624412815851,29.177697119115496],[81.4968473546226,29.177873178243626],[81.49734424485838,29.176952851408924],[81.49772520882027,29.176479842709494],[81.49807184588387,29.176117490171663],[81.49824941305197,29.176146125872],[81.49851564080063,29.176030094874637],[81.4989014142193,29.175911315181647],[81.49919871492763,29.17584473619406],[81.4998502778945,29.175652750070082],[81.50020535307644,29.17543475374766],[81.50041499748424,29.175307655651046],[81.50102298439498,29.174885602069434],[81.50113140124596,29.17484459109185],[81.50154405996085,29.174694115167583],[81.50210940047161,29.174615286154786],[81.50274195494522,29.174497822080355],[81.502935904503,29.1744609382865],[81.50371888833068,29.17445800974527],[81.50437144990215,29.174342733097127],[81.50504108227757,29.174168690149443],[81.50606616503299,29.173727011255725],[81.50684921344342,29.17361123623231],[81.50737116102489,29.173609241665027],[81.5081420140334,29.173748480059434],[81.5081979727167,29.17375954623434],[81.50845894699225,29.17375854930068],[81.50924293029631,29.17383458058835],[81.5098955500822,29.17398544520513],[81.51067915939716,29.173982516194208],[81.51146158478325,29.173751583310747],[81.51176895301998,29.17363080105474],[81.51185229852025,29.173596667575648],[81.51241658158685,29.173174800864487],[81.51272007742921,29.172792254120907],[81.51332719128601,29.17221896842282],[81.51384826832036,29.171910071644277],[81.51437009363951,29.17175690799757],[81.51516495876523,29.171688397791524],[81.51519046753434,29.171778549690043],[81.5152611169094,29.171891083569726],[81.51546050480609,29.171915155075922],[81.51657280116223,29.17195599291668],[81.51741430747724,29.171970820330923],[81.51807711859783,29.172114932843634],[81.51877268952838,29.172498053711912],[81.52053390967293,29.17311406795715],[81.52207642864555,29.17330889405009],[81.52214801422414,29.173604168828803],[81.52373749629218,29.17330009813603],[81.5239260669656,29.173344488914697]]]}},{"type":"Feature","properties":{"province":"Karnali Province","district":"Kalikot","municipality":"Narharinath Rural Municipality","ward":"8","wardNumber":8,"sourceMunicipality":"Naraharinath","sourceType":"Gaunpalika"},"geometry":{"type":"Polygon","coordinates":[[[81.55480558107124,29.177843551858583],[81.5561670533212,29.176637401205173],[81.55698275176451,29.175672690418256],[81.55722404131669,29.174992431637786],[81.55730632663335,29.174759676519514],[81.55856237273402,29.174273799247366],[81.5597622142977,29.17349927347396],[81.5598683262899,29.172923417975344],[81.56005752902368,29.172489355462968],[81.55934214551613,29.171675421130235],[81.55988554999047,29.171002917582452],[81.56053344343857,29.16946128552139],[81.56134908006933,29.16849876343627],[81.5613991144887,29.16753729373128],[81.5610399867569,29.166985940241812],[81.56068154598756,29.166436775484932],[81.56094985100258,29.16542698249353],[81.56225649027922,29.164221018950485],[81.56236260173485,29.16364285106254],[81.56178114987833,29.162397416085334],[81.56161359711159,29.16172565419854],[81.56193274208857,29.16014019323058],[81.56154691763022,29.159516755936757],[81.56028544661358,29.15908867783052],[81.55923875742775,29.15774820968663],[81.55907026995564,29.156884641698184],[81.5584065993313,29.155639456081452],[81.55829032574997,29.15434244935949],[81.55787287355803,29.153096329079624],[81.55753901283796,29.15208902943014],[81.5568781501733,29.15122751932877],[81.55692967941319,29.150649600311493],[81.55785130162315,29.14910903444063],[81.55800775924943,29.147621286895568],[81.55810944441468,29.14622625454674],[81.55810239900791,29.14493099907358],[81.55817838239398,29.143777599210292],[81.55964527929086,29.14194582967986],[81.56106488804468,29.141364488490286],[81.56182687411254,29.140736187825382],[81.56182082650112,29.139632738664172],[81.56252698420043,29.138668527024777],[81.56372607627017,29.137846550045165],[81.56448625478136,29.13678724850192],[81.56441673637674,29.13629785407122],[81.5642049289948,29.13480710169158],[81.5630843681182,29.1355452422814],[81.56062580285112,29.13613101033805],[81.55800174047808,29.136430817589734],[81.55614222106583,29.136580714161184],[81.55450159837706,29.13668460020351],[81.5534625769155,29.13682206628931],[81.55226049498161,29.136982723763094],[81.55105822216086,29.13722684351041],[81.54892884104494,29.138005108983595],[81.54718266581793,29.13892398252169],[81.54497424645166,29.1401808882186],[81.54339244538038,29.141101263708943],[81.54180864970212,29.141635714524792],[81.54165465316561,29.141692728886444],[81.53962474650892,29.142461430459928],[81.53847824233277,29.14294674705247],[81.53744520531157,29.14424617826053],[81.53630082254222,29.14502026682019],[81.534933925971,29.145264947258617],[81.53467501532285,29.14527951059769],[81.53440991335123,29.14534152549349],[81.5341936435074,29.14540329137551],[81.5339276652304,29.145544266778387],[81.5337420301428,29.145682680552195],[81.53364355427861,29.145777832112866],[81.53347692652568,29.145873358124508],[81.53337907559036,29.14596844698732],[81.53326140402726,29.146081728790822],[81.53317349413388,29.14622201935894],[81.53314285628245,29.14626271854961],[81.533073328909,29.146353306628836],[81.53278464527592,29.14709458271346],[81.53260576031421,29.14742248931362],[81.53221297134128,29.148376389683108],[81.53194905183308,29.14881070174788],[81.53166587043087,29.149599366578414],[81.53166454809896,29.150210984078964],[81.53154337228746,29.15052507390753],[81.53194651672344,29.151051483531976],[81.53195125424578,29.151965376328036],[81.53202877403224,29.152549611507943],[81.53199305729383,29.153596730526168],[81.53290765566881,29.15347801959938],[81.53430099868993,29.153337057049733],[81.53584983784333,29.15319547148454],[81.53747645441692,29.153188926441405],[81.53902703919903,29.15338575252252],[81.53980195634888,29.15345034354103],[81.5404239348254,29.153923989375556],[81.54081251647455,29.15412549068765],[81.54127900086912,29.154464346040353],[81.54128043487634,29.154737426036778],[81.54105127658684,29.155282145945502],[81.54120758192903,29.155552351676455],[81.54136282702328,29.15561937290446],[81.54198312300066,29.155754545409746],[81.54244854675485,29.155888027461543],[81.54275978554944,29.156157547477573],[81.54330510949363,29.1567014633418],[81.5439296435673,29.157648936547595],[81.54470662090397,29.15798654440908],[81.54548428101332,29.15859485786167],[81.5464943433494,29.15913459017891],[81.54703760747722,29.159405426361868],[81.5478931100281,29.16001348960527],[81.54874867453506,29.160621491127074],[81.54975948504963,29.161298888635926],[81.55061467584012,29.161839119656747],[81.55108153348854,29.162243369384928],[81.55178328780902,29.163057366157517],[81.55170918684259,29.163736939821582],[81.55132478333623,29.16421457532379],[81.55127938873376,29.164377309954936],[81.55078189083828,29.16414917492178],[81.54946383198762,29.163951475994203],[81.54853404319643,29.163887633930184],[81.54744913171292,29.163892121826688],[81.54659780590148,29.16409867290375],[81.54544004191074,29.16492027453024],[81.54459276861202,29.16587604513831],[81.54374612018465,29.166829502369183],[81.54340197537714,29.16774933007936],[81.54344067730922,29.16778302844676],[81.54375297725,29.16812256919477],[81.54380161776638,29.16833213099283],[81.54383187730487,29.16846291946022],[81.54352250886167,29.168531874219287],[81.54305876754478,29.168736865529596],[81.54275002246442,29.168941235102476],[81.54275251570313,29.169417312112298],[81.54283216371381,29.16989313949838],[81.54260082422482,29.17003174066575],[81.54213620828614,29.170169025095205],[81.54182721365888,29.17033725827849],[81.54183139016104,29.171122551244007],[81.54160397792965,29.172005807273557],[81.54153118593372,29.172958335923287],[81.54153617280481,29.17391061536725],[81.54185252340542,29.17513472772362],[81.54232331141203,29.17615271971628],[81.54280235450769,29.177028607877197],[81.54336307041879,29.176811925633498],[81.54446586224269,29.176870643848442],[81.5449833679616,29.177119034835545],[81.54579404395714,29.177490278726456],[81.54696992162543,29.177873592115187],[81.54816312017256,29.178119241227556],[81.54897017048529,29.178531121985426],[81.54941108379181,29.17875494229718],[81.5495893385818,29.17878582824857],[81.55040758600057,29.178766645257898],[81.55193616789813,29.17863399929757],[81.55204608475188,29.178619996215204],[81.55342929969596,29.178440522589298],[81.5540149630439,29.178219152223704],[81.55480558107124,29.177843551858583]]]}},{"type":"Feature","properties":{"province":"Karnali Province","district":"Kalikot","municipality":"Narharinath Rural Municipality","ward":"6","wardNumber":6,"sourceMunicipality":"Naraharinath","sourceType":"Gaunpalika"},"geometry":{"type":"Polygon","coordinates":[[[81.5557645910909,29.18864635627717],[81.5560391360603,29.1884037883672],[81.55614462664495,29.187586425337663],[81.55619540633869,29.18686640254286],[81.55711939983047,29.18570938643407],[81.55749892910991,29.185035380808838],[81.55639291576564,29.182975200517426],[81.55652229962979,29.181582355661575],[81.55525814762223,29.1805789217564],[81.5548718850584,29.18000281046395],[81.55563063204076,29.178607348355843],[81.55480558107124,29.177843551858583],[81.5540149630439,29.178219152223704],[81.55342929969596,29.178440522589298],[81.55204608475188,29.178619996215204],[81.55193616789813,29.17863399929757],[81.55040758600057,29.178766645257898],[81.5495893385818,29.17878582824857],[81.54941108379181,29.17875494229718],[81.54897017048529,29.178531121985426],[81.54816312017256,29.178119241227556],[81.54696992162543,29.177873592115187],[81.54579404395714,29.177490278726456],[81.5449833679616,29.177119034835545],[81.54446586224269,29.176870643848442],[81.54336307041879,29.176811925633498],[81.54280235450769,29.177028607877197],[81.54254644370627,29.17712894636316],[81.54189813389675,29.177217339884706],[81.54149798122415,29.177273101559834],[81.54107038316148,29.17713493064738],[81.5407680819278,29.177104543338498],[81.54005425533315,29.176685474053706],[81.53947478987098,29.176392193285846],[81.53805062996429,29.17610009114358],[81.53703556156256,29.17585369405283],[81.53664472314055,29.175981602277904],[81.53500660317454,29.17594757269875],[81.53475969666732,29.175941755367777],[81.533824969094,29.17580557937054],[81.5335410484368,29.175854152388006],[81.53220741694804,29.17590458853567],[81.5315493546504,29.17595459562909],[81.52994818668958,29.17585260941113],[81.52927124598828,29.175604841159892],[81.52722861513908,29.17441015363088],[81.52663996030186,29.174069483546788],[81.52615946628198,29.17401046123686],[81.52427163457192,29.173424391275006],[81.5239260669656,29.173344488914697],[81.52296706846785,29.174004920974536],[81.52217738285715,29.174703053668736],[81.52168792789848,29.175923530928692],[81.52099809054334,29.17679727860991],[81.5198106306648,29.177411069905293],[81.51852606814522,29.178287186074076],[81.51743914362751,29.179074466317967],[81.51694632028172,29.17977141493735],[81.51566132134903,29.180559380525768],[81.51427753154326,29.181523771522652],[81.5129896618143,29.181876234285127],[81.51239780160167,29.182575807336658],[81.51180750215542,29.183446868230284],[81.51270108639515,29.18370520468656],[81.51339802999169,29.18422380325192],[81.51469113530179,29.184916084241802],[81.51658027426032,29.18586557324481],[81.51767742076338,29.187079942205386],[81.5178549858632,29.18723492704162],[81.51877325876781,29.188032422363865],[81.5193707919244,29.18846568130032],[81.5199691963173,29.18907261667384],[81.52066931902831,29.190202706333718],[81.521168061974,29.190810015761183],[81.52186419495659,29.191154812529213],[81.52256032859601,29.191499609465],[81.52365354908142,29.191930811570167],[81.52434930929682,29.192189896167395],[81.52514585130375,29.192796021421785],[81.52554605472938,29.193489479319222],[81.52604598395563,29.19418481470142],[81.5269393198474,29.194354937187967],[81.52813226625932,29.19478582778356],[81.529423624063,29.1952162195547],[81.53061532332057,29.19538528319162],[81.53160826010125,29.19555509525004],[81.53230582703021,29.19616159421719],[81.53290192476923,29.196420926902206],[81.53439291842834,29.197024247088844],[81.53618090294037,29.197364555936602],[81.53717277849275,29.197448654581557],[81.53767233323705,29.198055901409006],[81.53876393368348,29.19813725083869],[81.53905749437618,29.19735302440907],[81.53895515101408,29.196832182543083],[81.53945009349765,29.19656842368232],[81.54004594300619,29.196651767782704],[81.5408425487428,29.197257829759092],[81.54203592850686,29.197862271783574],[81.54293500216512,29.198991363295214],[81.54393198945853,29.200032118469785],[81.54502745748248,29.200722708459764],[81.54538471494395,29.200910768326704],[81.54556809968716,29.200693394386917],[81.5471071862013,29.200526926067454],[81.54786610085397,29.20044478566146],[81.5488496652629,29.20015189915031],[81.54895484287616,29.19938423787573],[81.54867086289563,29.19918461374314],[81.54780147949684,29.198572110780212],[81.54763230369039,29.197708542854375],[81.54779019576293,29.19645774063489],[81.54871238226073,29.194917237346722],[81.55023872891009,29.19371046421523],[81.55116752392917,29.193417763658395],[81.55122892479667,29.193232460578677],[81.55159845759268,29.19212070154524],[81.55307346310742,29.1915369853892],[81.55370002170504,29.191006274270595],[81.55429507856151,29.189755914507064],[81.5549682163892,29.18927928285414],[81.55538581706244,29.188981888018958],[81.5557645910909,29.18864635627717]]]}},{"type":"Feature","properties":{"province":"Karnali Province","district":"Kalikot","municipality":"Narharinath Rural Municipality","ward":"7","wardNumber":7,"sourceMunicipality":"Naraharinath","sourceType":"Gaunpalika"},"geometry":{"type":"Polygon","coordinates":[[[81.49824022102176,29.24755581970085],[81.49896249960587,29.247257491289016],[81.50159172079704,29.245038434658486],[81.50187308138844,29.24481849840295],[81.50228224041695,29.24457099311676],[81.50267151648464,29.244321300060964],[81.502828139395,29.244255282595898],[81.50348690224483,29.24348331348248],[81.50397229333413,29.24224714463096],[81.5041235466812,29.24173205789265],[81.50463168466082,29.24121109881147],[81.50581552326912,29.240340107381908],[81.50584309657576,29.240319664277607],[81.50592256850565,29.24000119716605],[81.50623801064984,29.23940877686746],[81.50683687323449,29.23874984162734],[81.50716788030384,29.238308590863568],[81.50738859340775,29.238073023935907],[81.50775104852579,29.237744432356287],[81.50804216381032,29.237420653069034],[81.5082479978842,29.237033980205567],[81.50828763944588,29.236984216035317],[81.50832853024937,29.236932138417988],[81.50772150730172,29.235666259726266],[81.50777204566367,29.234438525717298],[81.50791285981367,29.233788086105456],[81.50795889065074,29.23294621478489],[81.50828027714547,29.231992689652287],[81.5085716439959,29.231610205794425],[81.50965112129033,29.23124729983575],[81.51061030964897,29.230519285748358],[81.51245007758317,29.230045106276016],[81.51349642277815,29.229384424833444],[81.5142176529986,29.228163075597028],[81.51470228139068,29.227694131358994],[81.51608622686562,29.224845499851124],[81.51765124036616,29.221957796743443],[81.51783225754755,29.221250779099172],[81.5178042482674,29.22117638159549],[81.51909293273953,29.220638864346412],[81.52023499386434,29.220487709429396],[81.52084966725387,29.22033410862088],[81.52141438674795,29.219964069567126],[81.52177621882554,29.219533948306015],[81.5219966329067,29.218357417883613],[81.522380174097,29.217022281377414],[81.5234670499539,29.215379749916053],[81.52415682409047,29.21457139598751],[81.52465602513615,29.213851878433193],[81.52498053971672,29.21279901136958],[81.52515761422765,29.21233800303115],[81.52553914034709,29.211876122101522],[81.52703504218968,29.210518554159506],[81.52779727989437,29.209800227843488],[81.52829666690967,29.209132537836027],[81.52879599253409,29.208440028291133],[81.52944062059994,29.20787562083364],[81.53061288587227,29.20736548486762],[81.53157925841185,29.20698019562326],[81.53273746315492,29.20599404588942],[81.53371427854194,29.205509477260307],[81.53449476450521,29.20535519217615],[81.53505110229584,29.20525141826852],[81.53556873486919,29.20536889578012],[81.5377940833006,29.20509590543309],[81.53841918137041,29.20595772767398],[81.53861792722206,29.20708293489938],[81.5397789153805,29.207998905475293],[81.54224745876557,29.209191659715625],[81.54263372016631,29.209878365486492],[81.54394796732488,29.209970033122605],[81.54449442638237,29.20982337166748],[81.54498187591294,29.208860094899578],[81.54486722312667,29.207851859953188],[81.54459018643736,29.20750775576729],[81.54370986935976,29.206416863124403],[81.54331874331616,29.20492917259805],[81.54207766306371,29.203941305479322],[81.5419995093265,29.203878410799533],[81.54243231313542,29.202915383379466],[81.54347040185736,29.202480143326042],[81.54445471529195,29.20233173667079],[81.5449967483289,29.20136820991571],[81.54538471494395,29.200910768326704],[81.54502745748248,29.200722708459764],[81.54393198945853,29.200032118469785],[81.54293500216512,29.198991363295214],[81.54203592850686,29.197862271783574],[81.5408425487428,29.197257829759092],[81.54004594300619,29.196651767782704],[81.53945009349765,29.19656842368232],[81.53895515101408,29.196832182543083],[81.53905749437618,29.19735302440907],[81.53876393368348,29.19813725083869],[81.53767233323705,29.198055901409006],[81.53717277849275,29.197448654581557],[81.53618090294037,29.197364555936602],[81.53439291842834,29.197024247088844],[81.53290192476923,29.196420926902206],[81.53230582703021,29.19616159421719],[81.53160826010125,29.19555509525004],[81.53061532332057,29.19538528319162],[81.529423624063,29.1952162195547],[81.52813226625932,29.19478582778356],[81.5269393198474,29.194354937187967],[81.52604598395563,29.19418481470142],[81.52554605472938,29.193489479319222],[81.52514585130375,29.192796021421785],[81.52434930929682,29.192189896167395],[81.52365354908142,29.191930811570167],[81.52256032859601,29.191499609465],[81.52186419495659,29.191154812529213],[81.521168061974,29.190810015761183],[81.52066931902831,29.190202706333718],[81.5199691963173,29.18907261667384],[81.5193707919244,29.18846568130032],[81.51877325876781,29.188032422363865],[81.5178549858632,29.18723492704162],[81.51767742076338,29.187079942205386],[81.51658027426032,29.18586557324481],[81.51469113530179,29.184916084241802],[81.51339802999169,29.18422380325192],[81.51270108639515,29.18370520468656],[81.51180750215542,29.183446868230284],[81.51239780160167,29.182575807336658],[81.5129896618143,29.181876234285127],[81.51427753154326,29.181523771522652],[81.51566132134903,29.180559380525768],[81.51694632028172,29.17977141493735],[81.51743914362751,29.179074466317967],[81.51852606814522,29.178287186074076],[81.5198106306648,29.177411069905293],[81.52099809054334,29.17679727860991],[81.52168792789848,29.175923530928692],[81.52217738285715,29.174703053668736],[81.52296706846785,29.174004920974536],[81.5239260669656,29.173344488914697],[81.52373749629218,29.17330009813603],[81.52214801422414,29.173604168828803],[81.52207642864555,29.17330889405009],[81.52053390967293,29.17311406795715],[81.51877268952838,29.172498053711912],[81.51807711859783,29.172114932843634],[81.51741430747724,29.171970820330923],[81.51657280116223,29.17195599291668],[81.51546050480609,29.171915155075922],[81.5152611169094,29.171891083569726],[81.51519046753434,29.171778549690043],[81.51516495876523,29.171688397791524],[81.51437009363951,29.17175690799757],[81.51384826832036,29.171910071644277],[81.51332719128601,29.17221896842282],[81.51272007742921,29.172792254120907],[81.51241658158685,29.173174800864487],[81.51185229852025,29.173596667575648],[81.51176895301998,29.17363080105474],[81.51146158478325,29.173751583310747],[81.51067915939716,29.173982516194208],[81.5098955500822,29.17398544520513],[81.50924293029631,29.17383458058835],[81.50845894699225,29.17375854930068],[81.5081979727167,29.17375954623434],[81.5081420140334,29.173748480059434],[81.50737116102489,29.173609241665027],[81.50684921344342,29.17361123623231],[81.50606616503299,29.173727011255725],[81.50504108227757,29.174168690149443],[81.50437144990215,29.174342733097127],[81.50371888833068,29.17445800974527],[81.502935904503,29.1744609382865],[81.50274195494522,29.174497822080355],[81.50210940047161,29.174615286154786],[81.50154405996085,29.174694115167583],[81.50113140124596,29.17484459109185],[81.50102298439498,29.174885602069434],[81.50041499748424,29.175307655651046],[81.50020535307644,29.17543475374766],[81.4998502778945,29.175652750070082],[81.49919871492763,29.17584473619406],[81.4989014142193,29.175911315181647],[81.49851564080063,29.176030094874637],[81.49824941305197,29.176146125872],[81.49807184588387,29.176117490171663],[81.49772520882027,29.176479842709494],[81.49734424485838,29.176952851408924],[81.4968473546226,29.177873178243626],[81.49624412815851,29.177697119115496],[81.49479239290407,29.177533303074963],[81.49386672980091,29.177534417534993],[81.49088259178295,29.177949378042243],[81.4892866645733,29.178546471346205],[81.48714845518047,29.180036881953075],[81.4859282789605,29.18167734855921],[81.48540134643204,29.184581255680452],[81.48607977015314,29.185853762168563],[81.48671512106435,29.18681949133087],[81.48743637364342,29.18815501662475],[81.48853527226446,29.189268044230268],[81.48881130310465,29.189991321870124],[81.48860795353227,29.191440869123305],[81.48928594255611,29.1925892769934],[81.48937483396813,29.193703605141774],[81.48863659130703,29.19529731375207],[81.48844138922941,29.19549205583142],[81.48776630917357,29.19617831089626],[81.48676165972837,29.19733057484507],[81.48554636949622,29.19840912577566],[81.48494224512977,29.199693057936955],[81.4842719169464,29.20043564216233],[81.48330891078845,29.201441050477317],[81.48289610057387,29.203225256235548],[81.48279385513449,29.204450989306473],[81.48249284019766,29.206081339200626],[81.48229601108058,29.206341475374895],[81.48161092404334,29.207246670162448],[81.48105695613462,29.207738307622513],[81.48081629221569,29.208384556510666],[81.48071242608546,29.2092740656829],[81.48087635222946,29.20995495519634],[81.4820173745597,29.21218487294435],[81.48241326076715,29.213090643856745],[81.48286478139408,29.21473850761938],[81.48324741507294,29.215436654402353],[81.48348773958868,29.216489590976238],[81.48368342961592,29.217073327638822],[81.4839143189799,29.217763032567944],[81.48404916806278,29.218665173933672],[81.48429749904751,29.219499233323926],[81.48445190465402,29.22128363358563],[81.48460358062887,29.22168025237086],[81.48481057967929,29.222749067997015],[81.48484251055334,29.223924663390353],[81.48468418587505,29.2248549345036],[81.48460588596474,29.226116678538798],[81.48445756132385,29.227250008525687],[81.48454314182838,29.22821773161083],[81.48494364072171,29.229949368803066],[81.48485283749058,29.231145655841736],[81.48495004247958,29.232390959914678],[81.4851389102024,29.233423765688304],[81.48517266051996,29.234166045671518],[81.4856466924707,29.235655925840838],[81.48593047821639,29.236228097493044],[81.48619219687052,29.23661977815072],[81.4872496451964,29.237561441837823],[81.48783917601445,29.237906800221747],[81.48844364790921,29.238410018236696],[81.48869185867972,29.238939425968518],[81.48962982867043,29.239628764901806],[81.48992136779903,29.240200936621086],[81.4900757261085,29.240999110176386],[81.49052263274899,29.241782782962805],[81.49090133419848,29.24214014176287],[81.49234874331249,29.243100628813522],[81.4927572622711,29.243778394847872],[81.49288055188664,29.24425853753464],[81.49305698888766,29.24456706750303],[81.49343800130742,29.245012453192782],[81.49405047679903,29.245432145822996],[81.49487397231067,29.24570667423669],[81.49542505109528,29.246061159706844],[81.49597762525613,29.24671804623744],[81.49684612943015,29.247542923818227],[81.49775898236753,29.247142379664442],[81.49796937309549,29.247276984894917],[81.49824022102176,29.24755581970085]]]}},{"type":"Feature","properties":{"province":"Karnali Province","district":"Kalikot","municipality":"Narharinath Rural Municipality","ward":"5","wardNumber":5,"sourceMunicipality":"Naraharinath","sourceType":"Gaunpalika"},"geometry":{"type":"Polygon","coordinates":[[[81.52251048912183,29.3238496146312],[81.5226783690096,29.32356684650704],[81.52267245559727,29.321905984449696],[81.52319131758696,29.3193925031052],[81.52398126650677,29.31788875882284],[81.52457854503761,29.314607678923416],[81.52540718675796,29.313638591764683],[81.52692865049096,29.312962411939544],[81.52805465668473,29.312001144052697],[81.52948679068037,29.31023770589551],[81.53114986882159,29.30970300708399],[81.53195374618167,29.309065704749408],[81.53312483167682,29.308129068839694],[81.53358720326882,29.307542715166438],[81.53361540239075,29.307526835567508],[81.53620234524674,29.30605874905294],[81.53735510879449,29.3052010736349],[81.53765017807346,29.304001662696795],[81.53726118233357,29.30225895934786],[81.53688824060252,29.301466160239805],[81.53701449851302,29.300021424895824],[81.53767321171537,29.298362509475734],[81.5378616118698,29.297341774311754],[81.53915432355043,29.295204100571336],[81.54081254188438,29.29356589000176],[81.54183658569266,29.291641400389217],[81.54206430146651,29.291369697728538],[81.54282529257755,29.29045943982044],[81.54335362357423,29.290091775971764],[81.54386819662267,29.28991816905567],[81.54469033218994,29.289246856710793],[81.54512388539666,29.288355975790182],[81.5455992032885,29.28758681824356],[81.5458840712497,29.286942570308078],[81.54635344947785,29.286146342381763],[81.54638424164987,29.284198771515847],[81.54688856735454,29.28355583883655],[81.54819463859562,29.28279900769131],[81.54991887579614,29.28151702729447],[81.55285145306391,29.279855324617802],[81.55331082783024,29.279011707319114],[81.55477377630565,29.277875141962294],[81.55493747174586,29.277332859557212],[81.55501906827575,29.27708428746287],[81.55514743629598,29.27666854256722],[81.55520752489153,29.276476486730836],[81.55598677085,29.275631560602616],[81.55712683902036,29.275013017886586],[81.55918467568887,29.27548730568409],[81.56149887341455,29.275069148242217],[81.56173996886687,29.274801885092614],[81.56230594331961,29.274174395116486],[81.56215057666464,29.27387943178479],[81.56195700817116,29.273541768071773],[81.56190043303303,29.272968849739332],[81.56127027904435,29.27151153943657],[81.56134713973248,29.270276928366734],[81.56112256677298,29.26943836714027],[81.56096878402059,29.26780526132108],[81.56083567823777,29.26734549987964],[81.56073778367758,29.266161213724214],[81.5608088142923,29.265964594875648],[81.56083526479188,29.265745593464285],[81.56120062905347,29.26326637021119],[81.5625172080595,29.262243148273523],[81.56315332858571,29.261971888775932],[81.56378351509031,29.26132614457377],[81.56432305489388,29.25988191520557],[81.56472396617866,29.259313815281956],[81.565019329641,29.25920203609462],[81.56585458065928,29.259466998573075],[81.56696113639612,29.258753739743927],[81.5675179806807,29.258241346494426],[81.56812240593929,29.257713011161464],[81.56890402894918,29.256779996824168],[81.5696615821735,29.255801906091385],[81.57082315745038,29.255162857045487],[81.57206551516852,29.254480546972466],[81.57320252388124,29.253487331907994],[81.57429232234172,29.252911737652983],[81.57444451267057,29.252403340936098],[81.57443095579605,29.251708386507655],[81.57428265567133,29.25128701168399],[81.57410390873932,29.250748475870125],[81.57405283427126,29.250243264904768],[81.57405359119453,29.249796446607427],[81.5740691650937,29.249482729445415],[81.57421985584661,29.2489179408579],[81.57426594264732,29.24843254895482],[81.57415459772803,29.247846313381782],[81.57398429240263,29.247183616864586],[81.57387488153532,29.24683432544405],[81.57367193729736,29.246320735229624],[81.57352238470303,29.246032460876595],[81.57342335252588,29.245689984236034],[81.57342410586071,29.24548911348401],[81.57349438721573,29.245172896141764],[81.5738100183549,29.244433620352634],[81.57391006072247,29.244153414236354],[81.57399053277646,29.243927411444652],[81.57405124761716,29.243638327738676],[81.57425601933372,29.24321320524552],[81.57457595918552,29.242794335990933],[81.57477597658769,29.242558832354565],[81.5749062174802,29.242269373649886],[81.57498643787375,29.242120142932357],[81.57521178183012,29.24158211280761],[81.57525942895123,29.241356172654648],[81.57533271173347,29.24100613334438],[81.57534059390952,29.240705982673337],[81.57547422084237,29.23985923561057],[81.57544502631193,29.239588530999278],[81.57533800218908,29.23850358675721],[81.57511087073391,29.237349245364012],[81.57506154435453,29.237042529800696],[81.57503279186493,29.236498807375035],[81.57505343169176,29.236054177320383],[81.5750642551586,29.23557122327116],[81.57490214863563,29.23442107157203],[81.574902528519,29.234148053576828],[81.5748830876207,29.233886352020583],[81.57479069237118,29.232900686842168],[81.57476181479142,29.23233214442498],[81.57494764493724,29.231749163739938],[81.57513790961205,29.231382807850956],[81.5753079204784,29.23084946620362],[81.57536964185623,29.230158701514668],[81.57539009233759,29.229790781931836],[81.57549120381992,29.229126900696336],[81.57561125384991,29.22884657000685],[81.57594345175126,29.228217827270356],[81.57619511981987,29.227569139240753],[81.5764344709189,29.226900134022998],[81.57645185955877,29.22644199906337],[81.5768410863646,29.225314298560228],[81.57697377683395,29.224318569881174],[81.57694552475267,29.223763531980318],[81.5757842083078,29.22380921893345],[81.57474175078438,29.223813708598733],[81.57326687297162,29.224124657122175],[81.57257479097245,29.224583471478873],[81.57153588848016,29.225122742351143],[81.57049505137765,29.22543182032605],[81.56910527427866,29.22543774304202],[81.56814891426392,29.2252116655469],[81.56693482270495,29.225598202113602],[81.56589554682796,29.22606063788849],[81.56502597017415,29.225834186669793],[81.56407154217385,29.226068369276668],[81.56337815028965,29.226299241168185],[81.56233438224821,29.226075725103843],[81.56059953192684,29.226387608813027],[81.55921056436337,29.226544700738376],[81.55834023982896,29.226169205609118],[81.55747789435765,29.22739136612432],[81.55513468710961,29.227705680907455],[81.55391991162435,29.2278620249345],[81.5528793862018,29.228247687892996],[81.55149160334139,29.22863478491521],[81.55045132906704,29.2289436758388],[81.54941099184785,29.22925262941098],[81.54810756050956,29.229181342165703],[81.54699738381684,29.229551375074525],[81.54672008904336,29.22964508677472],[81.54541765756578,29.22965038587213],[81.54420107152998,29.229578662200332],[81.5427235136773,29.229431226773514],[81.54142151770301,29.22951323540938],[81.540379308952,29.229594183837197],[81.53994321182435,29.229214567338584],[81.5396786852551,29.228455153657347],[81.53945879314854,29.22821464328969],[81.53916091693942,29.22906651485882],[81.53933978197242,29.230056432125163],[81.54047338565837,29.23096577528508],[81.54117226502481,29.231646670431992],[81.54065368669663,29.232106861691385],[81.5395262528682,29.232492774207678],[81.5384010648148,29.233183338236053],[81.53719114876743,29.234406744760904],[81.53624320533915,29.235782574940117],[81.53607686837238,29.23730645721311],[81.53596920189129,29.237381352586173],[81.53564426220983,29.237612791535515],[81.53509855185244,29.237806779646636],[81.53477749040415,29.2379209346333],[81.53486084580035,29.23723460937439],[81.53520292836198,29.236242572145823],[81.53563235514625,29.235326933928558],[81.53580324143098,29.234793717147497],[81.53632007629433,29.233877704621865],[81.53692313182303,29.232959129370222],[81.53709395516022,29.232425912801762],[81.53700193540361,29.231435621699806],[81.53726128733702,29.23120668200868],[81.53769302124745,29.230746864954128],[81.53768940587679,29.23006310229596],[81.53733934353322,29.2295296908699],[81.53698840839978,29.22884511143037],[81.5368127857219,29.22846674813408],[81.53654987973805,29.228009736182177],[81.53593828225974,29.227402925882476],[81.5351514828917,29.22748731626904],[81.53463865534805,29.227940630405936],[81.53316433922693,29.228404561201522],[81.53177549798959,29.228486881426495],[81.53047206762128,29.228415345177055],[81.52925392372973,29.228038844595467],[81.52864725208319,29.22826915484996],[81.5272538588756,29.227588689073706],[81.52621196370247,29.227592801978577],[81.5242155151242,29.22783084802741],[81.52291401543143,29.228140548604813],[81.52178913947041,29.228905446861905],[81.52074880042053,29.229367632298345],[81.51962049603995,29.229448704712816],[81.5188386379609,29.229375049086133],[81.51762816053399,29.230521557924583],[81.51650633839758,29.231897885527484],[81.51599473772337,29.233881148554424],[81.51556393848915,29.23456884526726],[81.51461300222623,29.235409705902402],[81.51357222571892,29.235795056248023],[81.51296362233772,29.235643941709842],[81.51201081556222,29.23610569106903],[81.51114254594142,29.236260225584896],[81.51036255825805,29.236567868678776],[81.50958275509309,29.237028932439944],[81.50871429988071,29.23703223475442],[81.50828763944588,29.236984216035317],[81.5082479978842,29.237033980205567],[81.50804216381032,29.237420653069034],[81.50775104852579,29.237744432356287],[81.50738859340775,29.238073023935907],[81.50716788030384,29.238308590863568],[81.50683687323449,29.23874984162734],[81.50623801064984,29.23940877686746],[81.50592256850565,29.24000119716605],[81.50584309657576,29.240319664277607],[81.50581552326912,29.240340107381908],[81.50463168466082,29.24121109881147],[81.5041235466812,29.24173205789265],[81.50397229333413,29.24224714463096],[81.50348690224483,29.24348331348248],[81.502828139395,29.244255282595898],[81.50267151648464,29.244321300060964],[81.50228224041695,29.24457099311676],[81.50187308138844,29.24481849840295],[81.50159172079704,29.245038434658486],[81.49896249960587,29.247257491289016],[81.49824022102176,29.24755581970085],[81.49800325129645,29.247895166179493],[81.49684590124758,29.250140248345005],[81.4961798299428,29.250494781946653],[81.49537144986256,29.25121085666987],[81.494811474588,29.25195538086153],[81.49382845139208,29.253549899314063],[81.49361961249902,29.254144133579917],[81.49348180034774,29.254783256509484],[81.493425779986,29.254765375215634],[81.49324794645185,29.255776982235087],[81.49325905125954,29.25728661259152],[81.49285174863233,29.258752600577417],[81.49206412017816,29.259784518574037],[81.49185746072465,29.260965487793857],[81.49228897948917,29.262268187208],[81.49349779693384,29.26331982280947],[81.49350409022756,29.264624080550494],[81.49336851981354,29.265865692683015],[81.49294715932764,29.2666751124186],[81.49259533160995,29.267109673836472],[81.49160226156268,29.267454075151427],[81.49158000222118,29.267501525990646],[81.4911488239761,29.2684305432326],[81.48981985058398,29.270391914352754],[81.48890868602311,29.270783393123935],[81.48783171140681,29.27094530279387],[81.4874038589483,29.27109127763991],[81.48637202038984,29.27168850244171],[81.48566880948736,29.27209723925512],[81.48451343636921,29.2718938528964],[81.48351849900433,29.27171922708576],[81.48284242897688,29.27176904590703],[81.48216078934176,29.272123516163436],[81.48093731463824,29.27275756241093],[81.47965676383983,29.272868204413847],[81.4782634165209,29.27323204379521],[81.4772637256461,29.2731521328138],[81.47667081861108,29.27280221071437],[81.47651401021014,29.27271024476067],[81.4762372802288,29.27270674023696],[81.47596735820223,29.27318831518357],[81.47463326493094,29.27466660777659],[81.47416688889616,29.27539944215928],[81.47379080801582,29.27546170519341],[81.47340428264731,29.27565713324554],[81.47295404831827,29.27569707690989],[81.4723755141145,29.27582098072852],[81.4723556312848,29.27583911124685],[81.47192321104318,29.276253602087504],[81.47139131598101,29.276589443798848],[81.47087147939212,29.277451065279863],[81.47066146325426,29.277402173512137],[81.47003472502622,29.277413356934794],[81.46981082102432,29.277833914958382],[81.46864461331225,29.27876773664784],[81.46683270754855,29.280642514084427],[81.46666264335211,29.280602500776357],[81.46880681419675,29.281736797142653],[81.47028573454257,29.282747048666725],[81.47145185173572,29.28357780720852],[81.47148011304566,29.283588998463504],[81.47296204226753,29.28411179469388],[81.47470526223542,29.284378644335572],[81.47641001705445,29.28548505189544],[81.47745196032164,29.28646966630072],[81.47759320021015,29.28653237343795],[81.47808525871861,29.28675175688093],[81.47847715687487,29.286752573887135],[81.47931109456412,29.287002345197763],[81.48026363302445,29.287716503663102],[81.48090850320138,29.287718699970476],[81.48141525464135,29.287913137903928],[81.48159257092419,29.287982473491823],[81.4824712740736,29.288320020162168],[81.48331869566394,29.28992587679368],[81.48413603791037,29.291832008142897],[81.48475807070798,29.292836122660894],[81.48629917656093,29.295509050891603],[81.48720781968093,29.296439959357528],[81.48794445821346,29.297443700828172],[81.48937590933706,29.299340711747238],[81.49024079516246,29.299709893158326],[81.49142422734378,29.300752526011106],[81.49276159799936,29.301535146943493],[81.49441427672326,29.30229401498904],[81.49684535869423,29.304157903005276],[81.49821741591681,29.305827096773946],[81.49861487615897,29.306033225172676],[81.50153335394502,29.31037966018888],[81.50243704744098,29.311949069223303],[81.50258234680143,29.312302799380014],[81.50262760922249,29.312614078532],[81.50270407167828,29.312846209930925],[81.50283504372969,29.31382049712585],[81.50351703334479,29.315059056484525],[81.50344462380151,29.31551737804971],[81.50343511559507,29.315813088972956],[81.5033927113767,29.3166120103987],[81.50441807705013,29.31815841408219],[81.50473968180515,29.319271932258395],[81.50513532070508,29.320001526273654],[81.5056988858464,29.32149547090772],[81.50595996734958,29.322609238380213],[81.50658350593092,29.323335708471483],[81.50707450547259,29.323284199331663],[81.50743664987586,29.32283600964814],[81.50970097015527,29.321457633599024],[81.51113894653197,29.321930539298574],[81.51344709168525,29.32082949417346],[81.51382798658794,29.32078742409272],[81.51491314357285,29.321135226647012],[81.51548872357183,29.32203787372312],[81.51590311566794,29.323024605575036],[81.51671510115493,29.32369168599399],[81.51732121082384,29.323375662918426],[81.5181360813873,29.32347857785432],[81.51907348836963,29.32424662691724],[81.51987160315534,29.32434735363609],[81.5208153468097,29.32370730247756],[81.5221424123276,29.323749456010315],[81.52251048912183,29.3238496146312]]]}}]}