{"type":"FeatureCollection","features":[{"type":"Feature","properties":{"province":"Koshi Province","district":"Taplejung","municipality":"Sidingwa Rural Municipality","ward":"3","wardNumber":3,"sourceMunicipality":"Sidingba","sourceType":"Gaunpalika"},"geometry":{"type":"Polygon","coordinates":[[[87.93744435416953,27.336121073400488],[87.93812469327695,27.334529782511595],[87.9380962258432,27.333699415178614],[87.93826790332673,27.33322877387774],[87.9390896218151,27.33229554775805],[87.93901200254429,27.33103661838177],[87.93878196661085,27.330433258785117],[87.9386786553758,27.329413774278486],[87.93903686633176,27.32740030322651],[87.9388884874238,27.32688446763096],[87.93895568146505,27.326094047529494],[87.93947141516634,27.325289301902544],[87.93960564007801,27.32472863548029],[87.93935746802826,27.323920028305494],[87.93824727931508,27.32256196319071],[87.93803218795685,27.321999177549802],[87.93823837557638,27.32143125770322],[87.93912474927248,27.3208271269267],[87.93973570930704,27.320161670944955],[87.94012038909281,27.31910279107357],[87.9402904717374,27.31725762278393],[87.94065570076611,27.315909972008352],[87.94021563711159,27.314752765670065],[87.93903267913595,27.313672846149686],[87.93739046555959,27.311537437894653],[87.93658915183772,27.310680638875347],[87.93638082022038,27.31046758014672],[87.93530041160427,27.30992194022303],[87.9335963292592,27.309062031802043],[87.9329133257603,27.308965077989274],[87.9323229144875,27.30861692453436],[87.93044023784532,27.306487521911112],[87.92660130999363,27.302913044634906],[87.92610730060831,27.302227915339355],[87.92599974882955,27.301675630392747],[87.92621049424245,27.300816563037177],[87.92637470453106,27.29914294480038],[87.92575795491084,27.298124595398637],[87.92539505001787,27.29717225999469],[87.92545714716256,27.294919286728945],[87.92521748253998,27.29427760343553],[87.9241247136109,27.291840408903973],[87.9237128632933,27.291294694288307],[87.92207875835591,27.291059404728447],[87.92146114839231,27.290695684638745],[87.9210165444748,27.290545085692465],[87.92064959701392,27.29054753010687],[87.92025714900264,27.290904517105908],[87.91968077487954,27.292007538259625],[87.91968923987493,27.293113424505773],[87.91952250221655,27.293572749514738],[87.91903145394807,27.29391904657165],[87.91858166580907,27.293991950971826],[87.91780293549176,27.293694628596324],[87.91749412659838,27.293315209956404],[87.91620456688982,27.292269677579576],[87.91520845298353,27.292341653461456],[87.91337805219044,27.293267769848747],[87.91230566265712,27.293437401458633],[87.91059915624268,27.29322499521622],[87.90929266277533,27.292569951720232],[87.90794885121117,27.29230108429757],[87.90733006371498,27.292397686101946],[87.9066493856455,27.292810631472907],[87.9048925266668,27.294411069043495],[87.90422227784954,27.29431605353068],[87.90285056908978,27.29348983656458],[87.90259428765442,27.293511847306313],[87.90195543489271,27.2937845635134],[87.9016989655692,27.293786255808136],[87.90025023947996,27.293499885606913],[87.89725053144723,27.294270852765475],[87.89621465103684,27.29427749787656],[87.89517725716722,27.2936905947577],[87.89437994621427,27.29288087159347],[87.89311178208713,27.292351801541145],[87.89292857869009,27.29187222729474],[87.89387272016673,27.291071663285965],[87.89395611999181,27.290840906778023],[87.89380924450532,27.290401718525818],[87.8930715249684,27.28993021841904],[87.89245992238297,27.28975355302135],[87.89135814938649,27.29003596714379],[87.89087723069963,27.29040020749305],[87.8902011970833,27.291634643622583],[87.88979705507697,27.29188097313434],[87.88936839450857,27.29175506930201],[87.88887283091755,27.29146480513824],[87.88815873098088,27.290311417640076],[87.8879432106928,27.29014130904051],[87.88773713273103,27.290038783005443],[87.88691595428567,27.289937892839724],[87.88665741808299,27.289768034911223],[87.88642713903093,27.28948283060916],[87.88631714852944,27.288916979433406],[87.88603791563918,27.28867053760516],[87.88549929038139,27.28908010428756],[87.88510823667617,27.29033760468383],[87.88425603341395,27.289607218280292],[87.88359140878067,27.28934734155714],[87.8832164768491,27.290171339533128],[87.88315435495316,27.291334181772505],[87.88269557354292,27.29186972171338],[87.88222240315758,27.292014896978316],[87.88154483468213,27.29171901042499],[87.88051732949447,27.291571985762268],[87.87952426338178,27.29091693623862],[87.87927259340273,27.293040187841488],[87.87896394647142,27.294342262092034],[87.87878027353955,27.295239527695404],[87.87814682601251,27.29677373802219],[87.87780210609313,27.298236235359234],[87.87705724145711,27.29974200188117],[87.87594517705752,27.30114155636431],[87.87560331571967,27.30176668293563],[87.8747058204729,27.302745173628985],[87.873977771752,27.30415134784833],[87.8729794956136,27.305408046481027],[87.8722807020933,27.306522947863613],[87.87187794942803,27.307444099651022],[87.87203358199227,27.308034456980156],[87.87204071061889,27.308061527443027],[87.87228525245982,27.308714526731503],[87.87235966339743,27.30909776302668],[87.87125207944878,27.31238199406775],[87.86870499873784,27.317079165377518],[87.86849711885124,27.31748222476145],[87.87009614752192,27.317645994086742],[87.87099216566035,27.317746507986083],[87.87438245591969,27.3169691575585],[87.87553900273915,27.31686254277172],[87.8761700421733,27.31660576887137],[87.87670636330722,27.3166024459501],[87.8780795616082,27.316884941805498],[87.8785172323525,27.317347132252547],[87.87851817279187,27.317471230731265],[87.87955838433221,27.31822537072826],[87.88007232709244,27.318425232093954],[87.8813373602497,27.318697101890532],[87.88259396142045,27.319327951620853],[87.88362765682409,27.319504172538053],[87.88627168865386,27.319428728445203],[87.88773041544583,27.319581934775314],[87.89068131087834,27.319558562883508],[87.89128672418644,27.31973529141587],[87.89270502154791,27.320908922210464],[87.89345217904484,27.321274265405417],[87.89390409483113,27.32129395123405],[87.89593909417974,27.32137793881218],[87.89770543642301,27.3216667422672],[87.90036376149172,27.323272414542654],[87.90212936240458,27.323940391454165],[87.90600345275459,27.32586538598223],[87.90726454378142,27.326017407187436],[87.90879460168182,27.32583363927758],[87.910013291854,27.32552096256491],[87.912301628961,27.325357061539385],[87.91441314409019,27.324898576351202],[87.91625019823505,27.32510085268009],[87.91679115178329,27.325338850617253],[87.91721762104017,27.325336029520862],[87.91792931355428,27.325067250891113],[87.91983194496511,27.324867407630514],[87.920993000974,27.325069633970006],[87.92250802030438,27.326206188959272],[87.92548570547469,27.327493262645646],[87.92621661158725,27.32808661016395],[87.92671317399368,27.328304415442716],[87.92739611267173,27.32830215195538],[87.92802347411259,27.32859591497165],[87.9285584423051,27.329556123653106],[87.92891436470356,27.331388716247343],[87.93013119074743,27.33432155286626],[87.9312042846894,27.33487413294074],[87.93164452129928,27.335455795453452],[87.93223574649045,27.335803949713906],[87.93266390723232,27.33592979098478],[87.93714574503625,27.3361478992954],[87.93744378986543,27.336055616423714],[87.93744435416953,27.336121073400488]]]}},{"type":"Feature","properties":{"province":"Koshi Province","district":"Taplejung","municipality":"Sidingwa Rural Municipality","ward":"1","wardNumber":1,"sourceMunicipality":"Sidingba","sourceType":"Gaunpalika"},"geometry":{"type":"Polygon","coordinates":[[[88.06983307050349,27.447163835300092],[88.06964893558724,27.44695765338705],[88.06986162253132,27.44625181726855],[88.06987894023658,27.446217807253365],[88.06955625600779,27.4460736460742],[88.06743862445015,27.4443610595231],[88.06644630034134,27.44344781087302],[88.06569163794961,27.443042830910947],[88.06406732573444,27.441841072189106],[88.06318973909592,27.44127673625973],[88.06142388199858,27.440416766973858],[88.06116853738872,27.440369133539107],[88.0607924555015,27.440128194569898],[88.05990424694333,27.439832562452022],[88.0583698658897,27.43962984360888],[88.05799378406455,27.439388905346238],[88.05766621737249,27.43899417078802],[88.05675173930497,27.43827441491466],[88.056624878978,27.438232467267486],[88.05638028177277,27.437918380538076],[88.05563667920876,27.437204059884483],[88.05521976859694,27.43692279782386],[88.0547683404456,27.436409405962944],[88.05460152646774,27.436288810981914],[88.05358639531393,27.43594891797186],[88.05195670868939,27.434900454092638],[88.05125624733854,27.434188071148768],[88.0503597022521,27.43300768006048],[88.04944841116672,27.432211088561445],[88.04900779309432,27.43142893023607],[88.04823510994017,27.43036944726733],[88.04794662152632,27.430091808357098],[88.047130859805,27.429028137463067],[88.04639106876785,27.428236982112214],[88.04566140109642,27.42717712289922],[88.04425279147632,27.425944163257764],[88.04339638878469,27.424842356260402],[88.04290175866497,27.42436760199602],[88.04244414504196,27.424046016579286],[88.04175268235548,27.423141638961447],[88.04050988826285,27.42210823497978],[88.04025916766798,27.421945317248678],[88.03962711678068,27.421697256198904],[88.03925322332171,27.421415680482365],[88.03885637187992,27.420637773078283],[88.03738729014357,27.418867969286463],[88.03674665388415,27.4177735354707],[88.03654207340892,27.417538096006886],[88.03650530671034,27.41738261357008],[88.03621838085928,27.417066526191764],[88.03573831050126,27.416246294770335],[88.03515300027743,27.414849084554675],[88.034750087361,27.414222345758358],[88.0345868113888,27.41299123831759],[88.034434494577,27.412525167088546],[88.03321942040618,27.40976488133333],[88.03293718164657,27.409335886802783],[88.03174071610009,27.408225270981088],[88.0315454468237,27.407759513392982],[88.0315768773207,27.406991975251735],[88.03141843699991,27.406681637922524],[88.03088160355661,27.40620488304365],[88.03043111373637,27.405691365551842],[88.02999818288134,27.40475791287245],[88.02942920652687,27.40401276757702],[88.02855728397081,27.402299407879294],[88.02825271197962,27.401369515969662],[88.02805266908186,27.399982926121808],[88.02782119429388,27.399361748231172],[88.02730298280065,27.398424358382236],[88.02688304982446,27.39718612906975],[88.02643865911693,27.395480825285897],[88.02637793464031,27.394865083651972],[88.02638412126255,27.394711601750114],[88.02670853882987,27.394108793747883],[88.02672765972217,27.39364822096581],[88.0265754060115,27.393182150142792],[88.02638092308442,27.391639827435156],[88.02626549902695,27.3913291754753],[88.02578349101351,27.390545017836935],[88.02544840117032,27.38930616125608],[88.02534528669031,27.388688481880713],[88.02535367343275,27.386383994753388],[88.02524387230939,27.38591986099906],[88.02496944459753,27.385296683624283],[88.02472416135474,27.385020919777222],[88.02460811093718,27.384710269057877],[88.02440515533827,27.384434191663406],[88.02402311319844,27.383308494442836],[88.02378332756076,27.382879122756282],[88.02304772543944,27.382011069860496],[88.02288009917612,27.381928799072885],[88.02272940746508,27.381424341744047],[88.02274790355972,27.380963768881973],[88.02260183499537,27.38034415247021],[88.02244351929592,27.380031626441866],[88.0217586806035,27.378973579596288],[88.02151114753556,27.378736139808904],[88.02115143831661,27.378109087556144],[88.02106075794413,27.377184381204838],[88.02073254291615,27.375791916755357],[88.02030598588402,27.37470266795782],[88.02012315081392,27.373929882873355],[88.0199894551195,27.373003176679504],[88.02014318536736,27.37239493322891],[88.02093943862498,27.370730181419898],[88.0210985420176,27.369968392902482],[88.02107477245967,27.369505882186473],[88.02068504551512,27.36857205399159],[88.02028082094988,27.367983701902045],[88.02017102001888,27.367519567610234],[88.02020251363962,27.366751967717722],[88.01998353629308,27.36582363721078],[88.01995964236673,27.365361127515133],[88.01940717655258,27.362119563371227],[88.01904753049689,27.36149251142098],[88.01863343209814,27.361134414687044],[88.0181745071671,27.360851090028152],[88.01780342513655,27.360492679344116],[88.01739770036845,27.359942713391337],[88.01677983515388,27.359346862726582],[88.01648847362365,27.35914355799948],[88.01556018677779,27.358807289217154],[88.01518598009531,27.35852565182666],[88.0149831494499,27.35825176251769],[88.01466589422076,27.357626648217252],[88.01455671808264,27.357162451501924],[88.01457527617812,27.356701879296526],[88.0149487714984,27.35594533800049],[88.01495558278872,27.355791792928738],[88.01459999737929,27.355051832884296],[88.01398369408928,27.354417595695406],[88.01364787958664,27.35425292928332],[88.01322365927182,27.354161284930413],[88.01270572087503,27.354259823717644],[88.01232226609079,27.35421075318786],[88.01206873421728,27.354124545385883],[88.01186434090143,27.35388904238611],[88.01189895941512,27.353044670343095],[88.01218717282687,27.352286442672618],[88.01218808510392,27.351209877054337],[88.01203601860762,27.350745994691646],[88.01154188867147,27.350268864032802],[88.01070207097904,27.349857384222545],[88.01020644126228,27.349418639338626],[88.01000361050457,27.34914256199356],[88.00950589488089,27.34770608811459],[88.00903038606353,27.34677063596431],[88.00874377359263,27.346452173065845],[88.00728933950232,27.345370320034775],[88.00684072413239,27.34481604107898],[88.00653809030298,27.343847701052507],[88.00585987602436,27.34263610842989],[88.00585529034964,27.341712963190712],[88.00557423887238,27.341243268559058],[88.00528768905153,27.340927119040398],[88.0052147172398,27.340618342090597],[88.00531930810111,27.340161769383222],[88.00587036437142,27.33926174524986],[88.00601784552588,27.33880473410308],[88.00589739859308,27.337575501528335],[88.00570856414285,27.33695619874068],[88.00546278063906,27.336680372253113],[88.00475369776765,27.336234067134953],[88.00413220673205,27.33571492617656],[88.00350215717175,27.33542604143692],[88.00150257882358,27.33405461347648],[88.0002434765374,27.333438456185018],[87.9994906903498,27.332990213592737],[87.9992696140536,27.333210720112433],[87.9983321291209,27.33252678673089],[87.99689077218895,27.331873560050358],[87.99554002057546,27.331610007538142],[87.99280815140416,27.331986230466654],[87.9927325468125,27.33137280221922],[87.99168252014975,27.330676179823605],[87.99032249051442,27.32936088211673],[87.9898594162527,27.328086705138478],[87.98912643219214,27.32687311312892],[87.988171962384,27.327112263123247],[87.98707541051822,27.32607285407554],[87.9860230642591,27.32510527682932],[87.9844876542157,27.32359486306004],[87.98365263541037,27.322546696439495],[87.98360109643411,27.321650997692362],[87.98415414087127,27.32017324172758],[87.98388909479694,27.319705672750587],[87.98283511934382,27.318543977076146],[87.98240442825593,27.31713407171888],[87.98180726320636,27.31676134869702],[87.98133306718121,27.315787384162284],[87.97944085192677,27.314904660925677],[87.9778115407835,27.313762730758516],[87.97685347098034,27.312426481877583],[87.97663344269813,27.311969852098052],[87.97588098176509,27.309372730875165],[87.97507623952875,27.30894955879732],[87.97199667145865,27.308948490152456],[87.97031135535951,27.30852008285327],[87.97008000945823,27.308009375109584],[87.97014800495437,27.306744941214724],[87.96995273433826,27.306231668981177],[87.96907953138252,27.305912716338913],[87.96827490892942,27.30527954605486],[87.96769805037957,27.304326589894707],[87.96733297113384,27.303965740780676],[87.96573305335323,27.30318235273418],[87.96549690003219,27.302974046537987],[87.96469945453251,27.30177658547156],[87.96348016479598,27.30044652999246],[87.96254193134672,27.29983911931832],[87.96128740308771,27.299606261365057],[87.96013844116062,27.30056668839641],[87.95936316515201,27.300978260911897],[87.95705161531174,27.3030774169367],[87.95662658776108,27.303231532603764],[87.9555185591982,27.30337234447672],[87.95528503985012,27.303545523926697],[87.95458993192415,27.304543453747165],[87.95415546907108,27.304936827204642],[87.9516547696418,27.30627657737823],[87.9513758539124,27.306237821031946],[87.95122889142353,27.304787523913447],[87.95071829560837,27.303285530673556],[87.95106077436779,27.3023419982069],[87.95112334190175,27.301529071031474],[87.95078664706034,27.301163407802903],[87.95052923803775,27.301050066536007],[87.94982510294439,27.3009984394593],[87.94901162211977,27.30122745886437],[87.94745507750281,27.30240495681044],[87.94730260385505,27.303263586389395],[87.94743535503812,27.303946658483703],[87.94823587884095,27.30581687914211],[87.94966340093549,27.30846819233814],[87.94927454040442,27.309906370271012],[87.94891596169961,27.312224556069882],[87.94911016363703,27.31248281580532],[87.949750085926,27.312478427080375],[87.95032211459315,27.31272961572338],[87.95023447480368,27.313493090403536],[87.94984122641634,27.3144166187311],[87.94991585336454,27.3160525338934],[87.9493734931353,27.317209569396052],[87.94906638585043,27.31748703144465],[87.94739313755797,27.31981861921608],[87.9469320558805,27.320945833070983],[87.94604423257675,27.323820628578932],[87.9461698037405,27.324916697091048],[87.94590866139178,27.325636224864514],[87.94516128917223,27.32682621229279],[87.94489096750554,27.328031069751972],[87.94411401900824,27.32909264448937],[87.94419331594263,27.329875309494206],[87.94437433441878,27.330503803110048],[87.94404060263066,27.33123739874489],[87.9442588880464,27.33201456035415],[87.94435526693546,27.33338846025709],[87.94416495236995,27.333599650850413],[87.9420782122735,27.33474908778782],[87.9408910564422,27.336102380133067],[87.94135900816819,27.337417319439822],[87.94161685813476,27.337645819295975],[87.942516950273,27.33812494330732],[87.94467700782161,27.338755838680974],[87.94749295413126,27.340413647870122],[87.94819803907725,27.3409912421301],[87.94918115481578,27.341205724996385],[87.95074403801337,27.34107772092619],[87.9516477571503,27.34160873505187],[87.9525386501832,27.341738069998417],[87.95397944246119,27.342342094896757],[87.95526487922275,27.343531795293995],[87.95564422523158,27.344362031872784],[87.95571943995394,27.347081264016193],[87.95594092135437,27.34821959306068],[87.9559473191352,27.34910654028353],[87.95594807154183,27.34919231579734],[87.95612489837922,27.34969214613424],[87.95612928426105,27.350132274658755],[87.95562994477656,27.35151250073343],[87.95563753021838,27.352392695169893],[87.95644092061187,27.35380459477249],[87.95694652747382,27.355861812569394],[87.95804465282946,27.357368734234143],[87.9600646620931,27.358122230452338],[87.96362203030364,27.36080838998018],[87.96445565917669,27.36123593730921],[87.96520962529978,27.361307444501115],[87.96676255761798,27.36073693618474],[87.96867850162089,27.3603421608943],[87.9694532863307,27.36033677033913],[87.9712142154798,27.361723894542266],[87.97318477670747,27.36281155221659],[87.97391894487622,27.36385596925104],[87.97552726034534,27.36548779270284],[87.97570133843492,27.366091404130835],[87.97626437713973,27.366940704375196],[87.97846644920183,27.367523272801105],[87.9804622483784,27.367642458202354],[87.98296783996936,27.366947646295458],[87.98359500691996,27.36689587008986],[87.98551771763115,27.367114711821493],[87.98644517636714,27.36679222465514],[87.98756964103762,27.366298935237346],[87.9884417679915,27.366076041172274],[87.9893248948746,27.365604824918883],[87.99205133292023,27.365587707184645],[87.99251713207933,27.36572423861077],[87.99400289168693,27.36684222618337],[87.99425361069677,27.36695550483829],[87.99512469307075,27.36746845148426],[87.99593449678348,27.367762834999905],[87.99824556316264,27.3690643613205],[87.99927060347765,27.37073620716505],[87.99951376119367,27.37099627865977],[88.00002251442574,27.371128057888978],[88.00090322287174,27.371577673119884],[88.00132663115063,27.371707766498837],[88.00161793086014,27.371908757395815],[88.00235946954739,27.37262345239677],[88.00264145771875,27.373054761257507],[88.00301260307207,27.373413234404737],[88.00409314324402,27.37421569977491],[88.00463035211902,27.374694829537994],[88.00524509318376,27.375367515749364],[88.00571912612016,27.377379596310977],[88.00607252447314,27.378158005241147],[88.00647831084319,27.378708033508538],[88.00722366157531,27.379348145002243],[88.00793162119443,27.37983052294601],[88.00879077183914,27.38081967199054],[88.00910746486474,27.381442535715337],[88.00918043644539,27.381753500362862],[88.00916194041025,27.382214073129752],[88.00932025548238,27.382526661193975],[88.01001115593944,27.383431226244927],[88.01004798533663,27.38358670818951],[88.01081654257524,27.384684766158408],[88.01104789254669,27.385308319106755],[88.01103551978152,27.385615347204993],[88.01079026000282,27.386375511784497],[88.01085704562608,27.386837708233752],[88.01186220195072,27.388444159390755],[88.01333584387689,27.39010361832467],[88.01459790751734,27.39171950605565],[88.01491466317756,27.392344620330192],[88.01608988416226,27.393994956740848],[88.0165034433745,27.39539129580531],[88.01685090515576,27.396323124796023],[88.01697307854353,27.396480230629283],[88.01769795757315,27.398655229237814],[88.01768319733276,27.401110948589878],[88.01847498692345,27.40374814351952],[88.01886546415194,27.404681909581694],[88.01961044060954,27.405319707771366],[88.02112045101919,27.406094093938158],[88.02183784495567,27.406346091393797],[88.02208544161257,27.406583531491165],[88.02310109588316,27.407918966508934],[88.02359703823493,27.408357710887127],[88.02384919635303,27.40847999128282],[88.02475190111123,27.40839207425184],[88.02495641946346,27.408629827363562],[88.02574299874094,27.410339376272375],[88.02643427384231,27.411243815304573],[88.02654969849033,27.411554466796424],[88.02667343446129,27.411673124545857],[88.02701939649803,27.412641088282882],[88.02751540110859,27.41307983271378],[88.02797982641889,27.41324793621892],[88.02839286135085,27.413603720360715],[88.02859431720307,27.41391818356335],[88.02871036687755,27.414228835136903],[88.02880729595195,27.41499774594245],[88.02928267977485,27.415933073188572],[88.02944943163426,27.416053792734385],[88.02952865147988,27.416208961702548],[88.02953342488519,27.417129731379863],[88.02904296738417,27.418647809902176],[88.02896852085749,27.419413535098656],[88.02978218103644,27.421508758366354],[88.02986296316129,27.421625541260536],[88.03024198091029,27.421789707585827],[88.03101488979367,27.421738865191955],[88.03147469041949,27.422019814473877],[88.0315969261944,27.422176983479858],[88.03170622707687,27.422641054745483],[88.03158938916344,27.423404779878698],[88.03181480270203,27.42417725237267],[88.03209547980534,27.424646884597042],[88.03284070550313,27.42528462020277],[88.0335824960225,27.426037451195192],[88.03470436657415,27.426916063117968],[88.03568306867642,27.428177226799246],[88.03724911836119,27.42976128603381],[88.03811789415646,27.430556002124074],[88.0394904858746,27.431597531677806],[88.03973652015897,27.431873295991426],[88.04013474676239,27.432653453876096],[88.04090674344877,27.43371525078972],[88.04150955079113,27.43473316257878],[88.04173933922509,27.435431112190372],[88.04262448629788,27.435803642701917],[88.04313205179523,27.435973620556908],[88.04351575682657,27.43602487832198],[88.0451621891211,27.436651280699483],[88.04616807259355,27.437219241024103],[88.0471208799742,27.438056155669475],[88.04753772748923,27.43833741820738],[88.04810989133175,27.439046302271137],[88.04934718795946,27.44027607694437],[88.04963942485017,27.440476942660514],[88.05038233957313,27.441191262668937],[88.05058454683723,27.44150360053813],[88.05120135128607,27.44217597347636],[88.05246485496643,27.443827495527998],[88.05315013274354,27.444925991594733],[88.05364151446021,27.445515842566692],[88.05412458646354,27.44629987605475],[88.05485756613793,27.44728289996676],[88.05560123093942,27.447997220232107],[88.05585195229915,27.448157825096416],[88.05724022879512,27.448815304124984],[88.05837009772425,27.449501859350743],[88.05875086511753,27.44962988908484],[88.05950246613583,27.45011164171877],[88.06026537661508,27.450327003056326],[88.0607815650233,27.45026441202993],[88.0613914706506,27.4500137020739],[88.0618389985794,27.449529551875745],[88.06210290428683,27.449344743643437],[88.0641971515753,27.448371731280265],[88.06562154389913,27.448105752340293],[88.06755750103616,27.447894529042717],[88.06846658020221,27.447652878588023],[88.06898882956256,27.44743893159152],[88.06983307050349,27.447163835300092]]]}},{"type":"Feature","properties":{"province":"Koshi Province","district":"Taplejung","municipality":"Sidingwa Rural Municipality","ward":"5","wardNumber":5,"sourceMunicipality":"Sidingba","sourceType":"Gaunpalika"},"geometry":{"type":"Polygon","coordinates":[[[87.9559473191352,27.34910654028353],[87.95594092135437,27.34821959306068],[87.95571943995394,27.347081264016193],[87.95564422523158,27.344362031872784],[87.95526487922275,27.343531795293995],[87.95397944246119,27.342342094896757],[87.9525386501832,27.341738069998417],[87.9516477571503,27.34160873505187],[87.95074403801337,27.34107772092619],[87.94918115481578,27.341205724996385],[87.94819803907725,27.3409912421301],[87.94749295413126,27.340413647870122],[87.94467700782161,27.338755838680974],[87.942516950273,27.33812494330732],[87.94161685813476,27.337645819295975],[87.94135900816819,27.337417319439822],[87.9408910564422,27.336102380133067],[87.93744435416953,27.336121073400488],[87.93744378986543,27.336055616423714],[87.93714574503625,27.3361478992954],[87.93266390723232,27.33592979098478],[87.93223574649045,27.335803949713906],[87.93164452129928,27.335455795453452],[87.9312042846894,27.33487413294074],[87.93013119074743,27.33432155286626],[87.92891436470356,27.331388716247343],[87.9285584423051,27.329556123653106],[87.92802347411259,27.32859591497165],[87.92739611267173,27.32830215195538],[87.92671317399368,27.328304415442716],[87.92621661158725,27.32808661016395],[87.92548570547469,27.327493262645646],[87.92250802030438,27.326206188959272],[87.920993000974,27.325069633970006],[87.91983194496511,27.324867407630514],[87.91792931355428,27.325067250891113],[87.91721762104017,27.325336029520862],[87.91679115178329,27.325338850617253],[87.91625019823505,27.32510085268009],[87.91441314409019,27.324898576351202],[87.912301628961,27.325357061539385],[87.910013291854,27.32552096256491],[87.90879460168182,27.32583363927758],[87.90726454378142,27.326017407187436],[87.90600345275459,27.32586538598223],[87.90212936240458,27.323940391454165],[87.90036376149172,27.323272414542654],[87.89770543642301,27.3216667422672],[87.89593909417974,27.32137793881218],[87.89390409483113,27.32129395123405],[87.89345217904484,27.321274265405417],[87.89270502154791,27.320908922210464],[87.89128672418644,27.31973529141587],[87.89068131087834,27.319558562883508],[87.88773041544583,27.319581934775314],[87.88627168865386,27.319428728445203],[87.88362765682409,27.319504172538053],[87.88259396142045,27.319327951620853],[87.8813373602497,27.318697101890532],[87.88007232709244,27.318425232093954],[87.87955838433221,27.31822537072826],[87.87851817279187,27.317471230731265],[87.8785172323525,27.317347132252547],[87.8780795616082,27.316884941805498],[87.87670636330722,27.3166024459501],[87.8761700421733,27.31660576887137],[87.87553900273915,27.31686254277172],[87.87438245591969,27.3169691575585],[87.87099216566035,27.317746507986083],[87.87009614752192,27.317645994086742],[87.86849711885124,27.31748222476145],[87.86713785499077,27.31678648244395],[87.86623369367224,27.31604721927152],[87.86455680365542,27.31496974578051],[87.86353296597365,27.313856563247864],[87.86314730560578,27.313012572714726],[87.86258021062874,27.312463047023176],[87.86232565992333,27.31157985534446],[87.86145838956615,27.310926179615215],[87.86139442780902,27.3109174901668],[87.86075881722176,27.310826662602782],[87.8601432799344,27.31087787617107],[87.8592902886252,27.31126681693088],[87.85799727822643,27.312511705113508],[87.85683388106087,27.313859557590096],[87.85637053590027,27.314395097570078],[87.85572562279538,27.31490688412091],[87.85430980060119,27.315387299816663],[87.85316902794064,27.316324218931307],[87.85245472753192,27.317430055326007],[87.85162199847376,27.318076259288574],[87.85032590785991,27.31852879054781],[87.84914817916642,27.319258211946536],[87.84907196600872,27.31936712027974],[87.84937489974912,27.319823373427173],[87.84960850395105,27.320632231476374],[87.84938144791951,27.32190892198324],[87.84893705323914,27.322719667389297],[87.84814446671614,27.323505348427283],[87.84786343794683,27.324017253707463],[87.84832357974771,27.325612462959622],[87.84894675158374,27.325886281831504],[87.85010593100813,27.32602592701435],[87.85151102294472,27.326671904191763],[87.8522706964362,27.327522701838888],[87.85300441220396,27.32795381543587],[87.85342795450657,27.328474897786037],[87.85379905793641,27.329822348492772],[87.85401226773715,27.330105427697287],[87.85489622666238,27.330517595151807],[87.85635283521695,27.33103228260683],[87.85648702162291,27.331555121052972],[87.85649849229122,27.33287769542012],[87.85692917902911,27.334161626430266],[87.85786573504473,27.335241489287714],[87.85844203205741,27.336303289603126],[87.8584846133396,27.33641588396738],[87.85954505647904,27.33602787677918],[87.86093862751999,27.335899626930075],[87.86153772701071,27.33607423023216],[87.86330972494143,27.337645471297346],[87.86480261068223,27.338751268873796],[87.86634537435445,27.339197560077377],[87.8668924111626,27.340225663917803],[87.86868139841764,27.341040620556907],[87.86918596874044,27.34148436675017],[87.86991999109338,27.34161745497642],[87.87030406897567,27.34159700444476],[87.87114050798223,27.34189645254154],[87.87256425470957,27.343510399439598],[87.87280021874209,27.343624053747043],[87.87341238087558,27.343599910937897],[87.87341300592952,27.343599910702],[87.87364836264915,27.344517050264265],[87.87385794861052,27.344897158132753],[87.87411604734228,27.34508739611375],[87.8746952645275,27.34530044836325],[87.87617881400199,27.34550998328428],[87.87650331296473,27.34569984600362],[87.87712874737609,27.346479125578643],[87.87802114943085,27.346979068618726],[87.87887178790108,27.34762824348611],[87.87994856751023,27.34801871404336],[87.88158966687672,27.347854886586248],[87.88232869025879,27.34796528089487],[87.88343159821372,27.34806435284959],[87.88455531681197,27.347768308114908],[87.8856116309622,27.347251513189228],[87.88694423621753,27.346843494677152],[87.88755389891934,27.34689831247609],[87.88853376543041,27.347183253012993],[87.89108381877854,27.34681028653476],[87.89242960652733,27.34599139709754],[87.89305463497887,27.34537345534603],[87.89331085326785,27.345331188488707],[87.89610370714435,27.343263845021312],[87.89690993789014,27.343096093908066],[87.89735260116343,27.34313616022396],[87.89758687258335,27.34303756471115],[87.89770960524574,27.343052567010414],[87.89838391777748,27.34313851779894],[87.89888929521958,27.343360949352455],[87.89917210397614,27.344103973712382],[87.90028143224889,27.346166558588422],[87.90209932233624,27.347700849473302],[87.90383759570031,27.3481387598783],[87.90627488249216,27.348906127611915],[87.90764676530107,27.34904614456298],[87.90881108740811,27.349934633528427],[87.9097775298607,27.351029749175076],[87.91404121369378,27.353475514508244],[87.91424855686579,27.35425061225764],[87.9145443448966,27.35386499379116],[87.92201695600502,27.35350650489161],[87.92386137108123,27.352941243350458],[87.92708986028994,27.352542881197316],[87.92843846640987,27.351926738810803],[87.9295675652184,27.35175216778028],[87.9338900937195,27.351892505267006],[87.93644634313168,27.351818937957383],[87.93750009949791,27.351559030336674],[87.93795813182305,27.351088759127833],[87.9393425051382,27.350614470567898],[87.94078128418774,27.350665646497564],[87.9436497268344,27.351264707657613],[87.94601814823756,27.350799465724187],[87.94771602303261,27.35085113776456],[87.94841026774851,27.350374673743513],[87.94866567237747,27.350314213363074],[87.94931885226195,27.35043392466387],[87.95032135765058,27.350973376799757],[87.95152186494033,27.3511095192673],[87.9521705470804,27.351427851464486],[87.95312352804595,27.35164927338036],[87.95388111134709,27.3513416700743],[87.95442641797179,27.3505253587506],[87.9559473191352,27.34910654028353]]]}},{"type":"Feature","properties":{"province":"Koshi Province","district":"Taplejung","municipality":"Sidingwa Rural Municipality","ward":"6","wardNumber":6,"sourceMunicipality":"Sidingba","sourceType":"Gaunpalika"},"geometry":{"type":"Polygon","coordinates":[[[87.91424855686579,27.35425061225764],[87.91404121369378,27.353475514508244],[87.9097775298607,27.351029749175076],[87.90881108740811,27.349934633528427],[87.90764676530107,27.34904614456298],[87.90627488249216,27.348906127611915],[87.90383759570031,27.3481387598783],[87.90209932233624,27.347700849473302],[87.90028143224889,27.346166558588422],[87.89917210397614,27.344103973712382],[87.89888929521958,27.343360949352455],[87.89838391777748,27.34313851779894],[87.89770960524574,27.343052567010414],[87.89758687258335,27.34303756471115],[87.89735260116343,27.34313616022396],[87.89690993789014,27.343096093908066],[87.89610370714435,27.343263845021312],[87.89331085326785,27.345331188488707],[87.89305463497887,27.34537345534603],[87.89242960652733,27.34599139709754],[87.89108381877854,27.34681028653476],[87.88853376543041,27.347183253012993],[87.88755389891934,27.34689831247609],[87.88694423621753,27.346843494677152],[87.8856116309622,27.347251513189228],[87.88455531681197,27.347768308114908],[87.88343159821372,27.34806435284959],[87.88232869025879,27.34796528089487],[87.88158966687672,27.347854886586248],[87.87994856751023,27.34801871404336],[87.87887178790108,27.34762824348611],[87.87802114943085,27.346979068618726],[87.87712874737609,27.346479125578643],[87.87650331296473,27.34569984600362],[87.87617881400199,27.34550998328428],[87.8746952645275,27.34530044836325],[87.87411604734228,27.34508739611375],[87.87385794861052,27.344897158132753],[87.87364836264915,27.344517050264265],[87.87341300592952,27.343599910702],[87.87341238087558,27.343599910937897],[87.87280021874209,27.343624053747043],[87.87256425470957,27.343510399439598],[87.87114050798223,27.34189645254154],[87.87030406897567,27.34159700444476],[87.86991999109338,27.34161745497642],[87.86918596874044,27.34148436675017],[87.86868139841764,27.341040620556907],[87.8668924111626,27.340225663917803],[87.86634537435445,27.339197560077377],[87.86480261068223,27.338751268873796],[87.86330972494143,27.337645471297346],[87.86153772701071,27.33607423023216],[87.86093862751999,27.335899626930075],[87.85954505647904,27.33602787677918],[87.8584846133396,27.33641588396738],[87.85859316485298,27.33697273284993],[87.85840605754417,27.338025670011266],[87.85828517711482,27.339796002960664],[87.85827767481341,27.339809569362597],[87.85814194377511,27.34007446155645],[87.85723331499922,27.340899407272822],[87.85694997537479,27.341519593764257],[87.85675134430883,27.344522789564703],[87.8549085034619,27.34843884348045],[87.85395931496645,27.349997567079253],[87.85341596057019,27.35149507801094],[87.85349844205287,27.352113007671502],[87.85352695681024,27.352282119086716],[87.85352958268776,27.352297935479587],[87.85342189922007,27.354239694211817],[87.85371997962817,27.35577044971243],[87.85379838521747,27.355853409929942],[87.85408574810576,27.356158681819053],[87.85512388643731,27.356459251369404],[87.85615371183303,27.356908864828288],[87.8564979701125,27.357213698145454],[87.8566549085884,27.357488088379185],[87.85687720495876,27.358691999644083],[87.85728160846746,27.35892874877426],[87.85895642202048,27.35941498679503],[87.86057860761191,27.36061474642858],[87.86061105726503,27.360639378197828],[87.86169974451138,27.362309660715574],[87.86205778824393,27.363979955943098],[87.8619364676288,27.365612561698235],[87.86214719366586,27.36669693733968],[87.86288299244791,27.367931535728665],[87.86316981004796,27.3690469830773],[87.864392285854,27.370269507015408],[87.86512157522249,27.37123327598156],[87.86604255328417,27.371891139799306],[87.86726325658972,27.372064105900606],[87.86868060279919,27.372655629361947],[87.87026506309476,27.372799205794703],[87.8722714385823,27.373380215210577],[87.8726560322029,27.374057218976166],[87.87331396861556,27.374364547110087],[87.87369904818227,27.374380169951273],[87.87433902888137,27.37418435119735],[87.87572860280365,27.374209458453436],[87.87665445441633,27.374752101198048],[87.87781244759623,27.37498627450625],[87.87870528793401,27.3755110372565],[87.87916685045539,27.376325204238793],[87.87942520059407,27.376535761650704],[87.87968242132949,27.37660859063446],[87.88006699912218,27.376567759693447],[87.8803216513212,27.3763923913374],[87.88055404189429,27.37604784830868],[87.88095350133518,27.376043027824004],[87.88096869381762,27.376047528639535],[87.8812221636076,27.376122608917626],[87.88191443071236,27.376693825916796],[87.8829909642399,27.377262473361576],[87.88488685967098,27.37775377089186],[87.88786690016893,27.378109447345203],[87.88953940594418,27.378807496380972],[87.88979667322238,27.37818287178218],[87.88991264772764,27.37790003686622],[87.89000310033121,27.377118493711734],[87.89063365407964,27.374728720080004],[87.8906257558336,27.3738192041749],[87.89045074376196,27.37336213543779],[87.8895595786681,27.372264080141385],[87.88920767840317,27.371343191249295],[87.88909231105691,27.370750332730506],[87.88733040014259,27.367391755358852],[87.88699187178136,27.366075813961274],[87.88701012615509,27.365992163772674],[87.88732502297067,27.36458849718736],[87.88853069787913,27.363768297552333],[87.88931697792864,27.36337729475491],[87.89063365693289,27.36370968080585],[87.89197276476123,27.363299348926166],[87.89380912922837,27.36342072703105],[87.89493979287211,27.36333224304504],[87.8981421463908,27.3628466062055],[87.90006058737323,27.36225639898427],[87.90089414378036,27.36224875709669],[87.90139982285207,27.361940782421243],[87.90193575531183,27.36131433941189],[87.9025707902228,27.360831748950066],[87.90350300272776,27.360599977329496],[87.90674282479432,27.360928765591304],[87.9072300630581,27.3607608323615],[87.90739874505313,27.360529511434997],[87.90746925888415,27.36003023913534],[87.90794786646957,27.359740520469572],[87.90925027801431,27.359569447208564],[87.90974076747526,27.35941951935824],[87.9102356922995,27.35911835953872],[87.91150537599033,27.35765647113057],[87.91187174127693,27.35679183667149],[87.91287283606913,27.355794464369545],[87.91371712053356,27.35463786038056],[87.91424855686579,27.35425061225764]]]}},{"type":"Feature","properties":{"province":"Koshi Province","district":"Taplejung","municipality":"Sidingwa Rural Municipality","ward":"4","wardNumber":4,"sourceMunicipality":"Sidingba","sourceType":"Gaunpalika"},"geometry":{"type":"Polygon","coordinates":[[[87.86849711885124,27.31748222476145],[87.86870499873784,27.317079165377518],[87.87125207944878,27.31238199406775],[87.87235966339743,27.30909776302668],[87.87228525245982,27.308714526731503],[87.87204071061889,27.308061527443027],[87.87203358199227,27.308034456980156],[87.87187794942803,27.307444099651022],[87.8722807020933,27.306522947863613],[87.8729794956136,27.305408046481027],[87.873977771752,27.30415134784833],[87.8747058204729,27.302745173628985],[87.87560331571967,27.30176668293563],[87.87594517705752,27.30114155636431],[87.87705724145711,27.29974200188117],[87.87780210609313,27.298236235359234],[87.87814682601251,27.29677373802219],[87.87878027353955,27.295239527695404],[87.87896394647142,27.294342262092034],[87.87927259340273,27.293040187841488],[87.87952426338178,27.29091693623862],[87.87938489686492,27.290784650037324],[87.87911110443193,27.290585471522363],[87.87765054952115,27.28975050272471],[87.87731489527866,27.288362290113906],[87.87687272223255,27.287868465598624],[87.87661556284309,27.28777531794526],[87.87602453397511,27.28779933530925],[87.87588048983373,27.288195266366003],[87.8760790279698,27.289426373482907],[87.87584132247105,27.289714524914523],[87.87558529199447,27.289772545630488],[87.87507109981756,27.28960425621086],[87.8748555160803,27.289413766139933],[87.87484975008199,27.28876370097776],[87.87463109464692,27.288191787544577],[87.87424319465164,27.287851131990703],[87.87398634878713,27.287794119741694],[87.87296279191251,27.288071344706296],[87.87270544495773,27.287957815466847],[87.87186161536088,27.287071571258707],[87.87143651782712,27.286902654150087],[87.87022113589188,27.286971257951716],[87.86913750334709,27.28763034603068],[87.86850126205417,27.2872798791257],[87.86761268589689,27.287287647456207],[87.86705497736469,27.287126359904722],[87.86611513453656,27.287202211714867],[87.86529883801713,27.287329138119887],[87.86500817707945,27.28772600965806],[87.86448392987128,27.28804517432142],[87.86393890844181,27.28764456725726],[87.86335018858783,27.28747440256076],[87.86332549164264,27.287467775934537],[87.86317057907289,27.28833997194378],[87.86324649888364,27.289086626212733],[87.86295027332643,27.289492438145395],[87.86252599760338,27.289684689067865],[87.86031281933312,27.290086595969438],[87.85935653994324,27.29049423230277],[87.8586986219185,27.29101745997584],[87.85832687425868,27.291629145862995],[87.85769233863465,27.292064159120155],[87.85743662143547,27.29216281767594],[87.85649627754132,27.29218890435024],[87.85554718829148,27.292621298262677],[87.85438466170922,27.293734456667103],[87.85381545250173,27.293717586802682],[87.85298907685024,27.293284787428696],[87.85248695530834,27.29328785973242],[87.85207361851425,27.293414529452225],[87.85075256111037,27.292966670722993],[87.85017459761359,27.29288440756789],[87.84947059143748,27.292994826829844],[87.84919236564073,27.29303715652633],[87.84761755548296,27.293845734121827],[87.84363158793826,27.29363743055541],[87.84223195667083,27.29398218115052],[87.84148324530614,27.29403189677982],[87.8361777012031,27.2924702829146],[87.83527385843465,27.291970089267366],[87.83465793695017,27.291628437690125],[87.83334045191754,27.291550562652308],[87.83304209341668,27.291608773076646],[87.83383677909103,27.292470761299533],[87.83460289328235,27.293378075902158],[87.83455676354733,27.29396518597059],[87.834457620975,27.294812186512825],[87.8345513638055,27.295773153294675],[87.83494133328777,27.296389264241576],[87.8349452842043,27.296917419477644],[87.83419834912273,27.298142978564087],[87.83413109232464,27.298937900466246],[87.835030953099,27.300336418560683],[87.83536409080915,27.301038680927103],[87.8357690619695,27.301467362505825],[87.83678819444522,27.30183814014995],[87.83825861048116,27.301901570871227],[87.83904128400162,27.30240245347216],[87.83924073824609,27.302717230042308],[87.83982717570285,27.304255294830195],[87.83990645891188,27.30446247886247],[87.84012126601952,27.306303014013704],[87.84104006800197,27.307516291506406],[87.84156417633447,27.30940233389663],[87.84204282755161,27.311126143072837],[87.84254059854969,27.312287786929662],[87.84304977104728,27.314451536748443],[87.84382251671917,27.315539341832956],[87.84575093832706,27.31675084975667],[87.84690513813507,27.317901791569884],[87.84820050413624,27.3185981607993],[87.84907196600872,27.31936712027974],[87.84914817916642,27.319258211946536],[87.85032590785991,27.31852879054781],[87.85162199847376,27.318076259288574],[87.85245472753192,27.317430055326007],[87.85316902794064,27.316324218931307],[87.85430980060119,27.315387299816663],[87.85572562279538,27.31490688412091],[87.85637053590027,27.314395097570078],[87.85683388106087,27.313859557590096],[87.85799727822643,27.312511705113508],[87.8592902886252,27.31126681693088],[87.8601432799344,27.31087787617107],[87.86075881722176,27.310826662602782],[87.86139442780902,27.3109174901668],[87.86145838956615,27.310926179615215],[87.86232565992333,27.31157985534446],[87.86258021062874,27.312463047023176],[87.86314730560578,27.313012572714726],[87.86353296597365,27.313856563247864],[87.86455680365542,27.31496974578051],[87.86623369367224,27.31604721927152],[87.86713785499077,27.31678648244395],[87.86849711885124,27.31748222476145]]]}},{"type":"Feature","properties":{"province":"Koshi Province","district":"Taplejung","municipality":"Sidingwa Rural Municipality","ward":"2","wardNumber":2,"sourceMunicipality":"Sidingba","sourceType":"Gaunpalika"},"geometry":{"type":"Polygon","coordinates":[[[87.96128740308771,27.299606261365057],[87.96106687955071,27.299382074597204],[87.96093818596657,27.298455306241628],[87.96104883712687,27.297809052145997],[87.96149298061466,27.296939226925797],[87.9612262459275,27.296412952924673],[87.95934909257336,27.29524539531113],[87.95839097245556,27.294446241040866],[87.95588820296776,27.292727720117984],[87.95493378111284,27.292355066524582],[87.95277814160153,27.29074475909017],[87.95227595166952,27.290513450194346],[87.95202029609862,27.29053321051612],[87.95166204541674,27.29080879722811],[87.9510997208097,27.29108345117692],[87.9505832865531,27.29133528351256],[87.94908548358657,27.291153569792208],[87.94805434241869,27.290596362921686],[87.94623942061934,27.29033556946731],[87.94534384169688,27.29033939928064],[87.94461357018301,27.290181866398918],[87.94386897614099,27.28981671046726],[87.94303652554005,27.28892177614662],[87.94210011148411,27.28857825535058],[87.94133245726411,27.288698554156237],[87.94065439022901,27.28843230077746],[87.93961838777724,27.28856116941875],[87.93949003623892,27.288916401061794],[87.93974684465488,27.290079299050117],[87.93941353666229,27.290180897745543],[87.93873147481709,27.29018547396744],[87.9377893689094,27.289769744374812],[87.93680850922246,27.289774075417974],[87.93550618721692,27.29112580757113],[87.93471315029488,27.291309375324207],[87.93443829769838,27.29122773180767],[87.93395741932187,27.290592179049796],[87.9334864271803,27.29031554444383],[87.93194779209082,27.28993983649867],[87.9309231636222,27.289845077792133],[87.9300242628182,27.289447164467028],[87.92911429895955,27.28924774766793],[87.92804308855365,27.289015636303482],[87.9269452988495,27.288476685753487],[87.92629024715089,27.288544280026702],[87.92606085495495,27.288753470418],[87.92588881216243,27.28964160883928],[87.9257410756299,27.289870553365553],[87.9251254198179,27.290199660841136],[87.92405496727838,27.29036479060512],[87.92233089153046,27.29008048844769],[87.9218830394222,27.290083497235635],[87.9210165444748,27.290545085692465],[87.92146114839231,27.290695684638745],[87.92207875835591,27.291059404728447],[87.9237128632933,27.291294694288307],[87.9241247136109,27.291840408903973],[87.92521748253998,27.29427760343553],[87.92545714716256,27.294919286728945],[87.92539505001787,27.29717225999469],[87.92575795491084,27.298124595398637],[87.92637470453106,27.29914294480038],[87.92621049424245,27.300816563037177],[87.92599974882955,27.301675630392747],[87.92610730060831,27.302227915339355],[87.92660130999363,27.302913044634906],[87.93044023784532,27.306487521911112],[87.9323229144875,27.30861692453436],[87.9329133257603,27.308965077989274],[87.9335963292592,27.309062031802043],[87.93530041160427,27.30992194022303],[87.93638082022038,27.31046758014672],[87.93658915183772,27.310680638875347],[87.93739046555959,27.311537437894653],[87.93903267913595,27.313672846149686],[87.94021563711159,27.314752765670065],[87.94065570076611,27.315909972008352],[87.9402904717374,27.31725762278393],[87.94012038909281,27.31910279107357],[87.93973570930704,27.320161670944955],[87.93912474927248,27.3208271269267],[87.93823837557638,27.32143125770322],[87.93803218795685,27.321999177549802],[87.93824727931508,27.32256196319071],[87.93935746802826,27.323920028305494],[87.93960564007801,27.32472863548029],[87.93947141516634,27.325289301902544],[87.93895568146505,27.326094047529494],[87.9388884874238,27.32688446763096],[87.93903686633176,27.32740030322651],[87.9386786553758,27.329413774278486],[87.93878196661085,27.330433258785117],[87.93901200254429,27.33103661838177],[87.9390896218151,27.33229554775805],[87.93826790332673,27.33322877387774],[87.9380962258432,27.333699415178614],[87.93812469327695,27.334529782511595],[87.93744435416953,27.336121073400488],[87.9408910564422,27.336102380133067],[87.9420782122735,27.33474908778782],[87.94416495236995,27.333599650850413],[87.94435526693546,27.33338846025709],[87.9442588880464,27.33201456035415],[87.94404060263066,27.33123739874489],[87.94437433441878,27.330503803110048],[87.94419331594263,27.329875309494206],[87.94411401900824,27.32909264448937],[87.94489096750554,27.328031069751972],[87.94516128917223,27.32682621229279],[87.94590866139178,27.325636224864514],[87.9461698037405,27.324916697091048],[87.94604423257675,27.323820628578932],[87.9469320558805,27.320945833070983],[87.94739313755797,27.31981861921608],[87.94906638585043,27.31748703144465],[87.9493734931353,27.317209569396052],[87.94991585336454,27.3160525338934],[87.94984122641634,27.3144166187311],[87.95023447480368,27.313493090403536],[87.95032211459315,27.31272961572338],[87.949750085926,27.312478427080375],[87.94911016363703,27.31248281580532],[87.94891596169961,27.312224556069882],[87.94927454040442,27.309906370271012],[87.94966340093549,27.30846819233814],[87.94823587884095,27.30581687914211],[87.94743535503812,27.303946658483703],[87.94730260385505,27.303263586389395],[87.94745507750281,27.30240495681044],[87.94901162211977,27.30122745886437],[87.94982510294439,27.3009984394593],[87.95052923803775,27.301050066536007],[87.95078664706034,27.301163407802903],[87.95112334190175,27.301529071031474],[87.95106077436779,27.3023419982069],[87.95071829560837,27.303285530673556],[87.95122889142353,27.304787523913447],[87.9513758539124,27.306237821031946],[87.9516547696418,27.30627657737823],[87.95415546907108,27.304936827204642],[87.95458993192415,27.304543453747165],[87.95528503985012,27.303545523926697],[87.9555185591982,27.30337234447672],[87.95662658776108,27.303231532603764],[87.95705161531174,27.3030774169367],[87.95936316515201,27.300978260911897],[87.96013844116062,27.30056668839641],[87.96128740308771,27.299606261365057]]]}},{"type":"Feature","properties":{"province":"Koshi Province","district":"Taplejung","municipality":"Sidingwa Rural Municipality","ward":"7","wardNumber":7,"sourceMunicipality":"Sidingba","sourceType":"Gaunpalika"},"geometry":{"type":"Polygon","coordinates":[[[88.04173933922509,27.435431112190372],[88.04150955079113,27.43473316257878],[88.04090674344877,27.43371525078972],[88.04013474676239,27.432653453876096],[88.03973652015897,27.431873295991426],[88.0394904858746,27.431597531677806],[88.03811789415646,27.430556002124074],[88.03724911836119,27.42976128603381],[88.03568306867642,27.428177226799246],[88.03470436657415,27.426916063117968],[88.0335824960225,27.426037451195192],[88.03284070550313,27.42528462020277],[88.03209547980534,27.424646884597042],[88.03181480270203,27.42417725237267],[88.03158938916344,27.423404779878698],[88.03170622707687,27.422641054745483],[88.0315969261944,27.422176983479858],[88.03147469041949,27.422019814473877],[88.03101488979367,27.421738865191955],[88.03024198091029,27.421789707585827],[88.02986296316129,27.421625541260536],[88.02978218103644,27.421508758366354],[88.02896852085749,27.419413535098656],[88.02904296738417,27.418647809902176],[88.02953342488519,27.417129731379863],[88.02952865147988,27.416208961702548],[88.02944943163426,27.416053792734385],[88.02928267977485,27.415933073188572],[88.02880729595195,27.41499774594245],[88.02871036687755,27.414228835136903],[88.02859431720307,27.41391818356335],[88.02839286135085,27.413603720360715],[88.02797982641889,27.41324793621892],[88.02751540110859,27.41307983271378],[88.02701939649803,27.412641088282882],[88.02667343446129,27.411673124545857],[88.02654969849033,27.411554466796424],[88.02643427384231,27.411243815304573],[88.02574299874094,27.410339376272375],[88.02495641946346,27.408629827363562],[88.02475190111123,27.40839207425184],[88.02384919635303,27.40847999128282],[88.02359703823493,27.408357710887127],[88.02310109588316,27.407918966508934],[88.02208544161257,27.406583531491165],[88.02183784495567,27.406346091393797],[88.02112045101919,27.406094093938158],[88.01961044060954,27.405319707771366],[88.01886546415194,27.404681909581694],[88.01847498692345,27.40374814351952],[88.01768319733276,27.401110948589878],[88.01769795757315,27.398655229237814],[88.01697307854353,27.396480230629283],[88.01685090515576,27.396323124796023],[88.0165034433745,27.39539129580531],[88.01608988416226,27.393994956740848],[88.01491466317756,27.392344620330192],[88.01459790751734,27.39171950605565],[88.01333584387689,27.39010361832467],[88.01186220195072,27.388444159390755],[88.01085704562608,27.386837708233752],[88.01079026000282,27.386375511784497],[88.01103551978152,27.385615347204993],[88.01104789254669,27.385308319106755],[88.01081654257524,27.384684766158408],[88.01004798533663,27.38358670818951],[88.01001115593944,27.383431226244927],[88.00932025548238,27.382526661193975],[88.00916194041025,27.382214073129752],[88.00918043644539,27.381753500362862],[88.00910746486474,27.381442535715337],[88.00879077183914,27.38081967199054],[88.00793162119443,27.37983052294601],[88.00722366157531,27.379348145002243],[88.00647831084319,27.378708033508538],[88.00607252447314,27.378158005241147],[88.00571912612016,27.377379596310977],[88.00524509318376,27.375367515749364],[88.00463035211902,27.374694829537994],[88.00409314324402,27.37421569977491],[88.00301260307207,27.373413234404737],[88.00264145771875,27.373054761257507],[88.00235946954739,27.37262345239677],[88.00161793086014,27.371908757395815],[88.00132663115063,27.371707766498837],[88.00090322287174,27.371577673119884],[88.00002251442574,27.371128057888978],[87.99951376119367,27.37099627865977],[87.99927060347765,27.37073620716505],[87.99824556316264,27.3690643613205],[87.99593449678348,27.367762834999905],[87.99512469307075,27.36746845148426],[87.99425361069677,27.36695550483829],[87.99400289168693,27.36684222618337],[87.99251713207933,27.36572423861077],[87.99205133292023,27.365587707184645],[87.9893248948746,27.365604824918883],[87.9884417679915,27.366076041172274],[87.98756964103762,27.366298935237346],[87.98644517636714,27.36679222465514],[87.98551771763115,27.367114711821493],[87.98359500691996,27.36689587008986],[87.98296783996936,27.366947646295458],[87.9804622483784,27.367642458202354],[87.97846644920183,27.367523272801105],[87.97626437713973,27.366940704375196],[87.97570133843492,27.366091404130835],[87.97552726034534,27.36548779270284],[87.97391894487622,27.36385596925104],[87.97318477670747,27.36281155221659],[87.9712142154798,27.361723894542266],[87.9694532863307,27.36033677033913],[87.96867850162089,27.3603421608943],[87.96676255761798,27.36073693618474],[87.96520962529978,27.361307444501115],[87.96445565917669,27.36123593730921],[87.96362203030364,27.36080838998018],[87.9600646620931,27.358122230452338],[87.95804465282946,27.357368734234143],[87.95694652747382,27.355861812569394],[87.95644092061187,27.35380459477249],[87.95563753021838,27.352392695169893],[87.95562994477656,27.35151250073343],[87.95612928426105,27.350132274658755],[87.95612489837922,27.34969214613424],[87.95594807154183,27.34919231579734],[87.9559473191352,27.34910654028353],[87.95442641797179,27.3505253587506],[87.95388111134709,27.3513416700743],[87.95312352804595,27.35164927338036],[87.9521705470804,27.351427851464486],[87.95152186494033,27.3511095192673],[87.95032135765058,27.350973376799757],[87.94931885226195,27.35043392466387],[87.94866567237747,27.350314213363074],[87.94841026774851,27.350374673743513],[87.94771602303261,27.35085113776456],[87.94601814823756,27.350799465724187],[87.9436497268344,27.351264707657613],[87.94078128418774,27.350665646497564],[87.9393425051382,27.350614470567898],[87.93795813182305,27.351088759127833],[87.93750009949791,27.351559030336674],[87.93644634313168,27.351818937957383],[87.9338900937195,27.351892505267006],[87.9295675652184,27.35175216778028],[87.92843846640987,27.351926738810803],[87.92708986028994,27.352542881197316],[87.92386137108123,27.352941243350458],[87.92201695600502,27.35350650489161],[87.9145443448966,27.35386499379116],[87.91424855686579,27.35425061225764],[87.91371712053356,27.35463786038056],[87.91287283606913,27.355794464369545],[87.91187174127693,27.35679183667149],[87.91150537599033,27.35765647113057],[87.9102356922995,27.35911835953872],[87.90974076747526,27.35941951935824],[87.90925027801431,27.359569447208564],[87.90794786646957,27.359740520469572],[87.90746925888415,27.36003023913534],[87.90739874505313,27.360529511434997],[87.9072300630581,27.3607608323615],[87.90674282479432,27.360928765591304],[87.90350300272776,27.360599977329496],[87.9025707902228,27.360831748950066],[87.90193575531183,27.36131433941189],[87.90139982285207,27.361940782421243],[87.90089414378036,27.36224875709669],[87.90006058737323,27.36225639898427],[87.8981421463908,27.3628466062055],[87.89493979287211,27.36333224304504],[87.89380912922837,27.36342072703105],[87.89197276476123,27.363299348926166],[87.89063365693289,27.36370968080585],[87.88931697792864,27.36337729475491],[87.88853069787913,27.363768297552333],[87.88732502297067,27.36458849718736],[87.88701012615509,27.365992163772674],[87.88699187178136,27.366075813961274],[87.88733040014259,27.367391755358852],[87.88909231105691,27.370750332730506],[87.88920767840317,27.371343191249295],[87.8895595786681,27.372264080141385],[87.89045074376196,27.37336213543779],[87.8906257558336,27.3738192041749],[87.89063365407964,27.374728720080004],[87.89000310033121,27.377118493711734],[87.88991264772764,27.37790003686622],[87.88979667322238,27.37818287178218],[87.88953940594418,27.378807496380972],[87.88971728769857,27.379002737574712],[87.88990455484212,27.379493565988277],[87.8899125785085,27.38041214759412],[87.89008752861577,27.380869215112195],[87.89039146456881,27.381402178775502],[87.89091673071061,27.381866117907492],[87.8919444236473,27.382010641802637],[87.89317481045374,27.381878643673467],[87.89432898475185,27.381868932107455],[87.89514759074036,27.381554450641588],[87.89661494440931,27.38165789202194],[87.89687266736226,27.381789363542747],[87.8978884113293,27.38434909479951],[87.89844431533314,27.384930129703626],[87.89919410913637,27.38571297089701],[87.89988036713311,27.385995165864358],[87.90015928295001,27.386013666951726],[87.90088286254415,27.386058666753907],[87.90273514002502,27.384823334072895],[87.90299204785471,27.384857777622937],[87.90454070006837,27.385770829905397],[87.90513529809897,27.385970127060435],[87.90668394210682,27.386492689921827],[87.90812148451924,27.387115284101228],[87.90957416853972,27.388265907153524],[87.91132644683144,27.388640422629056],[87.91233051041995,27.388970126577476],[87.91271659755725,27.38933322602247],[87.91195521470605,27.390297458955153],[87.91202155732063,27.39052727525749],[87.9125196182684,27.390670683012925],[87.91259153166689,27.39118483240853],[87.91272234999379,27.39209809819738],[87.91507706576053,27.39376410572453],[87.9160644523467,27.394818459153647],[87.91656690702892,27.395717964026858],[87.91779320424641,27.397215317933103],[87.91842847559369,27.398881356353325],[87.91910693021606,27.399651006780527],[87.92005335973346,27.40048667174776],[87.9202857757654,27.40129540492975],[87.92080255104834,27.402316694464965],[87.92247108555797,27.404364076700134],[87.92273731930088,27.40483177083024],[87.92340604651153,27.406777391567548],[87.92364901802492,27.40709629311257],[87.92474212633589,27.40792414092886],[87.92629170906515,27.40850740845458],[87.929869939244,27.410259794380842],[87.93156615228527,27.41143341985486],[87.93294575237054,27.41277616283609],[87.93391576306875,27.414058395654337],[87.93445184214522,27.41434371984581],[87.93470824916373,27.41438035052897],[87.9355388637382,27.414200970703657],[87.93639405667909,27.41438707256153],[87.937787650221,27.415205974095212],[87.93899136640059,27.416218061693538],[87.9392739799038,27.41666531235377],[87.93959124663029,27.417764566011368],[87.93990080753,27.418173179846832],[87.940937016103,27.418820788614187],[87.94295511892044,27.420939996956562],[87.9437452474206,27.42207894165256],[87.94425607209318,27.422594645800928],[87.94500604055942,27.422812946059558],[87.94630761410593,27.424239589819543],[87.94849436255619,27.42453388607811],[87.94907470813648,27.42487303739765],[87.94970670383788,27.425428438435176],[87.95285857851744,27.426686562342034],[87.95358899444074,27.427647517607543],[87.95459494459645,27.428428353101058],[87.95556883532274,27.429823306601428],[87.9564444239697,27.430593703523343],[87.95682057390596,27.431087654211723],[87.95722749829854,27.432145643957664],[87.95888190458366,27.434262608203763],[87.95952571568506,27.434777310273155],[87.96055742106701,27.435379592193737],[87.96175392353875,27.435371318414113],[87.96260955448562,27.435518845973817],[87.96372952904294,27.435508822351906],[87.96493302050334,27.434927130266665],[87.96537949748692,27.434924058435982],[87.96618748956405,27.435252515446813],[87.96690211709937,27.43481868790226],[87.96800670653668,27.434646241694864],[87.96858129539619,27.434755013254392],[87.96949908141836,27.435202377232745],[87.9702030303263,27.435353158484556],[87.97115970811693,27.43591299290185],[87.97336508026711,27.438578920639088],[87.97395911630616,27.43880947740205],[87.97674975374613,27.440920543703843],[87.97742427947979,27.442098376834533],[87.97864175167821,27.443166479228353],[87.97960617981936,27.443660731735676],[87.97998139537575,27.444314853543897],[87.98078820386742,27.44478766488145],[87.98168797795572,27.44504766236741],[87.98258588439995,27.445659700055852],[87.98331191938962,27.446435475675834],[87.98589924903467,27.446559339926747],[87.98833744366618,27.445914606636116],[87.99010651225699,27.445066888037815],[87.99218092975161,27.443648246690856],[87.99310751083533,27.44322404351537],[87.9939094802915,27.442654048966453],[87.99564407825103,27.44093982831633],[87.99632098618677,27.439695888608544],[87.99704104346105,27.43881955608177],[87.99890850034258,27.436986985493327],[87.9992720698948,27.436903078964882],[88.0017262743163,27.436458841254083],[88.00312742180657,27.436769219266328],[88.0033842662063,27.436778655077813],[88.00381873555588,27.436637792454118],[88.00413034298406,27.436339950115954],[88.00428450999449,27.43569332017555],[88.00469077239036,27.43516672108311],[88.00565936308189,27.43450519689381],[88.00614796993919,27.43405930752431],[88.00706479734836,27.43362835235973],[88.00760572968775,27.432954081654607],[88.00813110383567,27.432661361926847],[88.0087747775588,27.43264315687171],[88.00992520428852,27.432795055549438],[88.01018517386245,27.432725467361568],[88.01108650350048,27.432676061332014],[88.01277386491189,27.432268723807933],[88.01315906959373,27.432279469679152],[88.013920292819,27.432533466976142],[88.01404965162409,27.43250095535363],[88.01456021706674,27.432592035378942],[88.01533068822187,27.43261571581397],[88.01571839185672,27.432551939814047],[88.01700411431756,27.432553853792395],[88.01812545994305,27.432358276115433],[88.01860694380679,27.432104254730834],[88.01900539453156,27.431769524547715],[88.01981167063539,27.430874372706047],[88.0202286804586,27.430079069962677],[88.02039196969173,27.42920218470922],[88.02057515481175,27.42890065614397],[88.02079666987669,27.428713972112604],[88.02171187216845,27.428321277170433],[88.0241797020471,27.427666664874014],[88.02507640773673,27.42773223059985],[88.02609135161873,27.428072310789],[88.02710017185868,27.428563686395886],[88.02751758187313,27.428845010833918],[88.02776211579436,27.429161411779663],[88.02826037153949,27.429559455992607],[88.02863788981968,27.429764321818492],[88.0295127886097,27.43040561814889],[88.03052004642218,27.43093531704675],[88.03191657010765,27.431362791222263],[88.03268397915318,27.43146318133925],[88.03331990502875,27.43163678266157],[88.03534835522146,27.432352892405472],[88.03624049981553,27.432533616660525],[88.03662114264867,27.432661646518792],[88.03674494090775,27.43278036719906],[88.03700172297108,27.432787552032117],[88.03738086683282,27.43295390545547],[88.0390048041752,27.43415603969244],[88.04081280157477,27.4350182584044],[88.04173933922509,27.435431112190372]]]}}]}