{"type":"FeatureCollection","features":[{"type":"Feature","properties":{"province":"Koshi Province","district":"Jhapa","municipality":"Buddha Shanti Rural Municipality","ward":"3","wardNumber":3,"sourceMunicipality":"Buddhashanti","sourceType":"Gaunpalika"},"geometry":{"type":"Polygon","coordinates":[[[88.07086407855165,26.69582984979655],[88.07067244619375,26.695829040152276],[88.06975655407616,26.6959782262501],[88.06873337665537,26.696279333162554],[88.06809302635587,26.696600188649185],[88.06783693774561,26.69682788443147],[88.06719609076112,26.697302160130082],[88.06700414817438,26.69739844218468],[88.0667475575127,26.69751097945891],[88.066619761567,26.697548055369683],[88.06630077090588,26.697566253849157],[88.06596002179472,26.69754625437034],[88.06557688184756,26.69748818180468],[88.06519361714544,26.697486563661286],[88.06461840899584,26.6975224598139],[88.06423552021855,26.69755922719455],[88.06391578052875,26.697633880242034],[88.06301902792512,26.698089779689152],[88.06269922650887,26.698220824449056],[88.061739571614,26.69846728863486],[88.06135556128689,26.69865753868956],[88.06097192311792,26.698750698149855],[88.0593746570188,26.698803305607292],[88.05892662169805,26.698935289341406],[88.0587351771277,26.698954799039722],[88.05828763964534,26.698933301029047],[88.05758488468604,26.698970137084025],[88.0572652692943,26.698986022596934],[88.05669049776466,26.699003913530714],[88.05615774191298,26.69900342237569],[88.05554064089915,26.698924472885356],[88.05490234458404,26.69886603058952],[88.05464718775077,26.698786699509135],[88.05413618868688,26.69876789079458],[88.05343349406628,26.698669374462707],[88.05298676615793,26.698534968381058],[88.05273216963846,26.698381115591594],[88.05258379898524,26.69816999369389],[88.05235045843266,26.69793924297739],[88.05203202632384,26.69774750535074],[88.05165038083342,26.697441110169862],[88.05071552816499,26.696904032401974],[88.05067351132202,26.696845703053256],[88.05065387141711,26.696482410300643],[88.0505069308374,26.695946255873512],[88.05042457270825,26.695258367810883],[88.0502783200802,26.694724589728008],[88.05013299892464,26.69388372091382],[88.05011366831707,26.693425650044894],[88.05020119023138,26.692966763526414],[88.05018291780037,26.69227843777646],[88.0501832270481,26.692106949710446],[88.05007743566935,26.692010610922463],[88.04973681380964,26.692067321398426],[88.04937412128653,26.69218061132525],[88.04898992364976,26.69235048065019],[88.04828635864753,26.692502412693347],[88.04777461423845,26.69267097132401],[88.04719803734636,26.693031900260515],[88.04675006526082,26.69316613472085],[88.04636574321357,26.693392458271166],[88.0459176499518,26.693716248433656],[88.04553326379686,26.6938681126557],[88.04502214112748,26.693903444968672],[88.04483044754511,26.693961277825416],[88.04412756806614,26.69397779568681],[88.04387209886895,26.693939038368683],[88.04355316750235,26.693824010589427],[88.04293556795841,26.69382177093708],[88.04182829065597,26.693798347247427],[88.04153049459126,26.69379829004416],[88.04138007026125,26.69404542785862],[88.04122989691732,26.69431288387659],[88.04099319817294,26.69488342954083],[88.04093661739769,26.69495157557179],[88.04041512925109,26.695571642119653],[88.04020074781984,26.695970450555873],[88.04013635288749,26.6961425014285],[88.04013423747654,26.69660069800332],[88.04038721498114,26.697059327924848],[88.04042904679277,26.697232815224815],[88.04038615888538,26.697346037215677],[88.04015070326707,26.69757573359793],[88.03980865138831,26.698034124340953],[88.03972212514873,26.698262817410953],[88.03967600159288,26.699064428358124],[88.03982287792824,26.699523872692865],[88.03984326440988,26.6996952352282],[88.03967183314128,26.69998094696711],[88.03960656573695,26.700268156574428],[88.03960544712187,26.70055474061606],[88.03973093894199,26.700955606142234],[88.03987881067692,26.70118473239788],[88.03989994583138,26.70129970351149],[88.03983567489038,26.701415300680356],[88.03962216297673,26.701565848905446],[88.03957877558182,26.70169932669973],[88.03957771795493,26.701929581335452],[88.03966212836333,26.70215921005185],[88.03993667336617,26.702502555170085],[88.03997856634082,26.702617338160376],[88.03997825813286,26.702788888657153],[88.03969779901482,26.703592316458245],[88.03969686510233,26.70376386588864],[88.0398007281517,26.704336407106997],[88.03969350702917,26.70456516322714],[88.03937295916843,26.704831622270884],[88.03928749277904,26.70496541284374],[88.03915789211028,26.705365845545735],[88.0391128267167,26.705939576724603],[88.03921575580196,26.706685980509462],[88.03921469835215,26.706913922437774],[88.03910648022202,26.70731429184703],[88.03910536094087,26.70760093808757],[88.03923185022914,26.70783025300862],[88.03946456526081,26.708061066215652],[88.03971717119659,26.708691183312286],[88.04007749476511,26.70892105675189],[88.04088354944939,26.709459137194017],[88.04093675800618,26.709508400702102],[88.04107487357791,26.709631496965336],[88.0411376492657,26.709764221811202],[88.04108978388813,26.710987956603034],[88.0410022004444,26.711444591529865],[88.04097926310143,26.711826203744632],[88.04104129622634,26.712286274837457],[88.04101574496366,26.713202856436666],[88.04116100413073,26.714043724469786],[88.04120109333664,26.714578380372753],[88.04128494251901,26.71488478132377],[88.04149335437232,26.715896698580075],[88.04151417577204,26.715973346038634],[88.04170831644763,26.716315004506434],[88.04187369607784,26.71660496183446],[88.0427013918382,26.71750627348945],[88.04295623918408,26.717678194210098],[88.0434025295599,26.717832918523698],[88.04399812812603,26.718160378474963],[88.04423115661406,26.718427202944234],[88.04435833356004,26.718656517714585],[88.04463375359119,26.719020118482497],[88.04473954774393,26.71925187207577],[88.04484484471024,26.71963254438909],[88.04490687771278,26.72009255325596],[88.04516023695865,26.720855896928054],[88.04515874516,26.72123963409533],[88.04515669403797,26.721774603584816],[88.04515371164601,26.722614286418],[88.04528082357383,26.722766828982508],[88.04555717852664,26.722958943136426],[88.04562033328843,26.72326540640933],[88.04591626783686,26.723877205497935],[88.04593609620832,26.72425856680909],[88.04642285806936,26.72525484948901],[88.04648619474581,26.72531080182669],[88.0465701070004,26.72561720295102],[88.04661032457574,26.72630534077764],[88.04643765405949,26.727069630023234],[88.04626386403709,26.728061861461867],[88.04615595714728,26.7284237197778],[88.04668840175002,26.728444591256046],[88.0470709806395,26.728561430682955],[88.04822071692315,26.728794415201012],[88.04885970032991,26.728852795557767],[88.04949812279075,26.728970068627767],[88.05026515097983,26.728934981412714],[88.05103186756577,26.728936092806688],[88.05147934311947,26.72893727329575],[88.05184153746774,26.72895939740602],[88.05201128802909,26.72903479183772],[88.0521598477136,26.729264044002683],[88.05218073330299,26.729417338535107],[88.05209383759487,26.729876224219492],[88.05209240942398,26.730334420576494],[88.05213026752601,26.73170882287268],[88.05219186795902,26.732396772828018],[88.05219037614839,26.732780510486585],[88.05220883852382,26.733620068627395],[88.05207675433388,26.734765468750393],[88.05207588801522,26.735146892944503],[88.05213891604497,26.73537670868562],[88.05252037926792,26.735913296223238],[88.05303013843921,26.736392552966553],[88.05339003048968,26.736909135154736],[88.05334739374914,26.737062868077974],[88.05276957471091,26.737787215920804],[88.05221239288349,26.738700993130056],[88.05191291754072,26.73908242330649],[88.05167709208312,26.739540123765284],[88.05122812658219,26.7399972032322],[88.05086400462406,26.74045359397597],[88.0506067336685,26.740911482407967],[88.05013452541601,26.74205713883123],[88.04987675611507,26.742589486754923],[88.04970445524687,26.74312345925104],[88.04940348825629,26.74388862649578],[88.04927445230388,26.74434557473306],[88.04926941718443,26.745643455000437],[88.04922528605545,26.74610202723452],[88.0491384542289,26.746637623571825],[88.04890051541497,26.747630293027107],[88.04868203231545,26.749157744182824],[88.04840251219859,26.749997245460737],[88.048015517631,26.750912019993763],[88.04779995473396,26.751597600406615],[88.047756507161,26.75186424171361],[88.04777695583063,26.75203791697991],[88.04786118173034,26.75238039060654],[88.04815717640133,26.752915416787296],[88.0483698170536,26.752934105829187],[88.04856126253753,26.752971113480964],[88.04871013078652,26.753028690003696],[88.04883954292619,26.752610127269964],[88.04901197012224,26.752152865562394],[88.04911869380472,26.7520008819732],[88.04916189335333,26.75184708564487],[88.04933382376328,26.75154330667004],[88.04956877797608,26.75125715535759],[88.04969744428581,26.751028211153656],[88.0499558370144,26.750419215501825],[88.05031908463309,26.75000108633959],[88.05093973155898,26.7492764252396],[88.0513033545171,26.748838103283454],[88.0518592934943,26.748249358435558],[88.05200928022438,26.74802022593887],[88.05228836737811,26.74741098015971],[88.05284573580835,26.746438497038937],[88.05346688098149,26.74563931428234],[88.05363924419507,26.74510534296089],[88.05389694905581,26.744493971336063],[88.05419679433228,26.743884537836518],[88.05445406649814,26.74350335873034],[88.05490452389752,26.742664917129233],[88.05518454259864,26.741748644357674],[88.05546363072426,26.74113714697699],[88.05582756170034,26.74052721185947],[88.05631960356585,26.739975041272093],[88.05679044722237,26.739307900406775],[88.05704765512965,26.738850011135213],[88.05741270773001,26.738086655996522],[88.057627086056,26.73755455921868],[88.05794850433936,26.73703977696094],[88.05822765552416,26.736504990220833],[88.05863565547378,26.73543654496941],[88.05889485199113,26.734443687065102],[88.0588957824889,26.73413897336647],[88.05898162153004,26.73391034202808],[88.05938850739935,26.73339493341502],[88.05973099324635,26.732785248829995],[88.05988141481794,26.732402571940483],[88.06056720037459,26.731259786750147],[88.06073894162336,26.73087704680515],[88.06084665981487,26.730496996391775],[88.06099652009839,26.73019115348988],[88.06127573305251,26.729600038276875],[88.06140377620824,26.729447741369743],[88.06198053761125,26.728953585780324],[88.06208801084401,26.728819607096593],[88.06215346198155,26.728360909386122],[88.06202715154026,26.72775016971016],[88.0617310927553,26.72713843349968],[88.06143453680285,26.726677929621875],[88.0613716342308,26.726468431590916],[88.06137194356405,26.726296944414624],[88.06139394828521,26.726161341243156],[88.06160690039539,26.72614395791076],[88.06188350115902,26.726164395681483],[88.062821028904,26.726148374234814],[88.06299102931975,26.726185444710637],[88.06324662529917,26.726300911407705],[88.06356537080582,26.726512967117277],[88.06441624841833,26.726781967949925],[88.06501215773578,26.726994144228854],[88.06649966092775,26.72806868146007],[88.06726469858486,26.72849172904171],[88.06800854481521,26.729068508805053],[88.06860408025184,26.72937546354204],[88.06877426917976,26.72943291456962],[88.06888124388016,26.729375645679127],[88.06884027749665,26.728764279804718],[88.06875580466803,26.728534651277442],[88.06867425028982,26.72746533989006],[88.06859021264478,26.727159002194146],[88.06863794179895,26.72547932139244],[88.06876840913054,26.724715408263183],[88.06870674781752,26.724104167887685],[88.06860138863016,26.723721244939114],[88.06851828005676,26.723033420204544],[88.0684139181537,26.722496952741057],[88.06841664754894,26.72158055951565],[88.06850447712762,26.72089366942009],[88.06855133801727,26.71951870264279],[88.06849023721865,26.718830690426774],[88.06830170690192,26.717759942953485],[88.06834475252616,26.716315018515424],[88.068374990389,26.71531485019547],[88.06829393722292,26.714245476133968],[88.0682792125629,26.712871011287124],[88.0680908738908,26.711953746138832],[88.06805016279162,26.71157032209234],[88.06805327301444,26.71088412117257],[88.06824888548852,26.709966223891673],[88.06842411134464,26.708820510384886],[88.0684534546554,26.70698741032688],[88.06843356457689,26.706606174121752],[88.06830943723746,26.70576511809094],[88.06829209794391,26.704848787177177],[88.06810643670642,26.703473326026483],[88.06802252376498,26.703166987688707],[88.0680235193301,26.702936732280893],[88.06813173744408,26.702554431301095],[88.06813578103122,26.70163797549417],[88.0682236738396,26.70102785720531],[88.06863124251281,26.700266377141563],[88.06903943550955,26.699504834208685],[88.06944694121282,26.698743353535857],[88.0696823311668,26.69838268098188],[88.06998323987486,26.697773247454826],[88.07024038731119,26.697392068661355],[88.0703694892943,26.697086352060538],[88.0706504441068,26.696095493513848],[88.07086407855165,26.69582984979655]]]}},{"type":"Feature","properties":{"province":"Koshi Province","district":"Jhapa","municipality":"Buddha Shanti Rural Municipality","ward":"1","wardNumber":1,"sourceMunicipality":"Buddhashanti","sourceType":"Gaunpalika"},"geometry":{"type":"Polygon","coordinates":[[[88.04815717640133,26.752915416787296],[88.04786118173034,26.75238039060654],[88.04777695583063,26.75203791697991],[88.047756507161,26.75186424171361],[88.04779995473396,26.751597600406615],[88.048015517631,26.750912019993763],[88.04840251219859,26.749997245460737],[88.04868203231545,26.749157744182824],[88.04890051541497,26.747630293027107],[88.0491384542289,26.746637623571825],[88.04922528605545,26.74610202723452],[88.04926941718443,26.745643455000437],[88.04927445230388,26.74434557473306],[88.04940348825629,26.74388862649578],[88.04970445524687,26.74312345925104],[88.04987675611507,26.742589486754923],[88.05013452541601,26.74205713883123],[88.0506067336685,26.740911482407967],[88.05086400462406,26.74045359397597],[88.05122812658219,26.7399972032322],[88.05167709208312,26.739540123765284],[88.05191291754072,26.73908242330649],[88.05221239288349,26.738700993130056],[88.05276957471091,26.737787215920804],[88.05334739374914,26.737062868077974],[88.05339003048968,26.736909135154736],[88.05303013843921,26.736392552966553],[88.05252037926792,26.735913296223238],[88.05213891604497,26.73537670868562],[88.05207588801522,26.735146892944503],[88.05207675433388,26.734765468750393],[88.05220883852382,26.733620068627395],[88.05219037614839,26.732780510486585],[88.05219186795902,26.732396772828018],[88.05213026752601,26.73170882287268],[88.05209240942398,26.730334420576494],[88.05209383759487,26.729876224219492],[88.05218073330299,26.729417338535107],[88.0521598477136,26.729264044002683],[88.05201128802909,26.72903479183772],[88.05184153746774,26.72895939740602],[88.05147934311947,26.72893727329575],[88.05103186756577,26.728936092806688],[88.05026515097983,26.728934981412714],[88.04949812279075,26.728970068627767],[88.04885970032991,26.728852795557767],[88.04822071692315,26.728794415201012],[88.0470709806395,26.728561430682955],[88.04668840175002,26.728444591256046],[88.04615595714728,26.7284237197778],[88.04596376285528,26.72844329105931],[88.0457724443219,26.728480743347877],[88.04551666323542,26.72847812192476],[88.04481421783028,26.728361413514133],[88.04404700215912,26.728378369717703],[88.04321688659839,26.72831905447542],[88.0425772174839,26.728393713641044],[88.04193761523533,26.728619603633486],[88.0411701515294,26.728751719207438],[88.04093762982416,26.728751160145098],[88.04085091054543,26.72874953679489],[88.04059606723668,26.728713030727622],[88.04021336212409,26.728578122553998],[88.03995845571977,26.728539366614953],[88.0391932392558,26.72850211910005],[88.03868373749211,26.728309509938217],[88.03817473354788,26.728042378296067],[88.0374740981714,26.727774375334075],[88.03715498045953,26.727718051319894],[88.03664491938551,26.727678861945446],[88.03613535577176,26.727544894933313],[88.03517913069051,26.727450384602665],[88.03435063678072,26.72721939439824],[88.03396799623852,26.72716350989211],[88.03301133579943,26.727143396099372],[88.03271379042485,26.7271817255683],[88.03288304494299,26.727410726720358],[88.0331786638988,26.727927685451043],[88.03339055946006,26.728212827501057],[88.0339619679689,26.728786484789577],[88.03415242047501,26.729130457627683],[88.03427859970665,26.729531259708725],[88.03429880098302,26.72981784346537],[88.0344440014676,26.730791875642712],[88.03459069163866,26.731307711701813],[88.03452586436134,26.731710018090105],[88.03437538224351,26.73216702991009],[88.03443629523467,26.732855042351336],[88.03441354585726,26.733257035708853],[88.03415528593325,26.734229513208692],[88.0339193360755,26.734689463973595],[88.03374728620813,26.735261697810934],[88.033724228488,26.735835303435866],[88.03367991110187,26.736350267714155],[88.0336991157559,26.73680833899399],[88.033784211612,26.736904740832408],[88.03401748708568,26.737056530611984],[88.03410183404283,26.737209386789914],[88.03405633527063,26.738013310381284],[88.0340981671218,26.73818454723524],[88.03402973257643,26.739444604415308],[88.03400673946173,26.740094795453015],[88.03375108430646,26.740112492973555],[88.03355957742849,26.740132002490828],[88.03245311841656,26.740379282020047],[88.03143193648994,26.740474766347077],[88.03109150174545,26.74057205060242],[88.03041056963951,26.740685346048874],[88.0302408206038,26.740684348640784],[88.02964498144424,26.740819586537132],[88.02913380138632,26.74108511182806],[88.0285379016354,26.74127686613923],[88.02828243405382,26.741314819275527],[88.02785621950918,26.741448865909035],[88.02726094387155,26.741581852993683],[88.02692063346662,26.74162049609476],[88.0247923075946,26.742096361416845],[88.024111747925,26.742114753760948],[88.02360137586109,26.74219072272971],[88.02241031758759,26.742190307172706],[88.02189982053737,26.742248208365393],[88.02087814238912,26.742497112482916],[88.02011242772777,26.74255226688116],[88.01909162222753,26.742686075140593],[88.01872980451813,26.742781171970925],[88.0189832816149,26.743221795865928],[88.01915091893476,26.743832284161382],[88.01938264250215,26.74444458446115],[88.01961492423723,26.744903402447687],[88.02003616206505,26.745895747879477],[88.02060701788578,26.746889340939195],[88.02079653449253,26.747348471416387],[88.02086005890143,26.747424805184778],[88.02100687319952,26.747881873935913],[88.02125997857624,26.748494048678648],[88.0218729737902,26.749487266270002],[88.02223267717106,26.749927075699176],[88.0228882500103,26.750901974636083],[88.02301486592805,26.7512080614445],[88.02307727020901,26.75151233680303],[88.02322365164872,26.752199723625274],[88.02358198971775,26.75311804820458],[88.02379189577925,26.75388170552607],[88.02383304248032,26.754188419661617],[88.02402156630764,26.75495226520903],[88.0241061650734,26.75519989850113],[88.02415687398722,26.755316931348798],[88.02443297144849,26.75799421043012],[88.02451702041238,26.758806259107295],[88.024809138595,26.759343599071823],[88.02516733782873,26.759614108765625],[88.02577645051339,26.760307175904146],[88.02617466941227,26.760825695594608],[88.02678409356005,26.761482627025757],[88.02728797722365,26.762079354767025],[88.02772821381113,26.762656266104663],[88.02808210772079,26.763346649530984],[88.0282270443655,26.76373157193328],[88.02893664441976,26.765037879283895],[88.02897760041405,26.76519104809297],[88.02922757687814,26.76565199128714],[88.0294164007195,26.76588305530982],[88.02968819627662,26.766323491976486],[88.03042123694921,26.767363220089628],[88.03080131819931,26.76761553722094],[88.03101183679878,26.76780815213884],[88.03155711294532,26.768461021391406],[88.03161895281148,26.76869077520411],[88.03155137413148,26.769075013108974],[88.03115969117509,26.77004618035605],[88.03090041993953,26.770504068620266],[88.03079070100931,26.770884057262588],[88.03076644844714,26.771191210142906],[88.03078271542876,26.771669662503694],[88.0313521816686,26.772076270841687],[88.03194240750388,26.772539208241792],[88.03253469044618,26.77275382240146],[88.03278909608741,26.772794892523805],[88.03321437570679,26.77276018763605],[88.03355512225272,26.77268540892188],[88.03387485991978,26.772516041756493],[88.03440954612836,26.772137483175698],[88.0347510429078,26.772006314035394],[88.03492079215519,26.77200731109532],[88.03585350985769,26.772185533257943],[88.03619257132007,26.77220784614702],[88.03704481407533,26.771966885246403],[88.03713046888302,26.771909866865332],[88.03723731701753,26.771775888890236],[88.03725976075467,26.771680922370148],[88.03715752739603,26.771297937685453],[88.03730820154811,26.77106886780441],[88.03750120546287,26.770859802719045],[88.03752314913675,26.77078290467903],[88.03760930344485,26.77070775630786],[88.03761211008629,26.770403041935168],[88.0379121495311,26.770078003844727],[88.03793409328046,26.77000335713685],[88.03783248321508,26.7695436617215],[88.03798434458437,26.769237818979462],[88.03805192263324,26.76885583118109],[88.03796813880658,26.768702975759492],[88.03756779829068,26.768374136344594],[88.03750545992719,26.768221092933036],[88.03759205023376,26.768069234300267],[88.03769914932839,26.767953323174204],[88.03791222479082,26.76787948553019],[88.03850656670747,26.767902231522456],[88.03876165892078,26.76788678406158],[88.03935724854728,26.76777642856992],[88.03961252915586,26.767776736472314],[88.04029383404266,26.767552784144918],[88.04046501835434,26.767440872888166],[88.04059337548308,26.76730676895268],[88.04078706437791,26.76704124974385],[88.04093836572179,26.766879887474005],[88.04108841705732,26.766718524729296],[88.04171612077174,26.765650700538902],[88.04180215029558,26.765575615005964],[88.04195176598812,26.765500027614685],[88.04216646520442,26.76532916061677],[88.0426782739502,26.765201239421458],[88.04310598765014,26.76503105677037],[88.04359972150196,26.76463468171613],[88.04370769454161,26.764482635301146],[88.04383991952199,26.764023435735403],[88.04380058429172,26.763640011887677],[88.04380520042922,26.763181752435877],[88.0438704087835,26.763030018978164],[88.04408510768613,26.762859152367678],[88.04436289477535,26.76278487579637],[88.04466374713725,26.762480218667783],[88.04526308283091,26.762159739241287],[88.0454772828438,26.762009191455753],[88.04558531849595,26.761857144904706],[88.04569441311017,26.761551615201046],[88.04580238705904,26.761399631614648],[88.04595218863282,26.761285657691353],[88.04606041305708,26.761153929882575],[88.04621451927397,26.76062008346611],[88.04632180595894,26.760524490579233],[88.04647060949,26.760507608173132],[88.0465778343684,26.760411952870086],[88.04662159770386,26.760316862561787],[88.04660127642038,26.760222209958506],[88.04649629741724,26.76008754708864],[88.04664740929944,26.75984040952135],[88.04654455091482,26.759455173483534],[88.04633546532268,26.75907300317908],[88.04629500856089,26.758843061699945],[88.04633883308209,26.758689265927558],[88.04640354251222,26.75861430485517],[88.04657591387794,26.758423370632002],[88.04685488503304,26.758197925261168],[88.04709653320825,26.75809232713755],[88.04713773343413,26.75799492259951],[88.04722257173373,26.75779336272358],[88.04726639353346,26.75748833489881],[88.04718297816919,26.75703070252007],[88.04697083144815,26.756725304461774],[88.04678000791756,26.756555194999027],[88.04641862044527,26.756286997984063],[88.04637679051758,26.756190220464745],[88.04637728590707,26.755962279375332],[88.04665593920751,26.755504327782003],[88.04669920145793,26.75535272010654],[88.04682786805957,26.755123712793388],[88.04725576235211,26.754628560038494],[88.0478987246643,26.7536577016445],[88.04794186044955,26.753429383689607],[88.04798667869153,26.752970873804315],[88.04805026289468,26.752913918360214],[88.04815717640133,26.752915416787296]]]}},{"type":"Feature","properties":{"province":"Koshi Province","district":"Jhapa","municipality":"Buddha Shanti Rural Municipality","ward":"2","wardNumber":2,"sourceMunicipality":"Buddhashanti","sourceType":"Gaunpalika"},"geometry":{"type":"Polygon","coordinates":[[[88.04615595714728,26.7284237197778],[88.04626386403709,26.728061861461867],[88.04643765405949,26.727069630023234],[88.04661032457574,26.72630534077764],[88.0465701070004,26.72561720295102],[88.04648619474581,26.72531080182669],[88.04642285806936,26.72525484948901],[88.04593609620832,26.72425856680909],[88.04591626783686,26.723877205497935],[88.04562033328843,26.72326540640933],[88.04555717852664,26.722958943136426],[88.04528082357383,26.722766828982508],[88.04515371164601,26.722614286418],[88.04515669403797,26.721774603584816],[88.04515874516,26.72123963409533],[88.04516023695865,26.720855896928054],[88.04490687771278,26.72009255325596],[88.04484484471024,26.71963254438909],[88.04473954774393,26.71925187207577],[88.04463375359119,26.719020118482497],[88.04435833356004,26.718656517714585],[88.04423115661406,26.718427202944234],[88.04399812812603,26.718160378474963],[88.0434025295599,26.717832918523698],[88.04295623918408,26.717678194210098],[88.0427013918382,26.71750627348945],[88.04187369607784,26.71660496183446],[88.04170831644763,26.716315004506434],[88.04151417577204,26.715973346038634],[88.04149335437232,26.715896698580075],[88.04128494251901,26.71488478132377],[88.04120109333664,26.714578380372753],[88.04116100413073,26.714043724469786],[88.04101574496366,26.713202856436666],[88.04104129622634,26.712286274837457],[88.04097926310143,26.711826203744632],[88.0410022004444,26.711444591529865],[88.04108978388813,26.710987956603034],[88.0411376492657,26.709764221811202],[88.04107487357791,26.709631496965336],[88.04093675800618,26.709508400702102],[88.04088354944939,26.709459137194017],[88.04007749476511,26.70892105675189],[88.03971717119659,26.708691183312286],[88.03990469440583,26.709475347879145],[88.03990257828328,26.70993354414566],[88.03981643043798,26.71027727156342],[88.03962286907685,26.710678267058583],[88.03932289521742,26.711136343967233],[88.03936478738711,26.711251252205937],[88.03936447904445,26.71142280268197],[88.03932158987061,26.711479507850612],[88.03917166253456,26.71157541316839],[88.03872487782762,26.711707334609237],[88.03776678217463,26.71180019193264],[88.03731918419855,26.711914046458755],[88.03668095396209,26.71200902271541],[88.03648932161492,26.712008150799466],[88.03636139975089,26.711970704846024],[88.03629825039432,26.711930569694612],[88.03627699118029,26.711874303265702],[88.03629899701866,26.71174095114311],[88.03636351499652,26.711512508423755],[88.03651350175194,26.71128343838531],[88.03664378868923,26.710824176544104],[88.03660164722527,26.710747842618122],[88.036283090255,26.71061243409988],[88.03570813100114,26.710612069405446],[88.03423935318456,26.710857667770807],[88.03355798247932,26.71097096338809],[88.03283428240226,26.71098754353835],[88.03219561478437,26.711100525592396],[88.03176977504046,26.71119618657237],[88.03159896498924,26.711271961919813],[88.0311731246087,26.711365309411367],[88.02957455706182,26.711993147371285],[88.02880709816824,26.71231706862227],[88.02701770923836,26.712828938477323],[88.02605849177118,26.713149612107614],[88.02433324816043,26.713527754073358],[88.02329049672032,26.713641431518248],[88.02314125540617,26.713678569575347],[88.02235341053093,26.71383100385087],[88.02152248735534,26.714019824003618],[88.01992622045665,26.71407199316148],[88.01922403058248,26.714185476862916],[88.01858467689931,26.71435703880813],[88.01775307081213,26.71475579517261],[88.01685625894414,26.71538299478773],[88.01640741637326,26.715783432777172],[88.01615188864676,26.715877840361888],[88.01544894968555,26.716049903206905],[88.01491656899991,26.716105678963267],[88.01427839854468,26.716065116274546],[88.01389569713564,26.71606556129037],[88.01198031466775,26.71613574153465],[88.01159680319498,26.716251344814275],[88.01095819727237,26.716305559018217],[88.01092055878038,26.716317125718774],[88.00882874978275,26.716970854784005],[88.00742380365102,26.71706209429307],[88.00665783738975,26.717060795857623],[88.00582927954915,26.716752907507356],[88.00557406080677,26.716734407364203],[88.00512646337437,26.71686626631596],[88.00474295343724,26.717056329182274],[88.00442333968319,26.717151174642076],[88.00391246827475,26.717227018722713],[88.00333782254086,26.71726497766075],[88.00257260381504,26.71714620708618],[88.00142387216079,26.717068579925776],[88.00046621088556,26.717084413993838],[88.00014678351359,26.71712274335066],[87.99995496528693,26.71717826327921],[87.99925570012144,26.716695696786722],[87.99911104112621,26.717536383418963],[87.99906721436622,26.717629224153544],[87.99899651388515,26.718164694693368],[87.99897194644076,26.718372567799634],[87.99892737135357,26.718526363682397],[87.99758114277205,26.719005341129893],[87.99725927975017,26.719210719522795],[87.99683200341933,26.719358208094846],[87.99616864326748,26.71967443712971],[87.99582677108847,26.719746777498436],[87.99567696952802,26.71986068809661],[87.99518404608789,26.720121523795935],[87.9949044493861,26.720346969585446],[87.99473295119942,26.720422619981093],[87.99451775155177,26.720609240548896],[87.99466393364484,26.72080235741252],[87.99516525640293,26.72149405051101],[87.99543124575953,26.7222415777669],[87.99561850700523,26.722529158705846],[87.99597645517694,26.722781725523905],[87.99680057652766,26.723173200772244],[87.99709381565467,26.723500665954703],[87.99732203391129,26.723943729296764],[87.99751079341621,26.724116214059663],[87.99795327364998,26.724408791432715],[87.99856306976214,26.724930433531426],[87.99925588156033,26.724817200626685],[87.99977916209062,26.726077559963315],[88.00062681012791,26.727285961247997],[88.00105091328939,26.72778403697969],[88.00175118222873,26.728435965189522],[88.0018782314185,26.72858850789726],[88.00249222907391,26.729663123523206],[88.00270306763082,26.73019883910612],[88.00304083754052,26.7311558007755],[88.00316739205088,26.73153859776086],[88.0034001725783,26.731922956246272],[88.00403629540705,26.732652033250755],[88.00492801121207,26.733417679186825],[88.0051612894352,26.73364849271557],[88.00550110762735,26.73397564485579],[88.0061371042875,26.73468440314461],[88.0068588181878,26.735279689313128],[88.00738933656736,26.73585378596348],[88.00840822427922,26.73664106013208],[88.0087911188402,26.736873058763745],[88.00910949030225,26.737121376169902],[88.01051213930893,26.73773659289539],[88.01134144678963,26.73798796419648],[88.01191528591755,26.73820057840472],[88.013382082574,26.738815294519046],[88.01382849915737,26.73897014399688],[88.0158048622166,26.739854305378984],[88.0164422273733,26.74020183321245],[88.0168034274201,26.74047015460124],[88.01769327116797,26.74136658863242],[88.01860287893028,26.742572175309217],[88.01872980451813,26.742781171970925],[88.01909162222753,26.742686075140593],[88.02011242772777,26.74255226688116],[88.02087814238912,26.742497112482916],[88.02189982053737,26.742248208365393],[88.02241031758759,26.742190307172706],[88.02360137586109,26.74219072272971],[88.024111747925,26.742114753760948],[88.0247923075946,26.742096361416845],[88.02692063346662,26.74162049609476],[88.02726094387155,26.741581852993683],[88.02785621950918,26.741448865909035],[88.02828243405382,26.741314819275527],[88.0285379016354,26.74127686613923],[88.02913380138632,26.74108511182806],[88.02964498144424,26.740819586537132],[88.0302408206038,26.740684348640784],[88.03041056963951,26.740685346048874],[88.03109150174545,26.74057205060242],[88.03143193648994,26.740474766347077],[88.03245311841656,26.740379282020047],[88.03355957742849,26.740132002490828],[88.03375108430646,26.740112492973555],[88.03400673946173,26.740094795453015],[88.03402973257643,26.739444604415308],[88.0340981671218,26.73818454723524],[88.03405633527063,26.738013310381284],[88.03410183404283,26.737209386789914],[88.03401748708568,26.737056530611984],[88.033784211612,26.736904740832408],[88.0336991157559,26.73680833899399],[88.03367991110187,26.736350267714155],[88.033724228488,26.735835303435866],[88.03374728620813,26.735261697810934],[88.0339193360755,26.734689463973595],[88.03415528593325,26.734229513208692],[88.03441354585726,26.733257035708853],[88.03443629523467,26.732855042351336],[88.03437538224351,26.73216702991009],[88.03452586436134,26.731710018090105],[88.03459069163866,26.731307711701813],[88.0344440014676,26.730791875642712],[88.03429880098302,26.72981784346537],[88.03427859970665,26.729531259708725],[88.03415242047501,26.729130457627683],[88.0339619679689,26.728786484789577],[88.03339055946006,26.728212827501057],[88.0331786638988,26.727927685451043],[88.03288304494299,26.727410726720358],[88.03271379042485,26.7271817255683],[88.03301133579943,26.727143396099372],[88.03396799623852,26.72716350989211],[88.03435063678072,26.72721939439824],[88.03517913069051,26.727450384602665],[88.03613535577176,26.727544894933313],[88.03664491938551,26.727678861945446],[88.03715498045953,26.727718051319894],[88.0374740981714,26.727774375334075],[88.03817473354788,26.728042378296067],[88.03868373749211,26.728309509938217],[88.0391932392558,26.72850211910005],[88.03995845571977,26.728539366614953],[88.04021336212409,26.728578122553998],[88.04059606723668,26.728713030727622],[88.04085091054543,26.72874953679489],[88.04093762982416,26.728751160145098],[88.0411701515294,26.728751719207438],[88.04193761523533,26.728619603633486],[88.0425772174839,26.728393713641044],[88.04321688659839,26.72831905447542],[88.04404700215912,26.728378369717703],[88.04481421783028,26.728361413514133],[88.04551666323542,26.72847812192476],[88.0457724443219,26.728480743347877],[88.04596376285528,26.72844329105931],[88.04615595714728,26.7284237197778]]]}},{"type":"Feature","properties":{"province":"Koshi Province","district":"Jhapa","municipality":"Buddha Shanti Rural Municipality","ward":"4","wardNumber":4,"sourceMunicipality":"Buddhashanti","sourceType":"Gaunpalika"},"geometry":{"type":"Polygon","coordinates":[[[88.07243271767338,26.773052555950073],[88.07275857126808,26.77240679843836],[88.0729350574133,26.771719219568578],[88.07298318545479,26.771089096159276],[88.07302744731172,26.7709172330061],[88.07303119032181,26.77051542760635],[88.07321435062683,26.769139396296946],[88.07323100183994,26.767304170735006],[88.07336609710616,26.76656057550307],[88.0736281751522,26.76581597779793],[88.07391007678241,26.76524499348223],[88.07404136727793,26.76490314111259],[88.07436603505316,26.76433190519583],[88.07458148205671,26.764045817586332],[88.07473265648538,26.76381899840437],[88.07494872644081,26.76345620016201],[88.07523212581363,26.76271366514143],[88.07551390383512,26.762199072306178],[88.07596692917343,26.76157269233972],[88.07650479819115,26.760945561903462],[88.07682796825435,26.76048948472913],[88.07768882181995,26.759521372605157],[88.07790501699778,26.759178893320843],[88.0780577513595,26.758778148957013],[88.07816853006612,26.75826268340576],[88.07817177576355,26.75800985891037],[88.07818734270148,26.757993916954117],[88.0784252990845,26.757759655752658],[88.0786392451264,26.757455563222894],[88.07894058551157,26.75661581139083],[88.07911331999962,26.755930670778465],[88.07922190807662,26.755320302365075],[88.07937555995308,26.75402354494368],[88.07980544240822,26.75295709959141],[88.08006333382711,26.75230959242372],[88.08023563556505,26.751852267898418],[88.08025732558804,26.751621888102978],[88.0803432916632,26.751469966435668],[88.08072792160449,26.75106978008906],[88.08081394833577,26.750861467621732],[88.08117794367482,26.750328242037664],[88.08126371994261,26.750099610934697],[88.08156331940064,26.74967973248102],[88.08261979895396,26.74840540230616],[88.08265462401774,26.748364515112968],[88.08303969166649,26.74794619816479],[88.08368116056447,26.747318314529604],[88.08397982777929,26.74712869153936],[88.08423660284524,26.746900994594657],[88.08472870485058,26.746235854087924],[88.08562719806604,26.74534188788571],[88.08577712281563,26.745112755143044],[88.0866116531342,26.74410419501537],[88.08770140196866,26.74309581671238],[88.08814993358855,26.7428102881195],[88.08838594863683,26.742449490676364],[88.08864222245391,26.742163151988546],[88.08898533481751,26.74163011442612],[88.08915726492044,26.741269880374663],[88.0893306169635,26.740277649326195],[88.08935336688472,26.739895974673185],[88.0895041598507,26.73936437903318],[88.08959006268482,26.739210269778752],[88.08982675794601,26.73852450250186],[88.09040569732038,26.737610411247406],[88.09111335898858,26.73616485044351],[88.09137000859282,26.73586038093563],[88.09147785487916,26.7356315624363],[88.09154181397217,26.735554350901882],[88.09203292212844,26.7351939237822],[88.09292998621993,26.73468138233634],[88.09333618604191,26.7342426212182],[88.09372069372162,26.733901077024484],[88.09451034770588,26.733540581271765],[88.09491642549233,26.733216916391104],[88.09525822821435,26.732819231332435],[88.09575095268303,26.732095385768446],[88.09577321069816,26.73205687391285],[88.09553830988031,26.73194128164165],[88.09534673885082,26.73188408101363],[88.09477270958789,26.731538678332665],[88.09430559107415,26.731061484420096],[88.09413534015825,26.73100415843122],[88.09381584927964,26.73098403337675],[88.0935601954304,26.731060498330177],[88.09336812709802,26.731154529029812],[88.09296142862661,26.731667811551322],[88.09279074348852,26.731763905497125],[88.09204397744438,26.732008929003484],[88.0909564647236,26.732313037537832],[88.09050868130417,26.73253992508121],[88.0901885681068,26.732653026315095],[88.08980405765887,26.732863657840994],[88.08916464143876,26.733033343747753],[88.08890886090403,26.733033036286617],[88.08846169581973,26.732934953586252],[88.08788754452647,26.732704646429276],[88.0871849114652,26.732570057659707],[88.0869934009128,26.73245640269827],[88.08661044555777,26.73230130172162],[88.0862917005964,26.73209162129712],[88.08597214421812,26.731994723744023],[88.08578076053662,26.73189913673485],[88.08558956534173,26.73188032238048],[88.08539805515447,26.731764416409312],[88.08501466279418,26.731631884941347],[88.08488742711835,26.731535858959184],[88.08456787123514,26.731438961571342],[88.08405786744407,26.73120815316908],[88.0839298827639,26.731170707664877],[88.08329083697777,26.731112452208365],[88.0828442324269,26.730939784633645],[88.0826193937657,26.730627760228433],[88.08252641987055,26.73049978715491],[88.08248415104715,26.730346617846664],[88.08250733487456,26.729813773572634],[88.08242335952552,26.729507435772405],[88.08202144607071,26.728745344955126],[88.08174670693325,26.728135733997007],[88.08159964166079,26.727601892937248],[88.08153692230128,26.72721865678075],[88.08164693941968,26.726229177905836],[88.08173327718725,26.72592371146301],[88.08194772092968,26.725542909034093],[88.08222581364811,26.725179609495427],[88.08252609652102,26.72457017612234],[88.08252646836831,26.724419006465087],[88.08261955728997,26.72409090871637],[88.08276366080003,26.723579694095076],[88.08308669339063,26.722588585439404],[88.08310993895931,26.72205567897057],[88.08319627635905,26.72175027526796],[88.08313411863286,26.721292580224645],[88.08313604569862,26.72083432085066],[88.08296759720676,26.720300730416557],[88.08277639777589,26.72008998397576],[88.08261921281253,26.719953447316385],[88.08224544465533,26.719631297791476],[88.08214014954916,26.719327397534837],[88.08218558463746,26.718487400936908],[88.08214394029125,26.718334169703073],[88.08195361115104,26.717877476425183],[88.08174196285832,26.717495306183984],[88.08140282957602,26.717055495766914],[88.08121249984274,26.716596490221825],[88.08098678654451,26.716316036934423],[88.08093714221567,26.716253269937063],[88.0808740513827,26.71602351589757],[88.08078964204608,26.71587066083972],[88.08070498423649,26.715756191425292],[88.08049209099562,26.71564041068393],[88.07996070647138,26.71546618259008],[88.07983290808534,26.71537009412222],[88.07953654342884,26.715063134152096],[88.07917590181349,26.71460538246882],[88.07896400876496,26.714451278227514],[88.07866676781758,26.714126251445215],[88.07843361810504,26.71399034070555],[88.07830625675197,26.71387618426319],[88.07792566386455,26.71316804670776],[88.07792759259199,26.712709850251905],[88.07801505144758,26.71225096431116],[88.07859479669385,26.711032159359092],[88.07870301433645,26.71064985734394],[88.07885287519744,26.710346266100945],[88.07891795546307,26.710117760679072],[88.07911101708721,26.709737082927205],[88.079176097808,26.709506389241902],[88.07936915956539,26.709125649066884],[88.07958459961509,26.70851684156549],[88.0798848841577,26.707984180928722],[88.08016341381334,26.707602813686186],[88.08031383671333,26.707299159323092],[88.08046462909135,26.70676531287042],[88.0804462957301,26.706153759084433],[88.08057676516546,26.70546655552557],[88.08061996552934,26.70531501082361],[88.08087698587508,26.704857121292417],[88.08121985041457,26.70443918029514],[88.08147593871271,26.704211484563267],[88.0818393153689,26.70396490514683],[88.0826187699809,26.703272750436803],[88.08284309769563,26.703072438220698],[88.0828866107897,26.702956966261105],[88.08318589700806,26.702519019627516],[88.08365705404749,26.701910520528912],[88.08401974298258,26.70166169057241],[88.084360926526,26.701530396008266],[88.08459588053157,26.701264501878278],[88.08491630343175,26.700997980281056],[88.08536538926265,26.700330901415548],[88.08545135439263,26.70017904310309],[88.08551637277253,26.699948286578742],[88.08556056758033,26.69956873709401],[88.08551823690252,26.69941556862848],[88.08545471167542,26.699339296763018],[88.08532791341021,26.69922288994743],[88.0847538881905,26.69905122529656],[88.08437180649823,26.698839733654],[88.08424525104655,26.698418612360385],[88.08397119995358,26.69780675068563],[88.08358967800038,26.697462094316286],[88.0835049589518,26.697406266621886],[88.08335571647584,26.697366820764472],[88.08310105753768,26.697213030618496],[88.08278306086598,26.696944582657842],[88.08267733209108,26.69679191458478],[88.08261868075122,26.696577916015368],[88.08261861761719,26.696562098302426],[88.08252983164994,26.69640930516714],[88.08248756301879,26.696258386630358],[88.0825113714667,26.69572323003335],[88.08261846218824,26.695219080685277],[88.08264134319984,26.695112798497508],[88.08292217216896,26.69412200327473],[88.0830094413667,26.693586407322048],[88.08301199267981,26.69305362690977],[88.08290750420441,26.692442762363527],[88.08261840332288,26.692630072006352],[88.08258782938606,26.692650579078492],[88.08192696909576,26.69285877709428],[88.08032839791163,26.693290870685342],[88.0781958919479,26.694140095255882],[88.0771719063529,26.69461506554774],[88.07666016098679,26.69478374975168],[88.0756369192965,26.695008209131792],[88.07461392842886,26.695252987285304],[88.07359093818538,26.69557222408976],[88.07265378722323,26.695665081463847],[88.0722269469679,26.695776683922716],[88.07086407855165,26.69582984979655],[88.0706504441068,26.696095493513848],[88.0703694892943,26.697086352060538],[88.07024038731119,26.697392068661355],[88.06998323987486,26.697773247454826],[88.0696823311668,26.69838268098188],[88.06944694121282,26.698743353535857],[88.06903943550955,26.699504834208685],[88.06863124251281,26.700266377141563],[88.0682236738396,26.70102785720531],[88.06813578103122,26.70163797549417],[88.06813173744408,26.702554431301095],[88.0680235193301,26.702936732280893],[88.06802252376498,26.703166987688707],[88.06810643670642,26.703473326026483],[88.06829209794391,26.704848787177177],[88.06830943723746,26.70576511809094],[88.06843356457689,26.706606174121752],[88.0684534546554,26.70698741032688],[88.06842411134464,26.708820510384886],[88.06824888548852,26.709966223891673],[88.06805327301444,26.71088412117257],[88.06805016279162,26.71157032209234],[88.0680908738908,26.711953746138832],[88.0682792125629,26.712871011287124],[88.06829393722292,26.714245476133968],[88.068374990389,26.71531485019547],[88.06834475252616,26.716315018515424],[88.06830170690192,26.717759942953485],[88.06849023721865,26.718830690426774],[88.06855133801727,26.71951870264279],[88.06850447712762,26.72089366942009],[88.06841664754894,26.72158055951565],[88.0684139181537,26.722496952741057],[88.06851828005676,26.723033420204544],[88.06860138863016,26.723721244939114],[88.06870674781752,26.724104167887685],[88.06876840913054,26.724715408263183],[88.06863794179895,26.72547932139244],[88.06859021264478,26.727159002194146],[88.06867425028982,26.72746533989006],[88.06875580466803,26.728534651277442],[88.06884027749665,26.728764279804718],[88.06888124388016,26.729375645679127],[88.06877426917976,26.72943291456962],[88.06860408025184,26.72937546354204],[88.06800854481521,26.729068508805053],[88.06726469858486,26.72849172904171],[88.06649966092775,26.72806868146007],[88.06501215773578,26.726994144228854],[88.06441624841833,26.726781967949925],[88.06356537080582,26.726512967117277],[88.06324662529917,26.726300911407705],[88.06299102931975,26.726185444710637],[88.062821028904,26.726148374234814],[88.06188350115902,26.726164395681483],[88.06160690039539,26.72614395791076],[88.06139394828521,26.726161341243156],[88.06137194356405,26.726296944414624],[88.0613716342308,26.726468431590916],[88.06143453680285,26.726677929621875],[88.0617310927553,26.72713843349968],[88.06202715154026,26.72775016971016],[88.06215346198155,26.728360909386122],[88.06208801084401,26.728819607096593],[88.06198053761125,26.728953585780324],[88.06140377620824,26.729447741369743],[88.06127573305251,26.729600038276875],[88.06099652009839,26.73019115348988],[88.06084665981487,26.730496996391775],[88.06073894162336,26.73087704680515],[88.06056720037459,26.731259786750147],[88.05988141481794,26.732402571940483],[88.05973099324635,26.732785248829995],[88.05938850739935,26.73339493341502],[88.05898162153004,26.73391034202808],[88.0588957824889,26.73413897336647],[88.05889485199113,26.734443687065102],[88.05863565547378,26.73543654496941],[88.05822765552416,26.736504990220833],[88.05794850433936,26.73703977696094],[88.057627086056,26.73755455921868],[88.05741270773001,26.738086655996522],[88.05704765512965,26.738850011135213],[88.05679044722237,26.739307900406775],[88.05631960356585,26.739975041272093],[88.05582756170034,26.74052721185947],[88.05546363072426,26.74113714697699],[88.05518454259864,26.741748644357674],[88.05490452389752,26.742664917129233],[88.05445406649814,26.74350335873034],[88.05419679433228,26.743884537836518],[88.05389694905581,26.744493971336063],[88.05363924419507,26.74510534296089],[88.05346688098149,26.74563931428234],[88.05284573580835,26.746438497038937],[88.05228836737811,26.74741098015971],[88.05200928022438,26.74802022593887],[88.0518592934943,26.748249358435558],[88.0513033545171,26.748838103283454],[88.05093973155898,26.7492764252396],[88.05031908463309,26.75000108633959],[88.0499558370144,26.750419215501825],[88.04969744428581,26.751028211153656],[88.04956877797608,26.75125715535759],[88.04933382376328,26.75154330667004],[88.04916189335333,26.75184708564487],[88.04911869380472,26.7520008819732],[88.04901197012224,26.752152865562394],[88.04883954292619,26.752610127269964],[88.04871013078652,26.753028690003696],[88.0488588131371,26.75320136287996],[88.0489628035995,26.753850676138242],[88.04900121593195,26.754879663942464],[88.04878465894566,26.75586995769447],[88.04878341646035,26.75621305874393],[88.04884557324941,26.756614362543882],[88.04912174153442,26.756842549187432],[88.04950407291868,26.757054166312486],[88.0499502445306,26.757454838575065],[88.05007710768763,26.757645767180232],[88.05027018575103,26.75799424057588],[88.05032902230224,26.75809989566362],[88.05045294250202,26.758112459234802],[88.05098002187688,26.75869093200653],[88.05133897124449,26.758961379185415],[88.0513597927977,26.759037963325948],[88.05131621740067,26.75915118545546],[88.05120849287636,26.759264845584905],[88.05110002178012,26.759493601764976],[88.0510991488786,26.759608697891878],[88.0511824954771,26.759781934715306],[88.0513518088262,26.759877709684346],[88.05154287974527,26.759937223759533],[88.05239450272404,26.759926392126424],[88.0528195967144,26.760004470017652],[88.05324344318258,26.76022027578763],[88.05353843165953,26.760509229296787],[88.05368636248356,26.76060519293009],[88.05394108256812,26.760684585820144],[88.05428027197117,26.760858068041124],[88.05470517980191,26.760976782891277],[88.05504411918511,26.761132259544688],[88.05646296597955,26.7619478471713],[88.05739643823809,26.762279427184005],[88.05762877656153,26.762453724288317],[88.0576442344928,26.763103726425964],[88.0576848158477,26.763277214178753],[88.05785213482723,26.763623562390528],[88.05795755061156,26.763737844330592],[88.0581903257484,26.763891885462346],[88.05835801751896,26.764143456062122],[88.05839847546079,26.764373334943308],[88.05835421342006,26.764545261039437],[88.05837328770636,26.7647730775377],[88.05852059701492,26.765004454959524],[88.058941760835,26.76546626953416],[88.05944533721268,26.7662751223617],[88.05955075328008,26.76638940363838],[88.05984412147455,26.766908676128853],[88.05996804968706,26.767253086409095],[88.05998325789865,26.76794141266402],[88.05980677071777,26.768570225192903],[88.05980521133598,26.768744026342144],[88.05997109511623,26.769203283144535],[88.06018124072729,26.769492926633635],[88.06041127246986,26.76995386971404],[88.06076804021484,26.770529031708335],[88.0610592863977,26.771219791115985],[88.06109968248825,26.77150612381846],[88.06107674042852,26.771677862013668],[88.06092475417157,26.771963511423518],[88.06092394392499,26.772078544477],[88.06111046147862,26.772596317995554],[88.06121519131213,26.772769303941395],[88.06138450638508,26.77292378369871],[88.06159720915008,26.77294472327079],[88.06214822780466,26.773179907602028],[88.06255075409251,26.773393587172958],[88.0627216894153,26.7733177495435],[88.06323474673697,26.773131060484648],[88.06362000656263,26.772904737264476],[88.06400464349616,26.772755123863174],[88.06458253430787,26.772434769366548],[88.06524788734195,26.7718473982122],[88.06550485275446,26.77169647387387],[88.06569661007516,26.771697283378685],[88.0658876811843,26.77175679724239],[88.06639568455925,26.772028304831636],[88.06652310643099,26.77206800144265],[88.06786534400085,26.77200139479246],[88.06809949118195,26.771965817836243],[88.06829224615728,26.771871786435092],[88.06835720472544,26.771758439903184],[88.06833831727788,26.771489923578567],[88.06855257924857,26.771339376107388],[88.06938493972113,26.77113448855329],[88.06972600015672,26.7711002843368],[88.0698317282737,26.771176241949256],[88.06982723660896,26.77163668955164],[88.06984781000769,26.77175166001224],[88.06993140608213,26.771886448743533],[88.07005832788033,26.771944150728768],[88.07050586602368,26.771929512556593],[88.07101574218481,26.772065605685032],[88.07146128343554,26.77224283684635],[88.07182098146968,26.7724545175962],[88.07224264520332,26.772898264850962],[88.07243271767338,26.773052555950073]]]}},{"type":"Feature","properties":{"province":"Koshi Province","district":"Jhapa","municipality":"Buddha Shanti Rural Municipality","ward":"6","wardNumber":6,"sourceMunicipality":"Buddhashanti","sourceType":"Gaunpalika"},"geometry":{"type":"Polygon","coordinates":[[[88.10339039478973,26.761022713414338],[88.10326515663377,26.760811529656163],[88.10299073860087,26.760578903408526],[88.10214573374658,26.760113783122225],[88.10164003801647,26.759630150967883],[88.10134505136114,26.759418031681253],[88.10071461642953,26.758646442814857],[88.10047632759085,26.75799375588303],[88.10041436323223,26.757824895177457],[88.10009574327614,26.757635533130113],[88.09966983612819,26.757537262241758],[88.09839093417125,26.75757423427096],[88.09762403017326,26.757571247090535],[88.09741095161407,26.757514172192717],[88.09726189512425,26.757436339749724],[88.09679471578553,26.7570359812033],[88.09670999516736,26.75692151129741],[88.09666834730061,26.756578724770385],[88.09669090722977,26.756120339453567],[88.09684188920792,26.755663203489153],[88.09727027929239,26.75497824488203],[88.09752705473248,26.754750547976908],[88.09804022790424,26.75412129242981],[88.09806260422224,26.75383670843995],[88.09799976438886,26.753645403877197],[88.09785101871375,26.753472668528115],[88.09768101760896,26.753376955698354],[88.09759554851506,26.753377645347218],[88.09708380478374,26.75356670964866],[88.09680576828491,26.75367943566165],[88.09644295460798,26.753928265237057],[88.09545912190954,26.755030668375586],[88.09509456527081,26.755620347959738],[88.09498734400977,26.755849167147534],[88.09449499028378,26.756419530247914],[88.09423846794958,26.756800709309204],[88.09381057186214,26.757219401777203],[88.09351171725702,26.757390957740313],[88.09331940074809,26.75752331233799],[88.09326032716187,26.757982010183884],[88.09325851389438,26.757993326251178],[88.09324101055114,26.758135618097043],[88.09320131261622,26.75831879750007],[88.09310797630758,26.75874611245986],[88.09289221884787,26.759124727135173],[88.09265588940265,26.75939062196724],[88.09216421793532,26.759710474231408],[88.09165259881047,26.75991529344593],[88.09133192393507,26.760105042597488],[88.09105232961447,26.76044583518391],[88.09054164615769,26.760555877011626],[88.0903286336952,26.760629777773435],[88.09019909034915,26.760820335297876],[88.09017646033192,26.7609536872836],[88.09006942450957,26.761067410019084],[88.08991987138269,26.761140747276954],[88.08953667183948,26.76123403156351],[88.08940850139274,26.76130943049525],[88.08930065287862,26.76145928961708],[88.08925676619809,26.761613147128212],[88.08912741139213,26.76182177362459],[88.08889120673236,26.762105735774572],[88.0888054266876,26.76214249794589],[88.08854821340036,26.7623905136191],[88.08822766392394,26.76259614188251],[88.0878864811084,26.7627455040547],[88.0875458585304,26.76282034499675],[88.08724793952935,26.762892622096427],[88.08686573626778,26.762832360670423],[88.08644314049113,26.76261893173849],[88.0860199827272,26.76247996069788],[88.08534291698359,26.762148813682902],[88.08517347894046,26.76210949351223],[88.08483422977848,26.762066924512293],[88.0840697014802,26.76205931097311],[88.08321964267459,26.76211096691776],[88.08296529943644,26.76207002180241],[88.08262042184099,26.761964310378495],[88.08194704696984,26.761755011388953],[88.08190446960032,26.76177339224227],[88.0818608931462,26.76188886455154],[88.08185871032765,26.762116869119637],[88.08192061348844,26.762346622383966],[88.08195396099474,26.763341787881753],[88.08190870015035,26.76360849180074],[88.08184405396115,26.76368570339951],[88.08160978150016,26.7637010876045],[88.08118462458947,26.76362307256793],[88.08107852394721,26.76363964114378],[88.08103532217,26.76371672768903],[88.08090665294779,26.76381025703355],[88.08073602922249,26.763847708242395],[88.08039677629604,26.763674226440454],[88.07988633934126,26.763612655257543],[88.07903340729277,26.763756838179706],[88.0781793537111,26.764056816456346],[88.07775301254814,26.764109715245667],[88.07707001734494,26.76427746401346],[88.07647373844094,26.76431136005569],[88.07587827060314,26.764230097233305],[88.07511436049668,26.763956093485938],[88.07473265648538,26.76381899840437],[88.07458148205671,26.764045817586332],[88.07436603505316,26.76433190519583],[88.07404136727793,26.76490314111259],[88.07391007678241,26.76524499348223],[88.0736281751522,26.76581597779793],[88.07336609710616,26.76656057550307],[88.07323100183994,26.767304170735006],[88.07321435062683,26.769139396296946],[88.07303119032181,26.77051542760635],[88.07302744731172,26.7709172330061],[88.07298318545479,26.771089096159276],[88.0729350574133,26.771719219568578],[88.07275857126808,26.77240679843836],[88.07243271767338,26.773052555950073],[88.07236819573033,26.773147835045933],[88.07246843476094,26.77377908133596],[88.07259223963496,26.774238587973826],[88.07333993347892,26.776253102010063],[88.07377948690387,26.77706014281316],[88.07428387490162,26.777810227949516],[88.07472124505762,26.77884514746961],[88.07499397952722,26.77930577750003],[88.0756201143097,26.780689171442916],[88.07582957282186,26.78103520662981],[88.07595337900109,26.781494713637976],[88.0761194486908,26.78189745316291],[88.07643501153633,26.782357832401708],[88.07668854543232,26.782570327049385],[88.07694033391739,26.782936305198515],[88.07752295425968,26.78443291966749],[88.07789979494602,26.78512299032186],[88.07798164563177,26.785467776883763],[88.07814827868057,26.785929159212145],[88.07829134499087,26.786560153221867],[88.07837400617687,26.78678965712378],[88.07843366275759,26.787249665271652],[88.07862018132694,26.78782383012542],[88.07865783218855,26.788340418238793],[88.07862965099186,26.78908776198335],[88.07866792545663,26.7895457081606],[88.07877115962621,26.789948949439438],[88.07880793748633,26.790578445556662],[88.07897463292977,26.790983436161117],[88.07924979934236,26.791157419870746],[88.08024161918074,26.792102365324624],[88.08034672321611,26.79225497021616],[88.08057912642121,26.79248572132162],[88.08104243302795,26.79306456971443],[88.08116711141916,26.793408918582518],[88.08145997927133,26.793928190321886],[88.08164961628741,26.794159129345694],[88.08209341155946,26.79454398366202],[88.08232631284206,26.794700212346175],[88.08262092679101,26.795007171905127],[88.08270527367576,26.795141959966944],[88.08282926526306,26.79554501329672],[88.08392381360343,26.796644877663276],[88.08464015077314,26.79724435199595],[88.08480940122696,26.79732199695162],[88.08552754876996,26.797788245328324],[88.08586661295455,26.797925591735535],[88.08646076766429,26.797986473797692],[88.08671498727256,26.798065804457778],[88.08703160796946,26.7982981163347],[88.08738918425837,26.798665530310686],[88.08772463002292,26.799166295279534],[88.08782879856835,26.79939573593293],[88.0878653800955,26.799673004026754],[88.0879277894423,26.80014432853722],[88.0882384840596,26.801008700822955],[88.08829695470986,26.801527413934657],[88.0885671305912,26.80216190700235],[88.08877315809251,26.802796777115923],[88.0890248819676,26.80314243575819],[88.08940508801831,26.803376497656767],[88.08980567927271,26.803705211557638],[88.08997355765045,26.803900265301515],[88.09026910699822,26.80409437875784],[88.09052426252471,26.804076619498147],[88.09084512481456,26.803889058395132],[88.09110077806028,26.80379452586456],[88.09135493507907,26.803873794439916],[88.09156607831191,26.804048217025954],[88.09160765804589,26.80412467586997],[88.09166943386703,26.804279907800787],[88.09172927870912,26.804739916110137],[88.09172416369145,26.805256817210353],[88.09163638850622,26.80554421604005],[88.09158844654166,26.806117884682397],[88.09152199142389,26.80640503207021],[88.09128366523633,26.8068628586053],[88.09128216841887,26.807034408861036],[88.0913441947174,26.807207645533225],[88.09182950511655,26.807576431757116],[88.09218708106944,26.807943845744724],[88.09233457484235,26.808041996408576],[88.09245255794698,26.808149401032612],[88.09271397109505,26.8083889038198],[88.09343161755436,26.808855089344753],[88.093664204976,26.808972931843737],[88.09391842471273,26.809052200917638],[88.09421466025242,26.809189860289404],[88.09464037616688,26.809116518650754],[88.09487539581825,26.808965782893562],[88.09532542525328,26.808547026763613],[88.09562509135105,26.808321205043153],[88.09609762745094,26.807827739756384],[88.09691090852434,26.807182660403345],[88.09751535617572,26.80621186495081],[88.0977119140287,26.805598681979735],[88.09771721646027,26.805101973982072],[88.0977182135776,26.804948553630766],[88.09774128071267,26.8047948835257],[88.09789183018253,26.80456575125036],[88.09808471014959,26.804415266124277],[88.09836180873063,26.804322734057045],[88.0984474007305,26.804265715946265],[88.09859776378627,26.804074969912687],[88.09864146502785,26.80397981545023],[88.09862444825839,26.803519494073193],[88.09871153760056,26.80329086241066],[88.09865069567513,26.802982086071374],[88.09846143495035,26.80278940777519],[88.09799688302984,26.80247932616403],[88.09780712265491,26.80230471558007],[88.09763924523718,26.802111912532574],[88.09749281069136,26.80186021690496],[88.0970508271463,26.801416782389055],[88.09698948668208,26.801184777717037],[88.0967372641169,26.800915828559308],[88.09610283861107,26.800602499259718],[88.09546953478811,26.800135686643582],[88.09530402783109,26.79973294690211],[88.09532103233703,26.799674116759622],[88.09536973401879,26.799504440822346],[88.09556311108749,26.799277246121076],[88.0959693773381,26.798955831918157],[88.09601320166934,26.798801973154085],[88.09592998067865,26.798649179868615],[88.09571839970137,26.798492763773655],[88.09535939007354,26.798299213097714],[88.09504145925078,26.798200065461273],[88.09465981866595,26.79813986725902],[88.09440547461311,26.79804259360691],[88.09434226292147,26.79800239494648],[88.09430087035135,26.797887549865433],[88.09481510888271,26.7974140896686],[88.09505006592242,26.797263352874577],[88.09594868927093,26.796545314312805],[88.09616444683472,26.79616444849288],[88.09614530897423,26.795936631867246],[88.09593659946405,26.795552273113902],[88.09576809566073,26.795359470358534],[88.0954723581925,26.795145037350004],[88.09521988639997,26.794914537594796],[88.09507314089095,26.794701227736578],[88.09488350470399,26.794528930524983],[88.09471643676358,26.794220968792747],[88.09469723776493,26.79399090126777],[88.09474156062713,26.793762584195736],[88.09465939908675,26.79345624623821],[88.09442986772952,26.79299530259229],[88.09443148891486,26.792841757303247],[88.09447475303016,26.792764734240762],[88.09453858824284,26.792728160018747],[88.09468745459147,26.792711152411826],[88.09502695397117,26.79277172573392],[88.09519620536273,26.79284943296669],[88.09570439338681,26.792987652148934],[88.09621414226602,26.79303109245847],[88.09646979563847,26.792936497531663],[88.09685380639222,26.792730430604106],[88.09698322434532,26.792578196255484],[88.09706956334651,26.792349565085626],[88.0968230776169,26.791430549990288],[88.09680506356924,26.791123710918644],[88.09674309885258,26.79089395679379],[88.09672558336248,26.790510407827455],[88.09662259916576,26.79012748531419],[88.09635030255139,26.789684922681154],[88.09635092616318,26.78961046405699],[88.09643801505159,26.789381707895526],[88.0966746569186,26.789077488772957],[88.09687177565478,26.788389783990624],[88.09683506023876,26.787778356109154],[88.0970321161677,26.787092901695964],[88.09724787344804,26.786712035805287],[88.09750558628524,26.786427885701944],[88.09772022105237,26.78620050208013],[88.09787127113007,26.785953301916205],[88.09806389980791,26.78578249849642],[88.09827697588908,26.785708535643238],[88.09853194265129,26.785672770703002],[88.09904119164227,26.785734279450697],[88.09921144037371,26.785717146361677],[88.09944658610452,26.785584415571734],[88.09968253953458,26.785280134186806],[88.09990122930618,26.784614810822113],[88.10018069773513,26.78425376234205],[88.10020257881281,26.7841768020556],[88.10014017734258,26.78402382059691],[88.09992990881217,26.783811011738358],[88.09942115728819,26.783672793104316],[88.0992312101053,26.78353650730918],[88.09906276929874,26.783343765891743],[88.09878766695687,26.783246618096218],[88.0984055899527,26.783204425244747],[88.09783362785593,26.78302600834393],[88.09713561635192,26.78269511172934],[88.09701012847322,26.782522313407224],[88.09703200868509,26.78238896182698],[88.09720425428874,26.78217995987811],[88.09748228745985,26.781934007944702],[88.09765303421544,26.781840164673962],[88.09778145332467,26.78172631673121],[88.09799783593179,26.781345388322993],[88.09823235601438,26.781214971047408],[88.09846824874657,26.78096708185378],[88.09847036900187,26.780739077416776],[88.09840846691509,26.780509323657903],[88.09841127248549,26.780202359030827],[88.09867515902299,26.77921168858314],[88.09893318217499,26.7788507655168],[88.09897700651369,26.778696907517862],[88.09891616534722,26.778390444078067],[88.09891841095175,26.77816243964696],[88.09907114334324,26.77770530268752],[88.09909520732667,26.77739815003106],[88.0988679214367,26.776709202042312],[88.09848908611639,26.77628327262502],[88.09827875450779,26.776052458627532],[88.09807004510968,26.77566810003922],[88.09807060540096,26.775591264884874],[88.09820039784121,26.775364571544685],[88.09841397176336,26.77521396069322],[88.09871363688896,26.77492955921076],[88.09884448845379,26.77454700702911],[88.09895782474709,26.773783219556645],[88.09896119336828,26.773478505187473],[88.09886033100285,26.77286526429507],[88.09873602871845,26.77255930206643],[88.09865236944742,26.772424514498425],[88.09810366010363,26.77197958214056],[88.09808321274407,26.771884929173456],[88.09842751604313,26.77146692620942],[88.09859994716521,26.77116314641154],[88.09870954256236,26.770857554484337],[88.09875773306686,26.770247687600033],[88.09859172493164,26.769786368530426],[88.09857371140552,26.769481779699618],[88.09874614199482,26.76917568651098],[88.0990892606877,26.76889322213605],[88.09938786420973,26.768705724314763],[88.09958093051908,26.76851685341178],[88.09966671128092,26.768477840496903],[88.09985933973442,26.768309287525405],[88.09998913152323,26.76808034308767],[88.10050517940796,26.767417202132147],[88.10106642348681,26.766428714318945],[88.10115463568134,26.766123310487334],[88.10115681911701,26.765893055873043],[88.10103207941235,26.765605099256824],[88.10080204887183,26.7652208660312],[88.10076152970329,26.76499098677616],[88.10078721571837,26.764532601835658],[88.10091800471723,26.764152363448858],[88.10113257669522,26.763906912445492],[88.10164538200965,26.763625320041978],[88.10175266784042,26.76347321142603],[88.10214697013787,26.762253534201808],[88.10244969209337,26.76164403761881],[88.10264300678664,26.76141678066324],[88.10277161432839,26.761323250272884],[88.10339039478973,26.761022713414338]]]}},{"type":"Feature","properties":{"province":"Koshi Province","district":"Jhapa","municipality":"Buddha Shanti Rural Municipality","ward":"5","wardNumber":5,"sourceMunicipality":"Buddhashanti","sourceType":"Gaunpalika"},"geometry":{"type":"Polygon","coordinates":[[[88.10339039478973,26.761022713414338],[88.10392451997386,26.760740933855093],[88.10417967324987,26.76066671993365],[88.10437292750245,26.760498166762698],[88.1044592679652,26.760325927070866],[88.10450309298609,26.760174381845722],[88.10450521296895,26.759944127711673],[88.10442305101195,26.75963778952409],[88.1042363473868,26.759176532517614],[88.10419570218258,26.75894884186199],[88.10426197182272,26.758718084938238],[88.10443446440807,26.758414306120095],[88.10473562842415,26.758035001808988],[88.10478927129999,26.757993925932883],[88.10534139987685,26.757565290142253],[88.10538091414519,26.757551348000423],[88.10555228259804,26.75726569921968],[88.10589408653276,26.756922154006244],[88.10621525547387,26.756465951996447],[88.1064937246195,26.756143290158366],[88.10745462228742,26.75553534427279],[88.10777429896848,26.755440373159562],[88.10835043992785,26.755155904573407],[88.10886336523073,26.754698198169372],[88.10924775050148,26.75447168703994],[88.10931164803497,26.75445311823541],[88.10956743006174,26.75450981805043],[88.11007799542104,26.754720182354788],[88.11046119829183,26.754760124166836],[88.11129218949218,26.754819063579372],[88.1115480936703,26.75476285479214],[88.11212380329908,26.75474471377657],[88.11237945609852,26.754668249631404],[88.11269981915214,26.7545168243673],[88.11282817624637,26.7544029131817],[88.11321355476586,26.75388975646525],[88.1134276258862,26.753603668126],[88.11344857017966,26.753565156719333],[88.11355622692403,26.753259565383143],[88.11357854234672,26.753031435468078],[88.1136430579136,26.7526878339357],[88.11392245819302,26.7520784622963],[88.11422274300413,26.751545676133276],[88.11447926522565,26.751164496946004],[88.11518487845949,26.750366563271065],[88.11546303691273,26.750138678906147],[88.11569805636529,26.750005885280316],[88.11629470820363,26.749892841204367],[88.11646502016362,26.749891525429216],[88.11680527115806,26.749970104648092],[88.11699634509071,26.75016040656303],[88.11725137817216,26.75027581095889],[88.11750640796991,26.75025798807737],[88.11784703033014,26.750183022578337],[88.11810255802068,26.750088489771862],[88.11852833289757,26.7498616655072],[88.11874146876704,26.74967260666376],[88.11933779351702,26.74895013343238],[88.11950878455808,26.748569581846947],[88.11976468186413,26.748190591429843],[88.1199354818651,26.74765880677732],[88.11995710898684,26.747430677159596],[88.12004269540176,26.747125211500045],[88.12021362190309,26.746667949021973],[88.1204695173649,26.746232567097426],[88.120662071897,26.745547112496283],[88.12068388866511,26.74539569326117],[88.12062072917834,26.74486122552754],[88.12077076274473,26.743948142742884],[88.12094206040169,26.743339648922934],[88.12079584066144,26.741510241251042],[88.12079651973323,26.741131004671526],[88.12088253971926,26.740674370113705],[88.12113793711433,26.740313446597494],[88.12133068266729,26.739779224682678],[88.12131022323481,26.739169921545123],[88.12137497918037,26.738408822362867],[88.12175922850668,26.73772636501364],[88.12192915958242,26.73749698222339],[88.12212141094953,26.7372314009816],[88.12235574018126,26.7369654440563],[88.12276068452266,26.736282799440673],[88.12310204823227,26.735844477377395],[88.12340045919353,26.735388400070832],[88.12371994184372,26.735029227025937],[88.12384779587111,26.73480028237991],[88.12416857498819,26.73373458917776],[88.12425477810355,26.733049949840982],[88.12425687135722,26.73160308861407],[88.12419352821584,26.73129887638438],[88.12421564600443,26.73061254948054],[88.124090011208,26.729469154626408],[88.12377255469734,26.728250554115043],[88.12366663580858,26.72802111397932],[88.12345565955015,26.726955180359983],[88.12324363311323,26.726419652803294],[88.12303185987399,26.726039858003045],[88.12303253878225,26.72565837134312],[88.12307535975094,26.725353343230697],[88.1230116457929,26.725200362534903],[88.12294762142692,26.725144410152676],[88.12275661410125,26.725143788169763],[88.12224593157453,26.725294466728528],[88.12205430230928,26.72542682168954],[88.1218202231413,26.72565451793569],[88.1213518723693,26.725956114446095],[88.12064924618778,26.72614455748083],[88.1198837192054,26.726200275689237],[88.1197558604968,26.726237351470065],[88.11939442204128,26.726483992694796],[88.11928726406146,26.726710561349464],[88.11926502267879,26.72745334145208],[88.11911554175241,26.727910478450212],[88.11900758679553,26.728881952096266],[88.11881533979393,26.729337151780772],[88.11873031209832,26.729450686659852],[88.11860245465964,26.729546529188443],[88.11809189823128,26.72971533806851],[88.11790039124284,26.72973491010335],[88.1175176900023,26.729733416512],[88.11719850693552,26.729559871745607],[88.11690151710755,26.729255225028577],[88.1167523989606,26.729177393031794],[88.11666773861832,26.729006532182805],[88.1164343347365,26.72871945227195],[88.11634973675615,26.7284898866569],[88.11630795759872,26.727880771594407],[88.11622335533603,26.727520292194825],[88.1161818300128,26.727062409435312],[88.1162460967698,26.726757193683053],[88.11645947229603,26.72614832421653],[88.11667285555691,26.725864486972934],[88.11682215820127,26.725770768943683],[88.11714151724168,26.725465798688216],[88.11748207252056,26.725201278226173],[88.1177589133065,26.72478377518639],[88.11805720146228,26.724440544648342],[88.11816429824545,26.72421397594489],[88.11831421288461,26.723605607510784],[88.11863412507967,26.722844691801715],[88.1187622231469,26.722387743087484],[88.11893450813186,26.72116975771771],[88.1188928574224,26.720711874537546],[88.11899976288142,26.72033182392321],[88.11910635979245,26.720179715414144],[88.11934031598008,26.720008598034248],[88.11951050101483,26.71993501117053],[88.12002112258017,26.719840661191597],[88.12053143310038,26.719843402926802],[88.12121249132609,26.719768055890512],[88.12189286330383,26.719751350553835],[88.12240317373633,26.71975409184573],[88.12282851456291,26.719678499229317],[88.12350913605539,26.719623407876604],[88.1239241624659,26.719649470106383],[88.12430086119643,26.7196171419046],[88.12462791620182,26.719589690330825],[88.12501735855858,26.71905621371446],[88.12525668485634,26.71859832538819],[88.12536615543905,26.718292733795874],[88.12535406870592,26.717450925569427],[88.12521056688804,26.716914833290716],[88.1251380261931,26.71631278342585],[88.12507436655349,26.71578281696457],[88.12501689534021,26.715246098557486],[88.12475508064847,26.713864511090176],[88.1246203149599,26.712558693959046],[88.12457488571296,26.710947410411638],[88.12464277711804,26.71056542228537],[88.12464552209205,26.710335167768815],[88.12460444194106,26.7101819985106],[88.12447895310886,26.709950557891258],[88.12441617941131,26.709892292547625],[88.12430094645558,26.709737561898045],[88.12422710443234,26.70963872156661],[88.12424648643719,26.709629530864994],[88.12386745370597,26.708786103770063],[88.12355157546504,26.708174680562596],[88.12323625530534,26.707409712642033],[88.12296151979858,26.706949270186353],[88.12275093328324,26.706490389294526],[88.1226043686415,26.706031070720666],[88.12256309657141,26.705726732518702],[88.12243791587588,26.705267224841105],[88.12227133607011,26.704426606719515],[88.12227183475515,26.70434989693356],[88.12223043894554,26.704101887138485],[88.1222104888688,26.70387182023601],[88.12210562962873,26.70348896033694],[88.12164374536474,26.702264672850365],[88.12156107662582,26.70165368339504],[88.1215625072646,26.701348906133568],[88.12147909558585,26.7010426305054],[88.12080469551715,26.699741012090158],[88.12069990060472,26.69943486185583],[88.12061729329795,26.698823872038265],[88.1205547029168,26.69859411884797],[88.12051430263492,26.698136235000845],[88.12047216128502,26.69805983851874],[88.12038955546848,26.697523245572473],[88.12013912740373,26.696453062354525],[88.12001400900395,26.695993555023605],[88.11978253778214,26.695458215154144],[88.1196354743638,26.69499889549355],[88.11938734821615,26.69347051546144],[88.11917925227758,26.692553438271197],[88.11891080298646,26.69087170055678],[88.11880594372862,26.690488840398526],[88.11840671377495,26.689494306576005],[88.11819805553789,26.688654002335564],[88.11800885190912,26.688195058493427],[88.11794619652918,26.687888594885738],[88.11794769237501,26.687658340176043],[88.11771528583407,26.68727648307538],[88.11763137527879,26.687046854632086],[88.11752546115524,26.68700709455725],[88.11714132671555,26.68723579378553],[88.1168216542126,26.687502440343994],[88.1166292744533,26.68761678975642],[88.11626652590506,26.687978589942322],[88.11543411419426,26.68868256173532],[88.11540672980894,26.68871213285784],[88.11509224861611,26.689062241701315],[88.11489899952133,26.689404595590656],[88.11447017433971,26.6902070253804],[88.1136777876537,26.691348624353342],[88.11314435498362,26.69186291053621],[88.11299517849524,26.691958878837823],[88.11218171898149,26.69300588780139],[88.11198984056348,26.6931766908803],[88.11134999238318,26.693594763185768],[88.11115811473495,26.693765566195754],[88.110815813565,26.694224207078324],[88.11064375975494,26.694622889556687],[88.11059943766688,26.694909786689905],[88.11049228022229,26.695197310512608],[88.11014916756635,26.69571015461226],[88.10980748966828,26.69611009067992],[88.109593666053,26.69628101933564],[88.10897464275514,26.696911153021098],[88.10865303696106,26.697367355124747],[88.10843803390578,26.697940026254905],[88.10835151005995,26.698283878633376],[88.10815477622621,26.699371138172697],[88.10806576192925,26.700173124300058],[88.10801783358808,26.701317898304552],[88.10798519055368,26.70378299542811],[88.10791830735667,26.7044696977128],[88.10780977689292,26.704870066900053],[88.10774382620934,26.705328827560535],[88.10767955663185,26.705500879334796],[88.10748269686495,26.7065880759585],[88.107392813058,26.707620317268653],[88.10729434315719,26.71048547027469],[88.10718457141289,26.711287644706374],[88.10711961454672,26.71145744535395],[88.10711886633041,26.71157254187203],[88.10696732561193,26.712203541731974],[88.10685593574112,26.713292362840505],[88.10657423442643,26.714436703014737],[88.10624988978881,26.715466260809684],[88.10593129354453,26.716315202685884],[88.10590559817048,26.716383097932223],[88.1055433569328,26.717065366368896],[88.10528714729703,26.717408159054855],[88.10475471380884,26.717843484048355],[88.10471213705264,26.717920507556805],[88.10447836774433,26.718053300917134],[88.10403102688907,26.718449549786865],[88.1037324272075,26.718831104758372],[88.1034553363423,26.719286930804188],[88.10305057214563,26.71960834483056],[88.1029437860145,26.719742260716224],[88.10270939832021,26.720197836369902],[88.10241104926217,26.72059520848493],[88.10221904667348,26.720824716404806],[88.10168655138423,26.721259915738145],[88.10160177349687,26.721393769376228],[88.10134519274942,26.721962315394585],[88.10087481010817,26.723618246621147],[88.10070375683428,26.723998799048474],[88.10046905726259,26.72449269714133],[88.10029837714943,26.724778409267415],[88.09991437293161,26.725232799365116],[88.09957400492226,26.72551763959776],[88.09916930619457,26.72597221717173],[88.09891297155032,26.72637146351592],[88.09867852164265,26.726826976186263],[88.09820720551379,26.72865445766743],[88.09756638529831,26.730307141353197],[88.09739527329825,26.73087956163242],[88.09733063416954,26.731279617864406],[88.09715857899542,26.73162178357478],[88.09685954092325,26.731964889242413],[88.09660320016673,26.73209780844055],[88.09619793030585,26.732173212443364],[88.09600661018575,26.732152084528195],[88.09581485101306,26.732076816714184],[88.09577321069816,26.73205687391285],[88.09575095268303,26.732095385768446],[88.09525822821435,26.732819231332435],[88.09491642549233,26.733216916391104],[88.09451034770588,26.733540581271765],[88.09372069372162,26.733901077024484],[88.09333618604191,26.7342426212182],[88.09292998621993,26.73468138233634],[88.09203292212844,26.7351939237822],[88.09154181397217,26.735554350901882],[88.09147785487916,26.7356315624363],[88.09137000859282,26.73586038093563],[88.09111335898858,26.73616485044351],[88.09040569732038,26.737610411247406],[88.08982675794601,26.73852450250186],[88.08959006268482,26.739210269778752],[88.0895041598507,26.73936437903318],[88.08935336688472,26.739895974673185],[88.0893306169635,26.740277649326195],[88.08915726492044,26.741269880374663],[88.08898533481751,26.74163011442612],[88.08864222245391,26.742163151988546],[88.08838594863683,26.742449490676364],[88.08814993358855,26.7428102881195],[88.08770140196866,26.74309581671238],[88.0866116531342,26.74410419501537],[88.08577712281563,26.745112755143044],[88.08562719806604,26.74534188788571],[88.08472870485058,26.746235854087924],[88.08423660284524,26.746900994594657],[88.08397982777929,26.74712869153936],[88.08368116056447,26.747318314529604],[88.08303969166649,26.74794619816479],[88.08265462401774,26.748364515112968],[88.08261979895396,26.74840540230616],[88.08156331940064,26.74967973248102],[88.08126371994261,26.750099610934697],[88.08117794367482,26.750328242037664],[88.08081394833577,26.750861467621732],[88.08072792160449,26.75106978008906],[88.0803432916632,26.751469966435668],[88.08025732558804,26.751621888102978],[88.08023563556505,26.751852267898418],[88.08006333382711,26.75230959242372],[88.07980544240822,26.75295709959141],[88.07937555995308,26.75402354494368],[88.07922190807662,26.755320302365075],[88.07911331999962,26.755930670778465],[88.07894058551157,26.75661581139083],[88.0786392451264,26.757455563222894],[88.0784252990845,26.757759655752658],[88.07818734270148,26.757993916954117],[88.07817177576355,26.75800985891037],[88.07816853006612,26.75826268340576],[88.0780577513595,26.758778148957013],[88.07790501699778,26.759178893320843],[88.07768882181995,26.759521372605157],[88.07682796825435,26.76048948472913],[88.07650479819115,26.760945561903462],[88.07596692917343,26.76157269233972],[88.07551390383512,26.762199072306178],[88.07523212581363,26.76271366514143],[88.07494872644081,26.76345620016201],[88.07473265648538,26.76381899840437],[88.07511436049668,26.763956093485938],[88.07587827060314,26.764230097233305],[88.07647373844094,26.76431136005569],[88.07707001734494,26.76427746401346],[88.07775301254814,26.764109715245667],[88.0781793537111,26.764056816456346],[88.07903340729277,26.763756838179706],[88.07988633934126,26.763612655257543],[88.08039677629604,26.763674226440454],[88.08073602922249,26.763847708242395],[88.08090665294779,26.76381025703355],[88.08103532217,26.76371672768903],[88.08107852394721,26.76363964114378],[88.08118462458947,26.76362307256793],[88.08160978150016,26.7637010876045],[88.08184405396115,26.76368570339951],[88.08190870015035,26.76360849180074],[88.08195396099474,26.763341787881753],[88.08192061348844,26.762346622383966],[88.08185871032765,26.762116869119637],[88.0818608931462,26.76188886455154],[88.08190446960032,26.76177339224227],[88.08194704696984,26.761755011388953],[88.08262042184099,26.761964310378495],[88.08296529943644,26.76207002180241],[88.08321964267459,26.76211096691776],[88.0840697014802,26.76205931097311],[88.08483422977848,26.762066924512293],[88.08517347894046,26.76210949351223],[88.08534291698359,26.762148813682902],[88.0860199827272,26.76247996069788],[88.08644314049113,26.76261893173849],[88.08686573626778,26.762832360670423],[88.08724793952935,26.762892622096427],[88.0875458585304,26.76282034499675],[88.0878864811084,26.7627455040547],[88.08822766392394,26.76259614188251],[88.08854821340036,26.7623905136191],[88.0888054266876,26.76214249794589],[88.08889120673236,26.762105735774572],[88.08912741139213,26.76182177362459],[88.08925676619809,26.761613147128212],[88.08930065287862,26.76145928961708],[88.08940850139274,26.76130943049525],[88.08953667183948,26.76123403156351],[88.08991987138269,26.761140747276954],[88.09006942450957,26.761067410019084],[88.09017646033192,26.7609536872836],[88.09019909034915,26.760820335297876],[88.0903286336952,26.760629777773435],[88.09054164615769,26.760555877011626],[88.09105232961447,26.76044583518391],[88.09133192393507,26.760105042597488],[88.09165259881047,26.75991529344593],[88.09216421793532,26.759710474231408],[88.09265588940265,26.75939062196724],[88.09289221884787,26.759124727135173],[88.09310797630758,26.75874611245986],[88.09320131261622,26.75831879750007],[88.09324101055114,26.758135618097043],[88.09325851389438,26.757993326251178],[88.09326032716187,26.757982010183884],[88.09331940074809,26.75752331233799],[88.09351171725702,26.757390957740313],[88.09381057186214,26.757219401777203],[88.09423846794958,26.756800709309204],[88.09449499028378,26.756419530247914],[88.09498734400977,26.755849167147534],[88.09509456527081,26.755620347959738],[88.09545912190954,26.755030668375586],[88.09644295460798,26.753928265237057],[88.09680576828491,26.75367943566165],[88.09708380478374,26.75356670964866],[88.09759554851506,26.753377645347218],[88.09768101760896,26.753376955698354],[88.09785101871375,26.753472668528115],[88.09799976438886,26.753645403877197],[88.09806260422224,26.75383670843995],[88.09804022790424,26.75412129242981],[88.09752705473248,26.754750547976908],[88.09727027929239,26.75497824488203],[88.09684188920792,26.755663203489153],[88.09669090722977,26.756120339453567],[88.09666834730061,26.756578724770385],[88.09670999516736,26.75692151129741],[88.09679471578553,26.7570359812033],[88.09726189512425,26.757436339749724],[88.09741095161407,26.757514172192717],[88.09762403017326,26.757571247090535],[88.09839093417125,26.75757423427096],[88.09966983612819,26.757537262241758],[88.10009574327614,26.757635533130113],[88.10041436323223,26.757824895177457],[88.10047632759085,26.75799375588303],[88.10071461642953,26.758646442814857],[88.10134505136114,26.759418031681253],[88.10164003801647,26.759630150967883],[88.10214573374658,26.760113783122225],[88.10299073860087,26.760578903408526],[88.10326515663377,26.760811529656163],[88.10339039478973,26.761022713414338]]]}},{"type":"Feature","properties":{"province":"Koshi Province","district":"Jhapa","municipality":"Buddha Shanti Rural Municipality","ward":"7","wardNumber":7,"sourceMunicipality":"Buddhashanti","sourceType":"Gaunpalika"},"geometry":{"type":"Polygon","coordinates":[[[88.07897463292977,26.790983436161117],[88.07880793748633,26.790578445556662],[88.07877115962621,26.789948949439438],[88.07866792545663,26.7895457081606],[88.07862965099186,26.78908776198335],[88.07865783218855,26.788340418238793],[88.07862018132694,26.78782383012542],[88.07843366275759,26.787249665271652],[88.07837400617687,26.78678965712378],[88.07829134499087,26.786560153221867],[88.07814827868057,26.785929159212145],[88.07798164563177,26.785467776883763],[88.07789979494602,26.78512299032186],[88.07752295425968,26.78443291966749],[88.07694033391739,26.782936305198515],[88.07668854543232,26.782570327049385],[88.07643501153633,26.782357832401708],[88.0761194486908,26.78189745316291],[88.07595337900109,26.781494713637976],[88.07582957282186,26.78103520662981],[88.0756201143097,26.780689171442916],[88.07499397952722,26.77930577750003],[88.07472124505762,26.77884514746961],[88.07428387490162,26.777810227949516],[88.07377948690387,26.77706014281316],[88.07333993347892,26.776253102010063],[88.07259223963496,26.774238587973826],[88.07246843476094,26.77377908133596],[88.07236819573033,26.773147835045933],[88.07243271767338,26.773052555950073],[88.07224264520332,26.772898264850962],[88.07182098146968,26.7724545175962],[88.07146128343554,26.77224283684635],[88.07101574218481,26.772065605685032],[88.07050586602368,26.771929512556593],[88.07005832788033,26.771944150728768],[88.06993140608213,26.771886448743533],[88.06984781000769,26.77175166001224],[88.06982723660896,26.77163668955164],[88.0698317282737,26.771176241949256],[88.06972600015672,26.7711002843368],[88.06938493972113,26.77113448855329],[88.06855257924857,26.771339376107388],[88.06833831727788,26.771489923578567],[88.06835720472544,26.771758439903184],[88.06829224615728,26.771871786435092],[88.06809949118195,26.771965817836243],[88.06786534400085,26.77200139479246],[88.06652310643099,26.77206800144265],[88.06639568455925,26.772028304831636],[88.0658876811843,26.77175679724239],[88.06569661007516,26.771697283378685],[88.06550485275446,26.77169647387387],[88.06524788734195,26.7718473982122],[88.06458253430787,26.772434769366548],[88.06400464349616,26.772755123863174],[88.06362000656263,26.772904737264476],[88.06323474673697,26.773131060484648],[88.0627216894153,26.7733177495435],[88.06255075409251,26.773393587172958],[88.06261359242964,26.773526249904258],[88.06305220988564,26.77444838711924],[88.06319221941044,26.77536827928736],[88.06348334278212,26.776115492685815],[88.06356513171751,26.776516608498323],[88.06356282339347,26.776746863391047],[88.06364548423583,26.776976491027636],[88.06396110794407,26.777380416167635],[88.06402369713716,26.777553716161506],[88.0640008178899,26.777725454491122],[88.06378536921939,26.777952837023857],[88.06340035990152,26.778199478950157],[88.06292969416886,26.77842424081214],[88.06275726027127,26.778612861685097],[88.06264779073523,26.778938709648713],[88.06264542073623,26.779225418128632],[88.06270657461326,26.779511625557948],[88.06283187663844,26.779799583228726],[88.06302063960055,26.780087163941875],[88.0633788417169,26.78047264525611],[88.06344086781061,26.78064594445875],[88.06341786442846,26.780876387540133],[88.06330789510163,26.781218051992848],[88.06332628278375,26.781506823407977],[88.06341037881509,26.781621292816677],[88.06374907027656,26.78187379859085],[88.06385280127246,26.78214162529698],[88.06382992278247,26.78231336272059],[88.06389188591254,26.78248672558113],[88.06401862421254,26.782659523588496],[88.06441971466508,26.782988300225167],[88.06458959054949,26.78306606999139],[88.06490602552394,26.78335483583465],[88.06494723116695,26.783526072977015],[88.06479443464424,26.783926755005982],[88.06481369623478,26.784100430923676],[88.06489691933776,26.78432999669823],[88.06523404928711,26.784677342532426],[88.06536010081342,26.784906594021393],[88.06548465439201,26.785253256335512],[88.06548315750956,26.785424868436973],[88.0653945700138,26.7857685961565],[88.06541295912257,26.78605505493288],[88.0653663879295,26.786457235497448],[88.06563388417827,26.787491283372674],[88.06563014185629,26.78789308853477],[88.06567147179292,26.788007871862074],[88.06592594239508,26.7881255887196],[88.06607356142737,26.788241870071378],[88.06624162946609,26.788529514138045],[88.06632422718215,26.78875914245605],[88.066192126929,26.789218341867905],[88.06619031814168,26.789428278480322],[88.06644310440286,26.789697226945798],[88.06663280405344,26.789948610000277],[88.06692261629246,26.79081091954199],[88.06698601544264,26.790869123319517],[88.06706942486494,26.791042296794952],[88.06719329230911,26.791443099707934],[88.0671916714787,26.791673354783143],[88.06710389509644,26.791901986049382],[88.06691039223938,26.79213149413413],[88.06686625386929,26.792244652941445],[88.06684181519655,26.792587941100273],[88.06690446656015,26.792761241274718],[88.06759930102507,26.79357084023566],[88.06797701352654,26.79414806484319],[88.0683575353835,26.79449503419021],[88.06844094418602,26.794665957818985],[88.0684784087534,26.795241250286228],[88.06854037254332,26.795414612439206],[88.06919175595388,26.796337371123577],[88.06927566515714,26.79651054534234],[88.06948075896149,26.797314714081935],[88.06947770305926,26.797658001997206],[88.0693898645934,26.79794527593872],[88.06936623647982,26.79817340543827],[88.06908271180853,26.798861737460058],[88.06905752543324,26.79932012162987],[88.06914143254957,26.79941652312892],[88.06943929245826,26.79945715468802],[88.07003688272104,26.799346611238047],[88.07063515670914,26.799102779400943],[88.07191655297974,26.798749964462633],[88.07208798847638,26.798653870985703],[88.07253814464976,26.798314138240844],[88.07328790721064,26.79786149218482],[88.07373825127732,26.797539826966528],[88.07380289816048,26.79746255315096],[88.0740596767558,26.79735001506809],[88.07427468738354,26.797140700075015],[88.07468195450288,26.79685773498435],[88.07545178945114,26.796538189619007],[88.0759655334758,26.79627466604056],[88.07664809153988,26.79616562070694],[88.07680038825694,26.795783006255906],[88.07703728056285,26.795499043982783],[88.07738089919371,26.795193948374585],[88.07768318706765,26.794776320396217],[88.07781584790649,26.794242599192476],[88.07804333138414,26.792638250009787],[88.0781951302256,26.79233246998116],[88.07854111907238,26.79181962593936],[88.07867265646054,26.79136267747186],[88.07880251103002,26.791133733586122],[88.07897463292977,26.790983436161117]]]}}]}