{"type":"FeatureCollection","features":[{"type":"Feature","properties":{"province":"Koshi Province","district":"Sankhuwasabha","municipality":"Chichila Rural Municipality","ward":"2","wardNumber":2,"sourceMunicipality":"Chichila","sourceType":"Gaunpalika"},"geometry":{"type":"Polygon","coordinates":[[[87.21681027915004,27.486511682239765],[87.21680582195475,27.485554651583364],[87.21701594806878,27.484786860811667],[87.21707645557855,27.48402157282096],[87.21700960875489,27.483484479065353],[87.21687930189005,27.483026471593995],[87.21672836617205,27.482719758911728],[87.21640592797624,27.482356845424935],[87.21582651685166,27.481804754407193],[87.21561143182707,27.48151617288524],[87.215525084639,27.481365067257766],[87.21543810987637,27.481058228683167],[87.21530887015919,27.480828225421906],[87.21509209015984,27.480140089559892],[87.21491970803847,27.479833376950978],[87.21444696215276,27.47931948338433],[87.21429621433809,27.479089481084223],[87.21416760221432,27.478974574439246],[87.21408156809638,27.4788212178705],[87.21384497506229,27.47853494969079],[87.21367259392706,27.478230488428],[87.2136288230427,27.47800029658983],[87.2136483231333,27.47761655839106],[87.21377461160948,27.477155859101572],[87.2137730423915,27.476851144864984],[87.21370770122626,27.47662101603978],[87.21351374807179,27.476257912305037],[87.2129987378135,27.475800535442186],[87.21274038406436,27.475340405102706],[87.21265397373416,27.47518711101344],[87.2126107056638,27.475054010021157],[87.21241405401987,27.474135619231284],[87.21247500097837,27.47344485333245],[87.21272789218361,27.47267925015611],[87.21289330643694,27.471530097679295],[87.2130192823804,27.471069398148696],[87.21310362160018,27.470839079858532],[87.21329437379934,27.47053404964202],[87.21333644863356,27.47038050460006],[87.21344248490927,27.47024490059797],[87.21359160018217,27.470129552313033],[87.21420599437018,27.469056416017594],[87.21441800391901,27.46874913499778],[87.21469453823877,27.468461984044414],[87.21511774115875,27.467637486174876],[87.21513830842969,27.467486129511723],[87.21537170069254,27.467120268392033],[87.2160518113457,27.466315460214258],[87.21662701535371,27.465912833297846],[87.2176067363021,27.465125838034425],[87.217840880052,27.46485681812954],[87.21813829384185,27.464416184699843],[87.21824401527901,27.46410909304781],[87.21828514643002,27.463650770894393],[87.21815515290382,27.463192763473025],[87.21815452481322,27.463039280313026],[87.21802572294402,27.46282959594948],[87.21763957355454,27.462410353731546],[87.21740253831459,27.461873512607415],[87.21714518896947,27.4616256308145],[87.21684381617894,27.461014394053546],[87.21667237516878,27.46084315880982],[87.21645747665922,27.460461987605218],[87.21639244799417,27.460231796266637],[87.21630641396992,27.460078502319643],[87.21630584832697,27.459927270840883],[87.21621918501282,27.459620432111546],[87.21621824181145,27.459313467107215],[87.21632327162376,27.458855081407624],[87.21642911903753,27.45862469914889],[87.21644880517427,27.45816643998929],[87.21640409126783,27.45763159629665],[87.21646754802182,27.45740121489948],[87.21642358815755,27.457094313007012],[87.21644321284533,27.45663611655706],[87.21624957102517,27.456254945184963],[87.21624894365218,27.456101462630095],[87.21633353303626,27.45587108146302],[87.21629076631231,27.455832757939238],[87.2160335422663,27.455623262540698],[87.21571166626195,27.455221962901216],[87.21543249265048,27.454784463139053],[87.21519633908599,27.454534330769526],[87.21485408483606,27.454363348295015],[87.21459792820211,27.454384046191194],[87.21434127049464,27.454328033183206],[87.2139988286217,27.454195374133718],[87.21384883299466,27.454003758224573],[87.21348456808369,27.453717679899462],[87.21322784745709,27.4536412858891],[87.21303558861128,27.45364160088142],[87.21288578211346,27.453547013192896],[87.21258572907801,27.45327893874583],[87.21243529333726,27.45301273797891],[87.21230661868702,27.452879764059727],[87.21222077331632,27.452821248297067],[87.21179330166252,27.45270897092023],[87.2111097996661,27.452710107046055],[87.2107679877985,27.45276931695461],[87.21034170875359,27.452979884429254],[87.209573556239,27.45323153225658],[87.20923168033246,27.453232099605554],[87.20888967771653,27.45317396277404],[87.20812089563448,27.45323380440774],[87.20771593871645,27.453503014367953],[87.20677760144495,27.453906208797203],[87.20601057694343,27.454388173745997],[87.20575460964294,27.454483268658592],[87.20532770361713,27.454560672448626],[87.20455879540276,27.454564122489266],[87.20404591855426,27.45450623789305],[87.20353329267351,27.454545319444122],[87.2030212953596,27.454758326400572],[87.20259514333786,27.455027537062406],[87.20233905055245,27.4551046253909],[87.20199811580676,27.45527668150988],[87.20182730247494,27.455276933883397],[87.20165605077852,27.455200414040053],[87.2012063165909,27.454878325764316],[87.20112084729571,27.45485813385665],[87.20094959449393,27.45474329058259],[87.2008857591755,27.45480205824095],[87.20050237514545,27.455145727322144],[87.2001839547281,27.455683389371547],[87.19999226207558,27.45585519255005],[87.19945963575542,27.456219432483934],[87.19911826205426,27.456355290312707],[87.19886267065564,27.45650915134677],[87.19835130165744,27.456891396252782],[87.19801055769906,27.457219184562703],[87.19784024715825,27.45731421449444],[87.19752100908295,27.457603616730257],[87.19677574348862,27.45808320570748],[87.19652002685278,27.4581986808925],[87.19600784035815,27.458316785778326],[87.1953256554299,27.458547988926735],[87.19421719370162,27.45903033378736],[87.19387582018278,27.45914593534808],[87.19362016542505,27.459281728636853],[87.1925966087446,27.459666919483915],[87.1925116403733,27.45972568810836],[87.1920847979246,27.459823348051646],[87.19123129765256,27.45990132025073],[87.1906335794082,27.46001948908871],[87.19020755113644,27.460230056927024],[87.19005849910633,27.46036566158703],[87.18999472630344,27.460422178971136],[87.19001642412636,27.460537275408427],[87.19016673347586,27.46074695956493],[87.19027540688255,27.461207280540272],[87.19023396117568,27.461588829965518],[87.19008660416229,27.462126239988613],[87.19008760873054,27.462356495121337],[87.1901527010085,27.46266333343327],[87.19013219802468,27.462891338803118],[87.19017590496988,27.463121530665614],[87.19017766439879,27.463581978027147],[87.19028589923526,27.463963337802905],[87.19035155655652,27.464423721639342],[87.19039840630533,27.465495785932305],[87.19046368589142,27.46580043652476],[87.19046500601289,27.466184174410472],[87.19055204463787,27.466565471608558],[87.19053267534781,27.467256174634354],[87.19049022556017,27.46739171525948],[87.19038387531037,27.467507000394427],[87.19023469784813,27.467622286761532],[87.18991426734519,27.46762272848255],[87.18948704601154,27.467566906302608],[87.1892946615618,27.467510767271158],[87.18852600406049,27.467511779260686],[87.1876726306847,27.467745484972237],[87.1870751026416,27.467958494351283],[87.18681894599597,27.46797687806451],[87.18673347558611,27.467938618301847],[87.18647719369085,27.46794124774391],[87.18622110103952,27.467998018420044],[87.18605028814409,27.46799814612081],[87.18579400507744,27.46798051917842],[87.18476818415076,27.467638809336332],[87.18434134086301,27.46775453699318],[87.18382890312438,27.467775487838612],[87.18340168117861,27.46766321116266],[87.18237630103819,27.467590080205472],[87.18229083226579,27.467551820256276],[87.18177826689441,27.467496123363617],[87.1811806115219,27.46759397351841],[87.18024202254031,27.46797891313377],[87.17998592870055,27.468037934024316],[87.17930305429547,27.46811559131345],[87.1787047696723,27.468041891214536],[87.17802151774534,27.46806309526707],[87.17699594942,27.467856737011477],[87.17673953934795,27.46774195674384],[87.17665413292569,27.467742083322765],[87.17579874863809,27.467341415581544],[87.17562787208342,27.467303219645732],[87.17539265862818,27.467190690360408],[87.17500757423896,27.466922554894357],[87.1747721072213,27.466656605534475],[87.17462223818048,27.466559641615568],[87.17445142460959,27.46652150763795],[87.17231638936694,27.466625757113572],[87.17206010701616,27.466587686732073],[87.17180338601706,27.466493225985626],[87.17120547747095,27.46647591645036],[87.17112013364063,27.46649411132421],[87.17097101858114,27.466609396550037],[87.17054417665385,27.466745380072595],[87.17011764720276,27.46693775605883],[87.16977633672815,27.4670532944004],[87.16932886459095,27.4673811475445],[87.16915811650715,27.46745810936702],[87.16864580349906,27.46753770341753],[87.16821870771645,27.467481817539245],[87.1678765792759,27.467367164007353],[87.16736382417498,27.467137542059657],[87.16719257308668,27.467119664375872],[87.16667988107251,27.466969065295785],[87.16642372443516,27.466987449269247],[87.16591147625468,27.467123496745945],[87.16561255429953,27.46716220005716],[87.16426743602386,27.467301572519755],[87.16394719550543,27.46743511644944],[87.1634561421999,27.467571101308437],[87.16288062397794,27.46791714868031],[87.16253868583706,27.467958165567804],[87.16142771361723,27.4679414264603],[87.16074471546222,27.468136369017408],[87.16048868617722,27.468251781275224],[87.16004102837397,27.468654093179072],[87.15995618757007,27.46882802059154],[87.15976443277185,27.46899976108107],[87.15839875293328,27.46961758695739],[87.15822813052507,27.469732873634154],[87.15797203807465,27.469848285755244],[87.15711829154527,27.470158514155266],[87.15669125883427,27.470159020808804],[87.1559225424926,27.470372094188157],[87.15549519688393,27.47037478916895],[87.15515306916008,27.470260072409506],[87.1545547223731,27.470165991144793],[87.15387059201171,27.470017708227676],[87.15369934007497,27.46992086948113],[87.15344242797718,27.469693181461928],[87.15324966829165,27.469616661499565],[87.15314268948374,27.46952201041245],[87.15260635373104,27.468777737943697],[87.1525845301073,27.468606187998567],[87.15245535149316,27.468263276574618],[87.15245409193113,27.467805017126082],[87.15232346563305,27.466945204416728],[87.15202184037311,27.466141973710684],[87.15185052390821,27.465988680798986],[87.15174455175433,27.466218999932234],[87.15151122541567,27.46675647386239],[87.15149097666793,27.467214733118592],[87.1513002898491,27.467693438821765],[87.1509162784881,27.46796252291532],[87.15051107089185,27.46817509135797],[87.14967965093012,27.468807976219978],[87.14925280893794,27.468964278138785],[87.14910331823934,27.469079564360804],[87.14859157247513,27.469366781275582],[87.14807944993247,27.46959754393253],[87.14782342160979,27.4697716608942],[87.14750399672569,27.470078943534237],[87.14741865320413,27.47009713774238],[87.14722689848179,27.470289196264694],[87.14699200188264,27.470424864379666],[87.14680031092709,27.47063499166637],[87.14663125888777,27.47124911198172],[87.14641843625985,27.47155407879437],[87.14635472817994,27.47170762531439],[87.14599530753075,27.473010449956163],[87.14603920652073,27.473468583011655],[87.14646843982041,27.474136272951633],[87.14674692264742,27.474458738598948],[87.14691830149742,27.474612030494814],[87.14723942449581,27.47485997395188],[87.1474961464421,27.474972565340853],[87.14800996571248,27.475276709916475],[87.14922873443359,27.475636547791638],[87.14993475145432,27.476014960898755],[87.15012763763954,27.476186320611625],[87.15025637663832,27.47637806241068],[87.15057938670279,27.477294139213512],[87.15060139769908,27.477447558562268],[87.15070862956,27.47767537383385],[87.15113779775122,27.478227905009792],[87.15133037106433,27.478399327486578],[87.15171570603911,27.478647206974085],[87.15255096348601,27.47935046371255],[87.15274347408548,27.479447363794833],[87.15300006914815,27.479485434268728],[87.1532564781802,27.479579957587188],[87.15351276006939,27.479597709226155],[87.15402582817782,27.479789008334752],[87.15415444037907,27.47990397732266],[87.15432594527901,27.480133979472395],[87.15454046980432,27.48059423630064],[87.15462644252351,27.48076566086794],[87.15473367327351,27.480975471103058],[87.15514246979328,27.482126176986213],[87.15529246650098,27.482356242753742],[87.1554644745339,27.482737538762617],[87.15557164205688,27.48289089509731],[87.15619256868476,27.483483809560052],[87.15683412546441,27.48386678765933],[87.1570266986382,27.484020079866408],[87.15721914612516,27.484076281259494],[87.15786101423002,27.48445925880551],[87.15824616120481,27.48474546251054],[87.15875941881445,27.48505185736572],[87.15978567860354,27.48539600570882],[87.15997818867285,27.485510911998247],[87.16040610216598,27.485817369902964],[87.16100589746301,27.486428352885866],[87.16139104531341,27.48677326079739],[87.16156248576074,27.486906235486494],[87.16171229326557,27.487003136162254],[87.16271836668008,27.48782580014353],[87.16301766773252,27.488015039321624],[87.16327457889611,27.48824497771151],[87.16376745850216,27.48881995191162],[87.16391726628069,27.488952988232292],[87.16430329510145,27.489566475367205],[87.16445354224935,27.489776222187963],[87.16449643547757,27.48992964124613],[87.16460360155199,27.490026543329222],[87.16531100582777,27.491039204425107],[87.1656322548027,27.491307403270206],[87.16633814721361,27.491708323470096],[87.16723604766624,27.492108990115202],[87.16909567902484,27.492580664110932],[87.16980100650483,27.49282816339575],[87.17012156330496,27.49286610726724],[87.1706346926334,27.493016769364964],[87.17108367394806,27.493226136748646],[87.1717253558894,27.493627056816397],[87.17249545829422,27.49398946520152],[87.1726665236161,27.494122438517717],[87.17285909735075,27.494237344339336],[87.17356473675493,27.494482468916555],[87.17414176467292,27.49461487362822],[87.17465439157077,27.494652627524562],[87.17542355299759,27.494802848255656],[87.17568027404634,27.4948996224265],[87.17612912913418,27.494993893801624],[87.17670622006894,27.495164622437983],[87.17779669274742,27.49561917740412],[87.17843862032146,27.49578984341629],[87.17863106667959,27.495807595533833],[87.17927361805599,27.49596031813527],[87.1795948624073,27.495996011687986],[87.18010892955581,27.496128542430515],[87.18120077280466,27.49627832098369],[87.1826141741309,27.496617274743013],[87.18338470989485,27.4966726546527],[87.18434762759892,27.496669139318733],[87.18498974014318,27.496763032302],[87.18531104867125,27.49687549786538],[87.18569663010888,27.496951702282182],[87.18621013095405,27.496930688388034],[87.18659527356584,27.496986573961852],[87.18691614192153,27.49698388114151],[87.18704500329862,27.497042396666707],[87.18730209949256,27.497136857478115],[87.18841620514566,27.497516765126026],[87.18944590753064,27.498086417253134],[87.18987425599126,27.49821901192933],[87.19015336214325,27.498428569941275],[87.19032555432585,27.498638253481886],[87.19060478686893,27.498886196874466],[87.19077698010781,27.499116137467958],[87.19107885085994,27.499650664578066],[87.19144480662706,27.50010835531138],[87.19166026800579,27.50047145871347],[87.19178931829647,27.50062475160671],[87.19181095295608,27.500701461573886],[87.19209068798807,27.50104643334806],[87.19286448717746,27.501828588656966],[87.19346590572826,27.502324350224555],[87.19426190405238,27.50327799386809],[87.19434774934085,27.503336571843434],[87.19486388768247,27.503888850729467],[87.19512261683683,27.50434885703924],[87.19531801256038,27.504960345765543],[87.19536165727216,27.505152151891792],[87.19591761132128,27.50511069355436],[87.19655972402404,27.50514594455897],[87.19726548127096,27.505029837850167],[87.19765062400595,27.505047274321637],[87.1984202166772,27.50487239947868],[87.19925464934306,27.50486888588727],[87.19989619754796,27.504809296945076],[87.20034473572487,27.50467318760016],[87.20070805357892,27.504519199756782],[87.20092037640869,27.504229924603056],[87.20093893460255,27.503597925924428],[87.20115050160074,27.503022004200222],[87.20131980734608,27.50267640021261],[87.20127547266048,27.502333425812772],[87.20095090079784,27.501530319970232],[87.20095027241021,27.501356518671734],[87.20107687444961,27.501010978042622],[87.20160887138569,27.50037816017439],[87.20177779899767,27.49985875518538],[87.20179786332564,27.49957210798657],[87.20170774956331,27.498594885853937],[87.20181259218361,27.49811618134356],[87.20202535342564,27.497847349425555],[87.2027930008405,27.497308930478535],[87.20304934373911,27.497211460318262],[87.20362674316222,27.497172253060846],[87.20396855464335,27.497054337927505],[87.20411760678917,27.496882598221497],[87.20428672410776,27.496478351984717],[87.20452111808378,27.496247718060292],[87.20490519368857,27.496055280926228],[87.20511902125529,27.495996323642764],[87.20543913565423,27.495803949880777],[87.20567296558488,27.495458282000385],[87.20575730556907,27.49522790074272],[87.20579843848374,27.49488473768197],[87.20588265220943,27.494595713605985],[87.2060953492764,27.49427036555577],[87.20639351632961,27.493962958687774],[87.2065214370558,27.493885996003513],[87.20729115685977,27.493823904146726],[87.20754724923628,27.49372868550809],[87.20786711464326,27.493554378970465],[87.20805905896272,27.493495421235068],[87.20827238536316,27.4933800093265],[87.20844269603131,27.49328491708872],[87.20880633042546,27.49328209775383],[87.20929707072497,27.493107539202924],[87.20989485127778,27.492973491047557],[87.21015107025812,27.492970799026875],[87.21049263144917,27.492875516443863],[87.21074815886737,27.49264488279175],[87.21093903652526,27.492355670207235],[87.21121563286857,27.492068581602638],[87.21138537952297,27.49183807393603],[87.21166203859644,27.49158712138594],[87.21174738181239,27.491548609009136],[87.2121305173648,27.49120268920828],[87.21262069192643,27.490894904303655],[87.21300389011587,27.4906054389123],[87.21398304738966,27.489739357560644],[87.214324043892,27.489528916473063],[87.21466510467268,27.489372677734703],[87.21496371104429,27.4892006223928],[87.21521961648713,27.489103215562825],[87.2156458943533,27.488890334488094],[87.21598682865246,27.488659574077033],[87.21611481125223,27.488564544499525],[87.21622078511479,27.4884109350371],[87.21624135206181,27.488237071171632],[87.21630493522578,27.488083463193053],[87.21625915644954,27.48747184710467],[87.2163222383651,27.487241528148694],[87.21666216800057,27.48680083163309],[87.21681027915004,27.486511682239765]]]}},{"type":"Feature","properties":{"province":"Koshi Province","district":"Sankhuwasabha","municipality":"Chichila Rural Municipality","ward":"3","wardNumber":3,"sourceMunicipality":"Chichila","sourceType":"Gaunpalika"},"geometry":{"type":"Polygon","coordinates":[[[87.2429225983774,27.520122521904245],[87.24257952848177,27.519829690442535],[87.24138389215308,27.519414274556627],[87.2407776075452,27.519471738253202],[87.24038552289679,27.519339267738417],[87.24014517972329,27.519132022758075],[87.23950686032627,27.517991010050814],[87.23916854293276,27.51770268117426],[87.23869893282819,27.517712503260316],[87.23838438768841,27.51815545010491],[87.23823710405408,27.519259463181697],[87.23796814330699,27.520000247010163],[87.23778051565863,27.520176677093218],[87.23752448322043,27.520181619885147],[87.23728414107235,27.51997668795621],[87.23658004473042,27.51868000562356],[87.2361395591713,27.518118723369493],[87.23481899092556,27.517143643984614],[87.2325510039225,27.515729951326275],[87.23167992822323,27.515489956267153],[87.23134655101522,27.515300905965816],[87.2312586362037,27.514887973496606],[87.23135047216728,27.51431224071204],[87.23121335236718,27.51397164347283],[87.23131082027146,27.513682557299745],[87.23113899848646,27.513226863432763],[87.23079680286246,27.512857259854467],[87.23038170778229,27.512641327886477],[87.23008909787423,27.512533426223154],[87.229990934053,27.5123598138492],[87.23013679753191,27.51220607883742],[87.23045359560948,27.51190079722022],[87.23072125416799,27.51172655467136],[87.23086749307379,27.511595389392806],[87.23094026712391,27.511444031456925],[87.2309871421858,27.51055239444646],[87.231156693435,27.50992233200157],[87.2314233411298,27.50926732383994],[87.23171500239336,27.50879055407962],[87.23182878396041,27.50823063840316],[87.23187716592628,27.507666222442722],[87.23202633667734,27.507128749670866],[87.23205064849851,27.506638918432873],[87.23182266863769,27.50551971847885],[87.23172087051802,27.504982688349575],[87.23159506738726,27.504603704016294],[87.23129288267663,27.504001594462128],[87.23099076064395,27.503464816031222],[87.2307134614117,27.502952920585134],[87.23053776562004,27.502614636516295],[87.2301111614134,27.50215038148824],[87.23017887414876,27.502129999208368],[87.23094746740027,27.50199326044928],[87.23135273851503,27.50182101660785],[87.23184228539017,27.501359748899176],[87.2319703947246,27.50135724637835],[87.23226994414966,27.501433576984613],[87.23252817038957,27.50174003801066],[87.23272105632651,27.501852568158128],[87.23310607431519,27.501946714892153],[87.23336273219823,27.501946273168723],[87.23381076935739,27.501810101906877],[87.23406742683171,27.50180966071081],[87.23445169150135,27.501732256601553],[87.23521978262427,27.50148035933245],[87.23554021229182,27.501421149412494],[87.23586007731781,27.50126709918762],[87.23598799693809,27.501169818617004],[87.23611579344582,27.501131180943453],[87.23643559594426,27.500938806671982],[87.23656320334202,27.50082358401193],[87.23684042755625,27.50070798350778],[87.23707438498825,27.500477287691236],[87.23722343717881,27.500323490376235],[87.23713746631346,27.500228838839295],[87.23700872886384,27.500113993873295],[87.23681521581388,27.499884054402575],[87.23638441978515,27.499252813429656],[87.23603877717937,27.49844983312819],[87.23601657893583,27.498278345537763],[87.23584300450773,27.49776175969911],[87.23558402477812,27.497245299931663],[87.2354332144868,27.497017485382024],[87.23521693829939,27.496501024194774],[87.2351309671157,27.496386054311618],[87.2350227961892,27.496099597389],[87.23493645024288,27.49598462705431],[87.23484978793404,27.49569810659697],[87.23472061215655,27.49552455770402],[87.23450477337724,27.495066677166143],[87.23422328160152,27.494378729500305],[87.23398643763404,27.493977365623774],[87.23327609385915,27.492944823165622],[87.23260970892444,27.492180733762904],[87.23252417582057,27.49214247438815],[87.23224519350059,27.491894655841364],[87.23183772588,27.49160870273012],[87.23158044023543,27.491437594200466],[87.23115190384463,27.491228414182597],[87.23063839866319,27.49109607029063],[87.23003974090693,27.491079012128125],[87.22952742938513,27.49119724172721],[87.22798942783785,27.491355560867767],[87.22730636618265,27.491510178884553],[87.22687958689457,27.491684673905134],[87.22662336848168,27.491743819913655],[87.2263670868072,27.491744136991436],[87.2261311220621,27.491611413760946],[87.22574509916423,27.49128701158452],[87.22544454588247,27.4910008700629],[87.22499280528292,27.490428271601637],[87.22473539372577,27.490198519963272],[87.22454188089331,27.489950513069182],[87.22396222003198,27.489454876256897],[87.22379021462517,27.489206868824787],[87.2236615408632,27.48911227999353],[87.22342494789979,27.48882376183171],[87.22329570865436,27.48859594715432],[87.22310225749266,27.488366069463737],[87.22288648278014,27.48792625668421],[87.22280063766247,27.48786986594232],[87.22265026581047,27.48765799368106],[87.22224242137581,27.48733590562314],[87.22215695275212,27.48731571321464],[87.22200677047674,27.48722118835165],[87.2215791110618,27.48712704192746],[87.22123717238935,27.48714792778661],[87.2209810164188,27.487204761227535],[87.22072498699562,27.487320298755062],[87.22055568052619,27.487627515888217],[87.22025795179555,27.487934985750826],[87.21957501683526,27.488168501794824],[87.21906270522555,27.48828454297813],[87.21889182929314,27.488284795767047],[87.21863479588168,27.488228783018304],[87.21831367511675,27.488057738340643],[87.21756251065669,27.487390803721752],[87.21745503084013,27.487275833885917],[87.21734736327875,27.487084154773544],[87.21698215859682,27.486703297909454],[87.21681027915004,27.486511682239765],[87.21666216800057,27.48680083163309],[87.2163222383651,27.487241528148694],[87.21625915644954,27.48747184710467],[87.21630493522578,27.488083463193053],[87.21624135206181,27.488237071171632],[87.21622078511479,27.4884109350371],[87.21611481125223,27.488564544499525],[87.21598682865246,27.488659574077033],[87.2156458943533,27.488890334488094],[87.21521961648713,27.489103215562825],[87.21496371104429,27.4892006223928],[87.21466510467268,27.489372677734703],[87.214324043892,27.489528916473063],[87.21398304738966,27.489739357560644],[87.21300389011587,27.4906054389123],[87.21262069192643,27.490894904303655],[87.2121305173648,27.49120268920828],[87.21174738181239,27.491548609009136],[87.21166203859644,27.49158712138594],[87.21138537952297,27.49183807393603],[87.21121563286857,27.492068581602638],[87.21093903652526,27.492355670207235],[87.21074815886737,27.49264488279175],[87.21049263144917,27.492875516443863],[87.21015107025812,27.492970799026875],[87.20989485127778,27.492973491047557],[87.20929707072497,27.493107539202924],[87.20880633042546,27.49328209775383],[87.20844269603131,27.49328491708872],[87.20827238536316,27.4933800093265],[87.20805905896272,27.493495421235068],[87.20786711464326,27.493554378970465],[87.20754724923628,27.49372868550809],[87.20729115685977,27.493823904146726],[87.2065214370558,27.493885996003513],[87.20639351632961,27.493962958687774],[87.2060953492764,27.49427036555577],[87.20588265220943,27.494595713605985],[87.20579843848374,27.49488473768197],[87.20575730556907,27.49522790074272],[87.20567296558488,27.495458282000385],[87.20543913565423,27.495803949880777],[87.20511902125529,27.495996323642764],[87.20490519368857,27.496055280926228],[87.20452111808378,27.496247718060292],[87.20428672410776,27.496478351984717],[87.20411760678917,27.496882598221497],[87.20396855464335,27.497054337927505],[87.20362674316222,27.497172253060846],[87.20304934373911,27.497211460318262],[87.2027930008405,27.497308930478535],[87.20202535342564,27.497847349425555],[87.20181259218361,27.49811618134356],[87.20170774956331,27.498594885853937],[87.20179786332564,27.49957210798657],[87.20177779899767,27.49985875518538],[87.20160887138569,27.50037816017439],[87.20107687444961,27.501010978042622],[87.20095027241021,27.501356518671734],[87.20095090079784,27.501530319970232],[87.20127547266048,27.502333425812772],[87.20131980734608,27.50267640021261],[87.20115050160074,27.503022004200222],[87.20093893460255,27.503597925924428],[87.20092037640869,27.504229924603056],[87.20070805357892,27.504519199756782],[87.20034473572487,27.50467318760016],[87.19989619754796,27.504809296945076],[87.19925464934306,27.50486888588727],[87.1984202166772,27.50487239947868],[87.19765062400595,27.505047274321637],[87.19726548127096,27.505029837850167],[87.19655972402404,27.50514594455897],[87.19591761132128,27.50511069355436],[87.19536165727216,27.505152151891792],[87.1956235876963,27.50631873941983],[87.1960802230479,27.507925203699337],[87.19598775774612,27.508227731626462],[87.19598838299606,27.50822773167191],[87.19621686461083,27.509457651060476],[87.19616542251056,27.510222876327834],[87.19590484846104,27.511396974213497],[87.19608122315942,27.51462448030206],[87.19599958775173,27.515696796236213],[87.19476679233857,27.517529101893746],[87.19444468727998,27.51829926934108],[87.19441495332991,27.51972587574004],[87.19468782775746,27.521007559730535],[87.19485283052637,27.521230810868264],[87.19612670719224,27.52295567263581],[87.19663015192354,27.523447059147124],[87.1967373188227,27.52358909946597],[87.19760128398906,27.52476605690642],[87.19867344513462,27.52557484058235],[87.20010804425009,27.526028702537804],[87.20099299702498,27.52606351156328],[87.2012666621303,27.526169226458283],[87.20150049805795,27.526126022543874],[87.20441926772877,27.52648283441847],[87.20638255527197,27.526495683870326],[87.20787916495219,27.526272220830716],[87.20965364002635,27.526671311997507],[87.21144956568538,27.52738180595232],[87.21181952280544,27.52785525210848],[87.2128018394011,27.528758877336447],[87.21431891495392,27.529618731525446],[87.21667361260171,27.530495328797528],[87.21710415306893,27.53086480584369],[87.21742860283415,27.531821331326736],[87.21769927197911,27.53216849189608],[87.21898807699945,27.53307386275357],[87.21982845232684,27.533241774870575],[87.22041791775034,27.53314154897621],[87.22159379509179,27.5334646886117],[87.22231818650589,27.53339353244505],[87.22328879476119,27.533455161069053],[87.22516704534925,27.53316542307031],[87.22582403070118,27.53280543242301],[87.22648896284831,27.532790793243016],[87.22735471415444,27.532500445622883],[87.2281653888036,27.532532942424595],[87.22842885930437,27.53244897624506],[87.2298825255291,27.532701654285557],[87.23010167275204,27.53292471623134],[87.23080508361495,27.53429817089228],[87.23139214470018,27.53605098809021],[87.23208202380209,27.535997900197017],[87.23289156509904,27.535615025503724],[87.23388393769652,27.535960924690645],[87.23411721064433,27.53595610714368],[87.23580994870198,27.53534602867761],[87.23610180688722,27.53534095966097],[87.23718588302482,27.53475677288748],[87.2385878950118,27.53451736932477],[87.23895496170168,27.534173637351543],[87.23903673218254,27.533661111088595],[87.23972809394718,27.532684814466034],[87.23971257676247,27.5320934535302],[87.23937775053149,27.53126115244974],[87.23926438236057,27.530505182764944],[87.23960766528054,27.528861383204724],[87.24056624098014,27.527383497993615],[87.24241744482087,27.52521789806691],[87.24308390317577,27.523196545642513],[87.24319330118094,27.52230703289533],[87.24286320657006,27.52042736154356],[87.2429225983774,27.520122521904245]]]}},{"type":"Feature","properties":{"province":"Koshi Province","district":"Sankhuwasabha","municipality":"Chichila Rural Municipality","ward":"1","wardNumber":1,"sourceMunicipality":"Chichila","sourceType":"Gaunpalika"},"geometry":{"type":"Polygon","coordinates":[[[87.2662219382599,27.477202026892552],[87.26631007244481,27.475967163827068],[87.26553655310306,27.47346094032719],[87.26538730540987,27.473228749964317],[87.26338504004723,27.471749596159267],[87.26280499512977,27.47075981511919],[87.26275257084383,27.469195669586313],[87.26296837672213,27.46791091426833],[87.2626105190086,27.465902706506444],[87.262904796195,27.46488415369715],[87.26282343541689,27.463929562189822],[87.26295491579404,27.463626846974872],[87.2634078268777,27.463348320256156],[87.2642521359229,27.463229335454173],[87.26522805100856,27.46287309169268],[87.26702551701257,27.462415930294178],[87.26924896398333,27.46255374961858],[87.27119320999071,27.460841281028657],[87.27184431178118,27.46012443579533],[87.27227957832679,27.459121385771045],[87.26662330452716,27.4556992802239],[87.26382204446843,27.45354681588711],[87.25777513610066,27.450558467981086],[87.25453885494656,27.44916498321355],[87.25211975415857,27.44798442377932],[87.25063319580082,27.447404775649506],[87.24928857268075,27.44721761586628],[87.2489256213153,27.446987991776226],[87.24815633773136,27.446930736130703],[87.24755761433248,27.446778325393055],[87.24695901680515,27.446702687404468],[87.24644538522398,27.446416924212663],[87.2457602513165,27.446093088707556],[87.24507543381583,27.445920548505818],[87.24473387005318,27.445903049148505],[87.24310838944488,27.445560597794945],[87.24191207498224,27.445598814196988],[87.24139894711502,27.44554105506845],[87.24105688292218,27.445464912506242],[87.24045841153762,27.44542759782837],[87.23986012968382,27.445466993488594],[87.23917706797627,27.445639742377384],[87.23892110057686,27.445734961395313],[87.23806685195063,27.445887706445966],[87.23772516465444,27.445983051561267],[87.23734133987566,27.44619368152854],[87.23721348200502,27.446288711338177],[87.23674437697673,27.446555859689536],[87.23631847946675,27.447053136138695],[87.23623376368771,27.447204556962703],[87.23587195146989,27.4476453171071],[87.23517065206102,27.448788662574675],[87.23489405635753,27.44915252327179],[87.2345327464251,27.44968587246485],[87.23425665292311,27.450126443438506],[87.23406546477943,27.45050824572489],[87.23387546881591,27.451118052123892],[87.23381257706403,27.45149960241574],[87.23368603833936,27.45188352919238],[87.2335373636383,27.45219068377603],[87.23315466856064,27.452631569347428],[87.232217900821,27.453398370207083],[87.23200532779768,27.453685395410613],[87.23170722258895,27.45393641085102],[87.23160093619683,27.454069763805506],[87.23115352772152,27.454433939654347],[87.23098327973048,27.45454935079524],[87.23074894616866,27.454723530836098],[87.23023701159943,27.45493428738152],[87.2295542012711,27.455127291789683],[87.229212891299,27.455263337006457],[87.22836014818773,27.455722921520135],[87.2279126773775,27.456069029386743],[87.2275291650276,27.4562999152904],[87.22710276334635,27.45656925059039],[87.22684704561118,27.45666446982943],[87.22659120491234,27.456838650035905],[87.22599398905344,27.45710823799683],[87.22573789604081,27.457165133046438],[87.22513986414305,27.457224785146664],[87.22471283182591,27.45722547930116],[87.22454214533163,27.45726411768649],[87.22368758118162,27.45730614296161],[87.22300470795761,27.45747882822717],[87.22266352357367,27.457671202240135],[87.22253591583534,27.457766232281234],[87.22210857013468,27.457769177338207],[87.22185197570896,27.457731232171927],[87.2213386586669,27.457578570243854],[87.2208032662794,27.457197966380537],[87.22067459188523,27.457064992193448],[87.22016102224481,27.456797233493806],[87.21947701898438,27.456723784235127],[87.2190496732324,27.456686154990198],[87.21879301571133,27.456630079447393],[87.2184719563296,27.45647710198489],[87.2180863710605,27.45613463230023],[87.21770091165935,27.455866622478396],[87.217273064702,27.455772538360247],[87.21693143851327,27.45577304363871],[87.21676081492615,27.455850068957393],[87.21650472155338,27.455888833735873],[87.21633353303626,27.45587108146302],[87.21624894365218,27.456101462630095],[87.21624957102517,27.456254945184963],[87.21644321284533,27.45663611655706],[87.21642358815755,27.457094313007012],[87.21646754802182,27.45740121489948],[87.21640409126783,27.45763159629665],[87.21644880517427,27.45816643998929],[87.21642911903753,27.45862469914889],[87.21632327162376,27.458855081407624],[87.21621824181145,27.459313467107215],[87.21621918501282,27.459620432111546],[87.21630584832697,27.459927270840883],[87.21630641396992,27.460078502319643],[87.21639244799417,27.460231796266637],[87.21645747665922,27.460461987605218],[87.21667237516878,27.46084315880982],[87.21684381617894,27.461014394053546],[87.21714518896947,27.4616256308145],[87.21740253831459,27.461873512607415],[87.21763957355454,27.462410353731546],[87.21802572294402,27.46282959594948],[87.21815452481322,27.463039280313026],[87.21815515290382,27.463192763473025],[87.21828514643002,27.463650770894393],[87.21824401527901,27.46410909304781],[87.21813829384185,27.464416184699843],[87.217840880052,27.46485681812954],[87.2176067363021,27.465125838034425],[87.21662701535371,27.465912833297846],[87.2160518113457,27.466315460214258],[87.21537170069254,27.467120268392033],[87.21513830842969,27.467486129511723],[87.21511774115875,27.467637486174876],[87.21469453823877,27.468461984044414],[87.21441800391901,27.46874913499778],[87.21420599437018,27.469056416017594],[87.21359160018217,27.470129552313033],[87.21344248490927,27.47024490059797],[87.21333644863356,27.47038050460006],[87.21329437379934,27.47053404964202],[87.21310362160018,27.470839079858532],[87.2130192823804,27.471069398148696],[87.21289330643694,27.471530097679295],[87.21272789218361,27.47267925015611],[87.21247500097837,27.47344485333245],[87.21241405401987,27.474135619231284],[87.2126107056638,27.475054010021157],[87.21265397373416,27.47518711101344],[87.21274038406436,27.475340405102706],[87.2129987378135,27.475800535442186],[87.21351374807179,27.476257912305037],[87.21370770122626,27.47662101603978],[87.2137730423915,27.476851144864984],[87.21377461160948,27.477155859101572],[87.2136483231333,27.47761655839106],[87.2136288230427,27.47800029658983],[87.21367259392706,27.478230488428],[87.21384497506229,27.47853494969079],[87.21408156809638,27.4788212178705],[87.21416760221432,27.478974574439246],[87.21429621433809,27.479089481084223],[87.21444696215276,27.47931948338433],[87.21491970803847,27.479833376950978],[87.21509209015984,27.480140089559892],[87.21530887015919,27.480828225421906],[87.21543810987637,27.481058228683167],[87.215525084639,27.481365067257766],[87.21561143182707,27.48151617288524],[87.21582651685166,27.481804754407193],[87.21640592797624,27.482356845424935],[87.21672836617205,27.482719758911728],[87.21687930189005,27.483026471593995],[87.21700960875489,27.483484479065353],[87.21707645557855,27.48402157282096],[87.21701594806878,27.484786860811667],[87.21680582195475,27.485554651583364],[87.21681027915004,27.486511682239765],[87.21698215859682,27.486703297909454],[87.21734736327875,27.487084154773544],[87.21745503084013,27.487275833885917],[87.21756251065669,27.487390803721752],[87.21831367511675,27.488057738340643],[87.21863479588168,27.488228783018304],[87.21889182929314,27.488284795767047],[87.21906270522555,27.48828454297813],[87.21957501683526,27.488168501794824],[87.22025795179555,27.487934985750826],[87.22055568052619,27.487627515888217],[87.22072498699562,27.487320298755062],[87.2209810164188,27.487204761227535],[87.22123717238935,27.48714792778661],[87.2215791110618,27.48712704192746],[87.22200677047674,27.48722118835165],[87.22215695275212,27.48731571321464],[87.22224242137581,27.48733590562314],[87.22265026581047,27.48765799368106],[87.22280063766247,27.48786986594232],[87.22288648278014,27.48792625668421],[87.22310225749266,27.488366069463737],[87.22329570865436,27.48859594715432],[87.22342494789979,27.48882376183171],[87.2236615408632,27.48911227999353],[87.22379021462517,27.489206868824787],[87.22396222003198,27.489454876256897],[87.22454188089331,27.489950513069182],[87.22473539372577,27.490198519963272],[87.22499280528292,27.490428271601637],[87.22544454588247,27.4910008700629],[87.22574509916423,27.49128701158452],[87.2261311220621,27.491611413760946],[87.2263670868072,27.491744136991436],[87.22662336848168,27.491743819913655],[87.22687958689457,27.491684673905134],[87.22730636618265,27.491510178884553],[87.22798942783785,27.491355560867767],[87.22952742938513,27.49119724172721],[87.23003974090693,27.491079012128125],[87.23063839866319,27.49109607029063],[87.23115190384463,27.491228414182597],[87.23158044023543,27.491437594200466],[87.23183772588,27.49160870273012],[87.23224519350059,27.491894655841364],[87.23252417582057,27.49214247438815],[87.23260970892444,27.492180733762904],[87.23327609385915,27.492944823165622],[87.23398643763404,27.493977365623774],[87.23422328160152,27.494378729500305],[87.23450477337724,27.495066677166143],[87.23472061215655,27.49552455770402],[87.23484978793404,27.49569810659697],[87.23493645024288,27.49598462705431],[87.2350227961892,27.496099597389],[87.2351309671157,27.496386054311618],[87.23521693829939,27.496501024194774],[87.2354332144868,27.497017485382024],[87.23558402477812,27.497245299931663],[87.23584300450773,27.49776175969911],[87.23601657893583,27.498278345537763],[87.23603877717937,27.49844983312819],[87.23638441978515,27.499252813429656],[87.23681521581388,27.499884054402575],[87.23700872886384,27.500113993873295],[87.23713746631346,27.500228838839295],[87.23722343717881,27.500323490376235],[87.23737205102091,27.50014943691037],[87.23796462160443,27.49894082341559],[87.23809210297647,27.49876908403388],[87.23847348057036,27.498077687624413],[87.23870699878607,27.49779066264656],[87.2389187570361,27.49738622860439],[87.2390884401342,27.497157971157048],[87.23917378264025,27.49709914085011],[87.23955635339077,27.496676386173238],[87.23996062121681,27.496350659843614],[87.24021520867447,27.496004866688487],[87.24046854038916,27.495372364580387],[87.24070149330338,27.494970180786446],[87.24080671362348,27.49462689123681],[87.2408267791304,27.4943965735918],[87.24099633614057,27.494109674502965],[87.24114381986415,27.493707679857604],[87.24131017707016,27.492788719694015],[87.24130226908969,27.49117937349663],[87.24125837264737,27.490951431904808],[87.24129950797516,27.49066253473423],[87.24148900487852,27.49008880041734],[87.24153013897889,27.489802091597674],[87.2415083789246,27.48968699519488],[87.24154951411909,27.48940022320241],[87.24096960183974,27.488846006339365],[87.24064622175487,27.4882732188099],[87.2404947835935,27.4878717283583],[87.24047252269642,27.48770024036372],[87.24027800592737,27.487298751072107],[87.23993418414045,27.486897575567877],[87.23911636073043,27.485752377755826],[87.23887857606331,27.48523591671193],[87.23862003482574,27.484778162226817],[87.23855569799198,27.484719582681276],[87.23838281467567,27.484376735495612],[87.23786428964571,27.48322878098153],[87.23738733782173,27.481852697583417],[87.23727766243871,27.48127959368956],[87.2373609972982,27.480877661864156],[87.2375299272741,27.480475542012694],[87.23759257021123,27.48018651861808],[87.2375903108463,27.479728321975085],[87.23746019333744,27.47938322272819],[87.2370293964934,27.478695464525295],[87.2367070827807,27.478294289685856],[87.23647092905313,27.478066726238055],[87.23610503503775,27.477550455740104],[87.23575964490416,27.47686263435962],[87.23520017306554,27.476060031793498],[87.23507049577569,27.4757735748385],[87.23498245443538,27.47529518610144],[87.2348749115018,27.4751441432896],[87.23476736942203,27.475008917762782],[87.23436033971474,27.474761288637005],[87.23339509486776,27.474000017497577],[87.23313730647013,27.473713812192695],[87.23281411582317,27.473197416248237],[87.23274977817516,27.47313883694932],[87.23255475891112,27.472624564047422],[87.23251105216949,27.472432758375806],[87.23274601355737,27.47241206146509],[87.23308694803677,27.472201557422345],[87.23338474036818,27.471970797531444],[87.23355486200126,27.47177867661986],[87.23363964022148,27.471625005211855],[87.23420587317017,27.4695564526849],[87.23424681859748,27.46917496547884],[87.23437360933849,27.4688678106113],[87.2346502692252,27.468657370044145],[87.23533220194952,27.46831082069004],[87.2354597463256,27.46819553479661],[87.23565049899089,27.46790626010848],[87.23633023490308,27.467139900228396],[87.23660739750855,27.46702436248264],[87.23677821064238,27.467003728551546],[87.23703524461529,27.467100315024187],[87.2372497643597,27.46727148718234],[87.23742164293263,27.46746304144215],[87.23772269976479,27.46786209057147],[87.23832430904159,27.46854947103971],[87.23890365734115,27.469065363945226],[87.23986864996462,27.469713726688873],[87.23999732470718,27.469828633276542],[87.24033995325206,27.469979297319956],[87.24051120439671,27.470017431025223],[87.24108998736764,27.470397784581586],[87.24149751991189,27.47076050944944],[87.24171266668586,27.47104677716561],[87.24188523671744,27.471391813357997],[87.24195227256227,27.471965043542298],[87.24197936541358,27.473055237690183],[87.24189684586752,27.473630907534048],[87.24189854015974,27.473974008372107],[87.24209387397708,27.474605690440686],[87.24237360895081,27.474950536902686],[87.24288887010442,27.475464305296914],[87.24351092074963,27.475941748386237],[87.24374657313882,27.476074471038427],[87.24511708912935,27.476663435597267],[87.24545984367734,27.476854674057417],[87.24554531303387,27.47687255302654],[87.2459526559746,27.477120120007687],[87.24608139348356,27.477255345063497],[87.24629622488798,27.47740619860312],[87.24685513090735,27.478055255459815],[87.24696210761817,27.47807538498499],[87.24708971579584,27.477978104429297],[87.24723763957516,27.477670824808566],[87.24730053307222,27.477442819489166],[87.24753286012397,27.476981867795388],[87.24814951206875,27.476292281773983],[87.24831913267394,27.476061836126693],[87.24855158456344,27.475600885610135],[87.24867906612268,27.4754471507778],[87.24893409255763,27.47519838684607],[87.24916248450508,27.474924865297943],[87.25274679431706,27.477674367740768],[87.25443281025247,27.478684764173508],[87.25555403087182,27.47841404281939],[87.26022611738826,27.477915513608764],[87.26153147377343,27.477922058896556],[87.2636203606407,27.47752084684328],[87.26483267238811,27.476990298628532],[87.2662219382599,27.477202026892552]]]}},{"type":"Feature","properties":{"province":"Koshi Province","district":"Sankhuwasabha","municipality":"Chichila Rural Municipality","ward":"4","wardNumber":4,"sourceMunicipality":"Chichila","sourceType":"Gaunpalika"},"geometry":{"type":"Polygon","coordinates":[[[87.27353818308252,27.515975033261682],[87.27395132903206,27.51565368234712],[87.27421416366353,27.514976041932766],[87.27416674179342,27.513466100139485],[87.27424518866522,27.51244342435688],[87.27465856877315,27.511230499776214],[87.27482071600875,27.50926417127873],[87.27502889806762,27.50822773896527],[87.27503077372825,27.50822773893457],[87.2751747617892,27.508092009330838],[87.27470545694133,27.50772497139475],[87.27444892283512,27.50762619643817],[87.27339709714636,27.50763959185896],[87.272503640125,27.5074743063068],[87.27277517278004,27.507230043100684],[87.27291577354232,27.506507453954143],[87.27277580256553,27.50416927064049],[87.272018103653,27.501823345022387],[87.2718058745263,27.500426563361763],[87.27127740038894,27.49890174931587],[87.2707695720143,27.49802475016856],[87.27077668132411,27.49707884775682],[87.27019020181952,27.496369085823474],[87.26992965458834,27.495654068137046],[87.26993551810273,27.49495430013029],[87.2703485777762,27.49335544983794],[87.26986568674832,27.492029131269344],[87.26907981652857,27.49105785864675],[87.26842114045434,27.487966774980368],[87.26738388616218,27.484824556636354],[87.26692523115905,27.482252246635618],[87.26622783321842,27.48142295161952],[87.26608600546574,27.480096002596806],[87.26655478795203,27.479273504606653],[87.26664573824678,27.47816730347671],[87.2662219382599,27.477202026892552],[87.26483267238811,27.476990298628532],[87.2636203606407,27.47752084684328],[87.26153147377343,27.477922058896556],[87.26022611738826,27.477915513608764],[87.25555403087182,27.47841404281939],[87.25443281025247,27.478684764173508],[87.25274679431706,27.477674367740768],[87.24916248450508,27.474924865297943],[87.24893409255763,27.47519838684607],[87.24867906612268,27.4754471507778],[87.24855158456344,27.475600885610135],[87.24831913267394,27.476061836126693],[87.24814951206875,27.476292281773983],[87.24753286012397,27.476981867795388],[87.24730053307222,27.477442819489166],[87.24723763957516,27.477670824808566],[87.24708971579584,27.477978104429297],[87.24696210761817,27.47807538498499],[87.24685513090735,27.478055255459815],[87.24629622488798,27.47740619860312],[87.24608139348356,27.477255345063497],[87.2459526559746,27.477120120007687],[87.24554531303387,27.47687255302654],[87.24545984367734,27.476854674057417],[87.24511708912935,27.476663435597267],[87.24374657313882,27.476074471038427],[87.24351092074963,27.475941748386237],[87.24288887010442,27.475464305296914],[87.24237360895081,27.474950536902686],[87.24209387397708,27.474605690440686],[87.24189854015974,27.473974008372107],[87.24189684586752,27.473630907534048],[87.24197936541358,27.473055237690183],[87.24195227256227,27.471965043542298],[87.24188523671744,27.471391813357997],[87.24171266668586,27.47104677716561],[87.24149751991189,27.47076050944944],[87.24108998736764,27.470397784581586],[87.24051120439671,27.470017431025223],[87.24033995325206,27.469979297319956],[87.23999732470718,27.469828633276542],[87.23986864996462,27.469713726688873],[87.23890365734115,27.469065363945226],[87.23832430904159,27.46854947103971],[87.23772269976479,27.46786209057147],[87.23742164293263,27.46746304144215],[87.2372497643597,27.46727148718234],[87.23703524461529,27.467100315024187],[87.23677821064238,27.467003728551546],[87.23660739750855,27.46702436248264],[87.23633023490308,27.467139900228396],[87.23565049899089,27.46790626010848],[87.2354597463256,27.46819553479661],[87.23533220194952,27.46831082069004],[87.2346502692252,27.468657370044145],[87.23437360933849,27.4688678106113],[87.23424681859748,27.46917496547884],[87.23420587317017,27.4695564526849],[87.23363964022148,27.471625005211855],[87.23355486200126,27.47177867661986],[87.23338474036818,27.471970797531444],[87.23308694803677,27.472201557422345],[87.23274601355737,27.47241206146509],[87.23251105216949,27.472432758375806],[87.23255475891112,27.472624564047422],[87.23274977817516,27.47313883694932],[87.23281411582317,27.473197416248237],[87.23313730647013,27.473713812192695],[87.23339509486776,27.474000017497577],[87.23436033971474,27.474761288637005],[87.23476736942203,27.475008917762782],[87.2348749115018,27.4751441432896],[87.23498245443538,27.47529518610144],[87.23507049577569,27.4757735748385],[87.23520017306554,27.476060031793498],[87.23575964490416,27.47686263435962],[87.23610503503775,27.477550455740104],[87.23647092905313,27.478066726238055],[87.2367070827807,27.478294289685856],[87.2370293964934,27.478695464525295],[87.23746019333744,27.47938322272819],[87.2375903108463,27.479728321975085],[87.23759257021123,27.48018651861808],[87.2375299272741,27.480475542012694],[87.2373609972982,27.480877661864156],[87.23727766243871,27.48127959368956],[87.23738733782173,27.481852697583417],[87.23786428964571,27.48322878098153],[87.23838281467567,27.484376735495612],[87.23855569799198,27.484719582681276],[87.23862003482574,27.484778162226817],[87.23887857606331,27.48523591671193],[87.23911636073043,27.485752377755826],[87.23993418414045,27.486897575567877],[87.24027800592737,27.487298751072107],[87.24047252269642,27.48770024036372],[87.2404947835935,27.4878717283583],[87.24064622175487,27.4882732188099],[87.24096960183974,27.488846006339365],[87.24154951411909,27.48940022320241],[87.2415083789246,27.48968699519488],[87.24153013897889,27.489802091597674],[87.24148900487852,27.49008880041734],[87.24129950797516,27.49066253473423],[87.24125837264737,27.490951431904808],[87.24130226908969,27.49117937349663],[87.24131017707016,27.492788719694015],[87.24114381986415,27.493707679857604],[87.24099633614057,27.494109674502965],[87.2408267791304,27.4943965735918],[87.24080671362348,27.49462689123681],[87.24070149330338,27.494970180786446],[87.24046854038916,27.495372364580387],[87.24021520867447,27.496004866688487],[87.23996062121681,27.496350659843614],[87.23955635339077,27.496676386173238],[87.23917378264025,27.49709914085011],[87.2390884401342,27.497157971157048],[87.2389187570361,27.49738622860439],[87.23870699878607,27.49779066264656],[87.23847348057036,27.498077687624413],[87.23809210297647,27.49876908403388],[87.23796462160443,27.49894082341559],[87.23737205102091,27.50014943691037],[87.23722343717881,27.500323490376235],[87.23707438498825,27.500477287691236],[87.23684042755625,27.50070798350778],[87.23656320334202,27.50082358401193],[87.23643559594426,27.500938806671982],[87.23611579344582,27.501131180943453],[87.23598799693809,27.501169818617004],[87.23586007731781,27.50126709918762],[87.23554021229182,27.501421149412494],[87.23521978262427,27.50148035933245],[87.23445169150135,27.501732256601553],[87.23406742683171,27.50180966071081],[87.23381076935739,27.501810101906877],[87.23336273219823,27.501946273168723],[87.23310607431519,27.501946714892153],[87.23272105632651,27.501852568158128],[87.23252817038957,27.50174003801066],[87.23226994414966,27.501433576984613],[87.2319703947246,27.50135724637835],[87.23184228539017,27.501359748899176],[87.23135273851503,27.50182101660785],[87.23094746740027,27.50199326044928],[87.23017887414876,27.502129999208368],[87.2301111614134,27.50215038148824],[87.23053776562004,27.502614636516295],[87.2307134614117,27.502952920585134],[87.23099076064395,27.503464816031222],[87.23129288267663,27.504001594462128],[87.23159506738726,27.504603704016294],[87.23172087051802,27.504982688349575],[87.23182266863769,27.50551971847885],[87.23205064849851,27.506638918432873],[87.23202633667734,27.507128749670866],[87.23187716592628,27.507666222442722],[87.23182878396041,27.50823063840316],[87.23171500239336,27.50879055407962],[87.2314233411298,27.50926732383994],[87.231156693435,27.50992233200157],[87.2309871421858,27.51055239444646],[87.23094026712391,27.511444031456925],[87.23086749307379,27.511595389392806],[87.23072125416799,27.51172655467136],[87.23045359560948,27.51190079722022],[87.23013679753191,27.51220607883742],[87.229990934053,27.5123598138492],[87.23008909787423,27.512533426223154],[87.23038170778229,27.512641327886477],[87.23079680286246,27.512857259854467],[87.23113899848646,27.513226863432763],[87.23131082027146,27.513682557299745],[87.23121335236718,27.51397164347283],[87.23135047216728,27.51431224071204],[87.2312586362037,27.514887973496606],[87.23134655101522,27.515300905965816],[87.23167992822323,27.515489956267153],[87.2325510039225,27.515729951326275],[87.23481899092556,27.517143643984614],[87.2361395591713,27.518118723369493],[87.23658004473042,27.51868000562356],[87.23728414107235,27.51997668795621],[87.23752448322043,27.520181619885147],[87.23778051565863,27.520176677093218],[87.23796814330699,27.520000247010163],[87.23823710405408,27.519259463181697],[87.23838438768841,27.51815545010491],[87.23869893282819,27.517712503260316],[87.23916854293276,27.51770268117426],[87.23950686032627,27.517991010050814],[87.24014517972329,27.519132022758075],[87.24038552289679,27.519339267738417],[87.2407776075452,27.519471738253202],[87.24138389215308,27.519414274556627],[87.24257952848177,27.519829690442535],[87.2429225983774,27.520122521904245],[87.24470618666868,27.519805652303834],[87.24612401183377,27.51922752409721],[87.24811361655861,27.519052380166265],[87.24918482162623,27.518901507556958],[87.2506849315949,27.518589518685086],[87.25173768485642,27.518100046844186],[87.25211626340327,27.518160371148003],[87.2529364974127,27.517842765511553],[87.25540725515123,27.516350728453588],[87.25677515782505,27.514260282604575],[87.25718793021038,27.514020269040437],[87.25780409229209,27.513888220837153],[87.25862564536664,27.513895710794124],[87.26205558325502,27.513162381525824],[87.26252307114724,27.513323983884284],[87.26306964604207,27.5131988146685],[87.26424521122868,27.513550962775753],[87.2647582157267,27.51370343672647],[87.26579891289205,27.513773691632647],[87.26676046071712,27.514072014783693],[87.26823097212423,27.515734917787565],[87.2688563321042,27.515993296271578],[87.27243634043641,27.516029127774694],[87.27353818308252,27.515975033261682]]]}},{"type":"Feature","properties":{"province":"Koshi Province","district":"Sankhuwasabha","municipality":"Chichila Rural Municipality","ward":"5","wardNumber":5,"sourceMunicipality":"Chichila","sourceType":"Gaunpalika"},"geometry":{"type":"Polygon","coordinates":[[[87.29813506640552,27.519332269166313],[87.29797335263245,27.517847336234183],[87.29806635561344,27.516176907622174],[87.2978885896758,27.515502462538],[87.29720275369313,27.51444528839448],[87.2968263302744,27.51263132474453],[87.29624215017425,27.511228610131653],[87.29626027201863,27.510684637867964],[87.29708396566008,27.508227029488403],[87.29794135130764,27.505333730714753],[87.29802199135402,27.50453680830942],[87.29713788868867,27.49987320550488],[87.29694666552757,27.49842440825941],[87.29695739200012,27.497006867467817],[87.29650382029845,27.495448167401698],[87.2964135203663,27.49457935134442],[87.29679283585885,27.493978107240334],[87.29792623569607,27.493045691406092],[87.2983620117253,27.49250984082994],[87.29845497369816,27.492028822650624],[87.29840638596227,27.491615890662672],[87.29771074399193,27.491064363846935],[87.29763364396766,27.490633488691962],[87.29851417692421,27.488426266394065],[87.29870497694368,27.48738977203905],[87.29871863688884,27.485665265767064],[87.29859744765417,27.484629526865504],[87.29842281156405,27.484149075940007],[87.2960215245024,27.482752578274916],[87.29535508129813,27.482232623641007],[87.29497417805325,27.481540489373437],[87.2945435432069,27.479521278322995],[87.29375828424863,27.477832232876846],[87.29370813530242,27.477547962691883],[87.29304037421426,27.476734546584066],[87.29221666881493,27.475343588850954],[87.29139451560471,27.473354518948977],[87.29060350842637,27.471866469021805],[87.29042242181572,27.470851112109667],[87.29042990620697,27.46985338178359],[87.29075630650397,27.468177885837658],[87.2906911347654,27.466981723429516],[87.28984745454851,27.463967852652466],[87.28728237944117,27.460452048946458],[87.2869062250441,27.459595115619422],[87.28656344668228,27.458169265767935],[87.2856694871805,27.45789801196526],[87.2846634372963,27.458315399542144],[87.2844065286945,27.458275266269176],[87.2841504306002,27.45806364587236],[87.28379315635391,27.45715926137687],[87.28380363564699,27.455816179737038],[87.28095614764214,27.455763332589957],[87.27952943812221,27.4559242757942],[87.2782023969858,27.456468642962776],[87.27595496932317,27.45782526282218],[87.27483557415547,27.45869647244223],[87.27335191064617,27.45912830835568],[87.27227957832679,27.459121385771045],[87.27184431178118,27.46012443579533],[87.27119320999071,27.460841281028657],[87.26924896398333,27.46255374961858],[87.26702551701257,27.462415930294178],[87.26522805100856,27.46287309169268],[87.2642521359229,27.463229335454173],[87.2634078268777,27.463348320256156],[87.26295491579404,27.463626846974872],[87.26282343541689,27.463929562189822],[87.262904796195,27.46488415369715],[87.2626105190086,27.465902706506444],[87.26296837672213,27.46791091426833],[87.26275257084383,27.469195669586313],[87.26280499512977,27.47075981511919],[87.26338504004723,27.471749596159267],[87.26538730540987,27.473228749964317],[87.26553655310306,27.47346094032719],[87.26631007244481,27.475967163827068],[87.2662219382599,27.477202026892552],[87.26664573824678,27.47816730347671],[87.26655478795203,27.479273504606653],[87.26608600546574,27.480096002596806],[87.26622783321842,27.48142295161952],[87.26692523115905,27.482252246635618],[87.26738388616218,27.484824556636354],[87.26842114045434,27.487966774980368],[87.26907981652857,27.49105785864675],[87.26986568674832,27.492029131269344],[87.2703485777762,27.49335544983794],[87.26993551810273,27.49495430013029],[87.26992965458834,27.495654068137046],[87.27019020181952,27.496369085823474],[87.27077668132411,27.49707884775682],[87.2707695720143,27.49802475016856],[87.27127740038894,27.49890174931587],[87.2718058745263,27.500426563361763],[87.272018103653,27.501823345022387],[87.27277580256553,27.50416927064049],[87.27291577354232,27.506507453954143],[87.27277517278004,27.507230043100684],[87.272503640125,27.5074743063068],[87.27339709714636,27.50763959185896],[87.27444892283512,27.50762619643817],[87.27470545694133,27.50772497139475],[87.2751747617892,27.508092009330838],[87.27503077372825,27.50822773893457],[87.27502889806762,27.50822773896527],[87.27482071600875,27.50926417127873],[87.27465856877315,27.511230499776214],[87.27424518866522,27.51244342435688],[87.27416674179342,27.513466100139485],[87.27421416366353,27.514976041932766],[87.27395132903206,27.51565368234712],[87.27353818308252,27.515975033261682],[87.2761993496914,27.515843329191988],[87.27809022673121,27.515467065123214],[87.27896642646554,27.515542074109412],[87.27922326945969,27.515487366492888],[87.28059184762549,27.51604882240498],[87.2812757364113,27.516677247109307],[87.28212038174841,27.51777699347495],[87.28316746971792,27.518564833608693],[87.2836283334583,27.518848284927095],[87.28489930672815,27.519114281247703],[87.28532784409154,27.51933008763115],[87.28716279801989,27.52080249141822],[87.28792821215205,27.521116885101957],[87.2892354983988,27.52068523799875],[87.28998126502941,27.520252537567654],[87.29092085833824,27.52011960906912],[87.29284568456848,27.5196618831501],[87.29438274800745,27.519505189561755],[87.29553411044395,27.51951623708637],[87.29741204827714,27.51925488218231],[87.29813506640552,27.519332269166313]]]}}]}