{"type":"FeatureCollection","features":[{"type":"Feature","properties":{"province":"Koshi Province","district":"Dhankuta","municipality":"Chhathar Jorpati Rural Municipality","ward":"1","wardNumber":1,"sourceMunicipality":"Chhathar Jorpati","sourceType":"Gaunpalika"},"geometry":{"type":"Polygon","coordinates":[[[87.31431613519608,27.10480075443161],[87.3146282414432,27.104348679691757],[87.31482098524508,27.10358745356008],[87.31504337286825,27.103286737655576],[87.31543832327701,27.102911121464615],[87.31580376788374,27.102804209627053],[87.31605979855377,27.10281039460685],[87.31750108397473,27.103168290303543],[87.31792749015446,27.103196667306104],[87.31835608353097,27.10312795295175],[87.31855296517756,27.1029604636055],[87.31862186185998,27.102790975701538],[87.31847335524127,27.102021627329943],[87.31854400193289,27.10179349642564],[87.31872000086003,27.10160568922975],[87.31887236684693,27.10151284711064],[87.31923781178934,27.10142619102226],[87.31953667159569,27.101414245746483],[87.31964327257786,27.101416244215784],[87.3204328124626,27.101432487163468],[87.32081920273183,27.101366149332378],[87.32158604674221,27.10140046038316],[87.32233275759619,27.101416828988835],[87.32258941443457,27.10142301442842],[87.32343872914457,27.101615183268716],[87.32378054207965,27.10162336759309],[87.32446354258363,27.101637611629055],[87.32574438769413,27.101686544233058],[87.32736879466216,27.101684956211972],[87.3278791715558,27.101774099900293],[87.32830220397662,27.101937829148905],[87.3288114560094,27.10206304563126],[87.32906748672777,27.102069230302284],[87.32958354833877,27.1019461239445],[87.32992998573258,27.101800826604222],[87.33053745101292,27.10145171489364],[87.33066949762285,27.10132054941797],[87.33084268444966,27.1012479003665],[87.33118612075403,27.101179312310823],[87.33196171291382,27.100947233074947],[87.33281446433956,27.101006174553138],[87.33350233750735,27.10079235158822],[87.33384302479176,27.100820917683933],[87.33435558765323,27.10079477696387],[87.33457266423486,27.10064529198004],[87.33475209901043,27.10032432048322],[87.33521063442197,27.099953016865182],[87.33541088981619,27.099652300841303],[87.33560770771624,27.099464492739614],[87.33599740929147,27.099262678056082],[87.33612826835952,27.099151705550327],[87.33644074792566,27.09864080118005],[87.33657729169866,27.098338022454097],[87.33670927494376,27.09818872724323],[87.3371023500491,27.097853685184887],[87.33729804345606,27.097704264086353],[87.33790319815733,27.09743192437626],[87.3380763219052,27.097341208197225],[87.33916070632706,27.096656865552976],[87.33927124385352,27.096525638394503],[87.33949456901578,27.09614814918234],[87.33991027624373,27.095774658430372],[87.3399360350559,27.095729457252677],[87.3400896485998,27.095453686580544],[87.34039806682449,27.095078259352345],[87.34129138094055,27.094389855879744],[87.34206384731841,27.094198350821983],[87.34249069156611,27.09419053004081],[87.34266325341443,27.094117818395095],[87.34279404895837,27.094004658158262],[87.34295197615664,27.093701817073548],[87.34304562944986,27.093399101911007],[87.3430963919911,27.09309419924127],[87.34311282422807,27.092480206376784],[87.34318565751718,27.092175302813033],[87.34334533380745,27.091797940645655],[87.34345518427484,27.09166446216173],[87.3438448228146,27.091444579347254],[87.34410372871457,27.091355861524328],[87.34461560282816,27.091329783826975],[87.34458989483076,27.09075424046182],[87.3445640615727,27.090158378359117],[87.34477080094186,27.08889819314471],[87.34498005292554,27.088270255880502],[87.34569665391278,27.086331676492875],[87.34638487356756,27.08462347776463],[87.3465321636994,27.08393689942013],[87.34652896346824,27.083304839468155],[87.34672532998337,27.08238787975113],[87.34708919883379,27.081592391309517],[87.34735671200592,27.08044730162044],[87.34744654033712,27.07953059374271],[87.34767786243387,27.078902531845248],[87.34773031207719,27.078538924235726],[87.34804927629757,27.07709124480852],[87.34825639076328,27.07579273575596],[87.34866652304098,27.07488196259291],[87.34871559929493,27.074651644065224],[87.34903763880949,27.073815644827736],[87.34907607829689,27.07320383990861],[87.34905543197706,27.072436426926416],[87.34924098969397,27.071903206097467],[87.34959748476025,27.07137642069396],[87.34995779082706,27.070693778076194],[87.34992177351496,27.07046358561285],[87.34969349822688,27.07024746340101],[87.34935637260887,27.07010386417542],[87.34795273170022,27.069994477985585],[87.34750856654799,27.069869198492327],[87.34725603398434,27.069747917087657],[87.34700756361273,27.069511538516437],[87.34626639927274,27.068574337273823],[87.34568423936727,27.068061133485838],[87.34514996813593,27.067358185272617],[87.34477368578403,27.066352334339978],[87.34449313399259,27.06573228156528],[87.34429086476455,27.065344483150838],[87.34398374437458,27.064896044224483],[87.34364572879596,27.06404361218126],[87.34356519722368,27.063888067759045],[87.3429781485497,27.062801508002256],[87.34258880797361,27.06225391616737],[87.34226542788014,27.061633989057793],[87.34179436744331,27.0609511709553],[87.34159434807312,27.060486663089637],[87.34124789880033,27.059941257895947],[87.3409431521248,27.059416046280727],[87.34026526215487,27.058519293940904],[87.33956373985318,27.05771513161307],[87.33835952771557,27.056593820826],[87.33743924165474,27.055977653826055],[87.33696599486724,27.05539186455],[87.33630937698129,27.055239955384216],[87.33596893931022,27.055213702714006],[87.3356273777725,27.055243841977884],[87.33543343235773,27.055316553208666],[87.3351498328089,27.055538435058292],[87.33506017772947,27.055689918715277],[87.33466322902791,27.056160375007412],[87.33457694832062,27.056196698995866],[87.33425620699528,27.056226837812808],[87.33419137076804,27.05626309986638],[87.33361961131139,27.05688297757783],[87.33336083059152,27.056971632428922],[87.3329324255213,27.05705841408922],[87.33224973741983,27.057060112990996],[87.33182364404615,27.05705205453137],[87.3313367135106,27.05692452401512],[87.33112351009366,27.056902458855348],[87.33046520508182,27.056811504629067],[87.32884273660987,27.05683334748799],[87.32841776717987,27.056784715425366],[87.32816354809148,27.056722137702305],[87.32793246102582,27.056582725396698],[87.32772394461784,27.056425182780316],[87.32755950465213,27.056208871590925],[87.3273723703109,27.056033323177754],[87.32712046294785,27.05589384877958],[87.32660858825382,27.055881539808492],[87.32617899529674,27.055988640144196],[87.32583618349895,27.05601878004085],[87.32547023902504,27.05612575383419],[87.32516700605495,27.05629124449398],[87.32488390648362,27.056495058996948],[87.32470734584354,27.05670312249791],[87.32450427829978,27.057082798786915],[87.32445501498343,27.05731092901341],[87.3244547791065,27.05807840423051],[87.32407816409076,27.05929595405951],[87.32391804987823,27.059677818966833],[87.3238104624931,27.060441043779786],[87.32384648064227,27.060671236156704],[87.32412122148186,27.061521605979],[87.32428060018063,27.0619094051413],[87.3244561743559,27.06246887855008],[87.32455415406878,27.062777843309966],[87.32444900382933,27.06346435830197],[87.32430789818814,27.063922932124353],[87.3242541357826,27.06430454474376],[87.32423470363669,27.064995310272522],[87.32436632655528,27.06561123862911],[87.32462599528948,27.066229166431363],[87.32478074956775,27.066770572247137],[87.32472761227054,27.067152185463065],[87.32454592847068,27.067531799241262],[87.3242345099821,27.067965931277943],[87.32337946166547,27.068771555281742],[87.32315832322773,27.069033885279325],[87.32222218107763,27.069686153314944],[87.32202473691807,27.06987171074528],[87.32177709216886,27.070328285554666],[87.32172957730732,27.070479643984136],[87.32165638395811,27.071552021136174],[87.32130746189101,27.072541504725365],[87.32093177068433,27.07299383023345],[87.32060240638694,27.073330934282904],[87.3202886756972,27.073841838672823],[87.31987604346384,27.074829196857127],[87.31912311312479,27.07653745869312],[87.31845352588344,27.078286106205976],[87.3182417735169,27.078972873327594],[87.31816431645778,27.079449326990176],[87.31802658534711,27.079792804544724],[87.3179513768055,27.080174417951035],[87.31765446842934,27.080856747044447],[87.31749872835141,27.08106481112191],[87.31712584809705,27.081422296207506],[87.31678072480148,27.081547213133323],[87.31638583736168,27.08192282885898],[87.3161212458228,27.082223671128038],[87.31584803188271,27.082811222268898],[87.31575369041764,27.08311612573963],[87.31557025673301,27.083572512457412],[87.31542502780783,27.084164250385047],[87.31534694564378,27.084640766772793],[87.31521797483788,27.085424310749048],[87.31528982268887,27.085886882993357],[87.3156155144102,27.08643016201366],[87.31589662898398,27.087050277188343],[87.31593483403736,27.087203633853164],[87.31594309594556,27.087664206159697],[87.31566931952358,27.088272013536894],[87.31554953415055,27.088728274123145],[87.3157448670943,27.08934632783375],[87.31604742671983,27.08996637997736],[87.31615985380206,27.090505661283835],[87.31610609083218,27.090889587175738],[87.31597410852483,27.09103875783594],[87.31583456402944,27.091420559609713],[87.31580455850764,27.091725398924158],[87.31583820151667,27.092032300831963],[87.31606549131746,27.09303177814323],[87.31634198226945,27.093803124723504],[87.31670356641175,27.094576596631722],[87.31679529844111,27.095115877881728],[87.31677517840724,27.095802141777813],[87.31666990348785,27.09649084535481],[87.31659931951549,27.096718975777872],[87.31646208656058,27.097021753903988],[87.31585763388195,27.098002738324524],[87.31527912476469,27.09881223465783],[87.31446209412383,27.099771215248328],[87.31410484831324,27.100297938236686],[87.31398962367146,27.10060296662121],[87.31393817326686,27.100907806319867],[87.31382001243207,27.101287295084717],[87.31363657846619,27.10174368100618],[87.31340094434984,27.102502657254938],[87.31329798009975,27.103112337929844],[87.3132887949422,27.103419365226802],[87.31321821123834,27.10364749544046],[87.31306009709863,27.103950336836814],[87.31268715406851,27.104305571651533],[87.31185942364695,27.104860496742326],[87.31166148038629,27.105068623212954],[87.31139732666594,27.105349084701842],[87.31167074116006,27.105488433709002],[87.3120993976493,27.10542203281559],[87.31261664608522,27.10526060235263],[87.31295670978952,27.1053071741627],[87.3133847409573,27.105276908118498],[87.31364195864391,27.10522670256074],[87.31398714529499,27.105099472435924],[87.31431613519608,27.10480075443161]]]}},{"type":"Feature","properties":{"province":"Koshi Province","district":"Dhankuta","municipality":"Chhathar Jorpati Rural Municipality","ward":"2","wardNumber":2,"sourceMunicipality":"Chhathar Jorpati","sourceType":"Gaunpalika"},"geometry":{"type":"Polygon","coordinates":[[[87.36059191042052,27.085824426023596],[87.36068387747756,27.08559848353806],[87.36080572422992,27.085063199454414],[87.36094220606168,27.084760358483734],[87.36136847287437,27.08400306792393],[87.36199724390495,27.082886293367093],[87.36250810491929,27.082151382219557],[87.36284527955345,27.081545512330404],[87.36302177697462,27.081339636399814],[87.36337021249997,27.081079179692722],[87.36373728092391,27.08091568856668],[87.36416693647993,27.080810651390888],[87.36451199813473,27.080685672305847],[87.3649680965399,27.080388765042997],[87.3660377221635,27.0795304346918],[87.36645105522726,27.079253972647983],[87.36673521714386,27.079009458767544],[87.36715017495666,27.078656224515097],[87.36747835256641,27.078375448819294],[87.36776138924073,27.078171510042413],[87.36845544867408,27.077765567585374],[87.36939471501627,27.076982136792765],[87.36974040135772,27.07683677620071],[87.37013166400625,27.076576131518962],[87.370549496159,27.076146061103557],[87.37100896951299,27.07573405811704],[87.37123054450255,27.07543327912732],[87.37153896356993,27.075093862810895],[87.3719420986771,27.07443366234306],[87.37239763461166,27.074154761269988],[87.37351897514542,27.073720616968952],[87.3740189008266,27.07334912565891],[87.37400233022335,27.073279167300058],[87.37436752449884,27.07314499771132],[87.37473821514021,27.072767069118203],[87.37487169754061,27.07253868747849],[87.3749344541233,27.071696564412814],[87.37507287065749,27.071237990758174],[87.37564406588682,27.070500515469913],[87.3758659522614,27.070120713523288],[87.37620868430268,27.06912885448355],[87.37634385227513,27.068826013929],[87.3767876255958,27.068066346859226],[87.37761853692652,27.06714087494804],[87.37808369255701,27.06638114581964],[87.37869765234736,27.0656255397564],[87.37893542398237,27.0654578617988],[87.37910829800519,27.065344513603762],[87.38012915520653,27.064479431138313],[87.38117301866097,27.063539827434585],[87.38173702999967,27.06310937976883],[87.38219656205732,27.06255964905939],[87.38237780764446,27.06210313826013],[87.38301752308638,27.0611555999799],[87.38304446664793,27.06092528255677],[87.38322952209336,27.06031528800332],[87.383427839184,27.060030326646775],[87.38388143708976,27.059751425095513],[87.38422837178078,27.059470587276728],[87.38490327701469,27.05794731858176],[87.38527715387218,27.05743616301942],[87.38549291761736,27.0573045586104],[87.38592888161531,27.056872237249294],[87.38617264966435,27.05645398575469],[87.38734437359722,27.055516255363354],[87.38764966735624,27.055215100463908],[87.38795820847322,27.054758274029634],[87.38826456375554,27.054400789458988],[87.38859611207265,27.053869378678716],[87.38883775778346,27.05356622325796],[87.38977545737457,27.05260430206567],[87.3900823745279,27.0522264362051],[87.39028281572836,27.051864702442828],[87.39050788854554,27.051331355418974],[87.39069131998747,27.050798133041177],[87.39080273157242,27.05056981431551],[87.39099490913586,27.049652855252702],[87.39110469630135,27.049501309699785],[87.39132870715426,27.049044671954174],[87.39145881516261,27.04893144955095],[87.3917404766317,27.04872751016166],[87.39230148776196,27.04839184030988],[87.39288838001194,27.047864239048668],[87.39306294020034,27.047676369122208],[87.3934153090952,27.047165276467897],[87.3939626846744,27.046522642458374],[87.39418001026364,27.046314328003252],[87.39440133522544,27.045972849196023],[87.39375302658195,27.045502909219294],[87.39203193929936,27.04449426456679],[87.39035655473668,27.043372586752135],[87.38951498849346,27.042955039703603],[87.38875695480586,27.042634332629184],[87.38691088369559,27.04152884916813],[87.38578451590618,27.040588403419992],[87.38457967659237,27.03936149997542],[87.38418608631073,27.038893056089105],[87.3835207672037,27.038228997253533],[87.38272640176234,27.03759913734886],[87.38235157094697,27.037247977254847],[87.38166480630221,27.036581730034577],[87.38097479442341,27.036050897775635],[87.38055544825806,27.03579470400554],[87.38013385307403,27.035613031811415],[87.37962554028525,27.035508321514364],[87.37928579022115,27.035482131697698],[87.37886257082954,27.03537948340189],[87.37816706041286,27.035096910727745],[87.37774873126428,27.03568496490606],[87.3775444174307,27.03621824978793],[87.37751422576362,27.036602049822516],[87.37767166846166,27.037141142962263],[87.37798016538304,27.037607524832286],[87.37814154408923,27.0379931359278],[87.37822053330713,27.03916672814369],[87.3782759981342,27.039532209835574],[87.37824349492129,27.039992845251522],[87.37821392878942,27.040356326859786],[87.37787063465615,27.041366253442998],[87.37782613799072,27.0423640463965],[87.37777937448126,27.042535784765434],[87.3764256391684,27.043105973507032],[87.37616423623963,27.04335054863554],[87.37592096689674,27.04372816334738],[87.37574640685601,27.043918221617023],[87.37522647349162,27.04431015657697],[87.37446883216455,27.044853952712153],[87.374021485022,27.04508090150251],[87.37371356208304,27.045167494269272],[87.37336868779178,27.04531510536801],[87.37328296908616,27.04531310559433],[87.37286081175897,27.045167507228253],[87.37254688040518,27.044949385420296],[87.37237887998546,27.04486855192346],[87.37135931665078,27.04473134012402],[87.37110178633671,27.044801989797882],[87.37058378876088,27.045020060873547],[87.3701560078641,27.045086650306366],[87.36937766871321,27.045472462618722],[87.36886085778124,27.045670215709897],[87.36834173579742,27.045926674048985],[87.36727760934129,27.046629271581196],[87.36675961139028,27.04684728084573],[87.3660652411198,27.047291546537473],[87.36567122916412,27.04766509931254],[87.3652085074095,27.04821026662431],[87.36488039317534,27.048491041474495],[87.36379257247049,27.04928847888394],[87.36322268686014,27.04983170947641],[87.36263248014424,27.05033661623689],[87.36213417810093,27.050611017012603],[87.36170352325318,27.05077469642608],[87.36109587086247,27.051144189286006],[87.35991939463098,27.052018525772002],[87.35913805457471,27.052496865684883],[87.35865719921239,27.052908931562733],[87.35780483877292,27.05363572020414],[87.3573915680438,27.053914433014832],[87.35704488186168,27.05409811759208],[87.35626810393133,27.054425162026067],[87.35575341755175,27.054528137851523],[87.35430145020231,27.05460849652244],[87.3538769182911,27.054523790232842],[87.35369215899175,27.054289536486973],[87.35273291789848,27.05353801888631],[87.35265126063219,27.053420860705852],[87.35240666381209,27.053010619166873],[87.35165150405395,27.052590444851393],[87.35131037969394,27.052582259868323],[87.35107541870269,27.052596392775214],[87.35042256326213,27.053060788845276],[87.3495640659545,27.05325254586333],[87.34896715972629,27.053256306487967],[87.3486238482122,27.05332489426048],[87.34827772482573,27.053508577931783],[87.3480183818492,27.053617551316503],[87.34767513265494,27.053706457990085],[87.34724272835408,27.05390621054135],[87.34664357275531,27.053988931432215],[87.34597095961631,27.054376617333173],[87.34545227411144,27.05461263223543],[87.34518899474591,27.054875150646506],[87.34488451292565,27.055079090090867],[87.34462579438521,27.055188063514812],[87.3443681394073,27.055238269446434],[87.34394142067269,27.055248466154044],[87.34360266975301,27.05516350890027],[87.34335082560905,27.05504222753315],[87.34318001239104,27.055038104175825],[87.34300920087267,27.055054360955463],[87.34266476425874,27.055161273273985],[87.3422369209762,27.055207480608825],[87.34176512538416,27.055312455892242],[87.3413338451294,27.055476072617928],[87.34021881634763,27.05569771721374],[87.33979266067645,27.055687470613186],[87.33953962820104,27.055586507894734],[87.33903631340739,27.055287615180728],[87.33888869614988,27.05524497955924],[87.33820607121416,27.055248928771444],[87.33760466706119,27.05540610891333],[87.33717732362997,27.055434248509815],[87.33696599486724,27.05539186455],[87.33743924165474,27.055977653826055],[87.33835952771557,27.056593820826],[87.33956373985318,27.05771513161307],[87.34026526215487,27.058519293940904],[87.3409431521248,27.059416046280727],[87.34124789880033,27.059941257895947],[87.34159434807312,27.060486663089637],[87.34179436744331,27.0609511709553],[87.34226542788014,27.061633989057793],[87.34258880797361,27.06225391616737],[87.3429781485497,27.062801508002256],[87.34356519722368,27.063888067759045],[87.34364572879596,27.06404361218126],[87.34398374437458,27.064896044224483],[87.34429086476455,27.065344483150838],[87.34449313399259,27.06573228156528],[87.34477368578403,27.066352334339978],[87.34514996813593,27.067358185272617],[87.34568423936727,27.068061133485838],[87.34626639927274,27.068574337273823],[87.34700756361273,27.069511538516437],[87.34725603398434,27.069747917087657],[87.34750856654799,27.069869198492327],[87.34795273170022,27.069994477985585],[87.34935637260887,27.07010386417542],[87.34969349822688,27.07024746340101],[87.34992177351496,27.07046358561285],[87.34995779082706,27.070693778076194],[87.34959748476025,27.07137642069396],[87.34924098969397,27.071903206097467],[87.34905543197706,27.072436426926416],[87.34907607829689,27.07320383990861],[87.34903763880949,27.073815644827736],[87.34871559929493,27.074651644065224],[87.34866652304098,27.07488196259291],[87.34825639076328,27.07579273575596],[87.34804927629757,27.07709124480852],[87.34773031207719,27.078538924235726],[87.34767786243387,27.078902531845248],[87.34744654033712,27.07953059374271],[87.34735671200592,27.08044730162044],[87.34708919883379,27.081592391309517],[87.34672532998337,27.08238787975113],[87.34652896346824,27.083304839468155],[87.3465321636994,27.08393689942013],[87.34638487356756,27.08462347776463],[87.34569665391278,27.086331676492875],[87.34498005292554,27.088270255880502],[87.34477080094186,27.08889819314471],[87.3445640615727,27.090158378359117],[87.34458989483076,27.09075424046182],[87.34461560282816,27.091329783826975],[87.34480792365939,27.091333844528005],[87.34533680755395,27.091481504950707],[87.34610246406241,27.091538259926043],[87.34635899484591,27.091524126916127],[87.34712971182724,27.09138901287362],[87.34772693055253,27.091403319958655],[87.3489216803125,27.091375481386734],[87.34926386705787,27.091324961544924],[87.34982381888318,27.091127207585558],[87.35068656517178,27.090784156509933],[87.35096566673678,27.090713505941075],[87.35137562604844,27.090552139866375],[87.35189549804974,27.090257420316075],[87.35226768990177,27.089902123376692],[87.35250683767147,27.0897547010964],[87.35285127336665,27.08962747107785],[87.3532793048332,27.089581263463195],[87.35362317828205,27.08947428996105],[87.35397223820176,27.089195828173256],[87.35419343942898,27.088931059366956],[87.35458582673917,27.08861633591187],[87.35491400402445,27.08831755634681],[87.35517622090941,27.0880934238125],[87.35528669636125,27.08795994569053],[87.35561437300984,27.087681421557743],[87.35615681610993,27.087348252486503],[87.35652725814026,27.087069665240943],[87.3572196931346,27.086704422729273],[87.35771468333937,27.086542930282878],[87.35801410440394,27.086510540969073],[87.3590431029311,27.086306965606493],[87.35938760194571,27.086199991933523],[87.3598189443084,27.08601830720335],[87.36007884880804,27.08587094718175],[87.36059191042052,27.085824426023596]]]}},{"type":"Feature","properties":{"province":"Koshi Province","district":"Dhankuta","municipality":"Chhathar Jorpati Rural Municipality","ward":"5","wardNumber":5,"sourceMunicipality":"Chhathar Jorpati","sourceType":"Gaunpalika"},"geometry":{"type":"Polygon","coordinates":[[[87.40972238725392,27.07223531022797],[87.41013253264647,27.072012926607812],[87.41045708485244,27.071788480297073],[87.41097277068856,27.07162442449145],[87.4113984271908,27.07165255117046],[87.41173511590759,27.07182984738863],[87.41190486672808,27.071872232775686],[87.41216133545304,27.071857974230287],[87.41239748280631,27.071785011776907],[87.41257098045936,27.071635527489608],[87.41281037642982,27.071427150398915],[87.41294204657706,27.071237155090476],[87.41350974198706,27.07063503259842],[87.41418816291775,27.069820408009587],[87.41436547117173,27.069517378767486],[87.41450213904714,27.06913551472356],[87.41487913965123,27.06847075188758],[87.41516461129403,27.068092949194195],[87.4156422156937,27.067698700940593],[87.4160572341068,27.067243748813624],[87.41716497897596,27.065421072236802],[87.41790942258073,27.064572374764182],[87.41814875625906,27.064345929399146],[87.41868701175308,27.064143424405298],[87.41896917327921,27.06391910369144],[87.41914492119278,27.06371091529764],[87.4197903216838,27.06251261664418],[87.42003077898816,27.062247785262247],[87.42060378507261,27.061415344473396],[87.4209112651928,27.061035228363327],[87.42108851218909,27.060732199470486],[87.4215255382965,27.06027943457503],[87.42167709173371,27.060186404844465],[87.42225861232936,27.05994763824207],[87.42251508008016,27.059912999531793],[87.42320264073277,27.059714555597054],[87.42337564003293,27.059621463185554],[87.42350631063886,27.059508178007533],[87.42361547288778,27.059374699485144],[87.4243480907441,27.058083560139558],[87.42491741132436,27.05744073727763],[87.42526490832365,27.057159774325413],[87.4254614133406,27.05695152321396],[87.42591932301686,27.05651901441389],[87.4266379486088,27.05587800209596],[87.42762053815424,27.054859188454966],[87.42803980444407,27.054234873743603],[87.42821442767784,27.054065071851504],[87.42837391415526,27.053588304118506],[87.42844843263833,27.053127543336032],[87.4284205961268,27.052436840918617],[87.42841002060683,27.051956138169007],[87.4288120265084,27.05111969905557],[87.42899464582078,27.05058641463134],[87.4290454691679,27.050202551392626],[87.42911455199292,27.049974358803517],[87.42929242375764,27.04966907881067],[87.4293845143842,27.049364050309467],[87.42965129032237,27.0489094756591],[87.42993732569663,27.048551991126224],[87.43023410571662,27.04771361601838],[87.43033006914796,27.047255042448565],[87.43057758685673,27.046723820348618],[87.43097765714232,27.046020607806383],[87.43108969424738,27.0458125457299],[87.4313097688786,27.045509390897397],[87.43140248454557,27.045204299399657],[87.4314111050285,27.044822875626917],[87.43131699800352,27.044283656022987],[87.43107514687135,27.04366816738121],[87.43089913163561,27.042975717111045],[87.43091150083843,27.042438434332645],[87.43112868457906,27.041370054770123],[87.43125846282474,27.040376448890598],[87.43121586614623,27.039455617714662],[87.4310993142793,27.038975166440274],[87.43103878958539,27.03880155316424],[87.43081026275583,27.038549421046874],[87.43064276130316,27.03841225841663],[87.43039229081583,27.03817825621882],[87.43020646666217,27.037887673384482],[87.43016695039738,27.03777039035881],[87.4301273078788,27.037617032999016],[87.43018319202781,27.037063807504396],[87.43027590744614,27.036758779035463],[87.43069898488636,27.03599905027552],[87.43083608991903,27.035599055156336],[87.43088541466787,27.03531222082651],[87.43086582641605,27.034316804199047],[87.43083924021624,27.033626165079898],[87.43091057354751,27.033321199369244],[87.43108994424331,27.032939147165365],[87.43115965188646,27.032710954313984],[87.43120953921745,27.032406051272666],[87.43117589448603,27.03202243904334],[87.43103895953746,27.031481095784716],[87.43104708047018,27.031137994450155],[87.43116823819376,27.03052587588082],[87.43093321426097,27.030522065781014],[87.43048355146631,27.030609286095277],[87.4297961792254,27.030807667321437],[87.4290295850683,27.030735595502343],[87.42801145742521,27.030467845255675],[87.42690061438827,27.030523191509403],[87.42655699109997,27.030632541348616],[87.42578008827829,27.03100284953883],[87.42552318274882,27.03105555625674],[87.42466224874379,27.03136522370407],[87.42449087458027,27.031381543501443],[87.424235530518,27.031357477236718],[87.4235574042783,27.031172183629156],[87.42245043439789,27.03107392270358],[87.42194024634017,27.03098740488454],[87.42151577624091,27.030884881391607],[87.42074430983769,27.03102487171419],[87.4204884032612,27.031018874463523],[87.41937431215707,27.031209572041003],[87.4187714713168,27.03144840135291],[87.41842778439845,27.03155556333849],[87.41791334806359,27.031660914676355],[87.41748281923445,27.03180665220289],[87.41714188133653,27.03180090566613],[87.41612206713269,27.031609865190607],[87.41569547338645,27.03160205721583],[87.41526738152376,27.031727475621025],[87.41498528320862,27.031953983766236],[87.41483435417216,27.03204707565529],[87.4146624807762,27.032101781671727],[87.41423501370848,27.032209133136366],[87.4138084833465,27.03223971120535],[87.41346817106319,27.032233964052153],[87.41321401494527,27.032191830648344],[87.41287039094557,27.03231924840018],[87.41263336962571,27.03246892091626],[87.41237702653126,27.032503560614657],[87.41101621597365,27.03246013150209],[87.4106781528479,27.032377612255782],[87.41034108950548,27.032236388838538],[87.40983721267808,27.031960253393002],[87.40956267214213,27.031859477772432],[87.4092037263965,27.03175670299368],[87.4077541362706,27.03188507548892],[87.40718048781116,27.03183707090627],[87.4067550820501,27.031829261920425],[87.40598724042786,27.031930866360202],[87.40539439664943,27.031806151359724],[87.40390466445596,27.031819428982537],[87.40275636878052,27.03179800213447],[87.40232933903556,27.03186690398175],[87.401777698263,27.03181883673776],[87.4011339852762,27.032958368069803],[87.40070634728929,27.033930284292385],[87.4004654520253,27.034231188813045],[87.40023825596585,27.034841308786334],[87.40016198878322,27.03537646629444],[87.39993641612813,27.0359098760613],[87.39975910699734,27.03621284279161],[87.39941004963637,27.036590834611715],[87.39930082397753,27.03670399436261],[87.39914271137081,27.037083670051526],[87.39898847141558,27.037312115067774],[87.39885842601434,27.037425337121807],[87.39844890583417,27.037647721138548],[87.39814211303784,27.038025586452438],[87.39791978979054,27.038423519086475],[87.39770352524589,27.03857306699293],[87.39752952770816,27.03874286885114],[87.39716164834438,27.03898544589998],[87.397007470488,27.03921389035445],[87.39693832506757,27.039442082793187],[87.39678352264292,27.039688532523908],[87.39663259450798,27.039781562255776],[87.39620612718761,27.039832395950544],[87.39586356637966,27.039921365440502],[87.39569119166804,27.039996390055727],[87.39553913871637,27.04012774295676],[87.39535858179734,27.040584255298857],[87.39537228025644,27.040891219987643],[87.39551227625971,27.041276767670702],[87.39571598323008,27.041664440942938],[87.39575493777147,27.04181786023741],[87.3957033632801,27.042201723885235],[87.39548160267792,27.042579337866353],[87.39545465974254,27.04280965600678],[87.39536189949467,27.044035641567945],[87.39542668950924,27.044879700316972],[87.39540361951119,27.04495653544699],[87.39529445766773,27.045087763725487],[87.39477346248226,27.04552033568101],[87.39459834008015,27.0457285249371],[87.39440133522544,27.045972849196023],[87.39418001026364,27.046314328003252],[87.3939626846744,27.046522642458374],[87.3934153090952,27.047165276467897],[87.39306294020034,27.047676369122208],[87.39288838001194,27.047864239048668],[87.39230148776196,27.04839184030988],[87.3917404766317,27.04872751016166],[87.39145881516261,27.04893144955095],[87.39132870715426,27.049044671954174],[87.39110469630135,27.049501309699785],[87.39099490913586,27.049652855252702],[87.39080273157242,27.05056981431551],[87.39069131998747,27.050798133041177],[87.39050788854554,27.051331355418974],[87.39028281572836,27.051864702442828],[87.3900823745279,27.0522264362051],[87.38977545737457,27.05260430206567],[87.38883775778346,27.05356622325796],[87.38859611207265,27.053869378678716],[87.38826456375554,27.054400789458988],[87.38795820847322,27.054758274029634],[87.38764966735624,27.055215100463908],[87.38734437359722,27.055516255363354],[87.38617264966435,27.05645398575469],[87.38592888161531,27.056872237249294],[87.38549291761736,27.0573045586104],[87.38527715387218,27.05743616301942],[87.38490327701469,27.05794731858176],[87.38422837178078,27.059470587276728],[87.38388143708976,27.059751425095513],[87.383427839184,27.060030326646775],[87.38322952209336,27.06031528800332],[87.38304446664793,27.06092528255677],[87.38301752308638,27.0611555999799],[87.38237780764446,27.06210313826013],[87.38219656205732,27.06255964905939],[87.38173702999967,27.06310937976883],[87.38117301866097,27.063539827434585],[87.38012915520653,27.064479431138313],[87.38122119144546,27.065094970433517],[87.38191020390056,27.0656438709037],[87.38213416936924,27.066069929145158],[87.38301516125279,27.068385719459805],[87.38369374104337,27.069377062021367],[87.3842932878298,27.07011583170442],[87.38464242479272,27.070640793296036],[87.3851118631271,27.071492785568378],[87.3856488234616,27.07217297651461],[87.38579050567445,27.07248181531564],[87.38602929386526,27.073176452900707],[87.38615115619506,27.07340858134851],[87.38654318482594,27.07393347897601],[87.38662440449674,27.074089023380605],[87.3867819727753,27.07462805422662],[87.38706696292282,27.07517127134086],[87.38720520855699,27.07559076728638],[87.38834305522849,27.075192570359253],[87.38894602008166,27.0749154802493],[87.38970103826404,27.07448678006308],[87.39019802745464,27.074171617079653],[87.3910606456982,27.073686086982125],[87.39140545645351,27.07350008947604],[87.39217973278993,27.0731682925117],[87.39287047814756,27.07276003755933],[87.39358654209913,27.07219598602818],[87.39400443410949,27.07162825057319],[87.39442663629161,27.070868583994155],[87.39460182110646,27.070660394819026],[87.39483903095822,27.070531103291955],[87.39537603648091,27.070328661106007],[87.3958900345783,27.070203053545995],[87.39700162596323,27.07007124776188],[87.39802587540878,27.070032158221526],[87.39905174846358,27.0699164209263],[87.40067677619439,27.069695018603994],[87.40110461980589,27.069626116720496],[87.40247474082153,27.069342261792507],[87.40290145944655,27.06933200233952],[87.40302944311395,27.06933387642211],[87.40370507128982,27.069634391141662],[87.40463604353967,27.069938715915647],[87.40564886087505,27.070416527431135],[87.40683530086348,27.070744918000525],[87.40810358756013,27.071228790319047],[87.40852599569223,27.071408149297202],[87.40895002813247,27.071512985715234],[87.4092032474927,27.071631891874254],[87.40951636847912,27.071924409686904],[87.40972238725392,27.07223531022797]]]}},{"type":"Feature","properties":{"province":"Koshi Province","district":"Dhankuta","municipality":"Chhathar Jorpati Rural Municipality","ward":"6","wardNumber":6,"sourceMunicipality":"Chhathar Jorpati","sourceType":"Gaunpalika"},"geometry":{"type":"Polygon","coordinates":[[[87.39798792061885,27.10221909367563],[87.39819011134699,27.101800842357584],[87.39839342682825,27.10134658130431],[87.39848626792032,27.1010393026393],[87.39856159931219,27.100580854793133],[87.39856720555127,27.099508602648072],[87.39853704232975,27.098127260707507],[87.39863600568651,27.097591976893742],[87.39904038790918,27.096755663598547],[87.39926289982364,27.096375798607546],[87.39953598659288,27.095691031454212],[87.39969253735866,27.09538812750619],[87.39984746487026,27.09515968253089],[87.40010955596098,27.094915170079684],[87.4006457340255,27.09392718431108],[87.40085454710312,27.093242605788927],[87.40095513417494,27.09263054935523],[87.40139183146817,27.09133366232219],[87.40144115615958,27.091028759741768],[87.40140701180901,27.09064289732207],[87.40157718119171,27.089725938625175],[87.40168388866662,27.088730144512816],[87.40167499937564,27.088192925404528],[87.40220636395897,27.087279461758616],[87.4022525025281,27.08712810383379],[87.40229556169331,27.08613024833262],[87.40220482758068,27.085437546567388],[87.40225415231804,27.08513264386475],[87.4023687498573,27.08475090551871],[87.40235528207603,27.083446148426468],[87.40242761373987,27.083062284108653],[87.40265593366257,27.082375329140287],[87.40285793613161,27.081918754703718],[87.40305669081611,27.081615663215253],[87.4035382312106,27.08104773919475],[87.40393017983607,27.080651616945218],[87.40427786351991,27.080370717086538],[87.4045842186847,27.080010918851166],[87.40532216461531,27.07941054442008],[87.40550328461681,27.07893377672323],[87.40552164997605,27.07808946681881],[87.40556941295101,27.07786133650422],[87.40579604671724,27.077251216299793],[87.40601780842701,27.076871351482477],[87.40650209720694,27.076188206505016],[87.40693905972255,27.075697117739235],[87.40744579351885,27.07495976873589],[87.407689999282,27.074503068599892],[87.40773994965647,27.074195977833625],[87.4080071619626,27.07366469343592],[87.40833546220667,27.073266446361995],[87.40894386209254,27.072759038417352],[87.40942040435795,27.07240323937619],[87.40972238725392,27.07223531022797],[87.40951636847912,27.071924409686904],[87.4092032474927,27.071631891874254],[87.40895002813247,27.071512985715234],[87.40852599569223,27.071408149297202],[87.40810358756013,27.071228790319047],[87.40683530086348,27.070744918000525],[87.40564886087505,27.070416527431135],[87.40463604353967,27.069938715915647],[87.40370507128982,27.069634391141662],[87.40302944311395,27.06933387642211],[87.40290145944655,27.06933200233952],[87.40247474082153,27.069342261792507],[87.40110461980589,27.069626116720496],[87.40067677619439,27.069695018603994],[87.39905174846358,27.0699164209263],[87.39802587540878,27.070032158221526],[87.39700162596323,27.07007124776188],[87.3958900345783,27.070203053545995],[87.39537603648091,27.070328661106007],[87.39483903095822,27.070531103291955],[87.39460182110646,27.070660394819026],[87.39442663629161,27.070868583994155],[87.39400443410949,27.07162825057319],[87.39358654209913,27.07219598602818],[87.39287047814756,27.07276003755933],[87.39217973278993,27.0731682925117],[87.39140545645351,27.07350008947604],[87.3910606456982,27.073686086982125],[87.39019802745464,27.074171617079653],[87.38970103826404,27.07448678006308],[87.38894602008166,27.0749154802493],[87.38834305522849,27.075192570359253],[87.38720520855699,27.07559076728638],[87.38706696292282,27.07517127134086],[87.3867819727753,27.07462805422662],[87.38662440449674,27.074089023380605],[87.38654318482594,27.07393347897601],[87.38615115619506,27.07340858134851],[87.38602929386526,27.073176452900707],[87.38579050567445,27.07248181531564],[87.3856488234616,27.07217297651461],[87.3851118631271,27.071492785568378],[87.38464242479272,27.070640793296036],[87.3842932878298,27.07011583170442],[87.38369374104337,27.069377062021367],[87.38301516125279,27.068385719459805],[87.38213416936924,27.066069929145158],[87.38191020390056,27.0656438709037],[87.38122119144546,27.065094970433517],[87.38012915520653,27.064479431138313],[87.37910829800519,27.065344513603762],[87.37893542398237,27.0654578617988],[87.37869765234736,27.0656255397564],[87.37808369255701,27.06638114581964],[87.37761853692652,27.06714087494804],[87.3767876255958,27.068066346859226],[87.37634385227513,27.068826013929],[87.37620868430268,27.06912885448355],[87.3758659522614,27.070120713523288],[87.37564406588682,27.070500515469913],[87.37507287065749,27.071237990758174],[87.3749344541233,27.071696564412814],[87.37487169754061,27.07253868747849],[87.37473821514021,27.072767069118203],[87.37436752449884,27.07314499771132],[87.37400233022335,27.073279167300058],[87.3740189008266,27.07334912565891],[87.37351897514542,27.073720616968952],[87.37239763461166,27.074154761269988],[87.3719420986771,27.07443366234306],[87.37153896356993,27.075093862810895],[87.37123054450255,27.07543327912732],[87.37100896951299,27.07573405811704],[87.370549496159,27.076146061103557],[87.37013166400625,27.076576131518962],[87.36974040135772,27.07683677620071],[87.36939471501627,27.076982136792765],[87.36845544867408,27.077765567585374],[87.36776138924073,27.078171510042413],[87.36747835256641,27.078375448819294],[87.36715017495666,27.078656224515097],[87.36673521714386,27.079009458767544],[87.36645105522726,27.079253972647983],[87.3660377221635,27.0795304346918],[87.3649680965399,27.080388765042997],[87.36451199813473,27.080685672305847],[87.36416693647993,27.080810651390888],[87.36373728092391,27.08091568856668],[87.36337021249997,27.081079179692722],[87.36302177697462,27.081339636399814],[87.36284527955345,27.081545512330404],[87.36250810491929,27.082151382219557],[87.36199724390495,27.082886293367093],[87.36136847287437,27.08400306792393],[87.36094220606168,27.084760358483734],[87.36080572422992,27.085063199454414],[87.36068387747756,27.08559848353806],[87.36059191042052,27.085824426023596],[87.360803363998,27.085887128778392],[87.36199130325511,27.086107487033914],[87.36292152394891,27.086380490815852],[87.36360040015107,27.086491575089454],[87.36470874379232,27.086497685201604],[87.36555955664669,27.086576757866876],[87.36623837009344,27.08668784230333],[87.36700402687093,27.086764790396337],[87.36760055833825,27.086779035988986],[87.36802852593809,27.086712447359734],[87.36836958811554,27.08672056968994],[87.36896324512212,27.086829592196953],[87.36989071724506,27.08721544094172],[87.37064737653058,27.087599417444952],[87.37177668020391,27.088372876576003],[87.3727199736545,27.08895053089048],[87.37313950775179,27.089211226578],[87.37402721831813,27.089768688925094],[87.37415676777414,27.089856399608745],[87.37465664822147,27.090374168446576],[87.37524761954477,27.090614105458634],[87.37583977783112,27.09083603607008],[87.37668246968514,27.09129196961597],[87.37713989684988,27.09176022411453],[87.37746546503321,27.092380088368685],[87.37816723963228,27.0933127258524],[87.37841714890135,27.093549104190785],[87.37873014308953,27.09382136626641],[87.3795721473738,27.094259232080226],[87.38017456822332,27.09488284302108],[87.38081325662696,27.095795350670652],[87.3809384925501,27.095894314998507],[87.38127574409388,27.09605366947624],[87.38159042539286,27.096251409676533],[87.38211106302063,27.096739857776395],[87.38244106705542,27.09718585864306],[87.38315571237439,27.097601531675373],[87.38405374288702,27.09836655450897],[87.38417560448411,27.098598683477285],[87.38451493379102,27.099523261355287],[87.38484500107397,27.09998958026723],[87.38517775412318,27.100302416753934],[87.38534813011016,27.10032454629069],[87.38589689741883,27.10054647785362],[87.38606714784446,27.100568606802998],[87.38621326602419,27.10068557607005],[87.38650156716533,27.101093316042537],[87.38662236646856,27.101384212398763],[87.38668590668375,27.10224627641799],[87.38684791013779,27.10259575103428],[87.38749559530436,27.103144714776732],[87.38871161855577,27.103951681944995],[87.38950704712937,27.10456122391982],[87.39008821026289,27.105202902867568],[87.39060172538396,27.105980248129704],[87.39076816518002,27.106155859013562],[87.39120820667802,27.10647063185655],[87.39169270195985,27.106708506433357],[87.39203276450503,27.106752702315596],[87.39270683033402,27.10709166621899],[87.39352426575267,27.107660445217213],[87.39429931013042,27.108211282123143],[87.39447512050258,27.108005406327585],[87.39454270508757,27.107851735029982],[87.39445159678391,27.107237994440993],[87.39445547050869,27.107084512083254],[87.39449998544629,27.107007614034732],[87.39478239708698,27.10680142384627],[87.39532140283724,27.106562845205975],[87.3957372338097,27.10611020637659],[87.39656588160544,27.1045142261224],[87.3968335331296,27.104059776203446],[87.39745274258075,27.10316863001618],[87.39798792061885,27.10221909367563]]]}},{"type":"Feature","properties":{"province":"Koshi Province","district":"Dhankuta","municipality":"Chhathar Jorpati Rural Municipality","ward":"3","wardNumber":3,"sourceMunicipality":"Chhathar Jorpati","sourceType":"Gaunpalika"},"geometry":{"type":"Polygon","coordinates":[[[87.401777698263,27.03181883673776],[87.40191049236999,27.031592767632123],[87.40193737271676,27.031362387484247],[87.40177818096136,27.030900129202593],[87.40176773122667,27.030439682111787],[87.40192902996225,27.02990414807861],[87.40226482583302,27.029183243426314],[87.40235597913856,27.028934606748315],[87.40245038201064,27.028552868575755],[87.40243768201427,27.02816906909748],[87.40219883091244,27.02747449376723],[87.40195298359136,27.02708700950094],[87.40189477096678,27.026856942815268],[87.40171188375744,27.026469206671198],[87.40167355433397,27.026315849651617],[87.4016608549875,27.02593211294899],[87.40172011299114,27.025243472592663],[87.40168157874498,27.02416909506627],[87.40177922837104,27.02363387430105],[87.40176652902356,27.02325013751876],[87.4019904772002,27.022793499631682],[87.4023203392773,27.022338861901023],[87.40271266205418,27.021924609240592],[87.40288990856402,27.02162164289446],[87.40313692614727,27.021088232770985],[87.40320600939944,27.020860039136554],[87.40327834104995,27.02047605069459],[87.40328594494834,27.019250315968737],[87.40349007218649,27.018714718447804],[87.40384450250109,27.018108785949106],[87.40441026129348,27.017563117114967],[87.40452548394966,27.017181316060142],[87.40448470002667,27.016181398508436],[87.40450995593864,27.016027852542386],[87.40469045081697,27.015571341371466],[87.40467125515092,27.01549463148581],[87.40405369908237,27.014600316295574],[87.40363866312191,27.014131935296046],[87.40355306995532,27.014150254264845],[87.40333137108466,27.014548187492643],[87.40317931795394,27.014661534942363],[87.40290115535042,27.014752628400878],[87.40283688189784,27.014750503999675],[87.40277485829216,27.01467398251135],[87.40275672375431,27.014538568051563],[87.40282580693287,27.01430812511448],[87.40285818482297,27.01384974024629],[87.40303705536876,27.013467813051662],[87.40312920866366,27.013162784708207],[87.40313308216025,27.013009301840228],[87.40309568881634,27.012779172152094],[87.40289366876672,27.012314726701966],[87.4026669542421,27.012003888808493],[87.40257141010045,27.011541380199503],[87.40257628275147,27.011311124835203],[87.4026262323487,27.011003971986096],[87.40254488758063,27.01083042179647],[87.4025493229013,27.010658871785367],[87.40238631985926,27.010347846053413],[87.40241963367859,27.009810500100613],[87.40223249961818,27.009634951768017],[87.40179014629295,27.009435337813535],[87.40160188740852,27.00929817501294],[87.4012329910035,27.008696567088617],[87.40117421541818,27.00846418722791],[87.40161943330224,27.008081380655227],[87.4016214338242,27.00807919271836],[87.40196055177395,27.00775990630591],[87.40210716379313,27.007526960193346],[87.40216786769108,27.007237874926584],[87.40218173461172,27.006547047258636],[87.40228069465577,27.005856030555602],[87.40238322490816,27.005453973628118],[87.40238794767298,27.003957410176675],[87.40229496340639,27.00332553888834],[87.40223522390568,27.001772709291043],[87.40227529696485,27.001540077746164],[87.40246185524806,27.00102035991932],[87.4024750339713,27.000311589871373],[87.40242851087888,26.999986620417896],[87.4024264428628,26.999756364974434],[87.40252452739661,26.99900664385472],[87.4026039210739,26.998487303343374],[87.4025786535647,26.998085497913074],[87.40263923311912,26.99777834499891],[87.4026123387845,26.997317897580547],[87.40263102872805,26.997087642331795],[87.40265059546361,26.996916091391824],[87.40256111840445,26.99655061130812],[87.40245025747168,26.99618744338709],[87.402424803456,26.995785764053316],[87.40298360255943,26.9942266103591],[87.40295094612985,26.993190557405658],[87.40274879313337,26.992328870439284],[87.40261629920242,26.99192744232007],[87.40263229592242,26.99146693211734],[87.40283835862719,26.99077553886715],[87.40279177176893,26.990430313501054],[87.40283084222654,26.9900848363184],[87.40289242258135,26.989872461114484],[87.40293362358287,26.989757238901444],[87.4030577247261,26.989411510557048],[87.40328623471652,26.988832962428646],[87.40385236105186,26.987908120496783],[87.40416590221187,26.98732932066653],[87.40433283103678,26.986981215771664],[87.4044371776399,26.986750646542905],[87.404478126467,26.98657671995644],[87.40467874026389,26.98542487942199],[87.40476082701255,26.985135730875605],[87.40532150582847,26.983748128312907],[87.40552293277717,26.982652741647392],[87.40587466781423,26.981672010887674],[87.40600045993784,26.98144144137873],[87.40631581734422,26.981034192328682],[87.40663280153551,26.980724034050983],[87.4069509151576,26.980549289974753],[87.40746203682909,26.980448440714817],[87.40786580657424,26.980289262524376],[87.40805599758745,26.98011489569685],[87.40820323506874,26.97988420116116],[87.40819214920889,26.978904601492104],[87.40825197646929,26.97855906128588],[87.40843922449702,26.9780979863341],[87.40858664950849,26.977923745739446],[87.40876951298281,26.977115067739017],[87.40893544040203,26.976654055138134],[87.40906135791587,26.976479940146422],[87.40926923597046,26.975960158849173],[87.40935057221203,26.975614556441545],[87.4093681340877,26.97526908026118],[87.40951004899895,26.974634391377784],[87.40961339190719,26.97428872656458],[87.4098429678786,26.973863660883254],[87.40996969882053,26.97372786860379],[87.4101814616004,26.973591700692573],[87.4103698994822,26.973263913900904],[87.41060298152385,26.973107427287225],[87.4107717269446,26.972912867689903],[87.41081348934422,26.972797645699703],[87.4108733177483,26.972451981365317],[87.41036841951973,26.97113529066528],[87.41034321700148,26.97079000195293],[87.41036253135788,26.970559684485448],[87.41046499838819,26.970155251157394],[87.41081785880505,26.96917458362123],[87.41107050741232,26.968846546415946],[87.41134497835908,26.96863129139571],[87.41180913785895,26.968108506197304],[87.41225423435677,26.967874680691473],[87.4130200732725,26.967694053406678],[87.41391063842954,26.96718582765525],[87.41450591474614,26.96700570354077],[87.41482283767257,26.966715863092013],[87.4149487555461,26.966541685420445],[87.41499989598846,26.966399204989607],[87.41503171879086,26.966311179393525],[87.41502627108997,26.96587098772867],[87.41486926113012,26.96512883497499],[87.41402587097116,26.96408610457855],[87.41363778493987,26.963726130514484],[87.41273537960497,26.963067388893137],[87.41260877385251,26.963241566843934],[87.41250505314945,26.96345181726773],[87.41216837539267,26.9638771978918],[87.4118305697814,26.96416710011975],[87.41149176245183,26.964341906833226],[87.41106560719753,26.96440411898743],[87.41089567156476,26.964445258429325],[87.41064101814882,26.96456110893571],[87.41030051966818,26.96462306992714],[87.40995976991744,26.96460825820235],[87.40859220294078,26.964373022823004],[87.40756782738717,26.964287951942584],[87.40654144668913,26.9640132622435],[87.40619994617876,26.96397813193048],[87.40577441714787,26.964040344530293],[87.40518007900019,26.96427679733448],[87.40466895683053,26.9643573294694],[87.40407079802115,26.964230364054583],[87.40381338835476,26.96410020439524],[87.40357723667786,26.96392928294737],[87.40323404591173,26.96378130708668],[87.40308448973357,26.96370497479341],[87.40231401654485,26.963465666455946],[87.40173755450284,26.96341547313215],[87.401418250214,26.963418604095082],[87.40122605452225,26.96338078360746],[87.40077638740978,26.96321499147941],[87.39987805424806,26.962976061043392],[87.39936574003556,26.962905297776715],[87.39910839458877,26.962793143943983],[87.39861577289902,26.96258690395994],[87.39698785280173,26.961916544322193],[87.39634392120317,26.961484990128664],[87.3959774059132,26.961124828212903],[87.39573768447679,26.960669511129286],[87.39552034783848,26.960288652632578],[87.39547482620593,26.96006077375721],[87.39534402282412,26.95975643661265],[87.3951053037441,26.95939595960059],[87.39458954552039,26.959038487567717],[87.3938580792225,26.95843332158687],[87.39323396624076,26.957886545843586],[87.39231042922442,26.95726612852708],[87.39192422067782,26.957039193270088],[87.39140940273762,26.95677881180235],[87.39076659989341,26.956478108699663],[87.38999600037701,26.956180033019162],[87.38954645737849,26.956032309201063],[87.38928998887411,26.955996865485353],[87.38896974508107,26.95590521876094],[87.38858378801285,26.95575730604497],[87.38832637927995,26.955606765918972],[87.3880893503899,26.95536138460465],[87.38774528191271,26.955116318801437],[87.38759322115386,26.954850367457464],[87.3871835629554,26.954395491035893],[87.38685711999963,26.953786942014766],[87.38670424584126,26.953482605853864],[87.38655293561162,26.953234722997664],[87.38618616812322,26.952800038357765],[87.38584197400698,26.952516585825954],[87.38558531612716,26.952402180750568],[87.38526507208522,26.952310533651904],[87.38475363531428,26.95229610009772],[87.38373464429434,26.952630713747308],[87.3833511925599,26.952672419356237],[87.38314212264217,26.953038654805496],[87.38295456227817,26.953443276161327],[87.38268504016004,26.95419118732002],[87.38264471645832,26.95436286296434],[87.38262521323023,26.954554794632855],[87.38267017229455,26.954820997241637],[87.38349318462234,26.956076102437546],[87.38377623680171,26.956705095169273],[87.38388609508768,26.95697117149113],[87.38415095791778,26.957828231151716],[87.38409394901808,26.958460417285202],[87.38392777165316,26.958862725720586],[87.38371863895375,26.959208642561652],[87.38281257640344,26.960193069888728],[87.38270960716719,26.960480030769734],[87.38269004064632,26.960653894809628],[87.38271887688941,26.96134003217763],[87.3828066007105,26.9615881037073],[87.38317505888492,26.96213788436608],[87.38326334496658,26.96236788819386],[87.38335307424397,26.962823645307747],[87.38355053063286,26.963281339286038],[87.383788561169,26.963623810529317],[87.38381445376473,26.96402330248715],[87.38366884439058,26.964369031327532],[87.3834160078815,26.964658682301195],[87.38288688307645,26.96498972488213],[87.38212354922162,26.965380038658285],[87.3815497171957,26.96553740571845],[87.38123147824179,26.965675951539858],[87.3809134285711,26.965868700430498],[87.38074530805494,26.96606325984829],[87.38037730556158,26.96640061401253],[87.37992152125278,26.966817181165833],[87.3797750982321,26.967106518155077],[87.37969232345571,26.967395729409727],[87.37969990298365,26.968142885596983],[87.3795144098385,26.968777699150493],[87.37943601940043,26.96946865307578],[87.37935243135556,26.96969909683412],[87.37912097714378,26.969988685431712],[87.37882819329718,26.970567359524473],[87.37811182369873,26.971438376149628],[87.37796458637878,26.971669008467966],[87.37798885129071,26.971957842769047],[87.37809814598582,26.97224423743105],[87.37807939355764,26.972474555034964],[87.37782661937614,26.97278221148937],[87.3775933493828,26.97292056854084],[87.37723159497357,26.973038921495473],[87.37697781797806,26.973233732513933],[87.37693593006176,26.973328635558232],[87.37689748579095,26.973712498471816],[87.37692563358422,26.97440313794258],[87.3768846851821,26.974574814175334],[87.37677921110865,26.97469247550227],[87.37656657244972,26.974769813641927],[87.37635305619325,26.97477263001885],[87.37583986659021,26.97462503223101],[87.37571200726491,26.974625409476673],[87.3753935802716,26.974725568845095],[87.37509804044927,26.975053669106384],[87.37493029868232,26.975381455184102],[87.37467727272107,26.97561465245361],[87.37448601708809,26.975694116875754],[87.37433683727568,26.975714874707485],[87.37410237919377,26.975859983251155],[87.37403322998516,26.97590756103215],[87.37334567499444,26.976374395819953],[87.37238539208603,26.976652367061885],[87.37155246866637,26.976970598269364],[87.37091061597908,26.977347031066813],[87.37075956568233,26.977573224054062],[87.37062908697267,26.977936895911657],[87.37066760872224,26.978338637542105],[87.37077165140326,26.978568578130297],[87.37083548853934,26.97862709444079],[87.37096178620769,26.978723870856452],[87.37121663172078,26.978840526524767],[87.37138619476337,26.978880723344055],[87.37172787955627,26.978769185158995],[87.37198347253599,26.978732420839172],[87.37221624728568,26.978831133805134],[87.3724272649021,26.979022436650457],[87.37259614385594,26.979234183055112],[87.37278347033397,26.979676122735334],[87.37280291780358,26.979847609795],[87.37275921685873,26.979962831830935],[87.37260860310138,26.980132571690287],[87.37235263669069,26.98024610882191],[87.37143549203502,26.98044718144393],[87.37132814272866,26.980562592279952],[87.3712840048767,26.980734268168096],[87.37147401414093,26.980869179996716],[87.37192080359166,26.98091093511315],[87.3729396809652,26.98118812574368],[87.37317258148695,26.981343230435304],[87.37325617759394,26.98147845636169],[87.37325393136669,26.981744846698753],[87.37293175736232,26.982030122363227],[87.3723326705438,26.982406430052944],[87.37213985270401,26.982576232260413],[87.37198780319099,26.982881387104076],[87.3719427298868,26.98316815854993],[87.371984059187,26.98328319175705],[87.3724256692115,26.983859916621704],[87.37289146949811,26.984131801702734],[87.37306022230744,26.984305162794776],[87.37339311020047,26.98513046200635],[87.37347352400326,26.985647174851614],[87.37357631939659,26.986050978693783],[87.37376302098014,26.986510923234285],[87.37371894624003,26.98670066736048],[87.37356745853519,26.986987753872803],[87.37332937910445,26.987385687039197],[87.37322072050286,26.987672647430887],[87.37302191256622,26.988472259594005],[87.37297396890253,26.98904574074542],[87.37288475709227,26.989504251823284],[87.37283600249125,26.990192829742696],[87.372854640175,26.990479475498788],[87.37265788988906,26.99099244159783],[87.37233309592752,26.991641136687438],[87.37211639959143,26.992020938689887],[87.37189839293168,26.99259260989661],[87.37150838981053,26.993334083113165],[87.37119880056919,26.994594457840268],[87.37119661793014,26.994881166369236],[87.37123701107012,26.99509097775635],[87.3716316751695,26.996128337992698],[87.37190365998799,26.996646798209817],[87.37211380483446,26.99693512984591],[87.37253596649911,26.997340366864112],[87.37280882405646,26.997743668855904],[87.37305986242339,26.998205737451038],[87.3733406070276,26.999085366132963],[87.37371331154961,26.999384573290556],[87.37397241060619,26.99962320140777],[87.37403312212196,26.99968846961626],[87.3744036398171,27.000080266535573],[87.37449136310458,27.000310269742357],[87.37451663089296,27.000712012143964],[87.37435345973876,27.001461859376942],[87.37433608727713,27.001922432253664],[87.37440217770609,27.00209379407283],[87.37448821098977,27.00220870194771],[87.37485416438481,27.002548545821416],[87.37515471516151,27.002737346655987],[87.37532922320838,27.003118392790167],[87.3753546790706,27.00357884040562],[87.37529491542995,27.003983021920217],[87.37547155395666,27.004612391219553],[87.37538959284424,27.00495793081362],[87.37539141020551,27.005131732152744],[87.37548013621682,27.005474643976644],[87.37563063227942,27.00564581706483],[87.37590979992174,27.005834680584076],[87.37824535643252,27.00658005054734],[87.37867533142598,27.006842995835953],[87.37895606418657,27.007146955887457],[87.37896238997965,27.007704493718347],[87.37905011406359,27.007932246839143],[87.3792371225486,27.008080725548297],[87.37934866721945,27.00827227922774],[87.37929315664563,27.008809688128192],[87.37929860950051,27.009500390680504],[87.37937820554492,27.009732707202325],[87.3795817255489,27.010120380309104],[87.37979407100053,27.011045336048834],[87.37997845636252,27.011356361726566],[87.38060906852255,27.011693200643048],[87.38079614082956,27.01186874892961],[87.3808544161396,27.012119196768975],[87.38074616336431,27.014017879485774],[87.38100458519217,27.014789164363815],[87.38095294830163,27.015173090768492],[87.38077176575099,27.01562953945805],[87.38072075458021,27.016013402974476],[87.38071525683226,27.016243657561617],[87.38083374567243,27.016629394474233],[87.38081781558923,27.0173201590467],[87.38075029313691,27.017471579553725],[87.38074641976267,27.017625062043404],[87.38086715705819,27.017934026134146],[87.38109218440324,27.018321574105236],[87.3811728428715,27.018497499367605],[87.38122006130112,27.019226524286005],[87.38121612535069,27.01938000732751],[87.38105313991379,27.019992189052893],[87.38078686323117,27.020446638408774],[87.38032633107949,27.02103250481036],[87.38016659462812,27.021491204907104],[87.37996777769739,27.021794171072845],[87.37966604595249,27.021980105266934],[87.37932354658156,27.022069074318704],[87.37889314348914,27.022253072610102],[87.37884925370925,27.022329970438758],[87.37884375635626,27.02256022599569],[87.37906490979904,27.023101381218492],[87.37890186205026,27.023711312387267],[87.37889792546798,27.023864794641298],[87.37899340701327,27.024327303806672],[87.37900879275388,27.024598132967064],[87.3791711886772,27.025848247050906],[87.37909974820137,27.02707416973185],[87.37901954494716,27.02776287338572],[87.37885649712216,27.02837505523594],[87.37872301511031,27.028603374316177],[87.37846117485552,27.02888627387043],[87.37828386570256,27.029189240257217],[87.378214719654,27.029417370831258],[87.37820591087659,27.029801170199885],[87.37828157121852,27.03018697008653],[87.37827669867009,27.030417224973856],[87.37804775334537,27.03110405498218],[87.37798174776623,27.032099722695182],[87.37802076544664,27.032255330289118],[87.37830837968339,27.032701519663267],[87.37826375663357,27.033679056059626],[87.3783751228521,27.03437175807929],[87.37834718178372,27.034678848596542],[87.37816706041286,27.035096910727745],[87.37886257082954,27.03537948340189],[87.37928579022115,27.035482131697698],[87.37962554028525,27.035508321514364],[87.38013385307403,27.035613031811415],[87.38055544825806,27.03579470400554],[87.38097479442341,27.036050897775635],[87.38166480630221,27.036581730034577],[87.38235157094697,27.037247977254847],[87.38272640176234,27.03759913734886],[87.3835207672037,27.038228997253533],[87.38418608631073,27.038893056089105],[87.38457967659237,27.03936149997542],[87.38578451590618,27.040588403419992],[87.38691088369559,27.04152884916813],[87.38875695480586,27.042634332629184],[87.38951498849346,27.042955039703603],[87.39035655473668,27.043372586752135],[87.39203193929936,27.04449426456679],[87.39375302658195,27.045502909219294],[87.39440133522544,27.045972849196023],[87.39459834008015,27.0457285249371],[87.39477346248226,27.04552033568101],[87.39529445766773,27.045087763725487],[87.39540361951119,27.04495653544699],[87.39542668950924,27.044879700316972],[87.39536189949467,27.044035641567945],[87.39545465974254,27.04280965600678],[87.39548160267792,27.042579337866353],[87.3957033632801,27.042201723885235],[87.39575493777147,27.04181786023741],[87.39571598323008,27.041664440942938],[87.39551227625971,27.041276767670702],[87.39537228025644,27.040891219987643],[87.39535858179734,27.040584255298857],[87.39553913871637,27.04012774295676],[87.39569119166804,27.039996390055727],[87.39586356637966,27.039921365440502],[87.39620612718761,27.039832395950544],[87.39663259450798,27.039781562255776],[87.39678352264292,27.039688532523908],[87.39693832506757,27.039442082793187],[87.397007470488,27.03921389035445],[87.39716164834438,27.03898544589998],[87.39752952770816,27.03874286885114],[87.39770352524589,27.03857306699293],[87.39791978979054,27.038423519086475],[87.39814211303784,27.038025586452438],[87.39844890583417,27.037647721138548],[87.39885842601434,27.037425337121807],[87.39898847141558,27.037312115067774],[87.39914271137081,27.037083670051526],[87.39930082397753,27.03670399436261],[87.39941004963637,27.036590834611715],[87.39975910699734,27.03621284279161],[87.39993641612813,27.0359098760613],[87.40016198878322,27.03537646629444],[87.40023825596585,27.034841308786334],[87.4004654520253,27.034231188813045],[87.40070634728929,27.033930284292385],[87.4011339852762,27.032958368069803],[87.401777698263,27.03181883673776]]]}},{"type":"Feature","properties":{"province":"Koshi Province","district":"Dhankuta","municipality":"Chhathar Jorpati Rural Municipality","ward":"4","wardNumber":4,"sourceMunicipality":"Chhathar Jorpati","sourceType":"Gaunpalika"},"geometry":{"type":"Polygon","coordinates":[[[87.43116823819376,27.03052587588082],[87.43123950797755,27.03020059186145],[87.43145275507041,27.029285757944688],[87.43172328020954,27.028677700165964],[87.43190808623942,27.02806764396229],[87.43193877702224,27.027683780349957],[87.43189074581173,27.02699320413742],[87.43192618469521,27.026379148416503],[87.43199583078697,27.026150892877098],[87.43255014084949,27.025259810657968],[87.43299722437507,27.02436679181668],[87.43313820364553,27.023833633717608],[87.43306173056475,27.023447896691167],[87.43295787749683,27.023312795746747],[87.43233176231598,27.022725571659937],[87.4321466264803,27.02243492676246],[87.43210760856891,27.02227931920539],[87.43209216093399,27.02203105924605],[87.43233368082012,27.021748222183028],[87.43304943335585,27.021242562726297],[87.43374705028603,27.02060380231006],[87.4340736644394,27.020322902271666],[87.43429261467291,27.02007845270689],[87.43440552621561,27.019791428941296],[87.43461183927802,27.019181309754554],[87.4348362255303,27.018726860578205],[87.43499040293628,27.01851873446259],[87.43520722921177,27.018369062426892],[87.43548720416598,27.018259838389202],[87.43582976549537,27.01820688017412],[87.43727973370116,27.018215859305506],[87.43787770206553,27.01820722265862],[87.43822020109458,27.018136196312426],[87.43848148056195,27.01792994444298],[87.43870374165732,27.01755226802606],[87.43884022175168,27.01717034171628],[87.4388900466535,27.01686550120486],[87.43875304884395,27.01632415767086],[87.43875692166516,27.016172924966888],[87.43882819222783,27.015865709013138],[87.43898293156867,27.015639452891556],[87.43924202391447,27.01550997390136],[87.4394994919926,27.0154369483402],[87.44027126993201,27.015260696580743],[87.44095970481708,27.015023741992234],[87.44113045460351,27.015027739806552],[87.44147357892564,27.014956713544],[87.44173210924589,27.01484523931837],[87.4422507927155,27.01454789457917],[87.44253345467645,27.01432357461435],[87.44273208455292,27.01404073809097],[87.44279948086272,27.013887066970952],[87.44291838846536,27.01335390921314],[87.44292601040529,27.013046943757107],[87.44284728858622,27.012737916628954],[87.44274618403996,27.012505725671954],[87.44271253926073,27.01212211334701],[87.44289028662882,27.011819084265056],[87.44321896163189,27.01144103151159],[87.4433116148106,27.011136002772485],[87.44331698702162,27.010905747652888],[87.44317842756192,27.010443427019453],[87.44277119928226,27.009593746576705],[87.44267228205356,27.009264464520438],[87.44268952343398,27.008537563435393],[87.4427767377855,27.008279986736394],[87.44261342488208,27.008079617641336],[87.44254470190809,27.00758772480775],[87.4425410703708,27.007298764825475],[87.44270699779587,27.00689645665528],[87.44329394621576,27.00602781835191],[87.44337703497152,27.00585370303068],[87.44356190458474,27.005277531883607],[87.44360110093363,27.004990697276018],[87.44357495805306,27.004589016867495],[87.44339675611562,27.003959772809388],[87.44330915777074,27.00380879306387],[87.44313640346068,27.003617489245773],[87.4427491945986,27.003374924186364],[87.44251191515866,27.00310928798044],[87.44242344130174,27.002881596972905],[87.44235528468322,27.00253643486755],[87.44237303590609,27.002249724856313],[87.44251845695669,27.00190387145154],[87.4428236704252,27.000695262621214],[87.44285835771326,27.000063077162704],[87.44272379729138,26.99949016098739],[87.44226655251165,26.99873088341189],[87.44189997520739,26.99840923211803],[87.44166106874182,26.998066884994643],[87.44159485331808,26.997895586465987],[87.44157065254646,26.997667644787704],[87.4417563356867,26.99714786471775],[87.44175527027797,26.997032767877275],[87.44164516192183,26.99674643644808],[87.44105924537804,26.995951399695453],[87.44077844933406,26.995667883929404],[87.44060556916685,26.995440444631175],[87.44025404979799,26.994640215200086],[87.44000938147093,26.9937809678854],[87.43952975171779,26.992926911680204],[87.43933561452717,26.99273792188571],[87.4389074561931,26.99262864719751],[87.43864998477477,26.992516618287457],[87.43841377036269,26.99236614012703],[87.43817674220625,26.992156894915375],[87.43804437436279,26.99181423384269],[87.43797509039126,26.99135622621862],[87.43801434878799,26.99106939154668],[87.43807693188442,26.9909541061064],[87.43816014767309,26.990818378093014],[87.43849795299057,26.99052841226697],[87.43862280557738,26.990239075739012],[87.43863523392791,26.989550561823453],[87.43873507148776,26.988974641159587],[87.43882839730222,26.987881756929273],[87.43914006010775,26.98719004916687],[87.43938657369752,26.986439888065576],[87.43957507389443,26.986152612847352],[87.4397437571543,26.985957928435976],[87.440061119137,26.98576280412221],[87.44059193456776,26.98554666999986],[87.4408018808713,26.985275149655667],[87.44084201638522,26.985065086767897],[87.44077047872806,26.984491982995518],[87.44076747177344,26.984205274298944],[87.44080773374726,26.984031346998023],[87.44078159134888,26.983629666972888],[87.44056312723218,26.983174350149973],[87.44036604668159,26.98271446819725],[87.4401055680834,26.98231573060822],[87.43990673403857,26.981740752075993],[87.4398384513265,26.981339198004314],[87.43970758627725,26.981052928720057],[87.4396169189013,26.9805926706382],[87.43963385579448,26.980247256704484],[87.43977821195679,26.979786306955518],[87.44009087716505,26.97920744411841],[87.44032220627393,26.97891779387142],[87.44044724726176,26.97868716185554],[87.44014669688507,26.97849848573042],[87.43991129520569,26.97836607551322],[87.43939704063214,26.978160023605227],[87.43913944365164,26.97800954574213],[87.43842898453768,26.977381997707184],[87.43823584893295,26.97726971834038],[87.43804346560437,26.977213892398307],[87.43772153115837,26.9770252792592],[87.43739940904265,26.97679834291329],[87.43703326848697,26.97643605443592],[87.43604583364139,26.97585221164021],[87.43567906748045,26.975471855926283],[87.43555020603823,26.97537745532204],[87.43526809404959,26.974920075937078],[87.43520181495735,26.974690072045554],[87.43515422750474,26.97430645973504],[87.43519336171371,26.973999306697053],[87.43518102315497,26.972924866955534],[87.43515281407959,26.9723132510077],[87.43508271481772,26.97177615732317],[87.43518148815149,26.971085202668455],[87.43514275637462,26.96955031593413],[87.43507447390921,26.969148699667024],[87.4347254576178,26.968479383528837],[87.4345526403171,26.968251944436098],[87.43403550409346,26.967759183183357],[87.43382079774857,26.96760632898852],[87.43311040113831,26.966981031762888],[87.43261690334889,26.966716149639513],[87.43224025945959,26.966401312780008],[87.43171268313154,26.96595825379252],[87.43113233856404,26.965562710067392],[87.43042494756402,26.965205991199237],[87.42990894004107,26.964828326076326],[87.42939399643639,26.964565819247635],[87.42910338871856,26.96449223983479],[87.42875213284145,26.964380462316633],[87.42836930569034,26.96440191230679],[87.4279223947714,26.964482318037387],[87.42747510522236,26.9644678831155],[87.42721794819917,26.964394177906154],[87.42657777531913,26.964323855084647],[87.42600099871686,26.964194701028376],[87.42567919113785,26.96402640629312],[87.42458909917802,26.963729461478692],[87.4237559798759,26.96360331208042],[87.42330806541845,26.96357081012255],[87.42241198552888,26.963444849648862],[87.42183445827307,26.96327730912737],[87.42119422326417,26.963188918222478],[87.4202304888189,26.96281488573199],[87.41991030779681,26.96275937471469],[87.41980320659532,26.96274162140278],[87.41950384538004,26.962668041849035],[87.41911907734503,26.96253826017139],[87.41886404701832,26.962541327118903],[87.41828683058864,26.962299265445697],[87.41764628055657,26.962116033453057],[87.41707038156693,26.962045522466596],[87.41611121511875,26.961885928076466],[87.41571450775065,26.961900563195563],[87.4154720450046,26.961910319315592],[87.41502588397309,26.962010981343713],[87.41470607996956,26.962034492562786],[87.41432350431015,26.962132715241804],[87.41393992700817,26.96213834795576],[87.413557476721,26.962256826195066],[87.41298640097656,26.962644510623406],[87.41281759268152,26.962818877572545],[87.4127550714726,26.96293416206197],[87.41273537960497,26.963067388893137],[87.41363778493987,26.963726130514484],[87.41402587097116,26.96408610457855],[87.41486926113012,26.96512883497499],[87.41502627108997,26.96587098772867],[87.41503171879086,26.966311179393525],[87.41499989598846,26.966399204989607],[87.4149487555461,26.966541685420445],[87.41482283767257,26.966715863092013],[87.41450591474614,26.96700570354077],[87.41391063842954,26.96718582765525],[87.4130200732725,26.967694053406678],[87.41225423435677,26.967874680691473],[87.41180913785895,26.968108506197304],[87.41134497835908,26.96863129139571],[87.41107050741232,26.968846546415946],[87.41081785880505,26.96917458362123],[87.41046499838819,26.970155251157394],[87.41036253135788,26.970559684485448],[87.41034321700148,26.97079000195293],[87.41036841951973,26.97113529066528],[87.4108733177483,26.972451981365317],[87.41081348934422,26.972797645699703],[87.4107717269446,26.972912867689903],[87.41060298152385,26.973107427287225],[87.4103698994822,26.973263913900904],[87.4101814616004,26.973591700692573],[87.40996969882053,26.97372786860379],[87.4098429678786,26.973863660883254],[87.40961339190719,26.97428872656458],[87.40951004899895,26.974634391377784],[87.4093681340877,26.97526908026118],[87.40935057221203,26.975614556441545],[87.40926923597046,26.975960158849173],[87.40906135791587,26.976479940146422],[87.40893544040203,26.976654055138134],[87.40876951298281,26.977115067739017],[87.40858664950849,26.977923745739446],[87.40843922449702,26.9780979863341],[87.40825197646929,26.97855906128588],[87.40819214920889,26.978904601492104],[87.40820323506874,26.97988420116116],[87.40805599758745,26.98011489569685],[87.40786580657424,26.980289262524376],[87.40746203682909,26.980448440714817],[87.4069509151576,26.980549289974753],[87.40663280153551,26.980724034050983],[87.40631581734422,26.981034192328682],[87.40600045993784,26.98144144137873],[87.40587466781423,26.981672010887674],[87.40552293277717,26.982652741647392],[87.40532150582847,26.983748128312907],[87.40476082701255,26.985135730875605],[87.40467874026389,26.98542487942199],[87.404478126467,26.98657671995644],[87.4044371776399,26.986750646542905],[87.40433283103678,26.986981215771664],[87.40416590221187,26.98732932066653],[87.40385236105186,26.987908120496783],[87.40328623471652,26.988832962428646],[87.4030577247261,26.989411510557048],[87.40293362358287,26.989757238901444],[87.40289242258135,26.989872461114484],[87.40283084222654,26.9900848363184],[87.40279177176893,26.990430313501054],[87.40283835862719,26.99077553886715],[87.40263229592242,26.99146693211734],[87.40261629920242,26.99192744232007],[87.40274879313337,26.992328870439284],[87.40295094612985,26.993190557405658],[87.40298360255943,26.9942266103591],[87.402424803456,26.995785764053316],[87.40245025747168,26.99618744338709],[87.40256111840445,26.99655061130812],[87.40265059546361,26.996916091391824],[87.40263102872805,26.997087642331795],[87.4026123387845,26.997317897580547],[87.40263923311912,26.99777834499891],[87.4025786535647,26.998085497913074],[87.4026039210739,26.998487303343374],[87.40252452739661,26.99900664385472],[87.4024264428628,26.999756364974434],[87.40242851087888,26.999986620417896],[87.4024750339713,27.000311589871373],[87.40246185524806,27.00102035991932],[87.40227529696485,27.001540077746164],[87.40223522390568,27.001772709291043],[87.40229496340639,27.00332553888834],[87.40238794767298,27.003957410176675],[87.40238322490816,27.005453973628118],[87.40228069465577,27.005856030555602],[87.40218173461172,27.006547047258636],[87.40216786769108,27.007237874926584],[87.40210716379313,27.007526960193346],[87.40196055177395,27.00775990630591],[87.4016214338242,27.00807919271836],[87.40161943330224,27.008081380655227],[87.40117421541818,27.00846418722791],[87.4012329910035,27.008696567088617],[87.40160188740852,27.00929817501294],[87.40179014629295,27.009435337813535],[87.40223249961818,27.009634951768017],[87.40241963367859,27.009810500100613],[87.40238631985926,27.010347846053413],[87.4025493229013,27.010658871785367],[87.40254488758063,27.01083042179647],[87.4026262323487,27.011003971986096],[87.40257628275147,27.011311124835203],[87.40257141010045,27.011541380199503],[87.4026669542421,27.012003888808493],[87.40289366876672,27.012314726701966],[87.40309568881634,27.012779172152094],[87.40313308216025,27.013009301840228],[87.40312920866366,27.013162784708207],[87.40303705536876,27.013467813051662],[87.40285818482297,27.01384974024629],[87.40282580693287,27.01430812511448],[87.40275672375431,27.014538568051563],[87.40277485829216,27.01467398251135],[87.40283688189784,27.014750503999675],[87.40290115535042,27.014752628400878],[87.40317931795394,27.014661534942363],[87.40333137108466,27.014548187492643],[87.40355306995532,27.014150254264845],[87.40363866312191,27.014131935296046],[87.40405369908237,27.014600316295574],[87.40467125515092,27.01549463148581],[87.40469045081697,27.015571341371466],[87.40450995593864,27.016027852542386],[87.40448470002667,27.016181398508436],[87.40452548394966,27.017181316060142],[87.40441026129348,27.017563117114967],[87.40384450250109,27.018108785949106],[87.40349007218649,27.018714718447804],[87.40328594494834,27.019250315968737],[87.40327834104995,27.02047605069459],[87.40320600939944,27.020860039136554],[87.40313692614727,27.021088232770985],[87.40288990856402,27.02162164289446],[87.40271266205418,27.021924609240592],[87.4023203392773,27.022338861901023],[87.4019904772002,27.022793499631682],[87.40176652902356,27.02325013751876],[87.40177922837104,27.02363387430105],[87.40168157874498,27.02416909506627],[87.40172011299114,27.025243472592663],[87.4016608549875,27.02593211294899],[87.40167355433397,27.026315849651617],[87.40171188375744,27.026469206671198],[87.40189477096678,27.026856942815268],[87.40195298359136,27.02708700950094],[87.40219883091244,27.02747449376723],[87.40243768201427,27.02816906909748],[87.40245038201064,27.028552868575755],[87.40235597913856,27.028934606748315],[87.40226482583302,27.029183243426314],[87.40192902996225,27.02990414807861],[87.40176773122667,27.030439682111787],[87.40177818096136,27.030900129202593],[87.40193737271676,27.031362387484247],[87.40191049236999,27.031592767632123],[87.401777698263,27.03181883673776],[87.40232933903556,27.03186690398175],[87.40275636878052,27.03179800213447],[87.40390466445596,27.031819428982537],[87.40539439664943,27.031806151359724],[87.40598724042786,27.031930866360202],[87.4067550820501,27.031829261920425],[87.40718048781116,27.03183707090627],[87.4077541362706,27.03188507548892],[87.4092037263965,27.03175670299368],[87.40956267214213,27.031859477772432],[87.40983721267808,27.031960253393002],[87.41034108950548,27.032236388838538],[87.4106781528479,27.032377612255782],[87.41101621597365,27.03246013150209],[87.41237702653126,27.032503560614657],[87.41263336962571,27.03246892091626],[87.41287039094557,27.03231924840018],[87.41321401494527,27.032191830648344],[87.41346817106319,27.032233964052153],[87.4138084833465,27.03223971120535],[87.41423501370848,27.032209133136366],[87.4146624807762,27.032101781671727],[87.41483435417216,27.03204707565529],[87.41498528320862,27.031953983766236],[87.41526738152376,27.031727475621025],[87.41569547338645,27.03160205721583],[87.41612206713269,27.031609865190607],[87.41714188133653,27.03180090566613],[87.41748281923445,27.03180665220289],[87.41791334806359,27.031660914676355],[87.41842778439845,27.03155556333849],[87.4187714713168,27.03144840135291],[87.41937431215707,27.031209572041003],[87.4204884032612,27.031018874463523],[87.42074430983769,27.03102487171419],[87.42151577624091,27.030884881391607],[87.42194024634017,27.03098740488454],[87.42245043439789,27.03107392270358],[87.4235574042783,27.031172183629156],[87.424235530518,27.031357477236718],[87.42449087458027,27.031381543501443],[87.42466224874379,27.03136522370407],[87.42552318274882,27.03105555625674],[87.42578008827829,27.03100284953883],[87.42655699109997,27.030632541348616],[87.42690061438827,27.030523191509403],[87.42801145742521,27.030467845255675],[87.4290295850683,27.030735595502343],[87.4297961792254,27.030807667321437],[87.43048355146631,27.030609286095277],[87.43093321426097,27.030522065781014],[87.43116823819376,27.03052587588082]]]}}]}