{"type":"FeatureCollection","features":[{"type":"Feature","properties":{"province":"Koshi Province","district":"Pachthar","municipality":"Yangwarak Rural Municipality","ward":"1","wardNumber":1,"sourceMunicipality":"Yangwarak","sourceType":"Gaunpalika"},"geometry":{"type":"Polygon","coordinates":[[[88.03359480965068,27.29409182191097],[88.03351420906165,27.293708711910195],[88.03348907165555,27.293587050969666],[88.03350425216996,27.29304751856769],[88.03363803154096,27.292215897224573],[88.03373687520985,27.291980513637366],[88.03421190100069,27.290968021630665],[88.03468730304483,27.28998947642202],[88.03492481711416,27.289520459172753],[88.03492193376032,27.289213556606928],[88.03475786561991,27.288889778118367],[88.0344709376497,27.28845853159317],[88.03442497022283,27.287865295995637],[88.0343181666086,27.287252119064934],[88.03417153527572,27.28662124964484],[88.03400552656305,27.28615530315123],[88.03357641844245,27.285580643297475],[88.033086474526,27.284988416430856],[88.03304320210471,27.284681765152158],[88.0330181806134,27.284160612660664],[88.03307368824747,27.283600447400776],[88.03312957204324,27.283094424032885],[88.03300282369308,27.282501752846855],[88.0328757002492,27.28187075713709],[88.03238293598075,27.280971565850386],[88.03215145223393,27.279910196832212],[88.03217032990072,27.279765654322535],[88.03261142262531,27.27945536752822],[88.03284874805317,27.278968346063767],[88.03294495859306,27.278444003045838],[88.03296013987514,27.277902218762907],[88.03313443451901,27.277090665862247],[88.03304763794786,27.27644128953498],[88.03303942631977,27.275558844281765],[88.03315696069548,27.275160725103536],[88.03365381075238,27.274326471614277],[88.03374958494001,27.273822384709355],[88.03376432620752,27.27324452851805],[88.03367965430853,27.27255670367515],[88.0336776534167,27.272540948322355],[88.03355378871836,27.272255241976143],[88.03292429872053,27.27186263886618],[88.03265906896297,27.271521543953792],[88.03251394414477,27.271125368673857],[88.0325712064541,27.270763824011997],[88.03288906130477,27.270240101784154],[88.0330453551001,27.269661116908033],[88.03299894774268,27.26901142790904],[88.03264823766777,27.268167624405784],[88.03260496420071,27.267860972939015],[88.03265740108569,27.26697808906662],[88.03263269264414,27.266490758917367],[88.03277079934577,27.266200859677408],[88.0328481315702,27.265821059595847],[88.03276158536133,27.265210069173026],[88.03261514269646,27.26459726755485],[88.03245031598487,27.26391457058942],[88.03215006433325,27.263201305033036],[88.03206564793878,27.2627459856997],[88.03219468534502,27.26229135060104],[88.03248271301554,27.26162114863954],[88.03290328589057,27.260805527253844],[88.0330326974161,27.26032607161453],[88.03286417884883,27.259514774989057],[88.03268289371218,27.25814606552876],[88.03273340549683,27.257872609432766],[88.0323428241395,27.25783710594289],[88.03133226666823,27.257873948312717],[88.0309531900497,27.257847384521504],[88.03011825179259,27.257553376385612],[88.02981119793365,27.257395398155058],[88.02956691605544,27.257198532596693],[88.02949188397221,27.25700272666629],[88.029456486946,27.25658773085282],[88.0293474998985,27.256202557751966],[88.02900310624223,27.255424148319833],[88.02886122968324,27.254899309967268],[88.02876055262789,27.25424999690878],[88.02826979415536,27.25354717499018],[88.02799312338486,27.253258032710363],[88.02752381125299,27.252620480082275],[88.02710445352,27.251919407170238],[88.02689780297719,27.251356621509803],[88.02674724222052,27.251116241255374],[88.0262400947053,27.25007494608858],[88.0260899720637,27.2498819550588],[88.02639181461792,27.24906264677232],[88.02650821974932,27.248544930378],[88.02642098421799,27.247848165273425],[88.02636502101963,27.24759578033965],[88.02636213713292,27.247282063096844],[88.02661196465733,27.246643747337924],[88.0268352827397,27.246077764815162],[88.02669177042627,27.24509254168591],[88.02638560302546,27.24544246218834],[88.0262252977976,27.245588007163775],[88.02580870967904,27.245663287463252],[88.02541956937311,27.245774514451483],[88.02463846907322,27.245696756371167],[88.0242747088476,27.24561355055139],[88.02407225832111,27.245567729179836],[88.02360052139586,27.245487651094443],[88.02295302923119,27.245311861809917],[88.02250686123254,27.24512325275541],[88.0222635810788,27.244967023654265],[88.02174806967,27.244514838251074],[88.02132659234452,27.244059775745843],[88.02128307434259,27.243992319220617],[88.02110825417394,27.243725119218855],[88.02096668901525,27.24316189395035],[88.02091297739669,27.242945581798022],[88.0208829585248,27.24263205337382],[88.02090194486051,27.24174266759853],[88.02120447617675,27.240995567942594],[88.02132376503536,27.240789318071517],[88.021651676804,27.23984797410591],[88.02163328387944,27.239356080375085],[88.02160476753882,27.23913964197581],[88.02141306569845,27.238815988180104],[88.02120898522743,27.238589551067577],[88.02110000386075,27.23840975029954],[88.02098832825853,27.238002070165994],[88.02098243670416,27.23736338313005],[88.02099305738116,27.23700215220586],[88.02109740078576,27.236678618582733],[88.02093201583268,27.23619679337944],[88.02087574051508,27.23598054287175],[88.02088623619375,27.23560805889522],[88.02087066350497,27.235416315172344],[88.0205475098146,27.233915507210927],[88.02055681628524,27.23348206789205],[88.02075331217745,27.232880263152623],[88.02046701091668,27.232496343471684],[88.0202502400836,27.232330923781955],[88.02008767649383,27.232151561860768],[88.01993460827576,27.231647104070387],[88.01994623308525,27.231466363654153],[88.01987745310888,27.231261554572207],[88.01950874266218,27.230699897349485],[88.01921144148186,27.23049678059162],[88.0187920321524,27.230260531563488],[88.01849322907492,27.229960324666155],[88.01799673830483,27.230133196586937],[88.01775389591549,27.230015354225873],[88.0175356841345,27.229691888507116],[88.01727507625691,27.229152110446147],[88.0167008440253,27.228206093482335],[88.01638959976401,27.227991662012553],[88.01604965386004,27.22761043080614],[88.0157366546499,27.227204192680794],[88.01558509000974,27.226783197537397],[88.01531047596227,27.22622091300985],[88.01511820744173,27.22576415791261],[88.01493994648091,27.22539305202209],[88.01475355807506,27.225089654266394],[88.01440566970122,27.224609207671758],[88.01404253724955,27.22464341146378],[88.01301641410808,27.22474789842902],[88.01275894627251,27.22482198799757],[88.01198560955257,27.225236123177158],[88.00967252698878,27.225905174386234],[88.00896489925495,27.2261856442263],[88.00838481806304,27.226467487233855],[88.00799805617898,27.226693686018706],[88.0074830602878,27.226918635492186],[88.00619728655363,27.22734772218486],[88.00555549048214,27.22743807333201],[88.00529983475828,27.227435452149173],[88.00485023352176,27.227488288217568],[88.00382517002802,27.22749793460606],[88.00350542718458,27.227457366156735],[88.00299486091363,27.22726019314235],[88.00184855150408,27.226634155995775],[88.00146484664852,27.226573707972413],[88.0012085656701,27.22657102396587],[88.00088769889294,27.226625233014136],[88.00043753656372,27.226754842260505],[88.0001158602026,27.226924147065205],[88.0000076978759,27.227037807403118],[87.99983351560486,27.227323457200004],[87.9997237317392,27.2276108553994],[87.99967828484776,27.227897877841936],[87.99969292811652,27.228473296606833],[87.99960533920748,27.22870417794919],[87.99949717638818,27.22881771274233],[87.99926740491229,27.22881940542472],[87.9989501021722,27.22884198059471],[87.99886493784152,27.228497256224205],[87.99871649981118,27.228134964957434],[87.99854605810103,27.227924031139427],[87.9983545460282,27.227753859933387],[87.99820536550999,27.227732356644026],[87.99814134326395,27.2277711814951],[87.99792777819013,27.228323409663997],[87.99782080335392,27.22841900209923],[87.99771426481469,27.228437822088324],[87.99756527068831,27.228362115219557],[87.9973955135905,27.228018017176126],[87.99733123784988,27.22795975193979],[87.99728903215066,27.227826900593232],[87.99714003574843,27.22761577892424],[87.99692701562937,27.22744354541644],[87.99667210665287,27.2273099483061],[87.99607525932974,27.227135845794876],[87.99573438410941,27.227136039760627],[87.99505194967368,27.227267340300507],[87.99462598080686,27.227286166615876],[87.99439182983855,27.22715238123013],[87.99422182591006,27.22697977144895],[87.99405094855156,27.22686367788066],[87.99381710686701,27.226614796924814],[87.99268917408865,27.22577413399769],[87.99149634940606,27.22523637295219],[87.99094301311317,27.224834077713115],[87.99062364060664,27.22462414728656],[87.99045313894791,27.22454637800471],[87.9901121999881,27.22446979903923],[87.98943063797691,27.224485878277918],[87.98874857458681,27.224447817399824],[87.98747010091978,27.22421546001717],[87.98695847497461,27.224176082977554],[87.9864474720383,27.22406012137585],[87.9856804967579,27.223772175785587],[87.98525452655417,27.22371191542707],[87.9849777386523,27.223749931684374],[87.98491371632875,27.223788756952555],[87.98455071442416,27.22407340953028],[87.98431576122107,27.224415951215132],[87.98423041915827,27.2244729693112],[87.98406016912274,27.224492166274075],[87.98363413494214,27.22435757214048],[87.98278193999344,27.22399116716982],[87.982441311966,27.22387614037884],[87.98167446549678,27.22374161486487],[87.98116302786143,27.223720367956602],[87.98022499946373,27.223871491320622],[87.97962790883948,27.22402229700473],[87.97911597647412,27.22423130437446],[87.97868957303588,27.224342657499776],[87.97792266853993,27.224418006197578],[87.97707029123929,27.224320117773797],[87.97681463517755,27.22431962195559],[87.97655847725294,27.22426048468731],[87.97587653882336,27.22424042911849],[87.97510988094584,27.224123908843314],[87.97476869361488,27.22416017566759],[87.97434191730075,27.224370806963584],[87.97331873654016,27.224671351649324],[87.97248669281602,27.22516463628203],[87.97086561451785,27.225886939730174],[87.97061002476136,27.226037675231723],[87.9696710643335,27.226436871735544],[87.96941547384448,27.226587671102717],[87.96920164984543,27.226758412390375],[87.96849808643304,27.227081582275286],[87.96830564401006,27.227234130593],[87.96796446634045,27.227633753218857],[87.96694128529138,27.227936485297125],[87.9656627580332,27.22812593951913],[87.96515163770026,27.228296498242717],[87.96438398888192,27.228658430693812],[87.96399998131754,27.229001850892985],[87.96376496378625,27.229267558528733],[87.96359471554938,27.229363526342794],[87.96299762687677,27.229591103910842],[87.96206003854626,27.229798494316938],[87.9614629497317,27.23002600981834],[87.96129270219319,27.230121977740325],[87.96112195218066,27.230159304746646],[87.96069592630282,27.230387942081954],[87.96018436825143,27.230578819512857],[87.95984318327174,27.230691733267303],[87.95950212165535,27.23074825626145],[87.95856484175282,27.230765966053394],[87.95703084136245,27.23076293023589],[87.95677487357254,27.230798570092386],[87.95609219146787,27.231065036037858],[87.95575131799163,27.23113962647815],[87.95438700866833,27.231268563742695],[87.95413116567232,27.231326772756383],[87.95370445219874,27.231553096834723],[87.95340597495385,27.231857628702123],[87.95295781702275,27.232163164383863],[87.95263770633517,27.23244744060764],[87.95235967503001,27.23279017078662],[87.95201880307341,27.232941408597807],[87.95186968712952,27.232998865603655],[87.95074008010236,27.232747000245794],[87.95039901733361,27.232726750158875],[87.94999424462856,27.23278371236396],[87.94973840392093,27.232916380542807],[87.94967406997237,27.232993529142977],[87.94943986256955,27.233144077592367],[87.94901327070721,27.233239550241926],[87.94884251929948,27.23320010487343],[87.94807623173078,27.232911846932293],[87.9473942277933,27.23273818345205],[87.94722372664987,27.23266035076641],[87.94679788021685,27.23254357416186],[87.94645693887198,27.23239016031159],[87.94603115567337,27.23227569759055],[87.94551959236183,27.23225432476727],[87.9451785281953,27.232157302591776],[87.94492268337271,27.232138739709693],[87.9443262117271,27.232002835179898],[87.94398564710183,27.23188549496952],[87.94390042605858,27.231809348758002],[87.94289973626967,27.231348857641677],[87.94238829171067,27.2310408388181],[87.94170709834158,27.23073394849966],[87.94145118928681,27.230638613285585],[87.94111031245158,27.230559658896855],[87.94085465687826,27.230559162972366],[87.94068409733447,27.230693455471567],[87.9404494518464,27.23086438469555],[87.94032140766005,27.230957726722888],[87.94015059825851,27.23113040585806],[87.93987300427224,27.231452817726893],[87.93955295632804,27.231757412342617],[87.93940352861613,27.231853193023184],[87.93921133759571,27.232044065256318],[87.93884852251219,27.232290331483156],[87.93827207242386,27.232804304279412],[87.93822918356149,27.232881328158108],[87.9379091362085,27.233185922318192],[87.9373541295913,27.233622998054773],[87.9366718883537,27.234020314355963],[87.93581827110725,27.23438043514155],[87.93556261801122,27.234533359198018],[87.93524238023085,27.234740863994432],[87.934815356477,27.235084597331255],[87.93381150396354,27.235752622834465],[87.93353421784572,27.235885416873092],[87.93346982105803,27.235962566148093],[87.9333206443763,27.236094481842528],[87.9331698494997,27.236553681972016],[87.93293427285883,27.236993127426118],[87.93280597830419,27.23712716909535],[87.93220820399688,27.237451649399016],[87.93203714662383,27.237662777001102],[87.9319505610955,27.238044702984816],[87.93190711886571,27.238579985213835],[87.93192738671475,27.239037993752245],[87.93186057582837,27.240187331991756],[87.93170972155997,27.240797763247137],[87.93170916385043,27.241027955557065],[87.93155768891683,27.24179186973851],[87.93155769208752,27.241945352292515],[87.9315570697975,27.2420988344082],[87.93168493248713,27.242213115551866],[87.93193990656486,27.24250032041732],[87.93215236723859,27.24284647994375],[87.93227960993676,27.24319095345398],[87.93238478646505,27.24376355707979],[87.93244868851387,27.24393691916622],[87.93253365926115,27.244051513682116],[87.93268222298495,27.244452253734476],[87.93272306869652,27.24525548760228],[87.93280723364076,27.245658917115648],[87.93282781127122,27.24600189246744],[87.93280512647112,27.246462527496917],[87.93263363516589,27.246863147674883],[87.93241943743168,27.247148985655272],[87.93214152944488,27.247435262034873],[87.93147892407657,27.248008441499348],[87.93139308574203,27.248239260637067],[87.93139283834354,27.24835435722269],[87.93149857274155,27.248696767256355],[87.9315831149772,27.249215292766447],[87.93179483137148,27.249845911427435],[87.93213459187652,27.25030628993055],[87.93228315564696,27.250707091898434],[87.93236670017177,27.25133852587302],[87.93249319778421,27.251969646021863],[87.93257823738429,27.25231443234223],[87.93270497760054,27.252602514735653],[87.93291762499895,27.252887719624464],[87.93317279095805,27.253348724825013],[87.93332135464594,27.25374946457535],[87.93340496205465,27.2543808980807],[87.93382864468616,27.255587869103138],[87.93397689858833,27.256103767055983],[87.93406137277734,27.25638984949518],[87.93429416416205,27.257194080664387],[87.93431505235888,27.25742414796544],[87.93446349211374,27.25788352973988],[87.93448387777403,27.2580550164873],[87.93438553990441,27.25852740715325],[87.93432967126665,27.259692436572806],[87.93373085608978,27.26102358743135],[87.93340229136048,27.26348381394849],[87.93411672647048,27.2656232398439],[87.93453175449808,27.268430491498766],[87.93506347388711,27.269483290641446],[87.93625338503448,27.27115457055916],[87.93907142948467,27.27163672380297],[87.94037123186452,27.27218317314172],[87.94574160910422,27.273598239985766],[87.94639917343885,27.274063239139206],[87.9471146106174,27.27628381404753],[87.94817272089426,27.27780023879383],[87.94854273814975,27.278088817307857],[87.94965356495942,27.27726874393575],[87.94973578098005,27.277207224609754],[87.95053781178721,27.27661941284736],[87.95129538956608,27.276065799663886],[87.95398791735497,27.275076836430692],[87.95659962792388,27.275189884739145],[87.95721116376201,27.27514054665747],[87.95856072605142,27.275363774849332],[87.96040896322675,27.27518850262276],[87.96196928682724,27.275245491031743],[87.96378315304085,27.275835631388702],[87.96475127301372,27.276501496192502],[87.96651863200552,27.2774846263753],[87.96711910877349,27.277764885656488],[87.96723771583851,27.277820462099978],[87.96844310303274,27.27816197792753],[87.96904514167798,27.278397035045302],[87.97110356034322,27.280093557176656],[87.97256699557427,27.28111714246248],[87.97373026123691,27.28226689592468],[87.97462372511684,27.282748145339024],[87.97549693006671,27.283152872714382],[87.97713822905163,27.28357021574365],[87.97860284328293,27.28421675297603],[87.98042408007957,27.284477046235697],[87.983002435017,27.28594630451307],[87.98514875967078,27.28760587614935],[87.98586428226466,27.288027423362553],[87.99024980324226,27.289632750918884],[87.99118833498996,27.28962829540589],[87.99163823577074,27.289013419468688],[87.9917769026246,27.288630992814543],[87.9929849958993,27.286981549484494],[87.9934275859692,27.286542788062295],[87.99448977471226,27.28595290873356],[87.99591588866976,27.284482389572165],[87.99647258692725,27.28422786679793],[87.99672836831999,27.284228300252497],[87.99724775571836,27.28461052718812],[87.9977235575367,27.2847019206142],[87.99926852050757,27.285634415128452],[87.99998584268506,27.285477981752187],[88.0006333268759,27.28534693085247],[88.00088823424494,27.28539250215482],[88.00151709704093,27.285722025130948],[88.00240549153494,27.28598195937632],[88.00356903976883,27.285790757661886],[88.0051142292079,27.285687136204352],[88.0061402306798,27.28572262788277],[88.00716092143524,27.285870964565042],[88.00844495459788,27.28587525478207],[88.00986715880838,27.285655039014134],[88.01090865879824,27.28530666783797],[88.01155451849878,27.285211690916512],[88.01298072155309,27.284876317119767],[88.01426319222597,27.284918930433037],[88.01504197398839,27.284714606741876],[88.01537753777767,27.284879211331518],[88.01567448573142,27.286001096421337],[88.01616836514533,27.286478226742663],[88.01644860379365,27.286947921734786],[88.01655834242062,27.287412055645035],[88.01706361857357,27.288656535565828],[88.01728303295542,27.289584866372877],[88.01814839355977,27.291454147038035],[88.01843794340535,27.291693524569602],[88.01876432140949,27.29208838441114],[88.01939170895564,27.293489908063634],[88.02026329470995,27.294171966441617],[88.02127792386044,27.294473724002444],[88.02294066357852,27.294644367981856],[88.02357733759335,27.294779646342835],[88.02496748511469,27.295324655337804],[88.02573714284054,27.29535064873107],[88.02625470584123,27.29525198526378],[88.02730301666577,27.294750005812592],[88.02886057849918,27.29434123269724],[88.02911561008509,27.29438905408585],[88.02948956712454,27.2946706929315],[88.03012467901891,27.29484429381587],[88.03077216339906,27.294713118915233],[88.03129291317386,27.294537745281147],[88.03181822396793,27.294247150682587],[88.03220761468747,27.29414498844645],[88.03359480965068,27.29409182191097]]]}},{"type":"Feature","properties":{"province":"Koshi Province","district":"Pachthar","municipality":"Yangwarak Rural Municipality","ward":"3","wardNumber":3,"sourceMunicipality":"Yangwarak","sourceType":"Gaunpalika"},"geometry":{"type":"Polygon","coordinates":[[[87.91780293549176,27.293694628596324],[87.91819945238603,27.293520507473936],[87.91879234474591,27.29296358427722],[87.91878701629311,27.292315831490622],[87.91858492167056,27.291400817662698],[87.91843321788448,27.287634717320177],[87.91817002846811,27.286279950669883],[87.91767037822733,27.284969638050026],[87.9168573023999,27.28371322220919],[87.91646121728877,27.28087189730632],[87.91662896824747,27.278151035208783],[87.9178968588961,27.274840543062897],[87.91765324787198,27.273855821498312],[87.91707463752125,27.27283715872199],[87.91696314615261,27.27226455559144],[87.9170542925765,27.271751590959692],[87.91657390496658,27.270696227751188],[87.91648591569009,27.269827787957663],[87.91729242296415,27.268077760443653],[87.91670950176699,27.26722164529922],[87.91722239743855,27.265326831925748],[87.91730759435568,27.264326349255136],[87.91702297605406,27.26372786723882],[87.91701827452364,27.263159075768797],[87.91773175262574,27.261694071445607],[87.91772623556751,27.261019185910552],[87.91727697728118,27.259609218397486],[87.91733136820368,27.259459923902494],[87.91775674808024,27.258285697582604],[87.91782407741462,27.257951160770176],[87.91803846168722,27.257611182091416],[87.91829734287076,27.25646290430338],[87.91846908333518,27.256005829815724],[87.91876949121423,27.255374076714066],[87.9189422248962,27.25457171403404],[87.91902917973002,27.25393915158683],[87.91900854026159,27.25365263125435],[87.9188385318659,27.253252016570567],[87.91877649506014,27.25262045772364],[87.91869189118557,27.25216051173939],[87.9185230035428,27.251586096925514],[87.9184830895029,27.250496153241276],[87.91837766527283,27.250036395762965],[87.91829368225491,27.249348508212485],[87.91833806150223,27.248831355993048],[87.91831878638321,27.2480279335227],[87.91838411034837,27.247454201730772],[87.91827918199634,27.246822956584793],[87.91819402083883,27.246593265236264],[87.91774511528948,27.246995704384503],[87.91748821925928,27.247453342676778],[87.91738136992862,27.247587196719593],[87.91650543730718,27.24817982304474],[87.91633437638616,27.248255411136206],[87.91607847121985,27.24831130669681],[87.91565162885577,27.24838633619014],[87.91454447529848,27.248497388373547],[87.91384128357589,27.248666763374658],[87.91354261699277,27.248894460504296],[87.91315823634508,27.24937091957898],[87.91290183506867,27.249598365967408],[87.9121980882182,27.250092710267456],[87.91170697951442,27.250493211635835],[87.91119536058046,27.25077642902321],[87.9108544262416,27.250929854624335],[87.9100016825698,27.25119275893538],[87.90923446968911,27.251495673885263],[87.9085535998642,27.251703247618874],[87.90787260579191,27.251969524734562],[87.90727732950363,27.25214039848319],[87.90697915872624,27.252196482027003],[87.90640532546382,27.252290519875572],[87.9057672797584,27.252328542820162],[87.90449124731055,27.252246479039254],[87.90417269012859,27.252131200644744],[87.90393909964455,27.251900262457582],[87.90372701330483,27.251515654016824],[87.90351492315841,27.2509798130016],[87.90315383995822,27.250366014768815],[87.90300552523743,27.24990650744043],[87.9026665729322,27.249215748969103],[87.9024544825145,27.24867765761652],[87.90234844075157,27.248524864979625],[87.90196566763422,27.248197838708393],[87.9014132709198,27.24788988340983],[87.9010947144255,27.24777241731811],[87.90077578258243,27.247677332650294],[87.90013786233065,27.24773110928502],[87.8998188065276,27.24769254171384],[87.89867125139305,27.24726881232679],[87.89847999021406,27.247114333657453],[87.8979279587344,27.246384317284768],[87.89729120911791,27.24563454619435],[87.89712139031565,27.245328647232842],[87.89695169084993,27.24479030470017],[87.89691016143313,27.24417887641632],[87.8966772519346,27.243640910994582],[87.896549821084,27.243258051010894],[87.89621086960871,27.242567292504727],[87.89612570603059,27.24226089158039],[87.89608417347911,27.24149373004668],[87.8959781928486,27.24126416513988],[87.89582951059661,27.241147758703313],[87.89534088877251,27.240916136760525],[87.8951496277203,27.24076397047559],[87.89495886740283,27.240668070714218],[87.89432162088946,27.240089787980413],[87.89400249998923,27.23989773745247],[87.89374765211831,27.239687179849447],[87.89304676118947,27.239280886566462],[87.8927921005946,27.239088397043645],[87.89179346350814,27.23816714514203],[87.8913691754256,27.237840307053748],[87.8912628237981,27.237800359306828],[87.89102842615542,27.237858317776944],[87.8909011950179,27.23797191599485],[87.89068837162088,27.238201299174012],[87.89051787665449,27.23843030720219],[87.89036845451932,27.23877434806912],[87.89021940537651,27.23900554328976],[87.88970854063743,27.23946249845132],[87.88932521782263,27.23969063525401],[87.88919735956307,27.239729836474226],[87.8888783715403,27.239939528435947],[87.88872894644378,27.240130024083182],[87.88866480365412,27.2403967905798],[87.8886646225531,27.24068568843871],[87.88862192205656,27.240798847143754],[87.88851551042183,27.240914632492245],[87.88838815373964,27.24101022551383],[87.88806847650372,27.241143207303622],[87.88736678622612,27.24135078053918],[87.886728804672,27.241463263047155],[87.886409627484,27.241578051891867],[87.88570725481296,27.242015880560032],[87.88485527348878,27.242856453672996],[87.88455791827708,27.243007315776985],[87.88404704715967,27.243159494345253],[87.88296283573398,27.243137007084943],[87.88232503729442,27.243039489768734],[87.88194246010265,27.243037371441577],[87.88168718022136,27.24309545541801],[87.88149586019122,27.24309439638856],[87.88066593314217,27.24320563093997],[87.88047461292486,27.24320463364292],[87.88030480082608,27.243205637560262],[87.8794540480989,27.243086930136084],[87.87849831451635,27.24270020893701],[87.87817913370249,27.242661578132967],[87.87658497605533,27.242177339404783],[87.87620245912626,27.242100698475],[87.87556478633454,27.242021186992936],[87.87524591839102,27.242020942241655],[87.87431001564642,27.242148684104063],[87.87429788761322,27.242207451576856],[87.87327857024887,27.241922698513562],[87.87285166305857,27.2419118277897],[87.8721727300374,27.242037939586382],[87.87089657781345,27.242179066151436],[87.87038808108943,27.242301860559742],[87.86996649337637,27.242482796014407],[87.86956203241608,27.242510186105417],[87.86930293503673,27.242398908492017],[87.86897449529539,27.24206237790852],[87.86879617287637,27.241779111331116],[87.86865905279264,27.2414391389244],[87.868391006644,27.240987135757933],[87.86811732906285,27.240304941359245],[87.86798302528176,27.240077814357775],[87.86774074232812,27.239776855492146],[87.86752365863934,27.239629316748744],[87.86721722770315,27.239348989339717],[87.86666757500923,27.238729443051323],[87.86636358366837,27.238526013881323],[87.865514132384,27.237836013794283],[87.86501575612934,27.23755919216491],[87.86473327272151,27.237355574442088],[87.8639028263074,27.236588802444288],[87.86301060962096,27.235919434805467],[87.86280977809464,27.235579838494232],[87.86276238231551,27.235408601541423],[87.86274611233486,27.234778917879307],[87.86269702688634,27.234551289493304],[87.8623660836867,27.23413798682446],[87.86167382094557,27.233749572915453],[87.86126035009568,27.23343386247829],[87.86101381177629,27.232979421844018],[87.86064559277719,27.2319750085012],[87.86040431064598,27.231712436222445],[87.86012445577812,27.231603534393667],[87.859765139875,27.231745706822597],[87.85911021718154,27.231966408414536],[87.85901162490163,27.2322740003196],[87.85893429021604,27.232561147817208],[87.85869208830724,27.233081741928043],[87.85862937892217,27.233140822877655],[87.85836635641846,27.23366160542489],[87.85798692599427,27.234641274334777],[87.85787103681389,27.235903708608994],[87.8578601668463,27.23630326298652],[87.85791488469292,27.236761145878813],[87.85798535307858,27.236988648939583],[87.85799273688468,27.237275295442657],[87.85824709656646,27.238014070159615],[87.85829111328268,27.238070210313037],[87.85847838428231,27.23869651536463],[87.85847377080616,27.23932632503256],[87.8584155670618,27.23955689392743],[87.85848547312098,27.23978445888594],[87.85870612310609,27.24006747584004],[87.8587309467125,27.24018019524177],[87.85865749247893,27.240638831655648],[87.8586834431578,27.24081019347207],[87.85877485665617,27.241037633216553],[87.85923753857669,27.2416012902682],[87.85937634866126,27.241999966808272],[87.85937004616466,27.242573323140974],[87.8594505901671,27.243200316979],[87.85932218712128,27.24406332266894],[87.85918815200965,27.24469613523645],[87.85922073658074,27.245154081402866],[87.85934304528055,27.245783201174994],[87.8594354606303,27.246066907079133],[87.85943623031619,27.246985551520172],[87.85939884754715,27.247213806361362],[87.859159212145,27.247908201057367],[87.85899716011272,27.248254555283328],[87.85866329573959,27.248606414346074],[87.85814017652059,27.249056555332388],[87.85786983442823,27.249367464102054],[87.85772578600498,27.249600847771834],[87.85764607460212,27.249831541621337],[87.85769735055855,27.250174328541714],[87.85770673872692,27.25057594547413],[87.85764684553416,27.25074793442222],[87.85752317872142,27.250922488427786],[87.85716586568445,27.251177506215676],[87.85681211915895,27.25156787737545],[87.85650145252019,27.25197606501995],[87.85642180301609,27.252206758544272],[87.85644806778058,27.252434574586278],[87.85663033239456,27.25288939192833],[87.8566188994913,27.253291260161223],[87.85635358284809,27.254674232769972],[87.8561935965903,27.255135683024633],[87.85611776518364,27.25553792667714],[87.85587706547811,27.25617355497814],[87.85582268011606,27.256575735948346],[87.85583206740182,27.256977478648167],[87.8558805273017,27.257205106812556],[87.8561281926052,27.257715939571977],[87.8563812362572,27.25835318492513],[87.85694527774085,27.25935865611041],[87.85836074912973,27.259979688139303],[87.85900323724938,27.260108902095908],[87.85919624891487,27.26024312582494],[87.85926240229769,27.2604706916017],[87.85912098546925,27.260882376634186],[87.85929024902401,27.261540379212263],[87.86013269930658,27.26228233157842],[87.86070224848729,27.263511180968987],[87.86047677098976,27.265465007137188],[87.86084704396575,27.26598634080363],[87.86123969955521,27.266539183201616],[87.86132086882783,27.267152611713826],[87.86127173478334,27.26757948757857],[87.86070185747523,27.268445251052974],[87.86052963961762,27.269936003674054],[87.86067753203126,27.27109752875678],[87.8608081476404,27.271324655216084],[87.8616512827686,27.271906310880915],[87.86184655325205,27.272417457310798],[87.86192735390776,27.2733898026703],[87.86187528620508,27.27400179566709],[87.86117029986642,27.275039924328297],[87.8610418275497,27.27557564630962],[87.86144560855682,27.27593199362187],[87.86200168884035,27.275973745810294],[87.86206690409969,27.27615617272413],[87.86193258092096,27.277894934709106],[87.86263131926577,27.27988813101353],[87.86291139653727,27.28155442690369],[87.86363887210564,27.282513756624756],[87.86364407433739,27.283107306199856],[87.86350165902604,27.283634149866554],[87.8628971415381,27.284427830407374],[87.86282868746784,27.28481194461715],[87.86326704955047,27.285391606196463],[87.86335018858783,27.28747440256076],[87.86393890844181,27.28764456725726],[87.86448392987128,27.28804517432142],[87.86500817707945,27.28772600965806],[87.86529883801713,27.287329138119887],[87.86611513453656,27.287202211714867],[87.86705497736469,27.287126359904722],[87.86761268589689,27.287287647456207],[87.86850126205417,27.2872798791257],[87.86913750334709,27.28763034603068],[87.87022113589188,27.286971257951716],[87.87143651782712,27.286902654150087],[87.87186161536088,27.287071571258707],[87.87270544495773,27.287957815466847],[87.87296279191251,27.288071344706296],[87.87398634878713,27.287794119741694],[87.87424319465164,27.287851131990703],[87.87463109464692,27.288191787544577],[87.87484975008199,27.28876370097776],[87.8748555160803,27.289413766139933],[87.87507109981756,27.28960425621086],[87.87558529199447,27.289772545630488],[87.87584132247105,27.289714524914523],[87.8760790279698,27.289426373482907],[87.87588048983373,27.288195266366003],[87.87602453397511,27.28779933530925],[87.87661556284309,27.28777531794526],[87.87687272223255,27.287868465598624],[87.87731489527866,27.288362290113906],[87.87765054952115,27.28975050272471],[87.87911110443193,27.290585471522363],[87.87938489686492,27.290784650037324],[87.87952426338178,27.29091693623862],[87.88051732949447,27.291571985762268],[87.88154483468213,27.29171901042499],[87.88222240315758,27.292014896978316],[87.88269557354292,27.29186972171338],[87.88315435495316,27.291334181772505],[87.8832164768491,27.290171339533128],[87.88359140878067,27.28934734155714],[87.88425603341395,27.289607218280292],[87.88510823667617,27.29033760468383],[87.88549929038139,27.28908010428756],[87.88603791563918,27.28867053760516],[87.88631714852944,27.288916979433406],[87.88642713903093,27.28948283060916],[87.88665741808299,27.289768034911223],[87.88691595428567,27.289937892839724],[87.88773713273103,27.290038783005443],[87.8879432106928,27.29014130904051],[87.88815873098088,27.290311417640076],[87.88887283091755,27.29146480513824],[87.88936839450857,27.29175506930201],[87.88979705507697,27.29188097313434],[87.8902011970833,27.291634643622583],[87.89087723069963,27.29040020749305],[87.89135814938649,27.29003596714379],[87.89245992238297,27.28975355302135],[87.8930715249684,27.28993021841904],[87.89380924450532,27.290401718525818],[87.89395611999181,27.290840906778023],[87.89387272016673,27.291071663285965],[87.89292857869009,27.29187222729474],[87.89311178208713,27.292351801541145],[87.89437994621427,27.29288087159347],[87.89517725716722,27.2936905947577],[87.89621465103684,27.29427749787656],[87.89725053144723,27.294270852765475],[87.90025023947996,27.293499885606913],[87.9016989655692,27.293786255808136],[87.90195543489271,27.2937845635134],[87.90259428765442,27.293511847306313],[87.90285056908978,27.29348983656458],[87.90422227784954,27.29431605353068],[87.9048925266668,27.294411069043495],[87.9066493856455,27.292810631472907],[87.90733006371498,27.292397686101946],[87.90794885121117,27.29230108429757],[87.90929266277533,27.292569951720232],[87.91059915624268,27.29322499521622],[87.91230566265712,27.293437401458633],[87.91337805219044,27.293267769848747],[87.91520845298353,27.292341653461456],[87.91620456688982,27.292269677579576],[87.91749412659838,27.293315209956404],[87.91780293549176,27.293694628596324]]]}},{"type":"Feature","properties":{"province":"Koshi Province","district":"Pachthar","municipality":"Yangwarak Rural Municipality","ward":"2","wardNumber":2,"sourceMunicipality":"Yangwarak","sourceType":"Gaunpalika"},"geometry":{"type":"Polygon","coordinates":[[[88.03359480965068,27.29409182191097],[88.03220761468747,27.29414498844645],[88.03181822396793,27.294247150682587],[88.03129291317386,27.294537745281147],[88.03077216339906,27.294713118915233],[88.03012467901891,27.29484429381587],[88.02948956712454,27.2946706929315],[88.02911561008509,27.29438905408585],[88.02886057849918,27.29434123269724],[88.02730301666577,27.294750005812592],[88.02625470584123,27.29525198526378],[88.02573714284054,27.29535064873107],[88.02496748511469,27.295324655337804],[88.02357733759335,27.294779646342835],[88.02294066357852,27.294644367981856],[88.02127792386044,27.294473724002444],[88.02026329470995,27.294171966441617],[88.01939170895564,27.293489908063634],[88.01876432140949,27.29208838441114],[88.01843794340535,27.291693524569602],[88.01814839355977,27.291454147038035],[88.01728303295542,27.289584866372877],[88.01706361857357,27.288656535565828],[88.01655834242062,27.287412055645035],[88.01644860379365,27.286947921734786],[88.01616836514533,27.286478226742663],[88.01567448573142,27.286001096421337],[88.01537753777767,27.284879211331518],[88.01504197398839,27.284714606741876],[88.01426319222597,27.284918930433037],[88.01298072155309,27.284876317119767],[88.01155451849878,27.285211690916512],[88.01090865879824,27.28530666783797],[88.00986715880838,27.285655039014134],[88.00844495459788,27.28587525478207],[88.00716092143524,27.285870964565042],[88.0061402306798,27.28572262788277],[88.0051142292079,27.285687136204352],[88.00356903976883,27.285790757661886],[88.00240549153494,27.28598195937632],[88.00151709704093,27.285722025130948],[88.00088823424494,27.28539250215482],[88.0006333268759,27.28534693085247],[87.99998584268506,27.285477981752187],[87.99926852050757,27.285634415128452],[87.9977235575367,27.2847019206142],[87.99724775571836,27.28461052718812],[87.99672836831999,27.284228300252497],[87.99647258692725,27.28422786679793],[87.99591588866976,27.284482389572165],[87.99448977471226,27.28595290873356],[87.9934275859692,27.286542788062295],[87.9929849958993,27.286981549484494],[87.9917769026246,27.288630992814543],[87.99163823577074,27.289013419468688],[87.99118833498996,27.28962829540589],[87.99024980324226,27.289632750918884],[87.98586428226466,27.288027423362553],[87.98514875967078,27.28760587614935],[87.983002435017,27.28594630451307],[87.98042408007957,27.284477046235697],[87.97860284328293,27.28421675297603],[87.97713822905163,27.28357021574365],[87.97549693006671,27.283152872714382],[87.97462372511684,27.282748145339024],[87.97373026123691,27.28226689592468],[87.97256699557427,27.28111714246248],[87.97110356034322,27.280093557176656],[87.96904514167798,27.278397035045302],[87.96844310303274,27.27816197792753],[87.96723771583851,27.277820462099978],[87.96711910877349,27.277764885656488],[87.96651863200552,27.2774846263753],[87.96475127301372,27.276501496192502],[87.96378315304085,27.275835631388702],[87.96196928682724,27.275245491031743],[87.96040896322675,27.27518850262276],[87.95856072605142,27.275363774849332],[87.95721116376201,27.27514054665747],[87.95659962792388,27.275189884739145],[87.95398791735497,27.275076836430692],[87.95129538956608,27.276065799663886],[87.95053781178721,27.27661941284736],[87.94973578098005,27.277207224609754],[87.94965356495942,27.27726874393575],[87.94854273814975,27.278088817307857],[87.94817272089426,27.27780023879383],[87.9471146106174,27.27628381404753],[87.94639917343885,27.274063239139206],[87.94574160910422,27.273598239985766],[87.94037123186452,27.27218317314172],[87.93907142948467,27.27163672380297],[87.93625338503448,27.27115457055916],[87.93506347388711,27.269483290641446],[87.93453175449808,27.268430491498766],[87.93411672647048,27.2656232398439],[87.93340229136048,27.26348381394849],[87.93373085608978,27.26102358743135],[87.93432967126665,27.259692436572806],[87.93438553990441,27.25852740715325],[87.93448387777403,27.2580550164873],[87.93446349211374,27.25788352973988],[87.93431505235888,27.25742414796544],[87.93429416416205,27.257194080664387],[87.93406137277734,27.25638984949518],[87.93397689858833,27.256103767055983],[87.93382864468616,27.255587869103138],[87.93340496205465,27.2543808980807],[87.93332135464594,27.25374946457535],[87.93317279095805,27.253348724825013],[87.93291762499895,27.252887719624464],[87.93270497760054,27.252602514735653],[87.93257823738429,27.25231443234223],[87.93249319778421,27.251969646021863],[87.93236670017177,27.25133852587302],[87.93228315564696,27.250707091898434],[87.93213459187652,27.25030628993055],[87.93179483137148,27.249845911427435],[87.9315831149772,27.249215292766447],[87.93149857274155,27.248696767256355],[87.93139283834354,27.24835435722269],[87.93139308574203,27.248239260637067],[87.93147892407657,27.248008441499348],[87.93214152944488,27.247435262034873],[87.93241943743168,27.247148985655272],[87.93263363516589,27.246863147674883],[87.93280512647112,27.246462527496917],[87.93282781127122,27.24600189246744],[87.93280723364076,27.245658917115648],[87.93272306869652,27.24525548760228],[87.93268222298495,27.244452253734476],[87.93253365926115,27.244051513682116],[87.93244868851387,27.24393691916622],[87.93238478646505,27.24376355707979],[87.93227960993676,27.24319095345398],[87.93215236723859,27.24284647994375],[87.93193990656486,27.24250032041732],[87.93168493248713,27.242213115551866],[87.9315570697975,27.2420988344082],[87.93147141777307,27.242270948666786],[87.93129973966295,27.242730273677747],[87.93119301660782,27.242882257597913],[87.93095755907062,27.24303505689263],[87.93001847427405,27.243454321900547],[87.92956975375355,27.24378004975505],[87.92914247677582,27.243949982767212],[87.92828941696241,27.244084287575344],[87.92752100968933,27.244082613101412],[87.92717982282299,27.24412100520724],[87.92666763827108,27.244253053166354],[87.92615545130728,27.244310642182842],[87.92538798153234,27.244270581642496],[87.92453454466495,27.244287539166102],[87.9242791999979,27.24425078273496],[87.92385235590991,27.244249164904765],[87.92316991991243,27.244325887225816],[87.9221459823336,27.24434172270431],[87.92120682735862,27.244456273483564],[87.92069451697834,27.244570253027202],[87.92054515299245,27.244684039520347],[87.92037452927343,27.24474162139701],[87.92009643113302,27.244933058285838],[87.91994725479093,27.24506497432411],[87.91971161406785,27.245429898119195],[87.9188783848089,27.246058346727263],[87.9184076589057,27.24647897870208],[87.91819402083883,27.246593265236264],[87.91827918199634,27.246822956584793],[87.91838411034837,27.247454201730772],[87.91831878638321,27.2480279335227],[87.91833806150223,27.248831355993048],[87.91829368225491,27.249348508212485],[87.91837766527283,27.250036395762965],[87.9184830895029,27.250496153241276],[87.9185230035428,27.251586096925514],[87.91869189118557,27.25216051173939],[87.91877649506014,27.25262045772364],[87.9188385318659,27.253252016570567],[87.91900854026159,27.25365263125435],[87.91902917973002,27.25393915158683],[87.9189422248962,27.25457171403404],[87.91876949121423,27.255374076714066],[87.91846908333518,27.256005829815724],[87.91829734287076,27.25646290430338],[87.91803846168722,27.257611182091416],[87.91782407741462,27.257951160770176],[87.91775674808024,27.258285697582604],[87.91733136820368,27.259459923902494],[87.91727697728118,27.259609218397486],[87.91772623556751,27.261019185910552],[87.91773175262574,27.261694071445607],[87.91701827452364,27.263159075768797],[87.91702297605406,27.26372786723882],[87.91730759435568,27.264326349255136],[87.91722239743855,27.265326831925748],[87.91670950176699,27.26722164529922],[87.91729242296415,27.268077760443653],[87.91648591569009,27.269827787957663],[87.91657390496658,27.270696227751188],[87.9170542925765,27.271751590959692],[87.91696314615261,27.27226455559144],[87.91707463752125,27.27283715872199],[87.91765324787198,27.273855821498312],[87.9178968588961,27.274840543062897],[87.91662896824747,27.278151035208783],[87.91646121728877,27.28087189730632],[87.9168573023999,27.28371322220919],[87.91767037822733,27.284969638050026],[87.91817002846811,27.286279950669883],[87.91843321788448,27.287634717320177],[87.91858492167056,27.291400817662698],[87.91878701629311,27.292315831490622],[87.91879234474591,27.29296358427722],[87.91819945238603,27.293520507473936],[87.91780293549176,27.293694628596324],[87.91858166580907,27.293991950971826],[87.91903145394807,27.29391904657165],[87.91952250221655,27.293572749514738],[87.91968923987493,27.293113424505773],[87.91968077487954,27.292007538259625],[87.92025714900264,27.290904517105908],[87.92064959701392,27.29054753010687],[87.9210165444748,27.290545085692465],[87.9218830394222,27.290083497235635],[87.92233089153046,27.29008048844769],[87.92405496727838,27.29036479060512],[87.9251254198179,27.290199660841136],[87.9257410756299,27.289870553365553],[87.92588881216243,27.28964160883928],[87.92606085495495,27.288753470418],[87.92629024715089,27.288544280026702],[87.9269452988495,27.288476685753487],[87.92804308855365,27.289015636303482],[87.92911429895955,27.28924774766793],[87.9300242628182,27.289447164467028],[87.9309231636222,27.289845077792133],[87.93194779209082,27.28993983649867],[87.9334864271803,27.29031554444383],[87.93395741932187,27.290592179049796],[87.93443829769838,27.29122773180767],[87.93471315029488,27.291309375324207],[87.93550618721692,27.29112580757113],[87.93680850922246,27.289774075417974],[87.9377893689094,27.289769744374812],[87.93873147481709,27.29018547396744],[87.93941353666229,27.290180897745543],[87.93974684465488,27.290079299050117],[87.93949003623892,27.288916401061794],[87.93961838777724,27.28856116941875],[87.94065439022901,27.28843230077746],[87.94133245726411,27.288698554156237],[87.94210011148411,27.28857825535058],[87.94303652554005,27.28892177614662],[87.94386897614099,27.28981671046726],[87.94461357018301,27.290181866398918],[87.94534384169688,27.29033939928064],[87.94623942061934,27.29033556946731],[87.94805434241869,27.290596362921686],[87.94908548358657,27.291153569792208],[87.9505832865531,27.29133528351256],[87.9510997208097,27.29108345117692],[87.95166204541674,27.29080879722811],[87.95202029609862,27.29053321051612],[87.95227595166952,27.290513450194346],[87.95277814160153,27.29074475909017],[87.95493378111284,27.292355066524582],[87.95588820296776,27.292727720117984],[87.95839097245556,27.294446241040866],[87.95934909257336,27.29524539531113],[87.9612262459275,27.296412952924673],[87.96149298061466,27.296939226925797],[87.96104883712687,27.297809052145997],[87.96093818596657,27.298455306241628],[87.96106687955071,27.299382074597204],[87.96128740308771,27.299606261365057],[87.96254193134672,27.29983911931832],[87.96348016479598,27.30044652999246],[87.96469945453251,27.30177658547156],[87.96549690003219,27.302974046537987],[87.96573305335323,27.30318235273418],[87.96733297113384,27.303965740780676],[87.96769805037957,27.304326589894707],[87.96827490892942,27.30527954605486],[87.96907953138252,27.305912716338913],[87.96995273433826,27.306231668981177],[87.97014800495437,27.306744941214724],[87.97008000945823,27.308009375109584],[87.97031135535951,27.30852008285327],[87.97199667145865,27.308948490152456],[87.97507623952875,27.30894955879732],[87.97588098176509,27.309372730875165],[87.97663344269813,27.311969852098052],[87.97685347098034,27.312426481877583],[87.9778115407835,27.313762730758516],[87.97944085192677,27.314904660925677],[87.98133306718121,27.315787384162284],[87.98180726320636,27.31676134869702],[87.98240442825593,27.31713407171888],[87.98283511934382,27.318543977076146],[87.98388909479694,27.319705672750587],[87.98415414087127,27.32017324172758],[87.98360109643411,27.321650997692362],[87.98365263541037,27.322546696439495],[87.9844876542157,27.32359486306004],[87.9860230642591,27.32510527682932],[87.98707541051822,27.32607285407554],[87.988171962384,27.327112263123247],[87.98912643219214,27.32687311312892],[87.9898594162527,27.328086705138478],[87.99032249051442,27.32936088211673],[87.99168252014975,27.330676179823605],[87.9927325468125,27.33137280221922],[87.99280815140416,27.331986230466654],[87.99554002057546,27.331610007538142],[87.99689077218895,27.331873560050358],[87.9983321291209,27.33252678673089],[87.9992696140536,27.333210720112433],[87.9994906903498,27.332990213592737],[88.0002434765374,27.333438456185018],[88.00150257882358,27.33405461347648],[88.00350215717175,27.33542604143692],[88.00413220673205,27.33571492617656],[88.00475369776765,27.336234067134953],[88.00546278063906,27.336680372253113],[88.00570856414285,27.33695619874068],[88.00589739859308,27.337575501528335],[88.00601784552588,27.33880473410308],[88.00587036437142,27.33926174524986],[88.00531930810111,27.340161769383222],[88.0052147172398,27.340618342090597],[88.00528768905153,27.340927119040398],[88.00557423887238,27.341243268559058],[88.00585529034964,27.341712963190712],[88.00585987602436,27.34263610842989],[88.00653809030298,27.343847701052507],[88.00684072413239,27.34481604107898],[88.00728933950232,27.345370320034775],[88.00874377359263,27.346452173065845],[88.00903038606353,27.34677063596431],[88.00950589488089,27.34770608811459],[88.01000361050457,27.34914256199356],[88.01020644126228,27.349418639338626],[88.01070207097904,27.349857384222545],[88.01154188867147,27.350268864032802],[88.01203601860762,27.350745994691646],[88.01218808510392,27.351209877054337],[88.01218717282687,27.352286442672618],[88.01189895941512,27.353044670343095],[88.01186434090143,27.35388904238611],[88.01206873421728,27.354124545385883],[88.01232226609079,27.35421075318786],[88.01270572087503,27.354259823717644],[88.01322365927182,27.354161284930413],[88.01364787958664,27.35425292928332],[88.01398369408928,27.354417595695406],[88.01459999737929,27.355051832884296],[88.01495558278872,27.355791792928738],[88.0149487714984,27.35594533800049],[88.01457527617812,27.356701879296526],[88.01455671808264,27.357162451501924],[88.01466589422076,27.357626648217252],[88.0149831494499,27.35825176251769],[88.01518598009531,27.35852565182666],[88.01556018677779,27.358807289217154],[88.01648847362365,27.35914355799948],[88.01677983515388,27.359346862726582],[88.01739770036845,27.359942713391337],[88.01780342513655,27.360492679344116],[88.0181745071671,27.360851090028152],[88.01863343209814,27.361134414687044],[88.01904753049689,27.36149251142098],[88.01940717655258,27.362119563371227],[88.01995964236673,27.365361127515133],[88.01998353629308,27.36582363721078],[88.02020251363962,27.366751967717722],[88.02017102001888,27.367519567610234],[88.02028082094988,27.367983701902045],[88.02068504551512,27.36857205399159],[88.02107477245967,27.369505882186473],[88.0210985420176,27.369968392902482],[88.02093943862498,27.370730181419898],[88.02014318536736,27.37239493322891],[88.0199894551195,27.373003176679504],[88.02012315081392,27.373929882873355],[88.02030598588402,27.37470266795782],[88.02073254291615,27.375791916755357],[88.02106075794413,27.377184381204838],[88.02115143831661,27.378109087556144],[88.02151114753556,27.378736139808904],[88.0217586806035,27.378973579596288],[88.02244351929592,27.380031626441866],[88.02260183499537,27.38034415247021],[88.02274790355972,27.380963768881973],[88.02272940746508,27.381424341744047],[88.02288009917612,27.381928799072885],[88.02304772543944,27.382011069860496],[88.02378332756076,27.382879122756282],[88.02402311319844,27.383308494442836],[88.02440515533827,27.384434191663406],[88.02460811093718,27.384710269057877],[88.02472416135474,27.385020919777222],[88.02496944459753,27.385296683624283],[88.02524387230939,27.38591986099906],[88.02535367343275,27.386383994753388],[88.02534528669031,27.388688481880713],[88.02544840117032,27.38930616125608],[88.02578349101351,27.390545017836935],[88.02626549902695,27.3913291754753],[88.02638092308442,27.391639827435156],[88.0265754060115,27.393182150142792],[88.02672765972217,27.39364822096581],[88.02670853882987,27.394108793747883],[88.02638412126255,27.394711601750114],[88.02637793464031,27.394865083651972],[88.02643865911693,27.395480825285897],[88.02688304982446,27.39718612906975],[88.02730298280065,27.398424358382236],[88.02782119429388,27.399361748231172],[88.02805266908186,27.399982926121808],[88.02825271197962,27.401369515969662],[88.02855728397081,27.402299407879294],[88.02942920652687,27.40401276757702],[88.02999818288134,27.40475791287245],[88.03043111373637,27.405691365551842],[88.03088160355661,27.40620488304365],[88.03141843699991,27.406681637922524],[88.0315768773207,27.406991975251735],[88.0315454468237,27.407759513392982],[88.03174071610009,27.408225270981088],[88.03293718164657,27.409335886802783],[88.03321942040618,27.40976488133333],[88.034434494577,27.412525167088546],[88.0345868113888,27.41299123831759],[88.034750087361,27.414222345758358],[88.03515300027743,27.414849084554675],[88.03573831050126,27.416246294770335],[88.03621838085928,27.417066526191764],[88.03650530671034,27.41738261357008],[88.03654207340892,27.417538096006886],[88.03674665388415,27.4177735354707],[88.03738729014357,27.418867969286463],[88.03885637187992,27.420637773078283],[88.03925322332171,27.421415680482365],[88.03962711678068,27.421697256198904],[88.04025916766798,27.421945317248678],[88.04050988826285,27.42210823497978],[88.04175268235548,27.423141638961447],[88.04244414504196,27.424046016579286],[88.04290175866497,27.42436760199602],[88.04339638878469,27.424842356260402],[88.04425279147632,27.425944163257764],[88.04566140109642,27.42717712289922],[88.04639106876785,27.428236982112214],[88.047130859805,27.429028137463067],[88.04794662152632,27.430091808357098],[88.04823510994017,27.43036944726733],[88.04900779309432,27.43142893023607],[88.04944841116672,27.432211088561445],[88.0503597022521,27.43300768006048],[88.05125624733854,27.434188071148768],[88.05195670868939,27.434900454092638],[88.05358639531393,27.43594891797186],[88.05460152646774,27.436288810981914],[88.0547683404456,27.436409405962944],[88.05521976859694,27.43692279782386],[88.05563667920876,27.437204059884483],[88.05638028177277,27.437918380538076],[88.056624878978,27.438232467267486],[88.05675173930497,27.43827441491466],[88.05766621737249,27.43899417078802],[88.05799378406455,27.439388905346238],[88.0583698658897,27.43962984360888],[88.05990424694333,27.439832562452022],[88.0607924555015,27.440128194569898],[88.06116853738872,27.440369133539107],[88.06142388199858,27.440416766973858],[88.06318973909592,27.44127673625973],[88.06406732573444,27.441841072189106],[88.06569163794961,27.443042830910947],[88.06644630034134,27.44344781087302],[88.06743862445015,27.4443610595231],[88.06955625600779,27.4460736460742],[88.06987894023658,27.446217807253365],[88.06998760083732,27.44600711848661],[88.07013145939314,27.445712592295884],[88.07091060142807,27.444921158126295],[88.07200054448654,27.44403025175371],[88.07294618800401,27.443321089384806],[88.07374415098502,27.44258135793694],[88.07470742636636,27.441869756522355],[88.07560087005436,27.441456555813858],[88.07643873144036,27.441057361418952],[88.07665881159504,27.441055669361596],[88.07720851638202,27.441132681044895],[88.07781342647287,27.441159553101162],[88.07841658342014,27.44107364096921],[88.0792553226437,27.440757908125708],[88.08009368295119,27.44034289570131],[88.08052939680343,27.439946771608128],[88.0806542485867,27.43965243344053],[88.08068687496653,27.439243625258687],[88.08070268760389,27.438981736248852],[88.08090012509153,27.43854004026788],[88.08128175796858,27.438243696695675],[88.08202852437206,27.437910585411792],[88.08213706109767,27.437745034098402],[88.08213474203232,27.43751709279496],[88.08209647438564,27.437354858387867],[88.081981292481,27.436766688600663],[88.08188436967477,27.43622803263529],[88.08191699652916,27.435819287603707],[88.08205703368134,27.435197477274176],[88.08203489140564,27.434807238702597],[88.08197811601111,27.434627124962816],[88.0816111649927,27.434483277250298],[88.08093260186553,27.434423085050366],[88.08071320868204,27.434424777123404],[88.08025566621215,27.43446217100039],[88.07954334645167,27.43463023380517],[88.07892111759536,27.434635059429567],[88.07848158115019,27.434638505795117],[88.07770960078898,27.434269787886365],[88.07723298677607,27.43422384613455],[88.07679439020346,27.434324320664455],[88.07646545835271,27.434376530115976],[88.0761903554949,27.434313203637302],[88.07574912725934,27.434136035780377],[88.075382678627,27.434107283752795],[88.07474238187692,27.434143806684588],[88.07459601504502,27.434113363341748],[88.07426401351253,27.43391956234306],[88.07384191713982,27.433760336629202],[88.07364065612262,27.433809291641527],[88.07325745581544,27.433943150953674],[88.07276365006192,27.433946973855726],[88.07234305943865,27.434015626507694],[88.0721950643204,27.433885903778453],[88.07142358570152,27.43356682463549],[88.07116686669617,27.433568767434217],[88.07045373142283,27.433655556135264],[88.07019694806904,27.43359210485992],[88.06969963151475,27.433237073514874],[88.06903957509253,27.43319251025926],[88.0689282796684,27.432996954837527],[88.06875945885349,27.432605530942897],[88.0684826638664,27.432363965673943],[88.0679128852873,27.432106525423283],[88.06735992397999,27.43175186969711],[88.06579350934126,27.430637760064503],[88.06511149690868,27.430150880236145],[88.06498207187767,27.43003903759305],[88.0645955495761,27.429829858554225],[88.06354934547234,27.42954216884737],[88.06233595055552,27.429030104317942],[88.06209642026992,27.428851369128225],[88.0617445936407,27.42842975222029],[88.06135625403236,27.42802420339925],[88.06080078378909,27.427342326891488],[88.06002266274163,27.426384498250695],[88.05985666210371,27.42628872337563],[88.05950903402818,27.426307172657257],[88.05903511414247,27.426473292261498],[88.0587978405692,27.426524749222533],[88.05855944069786,27.426526567350937],[88.05841338720094,27.426527694928417],[88.05813678148138,27.4263672780568],[88.05762302571574,27.4262064912139],[88.05727383208993,27.426062392388165],[88.05624074452676,27.425221603727323],[88.05596269607034,27.424846811355884],[88.0558648328517,27.424195247109157],[88.05545748477176,27.423724367403636],[88.05495772500277,27.423172965404163],[88.05454949798292,27.42253959972354],[88.0541061998688,27.42213442664612],[88.05349784080038,27.42166505117385],[88.05309024179547,27.42116259874267],[88.05244662214187,27.42084014120842],[88.05231606917647,27.42061326542277],[88.05234982424624,27.420301547853697],[88.05258427742321,27.41995669240629],[88.05258095474642,27.41959783760907],[88.05233553362694,27.418798483230262],[88.05225786921251,27.418343163707636],[88.05199569543596,27.417706419850777],[88.0518437518913,27.417152323316973],[88.0516172140483,27.416402483231764],[88.05153829539131,27.415816250446763],[88.0514396178914,27.415081224659325],[88.05129074312964,27.41478889132158],[88.04991341247853,27.41429377249833],[88.04972903024625,27.414195872146372],[88.04900906309796,27.41354900811538],[88.04880579603604,27.413320320813362],[88.04885837171112,27.413060368117016],[88.049020550951,27.412828922950563],[88.04938198475861,27.412336458796652],[88.0494163661993,27.412092449813674],[88.0494675008233,27.41168351670499],[88.04942540940091,27.411110536645506],[88.04953269207702,27.410832141280768],[88.04965722971164,27.41048816312154],[88.0499614497073,27.409768133701206],[88.05032150501735,27.40912893998883],[88.05031780634987,27.40873626250119],[88.05020237408479,27.40810064156572],[88.04997865793383,27.407709593386542],[88.04990331306398,27.407498033062435],[88.04938654858631,27.407012150746745],[88.04936559715522,27.4067346947859],[88.04914050056601,27.406131522148236],[88.04873152226104,27.405466522602683],[88.04837555890714,27.40460252657902],[88.0481507145818,27.40409857043553],[88.04774405346681,27.40361193515531],[88.047649261361,27.40328540440955],[88.04762505045849,27.40266484797509],[88.04762066312733,27.402206776081588],[88.04761746567294,27.401863738530054],[88.04768416197655,27.40116128200361],[88.04773097286439,27.400359670722363],[88.04767444664243,27.4001321683555],[88.04752457097308,27.399790258621785],[88.04730254565051,27.399514306594188],[88.04715248173592,27.399156579881215],[88.04688830200075,27.398291831459325],[88.04668215259798,27.397819447437467],[88.04671496739249,27.397410701933552],[88.04687206884913,27.396576642036848],[88.04705074908536,27.39615101383645],[88.0470112902921,27.395857866246878],[88.04691674738712,27.39548394597404],[88.04674880285204,27.395173733942002],[88.04667395890358,27.3950118124582],[88.04667113825916,27.39471616335785],[88.0467213958478,27.394210202433666],[88.04664404450902,27.393786454557354],[88.04629190405988,27.39331513550546],[88.04606912603006,27.392957972870416],[88.0460116617266,27.39269658512035],[88.04599152435925,27.392500340154662],[88.04617064276589,27.39205889481823],[88.0463848965491,27.391517857975003],[88.04663679097317,27.39107584864182],[88.04683472963526,27.390681666731282],[88.04695882939905,27.390303803927836],[88.0468223824745,27.389374909630423],[88.04683098618695,27.38834567030706],[88.04690043957862,27.387936612640907],[88.04669341294296,27.38736713725218],[88.04637822465291,27.386927139245415],[88.04606171909825,27.386342724031852],[88.04580061095865,27.385805258393933],[88.04559383478696,27.385251600554398],[88.04523931206646,27.384536522400108],[88.04499689916715,27.384030504150154],[88.04493805597521,27.38362244841893],[88.04491616400834,27.383247901348504],[88.04487795868043,27.383083479181995],[88.04473014976007,27.382890487760488],[88.04430498262322,27.38245136698527],[88.04417499327585,27.382273942465662],[88.0441165893191,27.381913275948065],[88.04387373704616,27.38135980533849],[88.04372204384413,27.380823839271642],[88.04364469104698,27.3803323839878],[88.04356759041646,27.379926704509884],[88.0435802061387,27.379321714502385],[88.04366402995865,27.378488281140477],[88.04369622040778,27.37807947325349],[88.04387640366957,27.377750873842437],[88.04412992819931,27.377487166665546],[88.04511120983537,27.376777878824328],[88.04561838222477,27.376203013553138],[88.04608735140957,27.37552918255033],[88.04635819081236,27.375087047579846],[88.04655437537767,27.374577707954927],[88.04673255405538,27.37403698335632],[88.04689429401276,27.37375814895943],[88.04740328481513,27.373379653306696],[88.0480385682522,27.372851236922116],[88.04854530431531,27.372292188961044],[88.04904996946877,27.371455559827652],[88.0491385573956,27.371129838139574],[88.04913711557495,27.37098091954629],[88.04916773751523,27.370344231850456],[88.04916516754415,27.370066588213817],[88.04948946104092,27.36954280384445],[88.04992266944379,27.368966252646914],[88.05082741356519,27.367864787829248],[88.05133377365664,27.36727410591039],[88.0520404537846,27.366548880536197],[88.05271375442676,27.366169068908633],[88.05328002146693,27.366033831028773],[88.05382859789935,27.366029695199465],[88.05503691892524,27.366086001506467],[88.05547463948565,27.36598565171456],[88.05623934804531,27.365587083377726],[88.05665837238118,27.365387579681794],[88.05753042879537,27.364776071647213],[88.05807530526334,27.36431598928027],[88.05884108047343,27.36403264200971],[88.05951325269363,27.363537672057532],[88.05976408293651,27.36299638391837],[88.05990581018438,27.36248748247524],[88.0602460417049,27.36171750005829],[88.06049580586307,27.361063304404592],[88.06058132234207,27.360426178695796],[88.06059650822795,27.360098770314544],[88.060629199503,27.35973966439864],[88.06071715954005,27.3593621143307],[88.06095242644192,27.35905108152833],[88.06140527085525,27.358621072333428],[88.06160264531617,27.358179439187868],[88.06170817422354,27.357785884887143],[88.06188710464706,27.357328622125447],[88.06219307975776,27.356818467240384],[88.06260840611525,27.356228474351745],[88.06275182798065,27.35596558277553],[88.06303898197369,27.355392346678506],[88.06330913271141,27.354900509782773],[88.06354302160203,27.3545060777355],[88.06359559726222,27.35425956762555],[88.06337319788604,27.35400174554297],[88.06320612912675,27.353707350144603],[88.06322143972625,27.35339800955393],[88.06327533195031,27.353282474465644],[88.06337967072409,27.352760320245505],[88.06368445388382,27.35205379457503],[88.06417030068114,27.351251112869775],[88.06440726118804,27.35118383873652],[88.06455431679339,27.351232413464302],[88.06486630907173,27.35134287730417],[88.06506788234282,27.351341310514456],[88.06515684759245,27.35112849612484],[88.06539067241586,27.350670858127057],[88.06598580812158,27.349799529859105],[88.06662046591254,27.349223661425235],[88.06670986798773,27.348992717418383],[88.06675661525078,27.348143717424122],[88.066842822769,27.347637505379502],[88.06707414075005,27.346915665058894],[88.06719780117265,27.346506292485955],[88.06734003095535,27.346049281568376],[88.06762724789226,27.345491862984794],[88.06838249335871,27.344129574620688],[88.0685070309181,27.34380135162053],[88.0684335651565,27.34372070376836],[88.06790299544988,27.343740469649653],[88.06748027315446,27.34354967213668],[88.0671855347671,27.343321735360664],[88.06659731127789,27.34299896478117],[88.0661728967895,27.34262755120521],[88.06567727236883,27.342403370311168],[88.06541898613068,27.342224822579766],[88.06523403669432,27.341982442462008],[88.06499256497825,27.341641221780208],[88.06458609295613,27.341170404348905],[88.06434562390783,27.340926212085574],[88.06395546561915,27.340308476438697],[88.0634373231141,27.339642103070915],[88.06279113323109,27.339010555592537],[88.06234501501166,27.33828047491325],[88.06208528486752,27.337873923203578],[88.06199036719099,27.337531575227104],[88.06205938162562,27.337088693890536],[88.0620169774237,27.33648408043827],[88.06203404283167,27.33635535455858],[88.06177675787795,27.336208316289294],[88.06144462966422,27.33596712711302],[88.06106004932364,27.335854913858046],[88.06027200665137,27.335714199998712],[88.05981320968077,27.33557097918789],[88.05909643810645,27.33521757661003],[88.05880019532971,27.334827092431382],[88.05863187465246,27.334469553323547],[88.05784044628257,27.333904527777985],[88.05754683566559,27.333791625128594],[88.05679518068429,27.333616775363296],[88.05637364941197,27.333538697776685],[88.0558775876917,27.333330396196402],[88.05552757801392,27.33307113960176],[88.05517719193521,27.332764618489783],[88.05479179760214,27.332636588237],[88.05440596311415,27.332393525019903],[88.05433049195906,27.33216614709331],[88.05423475880282,27.33172677053868],[88.05424875398327,27.33127069923246],[88.05411550521389,27.330745860524814],[88.05393024368168,27.330469595531753],[88.0536164957627,27.330162761461903],[88.05324728913521,27.32980672642064],[88.05287733127479,27.329367104581348],[88.0527463385802,27.329074708534996],[88.05253968580385,27.32847141110944],[88.05218817228719,27.328049731414694],[88.0517803843446,27.327481760190377],[88.05155848343311,27.32720574610433],[88.05131475542875,27.326618578796083],[88.0513245510067,27.325720128194995],[88.05144582827387,27.32498353502933],[88.05153203452738,27.32441180400808],[88.05157621258112,27.32333492528201],[88.0514620961603,27.32282790401075],[88.05091145251804,27.322653800356793],[88.05076439654819,27.322539769597906],[88.05067041812686,27.32229444978293],[88.05075775283747,27.321837877271374],[88.05058504425729,27.32100632424349],[88.0504164723778,27.32054944341113],[88.0499738632754,27.32017809299033],[88.04956726681564,27.31973878489619],[88.04901449076054,27.319268970405844],[88.04890319604283,27.31912317912891],[88.04860701563885,27.31873488343376],[88.0474865925515,27.318235446249073],[88.04695332847241,27.31796187534939],[88.04660162662513,27.31750856178998],[88.04630450546668,27.31701879921592],[88.0462461632117,27.316660382840357],[88.04607702712984,27.316140233899603],[88.0450614421676,27.31508481856316],[88.04478383166956,27.314728031948142],[88.04446519721878,27.31396300140963],[88.04431619714683,27.313636845658607],[88.04374027527433,27.312645816392553],[88.04340651838027,27.312224011791198],[88.04299678571688,27.311376146162225],[88.04297407906581,27.310902382497662],[88.04294529196504,27.309792121035343],[88.04292302422706,27.309367996982722],[88.0433203451662,27.30882558045865],[88.04357230329518,27.30841520592817],[88.04412942148231,27.307399836207598],[88.04439694060588,27.30669362414709],[88.04506102693595,27.305300578914736],[88.04542014408463,27.30466138475504],[88.04547234383529,27.30436761085072],[88.04572279554202,27.303729231974188],[88.045914280442,27.302730248133805],[88.0459116474272,27.3024526041717],[88.04614453490767,27.301961081254504],[88.04656318288073,27.301745760617028],[88.04668991301051,27.301582335191735],[88.04644869262127,27.30125686905585],[88.0458955396284,27.30073735293345],[88.04537915243375,27.300301109310112],[88.04502625912028,27.299714694605143],[88.04485981777793,27.2994879433206],[88.04376128594605,27.299333669005897],[88.04308309551696,27.299158192727642],[88.04254540150426,27.29927279793828],[88.0416400141295,27.29958653169893],[88.04095514180293,27.299772223717813],[88.04038968375424,27.299758355457893],[88.04000460074114,27.29958068565774],[88.03955724158233,27.299222902058503],[88.03937197717408,27.298863174668234],[88.03904284124879,27.298181731042522],[88.0386349932154,27.2977333573547],[88.03819001483123,27.297628334674986],[88.03772559466182,27.29761371434213],[88.03717951608724,27.297509444439413],[88.0369553676481,27.297312515695815],[88.03668969827356,27.296935222413335],[88.03666680844499,27.29664657588034],[88.03664429442797,27.296396190314205],[88.03621625160727,27.295948004648622],[88.03597040322143,27.2955886540946],[88.03574550070387,27.295247307982724],[88.03546120581062,27.295104959135404],[88.03507681164005,27.294999435647487],[88.03446933493127,27.2948075780997],[88.03400209342621,27.294486055204686],[88.03359480965068,27.29409182191097]]]}},{"type":"Feature","properties":{"province":"Koshi Province","district":"Pachthar","municipality":"Yangwarak Rural Municipality","ward":"4","wardNumber":4,"sourceMunicipality":"Yangwarak","sourceType":"Gaunpalika"},"geometry":{"type":"Polygon","coordinates":[[[87.86335018858783,27.28747440256076],[87.86326704955047,27.285391606196463],[87.86282868746784,27.28481194461715],[87.8628971415381,27.284427830407374],[87.86350165902604,27.283634149866554],[87.86364407433739,27.283107306199856],[87.86363887210564,27.282513756624756],[87.86291139653727,27.28155442690369],[87.86263131926577,27.27988813101353],[87.86193258092096,27.277894934709106],[87.86206690409969,27.27615617272413],[87.86200168884035,27.275973745810294],[87.86144560855682,27.27593199362187],[87.8610418275497,27.27557564630962],[87.86089165185754,27.275757139637868],[87.85744822110405,27.276708291270637],[87.85645204616365,27.276834033440657],[87.8559000970539,27.277004467597543],[87.85540660620563,27.2771293884134],[87.85554314370242,27.27370000672172],[87.85577646004417,27.272834061577285],[87.8557684355832,27.271879343776746],[87.85559473967717,27.271535058747535],[87.85537984445794,27.271346820529143],[87.85448157584985,27.27131395126994],[87.85323284341942,27.270213338350604],[87.85288984058629,27.270113878417945],[87.85217014181137,27.27022661158799],[87.85135496390843,27.270071329933042],[87.84917475363612,27.268470775200417],[87.84656563902591,27.26699920257909],[87.84643958619401,27.266704367732025],[87.8463420290362,27.265747839730587],[87.84654732937628,27.2645931855878],[87.84634754211561,27.263402652471747],[87.84558850449893,27.262978354655115],[87.84385905634937,27.262916679038977],[87.84317881006127,27.263058482980256],[87.84140883342705,27.262394256903118],[87.83873897536614,27.26222525455074],[87.83739103471169,27.261833850467],[87.8360377140565,27.26131609804331],[87.83683550948724,27.264290704865125],[87.83677594444097,27.265187156522483],[87.83608381219145,27.267877268385345],[87.83546873389679,27.268885386955894],[87.83497752135024,27.270240355753888],[87.83388635134712,27.272188007578222],[87.83382508594758,27.2725314219509],[87.83301894831726,27.274003367164216],[87.83272499334365,27.275314255997166],[87.83263463773812,27.277673510992802],[87.83174777722955,27.278920203930316],[87.83081789515458,27.279898569325752],[87.83008453808199,27.281584513743404],[87.8288489335875,27.283246334918964],[87.82797394399753,27.284145363664983],[87.82771036384618,27.28487595648739],[87.82748124186901,27.286003603889387],[87.826919874866,27.28720771619309],[87.8260617121308,27.288427150741647],[87.82782781272317,27.289118635230807],[87.82855158896116,27.289617706008187],[87.82953458077364,27.28990302231494],[87.83304209341668,27.291608773076646],[87.83334045191754,27.291550562652308],[87.83465793695017,27.291628437690125],[87.83527385843465,27.291970089267366],[87.8361777012031,27.2924702829146],[87.84148324530614,27.29403189677982],[87.84223195667083,27.29398218115052],[87.84363158793826,27.29363743055541],[87.84761755548296,27.293845734121827],[87.84919236564073,27.29303715652633],[87.84947059143748,27.292994826829844],[87.85017459761359,27.29288440756789],[87.85075256111037,27.292966670722993],[87.85207361851425,27.293414529452225],[87.85248695530834,27.29328785973242],[87.85298907685024,27.293284787428696],[87.85381545250173,27.293717586802682],[87.85438466170922,27.293734456667103],[87.85554718829148,27.292621298262677],[87.85649627754132,27.29218890435024],[87.85743662143547,27.29216281767594],[87.85769233863465,27.292064159120155],[87.85832687425868,27.291629145862995],[87.8586986219185,27.29101745997584],[87.85935653994324,27.29049423230277],[87.86031281933312,27.290086595969438],[87.86252599760338,27.289684689067865],[87.86295027332643,27.289492438145395],[87.86324649888364,27.289086626212733],[87.86317057907289,27.28833997194378],[87.86332549164264,27.287467775934537],[87.86335018858783,27.28747440256076]]]}},{"type":"Feature","properties":{"province":"Koshi Province","district":"Pachthar","municipality":"Yangwarak Rural Municipality","ward":"5","wardNumber":5,"sourceMunicipality":"Yangwarak","sourceType":"Gaunpalika"},"geometry":{"type":"Polygon","coordinates":[[[87.8260617121308,27.288427150741647],[87.826919874866,27.28720771619309],[87.82748124186901,27.286003603889387],[87.82771036384618,27.28487595648739],[87.82797394399753,27.284145363664983],[87.8288489335875,27.283246334918964],[87.83008453808199,27.281584513743404],[87.83081789515458,27.279898569325752],[87.83174777722955,27.278920203930316],[87.83263463773812,27.277673510992802],[87.83272499334365,27.275314255997166],[87.83301894831726,27.274003367164216],[87.83382508594758,27.2725314219509],[87.83388635134712,27.272188007578222],[87.83497752135024,27.270240355753888],[87.83546873389679,27.268885386955894],[87.83608381219145,27.267877268385345],[87.83677594444097,27.265187156522483],[87.83683550948724,27.264290704865125],[87.8360377140565,27.26131609804331],[87.83739103471169,27.261833850467],[87.83873897536614,27.26222525455074],[87.84140883342705,27.262394256903118],[87.84317881006127,27.263058482980256],[87.84385905634937,27.262916679038977],[87.84558850449893,27.262978354655115],[87.84634754211561,27.263402652471747],[87.84654732937628,27.2645931855878],[87.8463420290362,27.265747839730587],[87.84643958619401,27.266704367732025],[87.84656563902591,27.26699920257909],[87.84917475363612,27.268470775200417],[87.85135496390843,27.270071329933042],[87.85217014181137,27.27022661158799],[87.85288984058629,27.270113878417945],[87.85323284341942,27.270213338350604],[87.85448157584985,27.27131395126994],[87.85537984445794,27.271346820529143],[87.85559473967717,27.271535058747535],[87.8557684355832,27.271879343776746],[87.85577646004417,27.272834061577285],[87.85554314370242,27.27370000672172],[87.85540660620563,27.2771293884134],[87.8559000970539,27.277004467597543],[87.85645204616365,27.276834033440657],[87.85744822110405,27.276708291270637],[87.86089165185754,27.275757139637868],[87.8610418275497,27.27557564630962],[87.86117029986642,27.275039924328297],[87.86187528620508,27.27400179566709],[87.86192735390776,27.2733898026703],[87.86184655325205,27.272417457310798],[87.8616512827686,27.271906310880915],[87.8608081476404,27.271324655216084],[87.86067753203126,27.27109752875678],[87.86052963961762,27.269936003674054],[87.86070185747523,27.268445251052974],[87.86127173478334,27.26757948757857],[87.86132086882783,27.267152611713826],[87.86123969955521,27.266539183201616],[87.86084704396575,27.26598634080363],[87.86047677098976,27.265465007137188],[87.86070224848729,27.263511180968987],[87.86013269930658,27.26228233157842],[87.85929024902401,27.261540379212263],[87.85912098546925,27.260882376634186],[87.85926240229769,27.2604706916017],[87.85919624891487,27.26024312582494],[87.85900323724938,27.260108902095908],[87.85836074912973,27.259979688139303],[87.85694527774085,27.25935865611041],[87.8563812362572,27.25835318492513],[87.8561281926052,27.257715939571977],[87.8558805273017,27.257205106812556],[87.85583206740182,27.256977478648167],[87.85582268011606,27.256575735948346],[87.85587706547811,27.25617355497814],[87.85611776518364,27.25553792667714],[87.8561935965903,27.255135683024633],[87.85635358284809,27.254674232769972],[87.8566188994913,27.253291260161223],[87.85663033239456,27.25288939192833],[87.85644806778058,27.252434574586278],[87.85642180301609,27.252206758544272],[87.85650145252019,27.25197606501995],[87.85681211915895,27.25156787737545],[87.85716586568445,27.251177506215676],[87.85752317872142,27.250922488427786],[87.85764684553416,27.25074793442222],[87.85770673872692,27.25057594547413],[87.85769735055855,27.250174328541714],[87.85764607460212,27.249831541621337],[87.85772578600498,27.249600847771834],[87.85786983442823,27.249367464102054],[87.85814017652059,27.249056555332388],[87.85866329573959,27.248606414346074],[87.85899716011272,27.248254555283328],[87.859159212145,27.247908201057367],[87.85939884754715,27.247213806361362],[87.85943623031619,27.246985551520172],[87.8594354606303,27.246066907079133],[87.85934304528055,27.245783201174994],[87.85922073658074,27.245154081402866],[87.85918815200965,27.24469613523645],[87.85932218712128,27.24406332266894],[87.8594505901671,27.243200316979],[87.85937004616466,27.242573323140974],[87.85937634866126,27.241999966808272],[87.85923753857669,27.2416012902682],[87.85877485665617,27.241037633216553],[87.8586834431578,27.24081019347207],[87.85865749247893,27.240638831655648],[87.8587309467125,27.24018019524177],[87.85870612310609,27.24006747584004],[87.85848547312098,27.23978445888594],[87.8584155670618,27.23955689392743],[87.85847377080616,27.23932632503256],[87.85847838428231,27.23869651536463],[87.85829111328268,27.238070210313037],[87.85824709656646,27.238014070159615],[87.85799273688468,27.237275295442657],[87.85798535307858,27.236988648939583],[87.85791488469292,27.236761145878813],[87.8578601668463,27.23630326298652],[87.85787103681389,27.235903708608994],[87.85798692599427,27.234641274334777],[87.85836635641846,27.23366160542489],[87.85862937892217,27.233140822877655],[87.85869208830724,27.233081741928043],[87.85893429021604,27.232561147817208],[87.85901162490163,27.2322740003196],[87.85911021718154,27.231966408414536],[87.85830843009532,27.232287328658188],[87.85774348149427,27.23269933437756],[87.8572006670687,27.23312928279956],[87.8568257250858,27.233461073551165],[87.85623914325548,27.23385519928551],[87.8553960928088,27.234232825368064],[87.85497556812585,27.234470152000668],[87.85455566980971,27.23470735381886],[87.8542167973275,27.23480882758128],[87.85396120425227,27.234814895884572],[87.8527640128753,27.234704884414587],[87.85182679467972,27.23473991119179],[87.85148767229298,27.234805186842674],[87.85123126490598,27.234790937041673],[87.85037338442247,27.234635906854354],[87.85011628951094,27.23462171988332],[87.8494290353432,27.23448369167679],[87.84891190370972,27.234301772424377],[87.84848255676917,27.234216316739385],[87.8482255251664,27.234202067628544],[87.84788145922433,27.23411392308515],[87.84745305078006,27.234064603553552],[87.84694048885692,27.234076740766604],[87.84677036416348,27.234118380682336],[87.84617827839291,27.23437928006625],[87.84550097271898,27.234640681291275],[87.84499216472992,27.23480411361155],[87.8443937585104,27.234816689655847],[87.84404875362124,27.234690096614393],[87.8433622497323,27.234570198681947],[87.84310521789918,27.234555886023156],[87.84267862378742,27.23458327636186],[87.84191353499877,27.234752651942387],[87.8410913064654,27.23522936917637],[87.84016160046778,27.23566832660955],[87.83974057632508,27.235925971176933],[87.83906170698424,27.23614898677586],[87.8386164220394,27.236291598760747],[87.83756492735151,27.23700213757383],[87.8375262915234,27.237155870484738],[87.83734097958707,27.23744589652989],[87.83683943149761,27.237913792162004],[87.83659134782421,27.238262961654485],[87.83606948001577,27.23878968687416],[87.83584190380678,27.239082277196545],[87.83555568607412,27.239641445437048],[87.83541676940922,27.24006438499211],[87.83531667586436,27.24035390898682],[87.83501038943307,27.24093358336599],[87.83478318873085,27.2412825020707],[87.83378178053559,27.242277123808282],[87.8329292399245,27.24326861698879],[87.83274392842819,27.243558642049937],[87.83271198897701,27.244019277783547],[87.83280890955939,27.244474534348093],[87.83284464263727,27.24596634553046],[87.83283033099302,27.246253117930593],[87.83279463705924,27.246539952011613],[87.8325933245301,27.247060295518274],[87.8323463058712,27.247465856194506],[87.83180349283536,27.247992707848873],[87.83149101149044,27.248342190451606],[87.83112032490136,27.24892224173142],[87.8307973496772,27.249729921545075],[87.8307203913541,27.250075712013935],[87.83066681885272,27.250516216481177],[87.83043386062204,27.250596556618643],[87.83020202866608,27.250753731641844],[87.82988860827382,27.251064765887193],[87.82961451140258,27.251224442151482],[87.82932153454388,27.251476709221876],[87.82894083557767,27.25163694969498],[87.82809409510392,27.251996382627983],[87.82786326468437,27.25219188188499],[87.82771540003031,27.252271719745973],[87.82660618215368,27.252368580145845],[87.82566245880949,27.252234307784764],[87.82309951954547,27.252305810913665],[87.82156633734067,27.25254734583352],[87.82071139959675,27.25254561069232],[87.81985921365086,27.25265897105235],[87.81917565167214,27.252692304865324],[87.8185143471126,27.252743582077937],[87.81841938530616,27.253224912029804],[87.81803226063673,27.253996894691614],[87.81799299940805,27.25415287876611],[87.81801995170042,27.254380632383008],[87.8179616857405,27.25461120086401],[87.81785865180451,27.25476756063831],[87.81741780985114,27.25510197875295],[87.81682722440055,27.255419144433905],[87.81649141971442,27.255694231639687],[87.81630498146943,27.255927803293282],[87.81616875588567,27.25646808815228],[87.81627212285858,27.257212304531915],[87.81632246115836,27.257537086073246],[87.816314458524,27.257566470486736],[87.81615554798796,27.25862146923096],[87.81574415965487,27.259185892175765],[87.81469804884814,27.260248346268742],[87.81339975837268,27.26301411644978],[87.81271389502473,27.26360273853797],[87.8116680158264,27.26384582775593],[87.81054960778437,27.263922307714054],[87.8101930412862,27.26403272126215],[87.81030608517665,27.26412462062354],[87.81028677003327,27.264334620093443],[87.8105131310895,27.265590547175453],[87.81114722151014,27.26768146078665],[87.81148273871821,27.26856208756675],[87.81356224976909,27.268486717099087],[87.81495182748617,27.26869750412504],[87.81780846284832,27.26986129564702],[87.81880007946903,27.26997281080947],[87.8205313334579,27.269662502162117],[87.82130674420793,27.26973469728496],[87.82201576004084,27.269976504972508],[87.82220977254259,27.270167245540836],[87.8222123433895,27.270512533509596],[87.82181147472473,27.27181279701022],[87.82197687945276,27.273256341653568],[87.82172006094203,27.27441124675076],[87.82131511620241,27.275153971637387],[87.82089284599422,27.275616927271418],[87.81912823394515,27.27722761753167],[87.81875699152636,27.278107818688362],[87.81778566511034,27.279479049651048],[87.81676043589792,27.280482737172008],[87.81564707693167,27.282744105998468],[87.8146743410425,27.28539289902351],[87.81700833488225,27.285943457194545],[87.8192206630685,27.286700202101688],[87.81962474993519,27.286765589866096],[87.8204117986373,27.28719882745433],[87.82078856672285,27.287420073534168],[87.82124274800938,27.28810807950513],[87.8219697122196,27.288534879476487],[87.82286041854549,27.28872823244298],[87.82455484283798,27.28827131949057],[87.8252672292069,27.288264867691122],[87.82580717869968,27.288329376645684],[87.8260617121308,27.288427150741647]]]}},{"type":"Feature","properties":{"province":"Koshi Province","district":"Pachthar","municipality":"Yangwarak Rural Municipality","ward":"6","wardNumber":6,"sourceMunicipality":"Yangwarak","sourceType":"Gaunpalika"},"geometry":{"type":"Polygon","coordinates":[[[87.8185143471126,27.252743582077937],[87.81795876936113,27.252755907536812],[87.81702224089442,27.252908093098913],[87.81616911801359,27.25298306813953],[87.8157435258773,27.25306678687637],[87.81523183920787,27.253117186211956],[87.8146358098547,27.253204158910474],[87.81389028882926,27.253316893191478],[87.81338035402663,27.253441750586965],[87.81253273815882,27.253744604469762],[87.81227745774619,27.253807064369134],[87.81185080220985,27.253836706147613],[87.8115074244267,27.25376637837334],[87.81099310951596,27.25371974914572],[87.81082204683614,27.25372300300943],[87.81056739270491,27.253785400373175],[87.81014380324389,27.25396614832257],[87.80988914921112,27.25402860853446],[87.80963280555736,27.254034614835454],[87.80929324540759,27.254135900685593],[87.80861844397164,27.25451446079768],[87.80830139310267,27.254674325676106],[87.80677058860458,27.254992383042154],[87.80634775028855,27.25519126087245],[87.80600800257486,27.255274478752],[87.80507078753644,27.255428852455484],[87.80455816196846,27.255438551621243],[87.8037838735948,27.25524438385293],[87.8034610649952,27.255135669545144],[87.80252028229604,27.25513431064822],[87.8019243160792,27.255241540519226],[87.8012422552327,27.255313198287016],[87.80081315919999,27.255263753950064],[87.80029965807081,27.255237379581605],[87.79989457213756,27.255282587667132],[87.79963735203913,27.255250207717015],[87.7991597954446,27.254952691389693],[87.79872769579123,27.25475207725887],[87.79820705991287,27.254436744087904],[87.79777589798086,27.254272203644124],[87.79734573798454,27.2541663050511],[87.79623113977016,27.25405535461452],[87.79589051558412,27.254100186194975],[87.79563523515792,27.25416258383569],[87.79504458819753,27.254481937192455],[87.79481319448287,27.25462091954218],[87.79405523932482,27.25511276452359],[87.79346384124511,27.25541179956292],[87.79303975119319,27.255536155639348],[87.79193040877284,27.25563501626047],[87.79081925138458,27.255657105182927],[87.7903081272933,27.25570512773775],[87.78835598394144,27.256183427198664],[87.78774420347754,27.25646451970571],[87.78732862247921,27.256893464994878],[87.78693473823138,27.257360608344793],[87.78653634790511,27.257638259876547],[87.7861990405595,27.25779818724615],[87.78602947853112,27.257839827644048],[87.78517460139636,27.25776106912602],[87.78449210148796,27.257773897379643],[87.7838938175718,27.25772764411266],[87.78329309465758,27.25760686900689],[87.78209571555476,27.25749623242313],[87.78175377657277,27.25744622370651],[87.78140770838964,27.257260800559028],[87.78114942361017,27.25716971516302],[87.78046260575492,27.257011056189306],[87.7799495419275,27.256964238742377],[87.77884251287425,27.257042655475978],[87.7785009496405,27.25705135193192],[87.77765057758762,27.257162211793347],[87.77713920289354,27.257174036620803],[87.7764531356271,27.257033444497765],[87.7760414789918,27.256773875237446],[87.77586935234947,27.256718487207724],[87.77492869245711,27.25664241847737],[87.77433203633885,27.256654807548003],[87.77390613163274,27.25669995344577],[87.77322876275171,27.25690696260128],[87.77254175641805,27.25672785988915],[87.77202781656331,27.256642656513915],[87.77177403754814,27.256743377389387],[87.77118539163367,27.257080736685836],[87.77042630849522,27.25743929250051],[87.77017165370023,27.257501627225288],[87.76983253102594,27.2575870337595],[87.76943138715492,27.257747275031075],[87.76968186313997,27.258170207099443],[87.76991689939754,27.25873768171697],[87.77042610257575,27.25950689821624],[87.7711168876446,27.260967939269797],[87.77197951011344,27.263520484648655],[87.77240980373672,27.264014746722882],[87.77319568417917,27.265425521068067],[87.7743296358079,27.267030847213306],[87.77575207829155,27.269160446043617],[87.77602038327247,27.270048264207233],[87.7764660667626,27.270932828016782],[87.77724899961854,27.271910350555856],[87.7790314911663,27.275920369152605],[87.77936763995827,27.277117026723584],[87.77960312120811,27.280891940449447],[87.7796168800528,27.28105436330731],[87.78193484618242,27.28062150866875],[87.78272575948091,27.280556163175955],[87.78346265892505,27.280716760019683],[87.78561134016113,27.281526209949675],[87.78565498174062,27.28154183897045],[87.78649691682428,27.28163635165071],[87.79045458127135,27.282735792724804],[87.79102616567634,27.282730281097166],[87.79205092177213,27.282952453086274],[87.79286115614323,27.282947875799746],[87.79394287114314,27.28318317549826],[87.7943553491328,27.283808351934816],[87.79496719621505,27.28370324765219],[87.7963861576545,27.283835137108593],[87.79688984517904,27.28398123290133],[87.79771215810814,27.2845069358079],[87.79888309341261,27.284762051994328],[87.79950932054928,27.2846320656675],[87.79995085441507,27.284467009531415],[87.80052543342687,27.28417704016471],[87.80137198219009,27.28359435425249],[87.80162732415006,27.28353645834973],[87.80265245417189,27.28372018140796],[87.80486540628488,27.28440934494028],[87.8061143581452,27.284088416840827],[87.80829766094922,27.28416602567918],[87.80991712300641,27.283829399611676],[87.81035097562122,27.28408415393191],[87.81119330101001,27.284828607293456],[87.81214590854336,27.285202262133442],[87.8146743410425,27.28539289902351],[87.81564707693167,27.282744105998468],[87.81676043589792,27.280482737172008],[87.81778566511034,27.279479049651048],[87.81875699152636,27.278107818688362],[87.81912823394515,27.27722761753167],[87.82089284599422,27.275616927271418],[87.82131511620241,27.275153971637387],[87.82172006094203,27.27441124675076],[87.82197687945276,27.273256341653568],[87.82181147472473,27.27181279701022],[87.8222123433895,27.270512533509596],[87.82220977254259,27.270167245540836],[87.82201576004084,27.269976504972508],[87.82130674420793,27.26973469728496],[87.8205313334579,27.269662502162117],[87.81880007946903,27.26997281080947],[87.81780846284832,27.26986129564702],[87.81495182748617,27.26869750412504],[87.81356224976909,27.268486717099087],[87.81148273871821,27.26856208756675],[87.81114722151014,27.26768146078665],[87.8105131310895,27.265590547175453],[87.81028677003327,27.264334620093443],[87.81030608517665,27.26412462062354],[87.8101930412862,27.26403272126215],[87.81054960778437,27.263922307714054],[87.8116680158264,27.26384582775593],[87.81271389502473,27.26360273853797],[87.81339975837268,27.26301411644978],[87.81469804884814,27.260248346268742],[87.81574415965487,27.259185892175765],[87.81615554798796,27.25862146923096],[87.816314458524,27.257566470486736],[87.81632246115836,27.257537086073246],[87.81627212285858,27.257212304531915],[87.81616875588567,27.25646808815228],[87.81630498146943,27.255927803293282],[87.81649141971442,27.255694231639687],[87.81682722440055,27.255419144433905],[87.81741780985114,27.25510197875295],[87.81785865180451,27.25476756063831],[87.8179616857405,27.25461120086401],[87.81801995170042,27.254380632383008],[87.81799299940805,27.25415287876611],[87.81803226063673,27.253996894691614],[87.81841938530616,27.253224912029804],[87.8185143471126,27.252743582077937]]]}}]}