{"type":"FeatureCollection","features":[{"type":"Feature","properties":{"province":"Koshi Province","district":"Terhathum","municipality":"Phedap Rural Municipality","ward":"5","wardNumber":5,"sourceMunicipality":"Phedap","sourceType":"Gaunpalika"},"geometry":{"type":"Polygon","coordinates":[[[87.60525359234049,27.231043909009006],[87.60585836146414,27.23034156862258],[87.60598840531266,27.23011299912946],[87.60629687520023,27.229253930551664],[87.60658127862484,27.22862292812612],[87.60671144763715,27.228414739792054],[87.60701336382006,27.228092890589277],[87.60727126809279,27.227922524329205],[87.60772005420881,27.227791853199857],[87.60784841245727,27.22771682947156],[87.60842924178186,27.227262811907778],[87.60875035567416,27.227114700483494],[87.60991076586089,27.226321886550583],[87.61042544784239,27.22601941391266],[87.61100665061292,27.225529323523116],[87.61113675672087,27.225300754090355],[87.61170837130243,27.22375204162703],[87.61170968256609,27.223639195632774],[87.61150321917225,27.223060029358837],[87.61150577855761,27.22282977463702],[87.61161624943817,27.22248617182795],[87.61198250197374,27.222164071774866],[87.61217650718163,27.22197582571399],[87.61249886898767,27.221710304696426],[87.61286493377528,27.221349817974083],[87.61314372036773,27.221199707142596],[87.61370310393261,27.220766070852658],[87.61378882245032,27.220727307872234],[87.6140469743094,27.220500424735278],[87.61445730292877,27.22004490952354],[87.61460879211634,27.21981627746456],[87.614673813133,27.219703118777513],[87.6146750611714,27.219588022623732],[87.61455132072068,27.219240985056818],[87.61444684223855,27.21906762317641],[87.61417310964333,27.218757349766612],[87.61370886880792,27.21836886846355],[87.61349897363394,27.21807859942287],[87.61343775928165,27.21784865785269],[87.61346207497957,27.217561886074844],[87.61357179733574,27.217313124329397],[87.61370109187006,27.217179332958747],[87.61438870817759,27.21665041653545],[87.61451843951968,27.216480614551283],[87.61460715378733,27.216193466308628],[87.61458889263754,27.21596333690356],[87.61452661606786,27.215789786912058],[87.6142536351362,27.215499831459542],[87.61391775210375,27.21503632582097],[87.61383434315066,27.214901225760332],[87.61394494015073,27.214577941241377],[87.61416076406094,27.214349058214218],[87.61482362830517,27.21412716975747],[87.61495292337648,27.214013759605727],[87.6152348302712,27.21361526324728],[87.61562365083252,27.213159810903743],[87.61598765674455,27.213009260753694],[87.61613802220229,27.212916043233168],[87.61641780844286,27.212707164475308],[87.61656892269522,27.212537175278225],[87.61674410354348,27.21213686711717],[87.61678948984901,27.211906423598613],[87.61679329688847,27.211563323429107],[87.61671151088277,27.211274740668102],[87.61652406046919,27.210928016919663],[87.61646284571896,27.21069801268467],[87.61644395898688,27.21048595143732],[87.61663808982802,27.210315772811835],[87.61683072105495,27.210222367501657],[87.61708725131395,27.210167097007695],[87.61723699228297,27.210091947298334],[87.61745418909929,27.2097500938022],[87.61752395670901,27.209348036961515],[87.61781017139306,27.208604126713375],[87.61837380116415,27.207922230534948],[87.61966856447242,27.206729172086835],[87.61986369298315,27.206500352127566],[87.62003756332928,27.206215140496308],[87.62008263918756,27.206043401951742],[87.62008488612115,27.20587185179125],[87.6200246084066,27.20558320519524],[87.61990049421901,27.205294810656113],[87.6197960780127,27.20512157418592],[87.61965045551185,27.204812860512895],[87.61919682597784,27.203602764014214],[87.61913654845276,27.2033141176215],[87.61903993341355,27.20250875825741],[87.61896008375217,27.202105078934885],[87.61898589870972,27.2017618524762],[87.61892468413458,27.20152959810232],[87.61892874220366,27.201242951598527],[87.61899788356065,27.200840833135157],[87.61900131626005,27.200554186570102],[87.61889808503001,27.200265728256397],[87.61877309741998,27.200033725284342],[87.61867055332529,27.19974533010769],[87.61861027559866,27.19945887196423],[87.61859881691962,27.198653135469634],[87.61871653004275,27.197792631570923],[87.61882943661696,27.19733387094277],[87.61877171793222,27.196817219840824],[87.61877889702716,27.196300318868364],[87.61889561045204,27.19549620613221],[87.6191155555236,27.194980613395888],[87.61957046002635,27.194393996673767],[87.62015004182354,27.194093461882563],[87.62055774940353,27.193886206760013],[87.62066584936795,27.193790926941954],[87.62111657276475,27.19358579684362],[87.62133164843111,27.193435874366898],[87.62165594775203,27.193093581297095],[87.62174453718201,27.192806496063714],[87.62181367907432,27.192406690279117],[87.62178015232948,27.19171617599162],[87.62165953354203,27.19114107169815],[87.62162201143057,27.19073720369994],[87.62168978092163,27.190450243396327],[87.62175623868336,27.190260311938307],[87.62193491514165,27.18959136342186],[87.62193897381516,27.18930465398505],[87.62205031814888,27.188902409522708],[87.62205225421009,27.188789563945225],[87.62227469570566,27.1880437165334],[87.6224935784857,27.18758676682371],[87.62256228386502,27.187243351904787],[87.62252569871117,27.18678303061435],[87.62229747985528,27.1862626313703],[87.62204756569723,27.185801000790274],[87.62196577931871,27.18551247963704],[87.62201185454062,27.1852820365694],[87.62220810653398,27.184940308424064],[87.6224283007525,27.184368262419618],[87.62251757780523,27.18408117646709],[87.622503933998,27.18344924173767],[87.62246291673091,27.183334270983973],[87.62250930264523,27.18304743649118],[87.62285542118455,27.18264862588422],[87.62298696358782,27.182363603274307],[87.62324755221283,27.1820216230859],[87.623313448189,27.18184975924963],[87.6232746152851,27.181561050469103],[87.6229634244996,27.180869415008747],[87.62305394943222,27.180467233881842],[87.62322657137808,27.180297181145995],[87.62327071062735,27.180181896746383],[87.62331928095209,27.179723448643525],[87.6232598769815,27.17937834867427],[87.62298758148997,27.1789732970913],[87.62271709629783,27.178453086476495],[87.62257172532851,27.178182822002785],[87.62212231197827,27.178272855651535],[87.62169640606352,27.178270237748823],[87.62152496884109,27.178304875222327],[87.62103204306594,27.178510256183543],[87.62062252482089,27.178850674768665],[87.62017099015263,27.17913476554038],[87.61978472791277,27.179339645078965],[87.61935601233128,27.179526644312517],[87.6189281697632,27.179636871366124],[87.6177317355726,27.17985439228126],[87.61706568761336,27.18025008181858],[87.6167640187504,27.18047490223873],[87.6165682663179,27.180780495490474],[87.61626172876466,27.18138899125488],[87.61615025855357,27.181771041955475],[87.61605942170692,27.182229615647476],[87.61618203701201,27.182615039060128],[87.61617635731415,27.183073298630738],[87.61613178175203,27.183226969598532],[87.6159358402081,27.18351224377334],[87.61541797364025,27.184004334144085],[87.61516056968196,27.184136376645814],[87.61413269987537,27.184488496738478],[87.6128471755824,27.184934336314704],[87.61250361539447,27.18512095943973],[87.61198974360663,27.18530827205172],[87.61080863622747,27.185927411146928],[87.61065833272936,27.186020628250418],[87.60871665686805,27.18776267025324],[87.60835077781195,27.18802606652753],[87.60777082217199,27.188364924767527],[87.60699935831694,27.188661712116122],[87.60563092472417,27.18895432009537],[87.60541772198665,27.188971078713315],[87.60482069088461,27.188964649473586],[87.60448018986058,27.1889028867859],[87.60371228326072,27.188913027769],[87.60260131734584,27.18909378655366],[87.60217422365218,27.189127302995004],[87.60174688200104,27.18921721127579],[87.60151036060117,27.189367196800145],[87.6014246414485,27.189385578562035],[87.60065629845647,27.189436293883684],[87.59980585801887,27.189252628805377],[87.59946492000415,27.18923150331302],[87.59844366764133,27.189066534392623],[87.59682350989131,27.189028424839318],[87.5963978524512,27.188967038525064],[87.59614238478287,27.18898392303898],[87.59469341621056,27.18898557177023],[87.59367104119222,27.188974148410672],[87.59298991528429,27.188929646439743],[87.59213959985158,27.188766236818665],[87.59188388061321,27.18874473523979],[87.59111841080664,27.188621524470026],[87.59084230781535,27.188559510359834],[87.59050249412074,27.18850006086094],[87.59028960328,27.188458051875404],[87.59016255582526,27.188417980190795],[87.58922695862385,27.188236817298304],[87.58854589603678,27.188210320978317],[87.58786296033617,27.188317050643874],[87.58735077326999,27.188348567981034],[87.58701052351505,27.188327442709635],[87.58675449270622,27.18836233226694],[87.58641411723166,27.188320888509804],[87.58581889594095,27.18817891840921],[87.58548001922247,27.188060701953987],[87.58505442504399,27.188017383900778],[87.58479964146726,27.1879191095392],[87.58437504668329,27.187819336689117],[87.58420467183969,27.18781552607348],[87.58386254871725,27.187927564875938],[87.58343514337078,27.1880173481202],[87.58275308187672,27.188029237460672],[87.5824127060328,27.187987793680357],[87.58243009327923,27.188294695523155],[87.58238551786376,27.188466434623955],[87.5820539776468,27.18938202049193],[87.58196426425575,27.189725497624565],[87.58173607969714,27.190873087663018],[87.58154070139415,27.1911582989317],[87.58106472325906,27.191611752074827],[87.58041337663028,27.192465451108685],[87.5797589715292,27.19355159250862],[87.57949563627184,27.19412151380598],[87.57946932266636,27.1945234445454],[87.57957336538777,27.194755510881876],[87.57969435936522,27.195330552501577],[87.57981797438332,27.19567765175263],[87.57981572721037,27.19584920223598],[87.57977215078776,27.195964549470116],[87.57953319422289,27.196249949177837],[87.57952832517928,27.196651754298383],[87.57958916623312,27.196938150162342],[87.5795414063765,27.19734014335072],[87.57943243250033,27.197512133208345],[87.57921592091651,27.197738765382905],[87.5789572663563,27.197888750909037],[87.57827201851202,27.19803611833202],[87.57807863643289,27.19810914302715],[87.57788494282072,27.198240871827572],[87.57773264122262,27.19845143632222],[87.57757909123646,27.198774845638788],[87.57749193751174,27.198888067890465],[87.57738040399532,27.199288062215917],[87.5773348925494,27.199518505410893],[87.57708395079611,27.20077912853379],[87.5770367548432,27.201180997045288],[87.57672722012934,27.201981362268757],[87.57640042285321,27.202495017441848],[87.57635622168476,27.20261042774813],[87.5763308446491,27.20295359038628],[87.57639299608789,27.20312714035873],[87.57679077996974,27.203764321241643],[87.5772249637749,27.204976919483215],[87.5773459572568,27.205551960920197],[87.57742050219102,27.206413899306124],[87.57758276417144,27.2071626789254],[87.57779128711536,27.20756810694736],[87.57800105668828,27.20785837550577],[87.57825346956457,27.20820497307059],[87.57835838603656,27.208360266757058],[87.57858966459389,27.208650472821226],[87.57863074430331,27.20878344887398],[87.57862912231403,27.20895731286321],[87.57860680307111,27.209034147906667],[87.57830444667854,27.209258843781495],[87.5780257837418,27.20933224469239],[87.57783390108746,27.209330809565323],[87.57751409484788,27.20925085400595],[87.57706530505094,27.209245922735402],[87.57667891531666,27.20935589898015],[87.5764203864152,27.209526265674548],[87.57607314359036,27.209999472470614],[87.5760064975869,27.210171273299277],[87.5760042503288,27.210345074148588],[87.57591328725934,27.210688551482168],[87.57593111164762,27.210957067330373],[87.57590592041961,27.211225834143807],[87.57589717981926,27.211857894789144],[87.57576295127876,27.212257951208308],[87.57560915122444,27.212542974732433],[87.57521664211515,27.213057006682238],[87.57510610695505,27.21328545085473],[87.57471328699727,27.21385581232041],[87.57460275111873,27.214084380685787],[87.57453479379497,27.214371278801597],[87.5745930734888,27.214775083549462],[87.57471756263513,27.215063478402207],[87.57480153392818,27.21518051082738],[87.57496485502128,27.215755427174873],[87.57498111860784,27.216100653080904],[87.57508104023243,27.21661942845705],[87.57511487970743,27.217310005288745],[87.57508500814966,27.2180008325782],[87.57493020758841,27.21834456073806],[87.57475689774841,27.218514613528743],[87.57454113391674,27.218666724173886],[87.57430030469003,27.21908528832659],[87.57403559393696,27.219657460827946],[87.57392612035626,27.219849768703078],[87.5738167093545,27.220057831736842],[87.5736834178927,27.220401497189286],[87.57331166870618,27.221030562095986],[87.57296586053758,27.22129608299121],[87.572642682155,27.221426126492574],[87.571995202265,27.22182150302642],[87.57177887692437,27.221991681058896],[87.5721421993936,27.22207369964458],[87.57282451671725,27.222292064950047],[87.57316402006865,27.2225073727322],[87.57382345599147,27.22283877157681],[87.57425011489902,27.2229407937647],[87.57459105530921,27.223079328732464],[87.5750177767774,27.22319723172286],[87.57629968884687,27.223404083821787],[87.57706628826695,27.22369890766102],[87.57740822837853,27.223781051134157],[87.57800694922138,27.223843997387384],[87.5784336077645,27.223946020641108],[87.5786887661515,27.224082680756762],[87.57938753501146,27.224684720990425],[87.57970334715264,27.225089709673536],[87.57991255668158,27.225495137734665],[87.57996814226019,27.225621298237577],[87.58009969657341,27.225918696336123],[87.58024581903356,27.226209279113874],[87.58094096697377,27.2270798975896],[87.58114786694213,27.227656875572443],[87.58127023370095,27.228119071555458],[87.58135383023816,27.228292558737504],[87.58158660729411,27.228505991882],[87.58169289751507,27.228546189583394],[87.58264857220458,27.229131345533062],[87.58300608650639,27.22951807817973],[87.58325918452043,27.229751767514145],[87.5833439035015,27.22978977675174],[87.58385515633918,27.22989148647602],[87.58445143827304,27.229956682619996],[87.58470765671784,27.2299398611671],[87.58521928308284,27.229982803392325],[87.58606960008798,27.230223046641246],[87.58624072538575,27.230224544828822],[87.58701119175336,27.230040728103514],[87.5874382844617,27.229987017694366],[87.58803587857406,27.229955185977264],[87.58888956629752,27.229965112515025],[87.58965865923166,27.22987832424079],[87.5906822230706,27.229925947071784],[87.59136391317301,27.230029153332044],[87.59221566578809,27.230172243595245],[87.59297989037121,27.23046919342377],[87.59340536085782,27.230589283727852],[87.59363851187254,27.23072594478938],[87.59397757719616,27.2308644796792],[87.59465845506423,27.23104439691955],[87.59508467486204,27.23106739594387],[87.59542530053514,27.231129158501965],[87.59568064571114,27.23118898472923],[87.5972165838852,27.231184707947452],[87.59772821054386,27.23122990049739],[87.59968849263856,27.231250811301962],[87.60020161524601,27.231104198229072],[87.60062995621573,27.23093526667346],[87.60088598675983,27.230879996219173],[87.60122692374635,27.230885304713816],[87.60148226947835,27.230945130023716],[87.6019067405144,27.231103544147494],[87.60267296082114,27.231188306738357],[87.60318471061541,27.231156726162144],[87.60403920745927,27.23097247105607],[87.60497736387525,27.23096382771055],[87.60514730180759,27.23100377428154],[87.60525359234049,27.231043909009006]]]}},{"type":"Feature","properties":{"province":"Koshi Province","district":"Terhathum","municipality":"Phedap Rural Municipality","ward":"3","wardNumber":3,"sourceMunicipality":"Phedap","sourceType":"Gaunpalika"},"geometry":{"type":"Polygon","coordinates":[[[87.58303782436901,27.185639907803665],[87.58327684179035,27.185257479019363],[87.58345564288295,27.18457052545157],[87.583441938896,27.183997232755523],[87.5832347272808,27.183476707846246],[87.58315500237359,27.183072965925668],[87.5831374267783,27.18272767763766],[87.58303656780087,27.182267607468283],[87.58295815336007,27.18174883186567],[87.58327018170603,27.18060311561794],[87.58344542456116,27.180202808309936],[87.58355390001542,27.18007145473066],[87.5836634342294,27.1797843695139],[87.58369461660618,27.1789806331713],[87.58379044631153,27.178120191927672],[87.58379394181897,27.17783354574328],[87.58381981889413,27.1774700012521],[87.58386614253322,27.177162847497396],[87.58395585563116,27.176819433050486],[87.58400879509831,27.175956867293],[87.58407799935378,27.175557060982587],[87.58406392107335,27.175037971717504],[87.5840060154879,27.17457996325184],[87.58403420266,27.174062999074472],[87.58410147170075,27.173776038885407],[87.58418987456075,27.173547657837705],[87.58429878556841,27.17337560638383],[87.58434392353165,27.173203930251283],[87.584349417708,27.172802187026257],[87.58431071037998,27.17251560386216],[87.58434020788772,27.17188348089806],[87.58453970681609,27.171311559946904],[87.58471357717679,27.171026410638014],[87.58484412228132,27.170876864406072],[87.5851889292063,27.170572957679976],[87.58549203381662,27.170251170453778],[87.58600721737365,27.169969142089077],[87.5865876721777,27.16959421041317],[87.58716675453536,27.169332186600823],[87.58742559516345,27.169125746550524],[87.58764372896776,27.168725250691935],[87.58771068619772,27.168496995487818],[87.58779777871229,27.168383773261993],[87.58805555719603,27.168213406724828],[87.5883125241024,27.168119750117917],[87.58865751999467,27.167856479807707],[87.58887434337372,27.167571142798195],[87.5890952879062,27.16699915923646],[87.58924833791815,27.16671407283189],[87.5894642255695,27.166487440812237],[87.58983378822043,27.165975784073925],[87.59007779987257,27.165232125281552],[87.59105044777178,27.16422806530692],[87.59117936871465,27.164152977999333],[87.59143583687256,27.164097770015267],[87.59194671262861,27.16418134901763],[87.59220268076791,27.16414414674009],[87.5927165531291,27.163959146190575],[87.59329432367673,27.163812218546852],[87.59361593864489,27.16366410754255],[87.59393861568982,27.163475422013008],[87.59419683085225,27.163266669387856],[87.59451944583199,27.16308017130462],[87.59484056070545,27.16296819613689],[87.5950556364415,27.16281833626524],[87.59525064080516,27.16258951621637],[87.59533804438735,27.162419839992896],[87.59564189761166,27.162021280615853],[87.59575112102347,27.161792836920167],[87.59596856975321,27.161507499172043],[87.59609954985702,27.161240543916083],[87.59629455324612,27.161014036966606],[87.59644710407197,27.160747019106786],[87.5963489923322,27.160095079607903],[87.5961635396621,27.15963538523404],[87.59563808572955,27.15905528601346],[87.59534496919221,27.158629917005673],[87.59458499176999,27.158086895380137],[87.59441867469765,27.157778370036773],[87.5945096365452,27.157319796811834],[87.59444804764321,27.157128178999518],[87.59434375557132,27.156972885191962],[87.59423896501443,27.156837846712225],[87.59402794607828,27.156664987258175],[87.59368863254062,27.156564838381172],[87.5932616015756,27.156577912267284],[87.59266619411866,27.15649470993878],[87.59232488128826,27.156491651925737],[87.59181419242532,27.15642832946867],[87.59162330947784,27.15637044070991],[87.59147519032213,27.15627178876378],[87.59116081770702,27.155884868302554],[87.59074683308761,27.154904712589495],[87.59054224467927,27.154271280880195],[87.59050253833682,27.154041213602866],[87.59018997530214,27.15350306166724],[87.58987553977573,27.15309582229651],[87.58953666198003,27.152959537981104],[87.58919847064435,27.15270584370914],[87.58886352602252,27.152244589444123],[87.58873866347726,27.152012648046565],[87.58865768968111,27.151724065106364],[87.58851231810479,27.151435732890654],[87.58832761346426,27.15085869214442],[87.58832948691624,27.150745783639437],[87.58857349897757,27.150002124563212],[87.5886199474995,27.1497152900528],[87.58862413121513,27.14942858037889],[87.58845906086458,27.148986891468002],[87.58833201315137,27.148926438515076],[87.58788915605854,27.148578468385047],[87.58693779557264,27.147972994312855],[87.58653682953393,27.147663159716718],[87.58628304613718,27.14750624317003],[87.58560572909347,27.14717503200924],[87.58520420101722,27.146883265885617],[87.5852722197723,27.146616624138026],[87.58533724178601,27.146501276935496],[87.58542751785583,27.146157737391935],[87.58534910333196,27.145641149386083],[87.5852870144962,27.14546759965861],[87.58529126036694,27.145180952723766],[87.58535771874459,27.14499108405645],[87.58561599699178,27.14480264958429],[87.5858080658714,27.14474537899654],[87.58599988621901,27.144749064678688],[87.58721995078157,27.144398629249874],[87.58754137727259,27.14423020011737],[87.58773607086707,27.14406008486331],[87.5878010295777,27.143944737495502],[87.58776456908382,27.143486666311688],[87.58766115134793,27.14325459949451],[87.58732726832474,27.142734578207932],[87.58713763251936,27.142541274188204],[87.58637459715885,27.14222619402083],[87.5859307399771,27.14191654822312],[87.5855518451655,27.141586333270553],[87.58536358239563,27.14129593872024],[87.58513211807994,27.14106443646774],[87.58481874400384,27.140602994333076],[87.58427739988231,27.139618839536602],[87.58415353605244,27.139330444647538],[87.58361094523141,27.138463637178532],[87.583382726658,27.138001880896585],[87.58292110823662,27.137423718414716],[87.5826506249016,27.136962087809692],[87.58191215242167,27.1362631446239],[87.58153281755754,27.135858470589092],[87.58102899401052,27.13516308754072],[87.58042412502776,27.134066275211087],[87.58007023041766,27.13333419159145],[87.57994705698374,27.13316989616276],[87.57976067282874,27.1329923465953],[87.57941578436562,27.13241136924812],[87.57931680603576,27.132181553539056],[87.57907152175805,27.131830455048984],[87.57876421409473,27.131441220534775],[87.57801880059043,27.130717520920516],[87.57747403292461,27.130399249039804],[87.57679146971658,27.130384006006103],[87.57610459548741,27.13050192632902],[87.5750802199797,27.130497129827155],[87.57379331511851,27.13069652139366],[87.57360099559406,27.130710903798565],[87.57308443425936,27.130852953453584],[87.57284491138276,27.130998375402086],[87.57246590820701,27.13150559265282],[87.57235230868862,27.131731785714916],[87.57225615534412,27.13205494470724],[87.5721446800282,27.132204364974957],[87.5717507295026,27.13251971346118],[87.57157666805642,27.132631062162115],[87.57106123081117,27.1327324750765],[87.57063151246707,27.132817757318627],[87.57002867034474,27.13297600019242],[87.56987649156493,27.13306915572584],[87.56966216360581,27.133088039386255],[87.5696635391416,27.13311742321303],[87.56946940894468,27.13325821698699],[87.56922982659007,27.13354124134054],[87.56890202967669,27.134075341516326],[87.56879043458223,27.134455016985555],[87.56868058633873,27.13468339762321],[87.56850540298252,27.134968546619422],[87.56822330641612,27.13531052669626],[87.5680933236544,27.13542393660245],[87.56783485715005,27.135573984778695],[87.56740532745148,27.135704342533675],[87.56723295326846,27.135797622744725],[87.56693209556082,27.135927478117647],[87.56663261176318,27.135962555666687],[87.56585889691863,27.1362410873478],[87.56491624274625,27.13644128715129],[87.56463664237359,27.136534943389744],[87.56433491071331,27.136723566161795],[87.5640745710141,27.13700677907916],[87.56398697966144,27.13715832463708],[87.56385062936549,27.13777063086213],[87.56384869390817,27.137903795479826],[87.56376072802047,27.13807572161525],[87.5635660345232,27.138245774699346],[87.5629637578328,27.138525866764333],[87.56227857036654,27.138614404198247],[87.56191337720996,27.138744510588545],[87.56174019256964,27.138932568525956],[87.56130329646814,27.139618276404672],[87.56112954902927,27.139806334514198],[87.56061355249716,27.140049913867866],[87.55921792490749,27.140493379603832],[87.55880759362947,27.14081560575217],[87.55854669201901,27.141116822505044],[87.55832730711955,27.141517255963787],[87.55813317635295,27.141669241137066],[87.55744505490314,27.141947396759722],[87.55731600882599,27.142004353062962],[87.55714463402965,27.142041179235708],[87.55684465069534,27.142094261673407],[87.55607043628623,27.14242912245311],[87.55594095271819,27.14252446544564],[87.55578965045326,27.142676324948045],[87.55557076606178,27.143056377319994],[87.55539239836692,27.143589786051795],[87.55538628031758,27.1440120353703],[87.55508695196752,27.145595441446304],[87.55506232392389,27.14584382660984],[87.55488489318644,27.146320844278634],[87.55486169988347,27.146474452853983],[87.55466557154743,27.146739345951097],[87.55453552573402,27.14685269343103],[87.55365308870316,27.14737761223096],[87.55345802172017,27.147606369375325],[87.55332635430604,27.147891268037814],[87.55317417735087,27.148117649178936],[87.55310715794329,27.148348155010037],[87.5529102180496,27.148707825925676],[87.55258516783654,27.149049932065353],[87.55243392836492,27.14921985861481],[87.55167629137014,27.149976718288535],[87.5514579688578,27.15035683290586],[87.55080393903621,27.151420280517065],[87.55054097816686,27.15195181497955],[87.55038555561214,27.152408389386203],[87.55035992742832,27.1527154793819],[87.55042008067188,27.153022193707095],[87.55041833306562,27.153175676036266],[87.55037463155938,27.153270704189975],[87.55026659384136,27.153363671373622],[87.55000843913491,27.1534752700949],[87.54955858902606,27.153585372812067],[87.54932212990474,27.153735295352536],[87.54914788329374,27.15396399012137],[87.54892687695899,27.15457204659117],[87.5486433449101,27.155029122599437],[87.54833974075275,27.155389295594798],[87.54812235451786,27.15569251337296],[87.54803476327355,27.155844121597855],[87.5479677437581,27.1560723765416],[87.54796506000908,27.156302632084365],[87.54806672976493,27.156685930162702],[87.5482539931127,27.157071165376404],[87.54850565587019,27.157438143086342],[87.54852204419517,27.15781956775867],[87.54845515015536,27.158068079193885],[87.5483466129005,27.158199369015044],[87.54823582847887,27.158504585600753],[87.5482968552868,27.158734588978586],[87.54856996289303,27.159101442361436],[87.54871820686967,27.159218286322123],[87.54890734337839,27.159450039065067],[87.54898981572603,27.159679917984505],[87.54890047656833,27.159985008321293],[87.54863751600385,27.160518731590034],[87.54816016519179,27.161087218531634],[87.5478766330332,27.161541981640486],[87.54755389397836,27.161730604319104],[87.54703920880578,27.1618951609042],[87.54680218803014,27.162065402053308],[87.54671459603483,27.162216947634377],[87.54669140278446,27.162370555670513],[87.54681439325772,27.162753728425308],[87.54689330823508,27.163290696992867],[87.54692945792465,27.16382779161324],[87.54696991291425,27.16398114865009],[87.54694522118434,27.164229534265488],[87.54724208407961,27.16440439296658],[87.54743271936157,27.164559434793816],[87.54753713586064,27.16475086417452],[87.54759722699352,27.1650395105206],[87.54759491701657,27.165211123726568],[87.54780418814782,27.165557909184425],[87.54846068793846,27.166006779785537],[87.54890211169344,27.16660319774762],[87.54940986745724,27.166953354801965],[87.54974999455405,27.167091951892665],[87.55051684148586,27.167271805413314],[87.55077137584027,27.167446852142668],[87.5509184962755,27.167602082698405],[87.55096007630591,27.167716928084648],[87.55093544710917,27.16796537620506],[87.55071893466956,27.16819419695736],[87.55052280634233,27.168477095407216],[87.5504339040707,27.168764118645228],[87.55045310272098,27.168935606479824],[87.55051556505454,27.16905276440598],[87.55070620014743,27.16920774399622],[87.55125740908656,27.16953733173476],[87.55146487036603,27.170019594561214],[87.55158704950995,27.17047960288495],[87.55167052106489,27.170653089394946],[87.55196407405873,27.17105820324658],[87.55227832459893,27.171578413961292],[87.55252823934131,27.17209656097298],[87.55265072981294,27.172500115394154],[87.55288194658122,27.172808451598257],[87.55300874462351,27.17292529680165],[87.55319619706256,27.173328599087075],[87.55370145619246,27.173909011273494],[87.55409755388222,27.174659099526146],[87.55441448829323,27.17494899174143],[87.55460337591656,27.175239448233505],[87.5548569110904,27.175473200258764],[87.55500315733435,27.175702827913426],[87.55559469855362,27.176264795798147],[87.55601773429524,27.176576879671444],[87.55618736162396,27.176675468639864],[87.55678339590854,27.17687401691174],[87.557061060465,27.176877451592553],[87.55748915372065,27.176805735949596],[87.55826186847733,27.176506948495298],[87.55860524169898,27.17639722310702],[87.55886183477719,27.17636014547554],[87.55929136425289,27.17619358971904],[87.55963380158283,27.176158323700363],[87.56014499126512,27.17629848111203],[87.56116400034404,27.176788733178988],[87.56167344276184,27.177082373820195],[87.56235382310547,27.17735950630253],[87.56252369850623,27.177399515366602],[87.56294929611148,27.177576122611473],[87.563375078802,27.17767595727309],[87.56392909658688,27.17779785945442],[87.56427066027416,27.177839365965944],[87.56452594315047,27.17791957257673],[87.56477991443963,27.1780946199562],[87.56530805532887,27.17858006614022],[87.56551957382918,27.178734920189072],[87.56603032772182,27.17891346467492],[87.56620082808695,27.178935343083143],[87.56645573593204,27.17905393633169],[87.56713330716278,27.17953875502698],[87.56840784874164,27.180129469161113],[87.56887396334588,27.18045937085051],[87.56919052352772,27.180789900288914],[87.56950833199625,27.18098495213043],[87.5698048199434,27.181216265298566],[87.5702079729095,27.18145164049539],[87.57080307166454,27.181706517978693],[87.57103609742546,27.181863560279243],[87.57126956008652,27.181979965418996],[87.57262994652234,27.18257030322778],[87.57305404415489,27.182825934166182],[87.5734134326918,27.18313589392623],[87.57392312361902,27.183352761720666],[87.57409287569823,27.183469480588784],[87.57477325562094,27.183744299842765],[87.57511381948453,27.183824130275827],[87.57553879201055,27.18400298814749],[87.57639123382032,27.18422291347587],[87.57715857999995,27.18434612447359],[87.57903670928475,27.184500889096864],[87.5798912728589,27.184531197250845],[87.58006189913863,27.18457114374366],[87.58040158973174,27.18472768379445],[87.58088908679323,27.185039454505926],[87.5811002308741,27.18523494616085],[87.58131056301634,27.185504959131283],[87.58156559744074,27.185641557778638],[87.58207766120054,27.185704880496495],[87.58303782436901,27.185639907803665]]]}},{"type":"Feature","properties":{"province":"Koshi Province","district":"Terhathum","municipality":"Phedap Rural Municipality","ward":"4","wardNumber":4,"sourceMunicipality":"Phedap","sourceType":"Gaunpalika"},"geometry":{"type":"Polygon","coordinates":[[[87.60525359234049,27.231043909009006],[87.60514730180759,27.23100377428154],[87.60497736387525,27.23096382771055],[87.60403920745927,27.23097247105607],[87.60318471061541,27.231156726162144],[87.60267296082114,27.231188306738357],[87.6019067405144,27.231103544147494],[87.60148226947835,27.230945130023716],[87.60122692374635,27.230885304713816],[87.60088598675983,27.230879996219173],[87.60062995621573,27.23093526667346],[87.60020161524601,27.231104198229072],[87.59968849263856,27.231250811301962],[87.59772821054386,27.23122990049739],[87.5972165838852,27.231184707947452],[87.59568064571114,27.23118898472923],[87.59542530053514,27.231129158501965],[87.59508467486204,27.23106739594387],[87.59465845506423,27.23104439691955],[87.59397757719616,27.2308644796792],[87.59363851187254,27.23072594478938],[87.59340536085782,27.230589283727852],[87.59297989037121,27.23046919342377],[87.59221566578809,27.230172243595245],[87.59136391317301,27.230029153332044],[87.5906822230706,27.229925947071784],[87.58965865923166,27.22987832424079],[87.58888956629752,27.229965112515025],[87.58803587857406,27.229955185977264],[87.5874382844617,27.229987017694366],[87.58701119175336,27.230040728103514],[87.58624072538575,27.230224544828822],[87.58606960008798,27.230223046641246],[87.58521928308284,27.229982803392325],[87.58470765671784,27.2299398611671],[87.58445143827304,27.229956682619996],[87.58385515633918,27.22989148647602],[87.5833439035015,27.22978977675174],[87.58325918452043,27.229751767514145],[87.58300608650639,27.22951807817973],[87.58264857220458,27.229131345533062],[87.58169289751507,27.228546189583394],[87.58158660729411,27.228505991882],[87.58135383023816,27.228292558737504],[87.58127023370095,27.228119071555458],[87.58114786694213,27.227656875572443],[87.58094096697377,27.2270798975896],[87.58024581903356,27.226209279113874],[87.58009969657341,27.225918696336123],[87.57996814226019,27.225621298237577],[87.57991255668158,27.225495137734665],[87.57970334715264,27.225089709673536],[87.57938753501146,27.224684720990425],[87.5786887661515,27.224082680756762],[87.5784336077645,27.223946020641108],[87.57800694922138,27.223843997387384],[87.57740822837853,27.223781051134157],[87.57706628826695,27.22369890766102],[87.57629968884687,27.223404083821787],[87.5750177767774,27.22319723172286],[87.57459105530921,27.223079328732464],[87.57425011489902,27.2229407937647],[87.57382345599147,27.22283877157681],[87.57316402006865,27.2225073727322],[87.57282451671725,27.222292064950047],[87.5721421993936,27.22207369964458],[87.57177887692437,27.221991681058896],[87.57112733938703,27.2227144041224],[87.57099598384985,27.222942910632145],[87.57047361890436,27.223628995332028],[87.57021115601155,27.224027303549825],[87.56997213609087,27.224312703724266],[87.56931548053873,27.22539884492143],[87.56913754999249,27.225914248503745],[87.56896193040919,27.226258039710345],[87.56859280344901,27.226656788085045],[87.56830951957235,27.22705747204326],[87.568199421267,27.227265598022303],[87.5678243634585,27.228124855362587],[87.56736546086873,27.2288693937393],[87.56729781524133,27.229097649371706],[87.56720217209664,27.229901574270198],[87.56711370694546,27.230132205398228],[87.5669159538945,27.2304738709783],[87.56661116250461,27.230874618651125],[87.56645698777737,27.231218284485806],[87.5662946982969,27.232194072917675],[87.56630471925058,27.23305632579695],[87.56628152614348,27.23320987124857],[87.56632110826793,27.23342193248237],[87.56633899551375,27.233710766534337],[87.56628561673313,27.234514565472757],[87.56619490464479,27.234916685317575],[87.56604066794947,27.235260413065827],[87.56597452139636,27.23541189575788],[87.56588649297656,27.2356041409298],[87.56540314718123,27.236518042167948],[87.56518095297956,27.23714866771367],[87.56504953495616,27.23737717469873],[87.5649386252283,27.237664323347143],[87.56489398653288,27.23783606195591],[87.56488849287673,27.238240118009568],[87.5649483347748,27.238585218105772],[87.56521669821221,27.239335745813335],[87.56538420300679,27.23962626537101],[87.56561479607457,27.24003163070952],[87.5657403466985,27.24026363396593],[87.56620097022285,27.241074364260733],[87.56647482738147,27.24142083637833],[87.56664370606453,27.241596197527823],[87.56680933719889,27.242019881082328],[87.56680802701862,27.24213497720738],[87.5666752975331,27.24247864330196],[87.5665666976457,27.2425919280518],[87.56624083526287,27.24295216341758],[87.5658510744375,27.243292332566686],[87.56543774596933,27.24382443285223],[87.56496232919683,27.244201113456075],[87.56478839424564,27.244391421611454],[87.56427064957232,27.244750159835363],[87.56375128029775,27.245183357981432],[87.56359872781937,27.24537360398142],[87.5635080779109,27.245793790755332],[87.56341861410374,27.24608081413058],[87.56332977454144,27.246367836890133],[87.56306693704651,27.246824849925382],[87.5629150104928,27.246994777924172],[87.56278352896318,27.247223284443113],[87.56249525190607,27.24802352307398],[87.56242692119196,27.248369126155076],[87.5624223646328,27.248714477145374],[87.56248120686745,27.2491160311731],[87.56247721281773,27.249461445356207],[87.56264122154772,27.25003861170032],[87.56269975282076,27.250498807875726],[87.56278235007467,27.25072874893013],[87.56277910372673,27.250959004391433],[87.56262324447869,27.251474282750827],[87.56247031842128,27.251702851700063],[87.56203136231386,27.252560110287156],[87.56195847434712,27.253248875392426],[87.5620387616161,27.253652555041516],[87.56276743747085,27.2552702671704],[87.56315972969489,27.256426662718926],[87.56347398185406,27.257003201449816],[87.563577088001,27.257291721768453],[87.56365843779544,27.257639009182345],[87.56365388110798,27.257984360598822],[87.56343474057778,27.25810715001317],[87.56825686902292,27.26038992840983],[87.56800460329295,27.261074883137397],[87.56751918843057,27.261731395358],[87.5657393817058,27.26341354234407],[87.56508985299776,27.264458984562555],[87.56473855852553,27.265543933454417],[87.56335165951599,27.26787213827326],[87.56034857068748,27.271595090273063],[87.56006636249487,27.272616519056673],[87.56019107076297,27.274424047158046],[87.55965158271925,27.27552093982691],[87.55793698965897,27.27730874178958],[87.55690059775642,27.279825183817454],[87.55620855512842,27.280997162993003],[87.55596910958079,27.281862608291274],[87.55602409080176,27.28300906831357],[87.5558996803087,27.283517406613235],[87.5548645055285,27.284397368598583],[87.55403264529022,27.28477536780549],[87.55320210306938,27.285401689819977],[87.55274331930943,27.285875210982702],[87.55237251673054,27.286881137249992],[87.55217823500082,27.288838901442958],[87.55223942326265,27.29085211543721],[87.55236942617196,27.291718367529054],[87.55261715622466,27.29238099507299],[87.55304513759616,27.29295484376811],[87.55413486888345,27.29387146929409],[87.55457515485215,27.293860708940183],[87.55496900512387,27.291667372283722],[87.55527191172307,27.290844564315925],[87.55593601678505,27.290144409965045],[87.55813179252966,27.288672943779854],[87.55855982149065,27.288501948641343],[87.5597078036574,27.288427345802262],[87.56036536096008,27.288573690381376],[87.56126468553914,27.288301471187427],[87.56400001878905,27.28601288082902],[87.56491026455387,27.284779004028167],[87.56638484728667,27.283741488936208],[87.56770487977131,27.28300256312398],[87.57154509671021,27.279707096735844],[87.57295608740117,27.278365056054053],[87.57612127070799,27.276361103966725],[87.58048665138975,27.274679415252916],[87.58174803574325,27.273870594468708],[87.58305847701592,27.271937506567397],[87.58375803312428,27.27130706039307],[87.58434397528958,27.27019860146672],[87.58455378355207,27.269260948013013],[87.58563453408985,27.268222563691204],[87.58676893604175,27.267540657969747],[87.58784180726798,27.26646176160596],[87.58925756016079,27.2656115513015],[87.59006671523372,27.26480905319532],[87.59000275381065,27.26478229612023],[87.59036431488686,27.264367668654618],[87.59097189861984,27.263669891725925],[87.59197592343422,27.262121671482475],[87.5926093960369,27.261676593753837],[87.59325310959913,27.26052943384438],[87.59314497925061,27.259198170464362],[87.59345475489347,27.25796893065443],[87.59370159084655,27.257712789247005],[87.59379355150068,27.257195511204404],[87.59379611047319,27.256965255715397],[87.59369481441374,27.25656163905106],[87.59368229582245,27.25587099961077],[87.59377325738625,27.255412426571503],[87.59388447857359,27.25506882409156],[87.59395493124191,27.25455167084406],[87.59404945008126,27.253804138173106],[87.59395140113156,27.253170266245995],[87.59395614442387,27.252766147914027],[87.59415614291886,27.252135584941364],[87.59422085290294,27.25207894254014],[87.59459322402385,27.251334655040296],[87.59483118137773,27.251087641656742],[87.59504494582902,27.25103255943402],[87.59562452833393,27.25079072922106],[87.5960130393854,27.250468628599936],[87.59631745493886,27.25001136457507],[87.59647062964875,27.249724027386208],[87.5967758554438,27.24919005404922],[87.5969959888672,27.248676711846315],[87.59734366803573,27.248160555286052],[87.59743207037849,27.247932237170254],[87.59769359434219,27.247475161429563],[87.59809433956833,27.24615520550703],[87.59838686109958,27.245007301603458],[87.5984318107628,27.244797239163503],[87.59856759762799,27.244205188405797],[87.59883211868244,27.243515607446707],[87.59935310823192,27.24283171067611],[87.5996985400312,27.242489416762822],[87.59993787090512,27.242147500113113],[87.60009098317971,27.241860226727944],[87.60031492328393,27.24099922048497],[87.60055774873064,27.240370719605558],[87.60075412669354,27.240026741059367],[87.60088679337555,27.239683075145397],[87.60119145713784,27.23916935743812],[87.60156120715182,27.238655388147933],[87.60216735288077,27.237971114703846],[87.60225513011454,27.237740483903035],[87.6022778858913,27.237625262145034],[87.60263436684859,27.236420653251322],[87.60285412347213,27.235848606777072],[87.60307038399885,27.235563269593392],[87.60328795600324,27.23516283646085],[87.60342211972663,27.23464762070187],[87.6036725570193,27.23321319571011],[87.60384904879864,27.23269779234228],[87.60410951049073,27.23229710780043],[87.60421879654184,27.23206866434838],[87.60447782203262,27.2317650705968],[87.6048432006541,27.23149942464094],[87.60508090706668,27.23121396242489],[87.60525359234049,27.231043909009006]]]}},{"type":"Feature","properties":{"province":"Koshi Province","district":"Terhathum","municipality":"Phedap Rural Municipality","ward":"1","wardNumber":1,"sourceMunicipality":"Phedap","sourceType":"Gaunpalika"},"geometry":{"type":"Polygon","coordinates":[[[87.62257172532851,27.178182822002785],[87.62284920122015,27.178147745215348],[87.62344741820864,27.1780390159976],[87.62395916807432,27.178045759110205],[87.62409202802526,27.1779887403342],[87.6241041565191,27.177902964453274],[87.62411109595435,27.177905090859213],[87.62426608763826,27.177750854958166],[87.624556613605,27.176896412753365],[87.62471722921539,27.176613514295394],[87.62501032857566,27.176221707648523],[87.62520113747375,27.175708491517852],[87.62561196177055,27.175031723774026],[87.62573024966046,27.174746763217755],[87.62581570760976,27.17423173578032],[87.62601865197941,27.17397128124571],[87.62628374398598,27.173751149596484],[87.62661148541827,27.173569090882392],[87.6268104929503,27.17340341433813],[87.62705688964503,27.173124578628805],[87.62792075254809,27.172348836543065],[87.62821228956044,27.17201342123434],[87.6284186088337,27.171673943228935],[87.62864356057237,27.17139529571981],[87.62878110634135,27.171168913937006],[87.62885256536532,27.170981233577105],[87.62896529184344,27.170831750450198],[87.62935843097635,27.170613304914955],[87.62958338241009,27.170334656196903],[87.6298871685625,27.169712531796915],[87.62989879194217,27.16942357174488],[87.62980656354219,27.16907634652874],[87.62981824913189,27.16878957545253],[87.6299342874998,27.168563444682672],[87.63017849716398,27.168341124747528],[87.63080915983579,27.168056093631435],[87.63118241596364,27.167799386868694],[87.63136510228942,27.16751861412785],[87.63140254549982,27.167118933960364],[87.631451559831,27.166965200689294],[87.63160886355082,27.166779456091025],[87.63180343402627,27.166708557400742],[87.63212386355325,27.16670036196281],[87.63250200511509,27.16684758686288],[87.63286426264831,27.16685952166712],[87.6330165044925,27.16678662249764],[87.63317268350401,27.166621134102137],[87.63327233833124,27.166279782419128],[87.63362557644409,27.165485918537954],[87.6339153635573,27.165188951705865],[87.63453226732034,27.164712114736687],[87.63466975070422,27.164485733705916],[87.63471707738937,27.164372636778744],[87.63472651434998,27.16414231917491],[87.63462227604109,27.163565027443727],[87.63463827376957,27.16316315945844],[87.63473567919854,27.162878324280236],[87.63496281750436,27.162540971749376],[87.63587444544048,27.161652008295917],[87.63611696773647,27.161468012643663],[87.63642757549013,27.161173171549034],[87.63655899717608,27.161100335427246],[87.63679645772733,27.161031560958765],[87.63694926220671,27.160940594845343],[87.63728081518813,27.160663695250495],[87.63770977374418,27.160101961086596],[87.63812053477525,27.159445449539657],[87.63875825976103,27.158988867522222],[87.6388935550074,27.1588189401677],[87.6392036633327,27.158542166433268],[87.6395395906953,27.158152359604816],[87.63963918296818,27.157811070748114],[87.63958428237241,27.15757881610003],[87.63928597466804,27.157051978958453],[87.63920956732288,27.15681984997989],[87.639198182921,27.156589656970322],[87.63924763520036,27.156417918629067],[87.63943688250563,27.15596559586221],[87.63955292073919,27.155739340184457],[87.6397849959328,27.155286828662124],[87.6401252982296,27.154779611885562],[87.64044040508473,27.15438767901363],[87.64061796696593,27.154222127162726],[87.64088793344222,27.1538868377154],[87.64102479182834,27.153660456638942],[87.6413135689982,27.1528645933227],[87.64156427684934,27.152470661108072],[87.64165955788246,27.152244530744003],[87.6417398909886,27.151844600221757],[87.64175145167273,27.151557891053418],[87.64187636304563,27.151103630326862],[87.6419715180557,27.150875187180326],[87.64243067031269,27.15008532284451],[87.64251037852071,27.14968770537924],[87.64225939799509,27.149045583507146],[87.64216217023558,27.148813517560693],[87.64208857534595,27.14852493414325],[87.64204586143516,27.148005907951198],[87.6422251607696,27.14726474991175],[87.64260353111992,27.14635785256936],[87.64280972453071,27.146018312829973],[87.64299672207834,27.14562244374154],[87.64330906861899,27.144772314422184],[87.64324209745699,27.14430986755771],[87.64300756320749,27.14378502977496],[87.64296203728804,27.143322520130344],[87.64299510555966,27.1430379365556],[87.64308744868241,27.142868259562977],[87.64353497643805,27.142365042566066],[87.64372416184197,27.141912782088237],[87.64370501773764,27.14133723880905],[87.64357046046466,27.140967694871467],[87.64315230373109,27.140761954032854],[87.64288307520219,27.140562212648643],[87.642762214851,27.140386788351307],[87.64266498723836,27.14015247109231],[87.64259582871054,27.139748729341488],[87.6425888192229,27.139403378383232],[87.64266409022571,27.139118668142668],[87.64277794151012,27.13895111719638],[87.64301226641064,27.13843990096099],[87.6432293953145,27.137815902444835],[87.64338882382357,27.137571390045576],[87.64369780718195,27.13733300307352],[87.64389175168917,27.13728242207429],[87.64453536145784,27.137207201734338],[87.64485404111478,27.137237330297403],[87.64542119062867,27.137464950527928],[87.64567453498324,27.137531528601766],[87.64612182468291,27.13754527470641],[87.64644331617733,27.13751894913129],[87.64669828538068,27.13754482769612],[87.64720716054805,27.13761921589128],[87.64725780025803,27.137429409888203],[87.64738539902068,27.136916319343044],[87.64739983431005,27.136573218909707],[87.64731416739848,27.13605225505219],[87.64723838448272,27.135820063478565],[87.64714115656338,27.13558805928554],[87.64697965539295,27.13535180519912],[87.6468400998187,27.135117676318128],[87.64676150402975,27.13494200152827],[87.64645988461865,27.134491937232724],[87.6462357344868,27.134235615435777],[87.64559561430566,27.133699094035077],[87.64536708988618,27.133555681343477],[87.64493629839922,27.133122061364457],[87.64485114148646,27.133117936069304],[87.64455290814234,27.133144136556876],[87.64199403139047,27.13304077403318],[87.64148384522686,27.133054410779568],[87.64088943469135,27.13279984680101],[87.64027482861327,27.132525025969503],[87.63955561816859,27.13206102695117],[87.63925981749209,27.131845718683508],[87.63915446458336,27.131731061857955],[87.63885878936568,27.131536072619244],[87.63860575484613,27.131304696073162],[87.63820734734071,27.130785113056096],[87.63793823623288,27.13014980619645],[87.63758421684358,27.129456171545442],[87.63743996838645,27.1290528054819],[87.63742070799297,27.128881318098166],[87.63721405909521,27.128360857214854],[87.63704711608507,27.128072712339414],[87.63684171607449,27.127439342992815],[87.63665432708878,27.12709261947375],[87.63644424612292,27.12686105506246],[87.63638084651576,27.126802664228602],[87.63591554424058,27.126493268179683],[87.63557573098724,27.126413563213838],[87.63514932461283,27.126408818787425],[87.63446507639127,27.126538243319278],[87.63337137488516,27.127082671157766],[87.63311540624908,27.127099617735468],[87.63279603842847,27.12705817305494],[87.63177846845107,27.12657073525999],[87.63067449390533,27.12619651819986],[87.6299110183887,27.12580716727608],[87.62942358403149,27.12549564615115],[87.62912778289582,27.125262207883917],[87.62786067068267,27.124137024023636],[87.62771336354946,27.123963912864614],[87.62756555636676,27.12380880747218],[87.62735747040094,27.12336505645838],[87.62676917734905,27.122611532301264],[87.62577604553896,27.12174016917096],[87.6254369803223,27.121563372815178],[87.62509704041564,27.121445281436532],[87.62441791079492,27.12113226320814],[87.6241626902433,27.12105218142133],[87.62415762603267,27.121045429322038],[87.62384926142104,27.12094746869719],[87.6236597529553,27.120885078279667],[87.62321577563064,27.120778742040294],[87.6228339474419,27.120730796578357],[87.62245430604212,27.120626397302168],[87.62162693842258,27.12052850695377],[87.62130938324526,27.12046443093527],[87.62060850105946,27.12042693158837],[87.61965421197434,27.12030703770343],[87.61895595340442,27.12017469776092],[87.61857306249975,27.12016507635214],[87.61825182139307,27.12023197614842],[87.61767623697213,27.12027512331909],[87.61728803485143,27.12043711459094],[87.61677509939602,27.1205206479366],[87.61645329594201,27.120607803365942],[87.61600500681934,27.12063463079151],[87.61574810131518,27.12070346768147],[87.61510974293863,27.12068822402858],[87.61466745286623,27.1205434392419],[87.61428931088452,27.12036007853303],[87.61403659151475,27.120277621441485],[87.61296768821298,27.119715724701575],[87.61276310801058,27.119443523016212],[87.61256221281732,27.11903809471805],[87.6124153931388,27.11825099214088],[87.61181830023028,27.118294201595422],[87.6114531691009,27.118399613271805],[87.61111160772815,27.11844850821727],[87.61078811627847,27.118574113655495],[87.61050489236615,27.118794307688155],[87.61032933234199,27.118980177745957],[87.60991743618195,27.11921894198743],[87.60936737091775,27.119758608406517],[87.6090213717704,27.119922599671643],[87.60867749769176,27.120007630689038],[87.60782274906211,27.120083604535868],[87.60730956234377,27.12012643821255],[87.60628543720199,27.120139833682657],[87.60594050092328,27.12026331339936],[87.60563308253447,27.12056259282702],[87.60534854445822,27.12078503798304],[87.60482898498717,27.121037808017533],[87.60439995440674,27.121123214837347],[87.60413961255264,27.121268824619104],[87.60360185614537,27.121426879813278],[87.6034497392893,27.121520097075685],[87.60316526513468,27.121740228711904],[87.60291674587572,27.12219280317382],[87.60279983410621,27.12251377374243],[87.60249447680573,27.122736343913783],[87.60206869570217,27.122724598112605],[87.60148066218942,27.122442712085782],[87.6010575047637,27.122336187901883],[87.6002032556812,27.122391781015953],[87.59981599113071,27.122497318417533],[87.59959466551982,27.12275783582164],[87.59947837969224,27.12306080121813],[87.59940010987901,27.12351712415727],[87.599425630241,27.124051967314468],[87.59941594542839,27.12435674462688],[87.59936880597941,27.124508164393923],[87.59925733144296,27.124659898527206],[87.59894934936851,27.12495686554267],[87.59877735025044,27.12500957138725],[87.59835263077687,27.124961689048334],[87.59801625476955,27.12480064755128],[87.59778710436089,27.12464135452867],[87.59736550995402,27.12447837595102],[87.59721614235652,27.12449257061818],[87.5971507440503,27.124528957564653],[87.59710579201496,27.124605855286635],[87.59690316271404,27.124943082940977],[87.5968560851408,27.125094502331034],[87.5968458382513,27.12541959835711],[87.59673486324559,27.1255510130705],[87.59561908344878,27.125770158520872],[87.59467905336174,27.125841882179827],[87.59424946112043,27.12594529451427],[87.59409678260867,27.126056579803027],[87.59383756440197,27.126163740343646],[87.59359310565823,27.126462769524814],[87.59338735287271,27.126917343677338],[87.59316546357745,27.127177861537096],[87.59283709905179,27.127456885771064],[87.59270849017801,27.12747326753806],[87.59256174717237,27.127392559340688],[87.59239855811539,27.127178874382118],[87.59177586740186,27.125960339286177],[87.59159004513751,27.12576472320675],[87.59133888863957,27.12562356058831],[87.5911893955632,27.125619686595428],[87.59099395206594,27.125749227963926],[87.59077037706064,27.126068387931504],[87.59067553596452,27.12637122784359],[87.59058550556904,27.12652064803702],[87.59023132229979,27.126932899968203],[87.58992702648473,27.1271148333489],[87.5893260595983,27.127252821423603],[87.58906940344855,27.127265141802006],[87.58863981023245,27.1273685538829],[87.58829812305314,27.12739931792827],[87.58752565613219,27.127551563372602],[87.58726962475167,27.127563945683907],[87.58684646814301,27.12745729678928],[87.58659474767353,27.127318447849305],[87.58634740193574,27.12706218922354],[87.58609511931003,27.126941345343514],[87.58575449472724,27.126933723293146],[87.58541543167514,27.126867521831812],[87.58423655198567,27.12638027400321],[87.58398220802475,27.126336202142],[87.58346795888475,27.126417359585638],[87.58303574282948,27.126617800532227],[87.58243464991631,27.12673540700094],[87.58208633885928,27.12695578986082],[87.58180561330131,27.127065388826587],[87.58167375470227,27.12717648666013],[87.58153870986342,27.127402742067616],[87.58137453383864,27.12785719037485],[87.58134396629055,27.128159779751837],[87.58139786767808,27.12846655661386],[87.58140469195642,27.12892700388059],[87.58128728074648,27.129266042361152],[87.58119775067924,27.12939964549017],[87.58113235285681,27.129436031797603],[87.58096097859315,27.12946829470158],[87.58045303894691,27.129323698214932],[87.58003538014023,27.12904781136898],[87.57978309857864,27.128926967629024],[87.57952750361197,27.12890096397254],[87.57931323851949,27.12893566575681],[87.57916043511757,27.129026632312858],[87.57864376224536,27.12985488276273],[87.57835916225304,27.130077265437208],[87.57801410076209,27.130184740064397],[87.57764540699765,27.130366924412698],[87.57747403292461,27.130399249039804],[87.57801880059043,27.130717520920516],[87.57876421409473,27.131441220534775],[87.57907152175805,27.131830455048984],[87.57931680603576,27.132181553539056],[87.57941578436562,27.13241136924812],[87.57976067282874,27.1329923465953],[87.57994705698374,27.13316989616276],[87.58007023041766,27.13333419159145],[87.58042412502776,27.134066275211087],[87.58102899401052,27.13516308754072],[87.58153281755754,27.135858470589092],[87.58191215242167,27.1362631446239],[87.5826506249016,27.136962087809692],[87.58292110823662,27.137423718414716],[87.583382726658,27.138001880896585],[87.58361094523141,27.138463637178532],[87.58415353605244,27.139330444647538],[87.58427739988231,27.139618839536602],[87.58481874400384,27.140602994333076],[87.58513211807994,27.14106443646774],[87.58536358239563,27.14129593872024],[87.5855518451655,27.141586333270553],[87.5859307399771,27.14191654822312],[87.58637459715885,27.14222619402083],[87.58713763251936,27.142541274188204],[87.58732726832474,27.142734578207932],[87.58766115134793,27.14325459949451],[87.58776456908382,27.143486666311688],[87.5878010295777,27.143944737495502],[87.58773607086707,27.14406008486331],[87.58754137727259,27.14423020011737],[87.58721995078157,27.144398629249874],[87.58599988621901,27.144749064678688],[87.5858080658714,27.14474537899654],[87.58561599699178,27.14480264958429],[87.58535771874459,27.14499108405645],[87.58529126036694,27.145180952723766],[87.5852870144962,27.14546759965861],[87.58534910333196,27.145641149386083],[87.58542751785583,27.146157737391935],[87.58533724178601,27.146501276935496],[87.5852722197723,27.146616624138026],[87.58520420101722,27.146883265885617],[87.58560572909347,27.14717503200924],[87.58628304613718,27.14750624317003],[87.58653682953393,27.147663159716718],[87.58693779557264,27.147972994312855],[87.58788915605854,27.148578468385047],[87.58833201315137,27.148926438515076],[87.58845906086458,27.148986891468002],[87.58862413121513,27.14942858037889],[87.5886199474995,27.1497152900528],[87.58857349897757,27.150002124563212],[87.58832948691624,27.150745783639437],[87.58832761346426,27.15085869214442],[87.58851231810479,27.151435732890654],[87.58865768968111,27.151724065106364],[87.58873866347726,27.152012648046565],[87.58886352602252,27.152244589444123],[87.58919847064435,27.15270584370914],[87.58953666198003,27.152959537981104],[87.58987553977573,27.15309582229651],[87.59018997530214,27.15350306166724],[87.59050253833682,27.154041213602866],[87.59054224467927,27.154271280880195],[87.59074683308761,27.154904712589495],[87.59116081770702,27.155884868302554],[87.59147519032213,27.15627178876378],[87.59162330947784,27.15637044070991],[87.59181419242532,27.15642832946867],[87.59232488128826,27.156491651925737],[87.59266619411866,27.15649470993878],[87.5932616015756,27.156577912267284],[87.59368863254062,27.156564838381172],[87.59402794607828,27.156664987258175],[87.59423896501443,27.156837846712225],[87.59434375557132,27.156972885191962],[87.59444804764321,27.157128178999518],[87.5945096365452,27.157319796811834],[87.59441867469765,27.157778370036773],[87.59458499176999,27.158086895380137],[87.59534496919221,27.158629917005673],[87.59563808572955,27.15905528601346],[87.5961635396621,27.15963538523404],[87.5963489923322,27.160095079607903],[87.59644710407197,27.160747019106786],[87.59629455324612,27.161014036966606],[87.59609954985702,27.161240543916083],[87.59596856975321,27.161507499172043],[87.59575112102347,27.161792836920167],[87.59564189761166,27.162021280615853],[87.59533804438735,27.162419839992896],[87.59525064080516,27.16258951621637],[87.5950556364415,27.16281833626524],[87.59484056070545,27.16296819613689],[87.59451944583199,27.16308017130462],[87.59419683085225,27.163266669387856],[87.59393861568982,27.163475422013008],[87.59361593864489,27.16366410754255],[87.59329432367673,27.163812218546852],[87.5927165531291,27.163959146190575],[87.59220268076791,27.16414414674009],[87.59194671262861,27.16418134901763],[87.59143583687256,27.164097770015267],[87.59117936871465,27.164152977999333],[87.59105044777178,27.16422806530692],[87.59007779987257,27.165232125281552],[87.58983378822043,27.165975784073925],[87.5894642255695,27.166487440812237],[87.58924833791815,27.16671407283189],[87.5890952879062,27.16699915923646],[87.58887434337372,27.167571142798195],[87.58865751999467,27.167856479807707],[87.5883125241024,27.168119750117917],[87.58805555719603,27.168213406724828],[87.58779777871229,27.168383773261993],[87.58771068619772,27.168496995487818],[87.58764372896776,27.168725250691935],[87.58742559516345,27.169125746550524],[87.58716675453536,27.169332186600823],[87.5865876721777,27.16959421041317],[87.58600721737365,27.169969142089077],[87.58549203381662,27.170251170453778],[87.5851889292063,27.170572957679976],[87.58484412228132,27.170876864406072],[87.58471357717679,27.171026410638014],[87.58453970681609,27.171311559946904],[87.58434020788772,27.17188348089806],[87.58431071037998,27.17251560386216],[87.584349417708,27.172802187026257],[87.58434392353165,27.173203930251283],[87.58429878556841,27.17337560638383],[87.58418987456075,27.173547657837705],[87.58410147170075,27.173776038885407],[87.58403420266,27.174062999074472],[87.5840060154879,27.17457996325184],[87.58406392107335,27.175037971717504],[87.58407799935378,27.175557060982587],[87.58400879509831,27.175956867293],[87.58395585563116,27.176819433050486],[87.58386614253322,27.177162847497396],[87.58381981889413,27.1774700012521],[87.58379394181897,27.17783354574328],[87.58379044631153,27.178120191927672],[87.58369461660618,27.1789806331713],[87.5836634342294,27.1797843695139],[87.58355390001542,27.18007145473066],[87.58344542456116,27.180202808309936],[87.58327018170603,27.18060311561794],[87.58295815336007,27.18174883186567],[87.58303656780087,27.182267607468283],[87.5831374267783,27.18272767763766],[87.58315500237359,27.183072965925668],[87.5832347272808,27.183476707846246],[87.583441938896,27.183997232755523],[87.58345564288295,27.18457052545157],[87.58327684179035,27.185257479019363],[87.58303782436901,27.185639907803665],[87.58284250903446,27.185943187721527],[87.58266820169739,27.186287041085972],[87.58251384143128,27.18668722304448],[87.58235779530135,27.18725889309031],[87.58237249899493,27.187775794703025],[87.5824127060328,27.187987793680357],[87.58275308187672,27.188029237460672],[87.58343514337078,27.1880173481202],[87.58386254871725,27.187927564875938],[87.58420467183969,27.18781552607348],[87.58437504668329,27.187819336689117],[87.58479964146726,27.1879191095392],[87.58505442504399,27.188017383900778],[87.58548001922247,27.188060701953987],[87.58581889594095,27.18817891840921],[87.58641411723166,27.188320888509804],[87.58675449270622,27.18836233226694],[87.58701052351505,27.188327442709635],[87.58735077326999,27.188348567981034],[87.58786296033617,27.188317050643874],[87.58854589603678,27.188210320978317],[87.58922695862385,27.188236817298304],[87.59016255582526,27.188417980190795],[87.59028960328,27.188458051875404],[87.59050249412074,27.18850006086094],[87.59084230781535,27.188559510359834],[87.59111841080664,27.188621524470026],[87.59188388061321,27.18874473523979],[87.59213959985158,27.188766236818665],[87.59298991528429,27.188929646439743],[87.59367104119222,27.188974148410672],[87.59469341621056,27.18898557177023],[87.59614238478287,27.18898392303898],[87.5963978524512,27.188967038525064],[87.59682350989131,27.189028424839318],[87.59844366764133,27.189066534392623],[87.59946492000415,27.18923150331302],[87.59980585801887,27.189252628805377],[87.60065629845647,27.189436293883684],[87.6014246414485,27.189385578562035],[87.60151036060117,27.189367196800145],[87.60174688200104,27.18921721127579],[87.60217422365218,27.189127302995004],[87.60260131734584,27.18909378655366],[87.60371228326072,27.188913027769],[87.60448018986058,27.1889028867859],[87.60482069088461,27.188964649473586],[87.60541772198665,27.188971078713315],[87.60563092472417,27.18895432009537],[87.60699935831694,27.188661712116122],[87.60777082217199,27.188364924767527],[87.60835077781195,27.18802606652753],[87.60871665686805,27.18776267025324],[87.61065833272936,27.186020628250418],[87.61080863622747,27.185927411146928],[87.61198974360663,27.18530827205172],[87.61250361539447,27.18512095943973],[87.6128471755824,27.184934336314704],[87.61413269987537,27.184488496738478],[87.61516056968196,27.184136376645814],[87.61541797364025,27.184004334144085],[87.6159358402081,27.18351224377334],[87.61613178175203,27.183226969598532],[87.61617635731415,27.183073298630738],[87.61618203701201,27.182615039060128],[87.61605942170692,27.182229615647476],[87.61615025855357,27.181771041955475],[87.61626172876466,27.18138899125488],[87.6165682663179,27.180780495490474],[87.6167640187504,27.18047490223873],[87.61706568761336,27.18025008181858],[87.6177317355726,27.17985439228126],[87.6189281697632,27.179636871366124],[87.61935601233128,27.179526644312517],[87.61978472791277,27.179339645078965],[87.62017099015263,27.17913476554038],[87.62062252482089,27.178850674768665],[87.62103204306594,27.178510256183543],[87.62152496884109,27.178304875222327],[87.62169640606352,27.178270237748823],[87.62212231197827,27.178272855651535],[87.62257172532851,27.178182822002785]]]}},{"type":"Feature","properties":{"province":"Koshi Province","district":"Terhathum","municipality":"Phedap Rural Municipality","ward":"2","wardNumber":2,"sourceMunicipality":"Phedap","sourceType":"Gaunpalika"},"geometry":{"type":"Polygon","coordinates":[[[87.57177887692437,27.221991681058896],[87.571995202265,27.22182150302642],[87.572642682155,27.221426126492574],[87.57296586053758,27.22129608299121],[87.57331166870618,27.221030562095986],[87.5736834178927,27.220401497189286],[87.5738167093545,27.220057831736842],[87.57392612035626,27.219849768703078],[87.57403559393696,27.219657460827946],[87.57430030469003,27.21908528832659],[87.57454113391674,27.218666724173886],[87.57475689774841,27.218514613528743],[87.57493020758841,27.21834456073806],[87.57508500814966,27.2180008325782],[87.57511487970743,27.217310005288745],[87.57508104023243,27.21661942845705],[87.57498111860784,27.216100653080904],[87.57496485502128,27.215755427174873],[87.57480153392818,27.21518051082738],[87.57471756263513,27.215063478402207],[87.5745930734888,27.214775083549462],[87.57453479379497,27.214371278801597],[87.57460275111873,27.214084380685787],[87.57471328699727,27.21385581232041],[87.57510610695505,27.21328545085473],[87.57521664211515,27.213057006682238],[87.57560915122444,27.212542974732433],[87.57576295127876,27.212257951208308],[87.57589717981926,27.211857894789144],[87.57590592041961,27.211225834143807],[87.57593111164762,27.210957067330373],[87.57591328725934,27.210688551482168],[87.5760042503288,27.210345074148588],[87.5760064975869,27.210171273299277],[87.57607314359036,27.209999472470614],[87.5764203864152,27.209526265674548],[87.57667891531666,27.20935589898015],[87.57706530505094,27.209245922735402],[87.57751409484788,27.20925085400595],[87.57783390108746,27.209330809565323],[87.5780257837418,27.20933224469239],[87.57830444667854,27.209258843781495],[87.57860680307111,27.209034147906667],[87.57862912231403,27.20895731286321],[87.57863074430331,27.20878344887398],[87.57858966459389,27.208650472821226],[87.57835838603656,27.208360266757058],[87.57825346956457,27.20820497307059],[87.57800105668828,27.20785837550577],[87.57779128711536,27.20756810694736],[87.57758276417144,27.2071626789254],[87.57742050219102,27.206413899306124],[87.5773459572568,27.205551960920197],[87.5772249637749,27.204976919483215],[87.57679077996974,27.203764321241643],[87.57639299608789,27.20312714035873],[87.5763308446491,27.20295359038628],[87.57635622168476,27.20261042774813],[87.57640042285321,27.202495017441848],[87.57672722012934,27.201981362268757],[87.5770367548432,27.201180997045288],[87.57708395079611,27.20077912853379],[87.5773348925494,27.199518505410893],[87.57738040399532,27.199288062215917],[87.57749193751174,27.198888067890465],[87.57757909123646,27.198774845638788],[87.57773264122262,27.19845143632222],[87.57788494282072,27.198240871827572],[87.57807863643289,27.19810914302715],[87.57827201851202,27.19803611833202],[87.5789572663563,27.197888750909037],[87.57921592091651,27.197738765382905],[87.57943243250033,27.197512133208345],[87.5795414063765,27.19734014335072],[87.57958916623312,27.196938150162342],[87.57952832517928,27.196651754298383],[87.57953319422289,27.196249949177837],[87.57977215078776,27.195964549470116],[87.57981572721037,27.19584920223598],[87.57981797438332,27.19567765175263],[87.57969435936522,27.195330552501577],[87.57957336538777,27.194755510881876],[87.57946932266636,27.1945234445454],[87.57949563627184,27.19412151380598],[87.5797589715292,27.19355159250862],[87.58041337663028,27.192465451108685],[87.58106472325906,27.191611752074827],[87.58154070139415,27.1911582989317],[87.58173607969714,27.190873087663018],[87.58196426425575,27.189725497624565],[87.5820539776468,27.18938202049193],[87.58238551786376,27.188466434623955],[87.58243009327923,27.188294695523155],[87.5824127060328,27.187987793680357],[87.58237249899493,27.187775794703025],[87.58235779530135,27.18725889309031],[87.58251384143128,27.18668722304448],[87.58266820169739,27.186287041085972],[87.58284250903446,27.185943187721527],[87.58303782436901,27.185639907803665],[87.58207766120054,27.185704880496495],[87.58156559744074,27.185641557778638],[87.58131056301634,27.185504959131283],[87.5811002308741,27.18523494616085],[87.58088908679323,27.185039454505926],[87.58040158973174,27.18472768379445],[87.58006189913863,27.18457114374366],[87.5798912728589,27.184531197250845],[87.57903670928475,27.184500889096864],[87.57715857999995,27.18434612447359],[87.57639123382032,27.18422291347587],[87.57553879201055,27.18400298814749],[87.57511381948453,27.183824130275827],[87.57477325562094,27.183744299842765],[87.57409287569823,27.183469480588784],[87.57392312361902,27.183352761720666],[87.5734134326918,27.18313589392623],[87.57305404415489,27.182825934166182],[87.57262994652234,27.18257030322778],[87.57126956008652,27.181979965418996],[87.57103609742546,27.181863560279243],[87.57080307166454,27.181706517978693],[87.5702079729095,27.18145164049539],[87.5698048199434,27.181216265298566],[87.56950833199625,27.18098495213043],[87.56919052352772,27.180789900288914],[87.56887396334588,27.18045937085051],[87.56840784874164,27.180129469161113],[87.56713330716278,27.17953875502698],[87.56645573593204,27.17905393633169],[87.56620082808695,27.178935343083143],[87.56603032772182,27.17891346467492],[87.56551957382918,27.178734920189072],[87.56530805532887,27.17858006614022],[87.56477991443963,27.1780946199562],[87.56452594315047,27.17791957257673],[87.56427066027416,27.177839365965944],[87.56392909658688,27.17779785945442],[87.563375078802,27.17767595727309],[87.56294929611148,27.177576122611473],[87.56252369850623,27.177399515366602],[87.56235382310547,27.17735950630253],[87.56167344276184,27.177082373820195],[87.56116400034404,27.176788733178988],[87.56014499126512,27.17629848111203],[87.55963380158283,27.176158323700363],[87.55929136425289,27.17619358971904],[87.55886183477719,27.17636014547554],[87.55860524169898,27.17639722310702],[87.55826186847733,27.176506948495298],[87.55748915372065,27.176805735949596],[87.557061060465,27.176877451592553],[87.55678339590854,27.17687401691174],[87.55618736162396,27.176675468639864],[87.55601773429524,27.176576879671444],[87.55559469855362,27.176264795798147],[87.55500315733435,27.175702827913426],[87.5548569110904,27.175473200258764],[87.55460337591656,27.175239448233505],[87.55441448829323,27.17494899174143],[87.55409755388222,27.174659099526146],[87.55370145619246,27.173909011273494],[87.55319619706256,27.173328599087075],[87.55300874462351,27.17292529680165],[87.55288194658122,27.172808451598257],[87.55265072981294,27.172500115394154],[87.55252823934131,27.17209656097298],[87.55227832459893,27.171578413961292],[87.55196407405873,27.17105820324658],[87.55167052106489,27.170653089394946],[87.55158704950995,27.17047960288495],[87.55146487036603,27.170019594561214],[87.55125740908656,27.16953733173476],[87.55070620014743,27.16920774399622],[87.55051556505454,27.16905276440598],[87.55045310272098,27.168935606479824],[87.5504339040707,27.168764118645228],[87.55052280634233,27.168477095407216],[87.55071893466956,27.16819419695736],[87.55093544710917,27.16796537620506],[87.55096007630591,27.167716928084648],[87.5509184962755,27.167602082698405],[87.55077137584027,27.167446852142668],[87.55051684148586,27.167271805413314],[87.54974999455405,27.167091951892665],[87.54940986745724,27.166953354801965],[87.54890211169344,27.16660319774762],[87.54846068793846,27.166006779785537],[87.54780418814782,27.165557909184425],[87.54759491701657,27.165211123726568],[87.54759722699352,27.1650395105206],[87.54753713586064,27.16475086417452],[87.54743271936157,27.164559434793816],[87.54724208407961,27.16440439296658],[87.54694522118434,27.164229534265488],[87.5469011455913,27.164362885918425],[87.54681180649568,27.164667977265697],[87.5464388098186,27.165427831101418],[87.54602704264536,27.165862839478358],[87.5456401554103,27.166087849686306],[87.5454258280726,27.166142806792106],[87.545273526074,27.166333052008316],[87.54529228788053,27.166563182365135],[87.54556383327905,27.1670045568557],[87.54600894106001,27.167316578756044],[87.54605033239183,27.167393162953385],[87.54606909417996,27.167623292157113],[87.54587078112698,27.168098122119915],[87.54567602541243,27.168268175060653],[87.54533184018212,27.168456860944485],[87.54498959111943,27.168528199812517],[87.54481771715193,27.16860335031286],[87.54447478108966,27.168676939381434],[87.54421718857101,27.168768220350174],[87.54267569057964,27.16901800639309],[87.54241822382271,27.169129605471074],[87.54203014887683,27.1693929391242],[87.54174923843274,27.169619759695745],[87.54155323551876,27.169922976693044],[87.54142156768137,27.170228256098213],[87.5413744320628,27.170533158978145],[87.54133066770997,27.170610056641358],[87.54132617314748,27.170991544278714],[87.54157053187492,27.171913810078344],[87.54156691151617,27.172218524174934],[87.54152164815262,27.172390262838938],[87.54141311108307,27.172523866558663],[87.54098508124682,27.172613587004797],[87.54060044057934,27.172648916240163],[87.54051416027369,27.17268536591303],[87.54023169076187,27.17312212354552],[87.54018655313251,27.173314118295718],[87.54031035408877,27.17360257551111],[87.5405410071413,27.173928979579372],[87.54062304275402,27.174197307621903],[87.54044717427712,27.174617808122925],[87.5403157557218,27.174846314847592],[87.53996133255492,27.175800225219543],[87.53978665007659,27.1760853117114],[87.53965435781691,27.176390590594337],[87.53954594519114,27.176524131476636],[87.53930879975748,27.17669437304452],[87.53913798742373,27.176731136292375],[87.53845567353625,27.17668638373448],[87.5382629176422,27.176761596897567],[87.53800295261243,27.177026740991185],[87.53797876007339,27.177236740251896],[87.53799926946897,27.177313387416874],[87.53810449728002,27.177409976834657],[87.53842105526556,27.177623283931414],[87.53867627506504,27.17768323527465],[87.5392507997203,27.177746494667506],[87.53969696563136,27.17788471490736],[87.540524399719,27.178181726744494],[87.54084189488967,27.17833845461559],[87.541180337075,27.178648664967334],[87.54126418279927,27.1787634473694],[87.54126181024193,27.178916929735262],[87.54119566381601,27.179070725625667],[87.54108650203555,27.179202016580433],[87.54093551120083,27.179297421581214],[87.54063221819395,27.17960107837537],[87.5403950715336,27.17975100126449],[87.54013616932448,27.179977696787915],[87.53998330472287,27.18020626609746],[87.54000144114595,27.18043645840487],[87.54012624211397,27.180668462004334],[87.54035670695765,27.18095873055045],[87.54056429130786,27.181343902288187],[87.54060480949458,27.181497259509968],[87.54053822552339,27.18168712811523],[87.54038723510834,27.181782533663373],[87.53996026685248,27.18183611877646],[87.53953367289736,27.181830999751785],[87.53893907716513,27.181673087513055],[87.53876820199089,27.181689470223127],[87.53855443700796,27.18172642169969],[87.53835918202567,27.181934798653817],[87.53809834322914,27.182276653132323],[87.53708018058839,27.183397935727506],[87.53690649585054,27.183626567582138],[87.53670893118733,27.184006557495767],[87.53649192009516,27.18429183216481],[87.53644715601348,27.184425121553545],[87.53638044768448,27.184596986187987],[87.53633337390424,27.184904138886747],[87.5363738297976,27.18505743334441],[87.53639290289085,27.1852108531293],[87.53641247530858,27.18536427291727],[87.53641103903672,27.185441045373977],[87.53653583965774,27.185673048619847],[87.53657629415997,27.18582640523602],[87.53680588638407,27.186193446635126],[87.53699533401242,27.18634842622336],[87.53718628034423,27.186426696453573],[87.53731245402562,27.186543604110554],[87.53762720190153,27.186910330759126],[87.53779283124547,27.187236986692064],[87.53766141339946,27.187465492980362],[87.53740251033115,27.18769218855875],[87.53686637999662,27.18787937711912],[87.53652175900667,27.188124454483365],[87.53643479234607,27.188278314032626],[87.5363223833023,27.188660177506943],[87.53627524796212,27.18896507970026],[87.53626775522098,27.18950236254351],[87.53613302820618,27.189961124651134],[87.53598066370233,27.19016937542369],[87.53537657722107,27.190661467099506],[87.53528892346878,27.19081532546873],[87.53528386646693,27.191199062893077],[87.53532432220385,27.191352419747837],[87.53559380651956,27.191872818158426],[87.53571373624554,27.192409536229587],[87.53566903511421,27.192563269337192],[87.53549441484931,27.19286642352659],[87.53495216693952,27.19349367881196],[87.53486213965937,27.193801019800457],[87.53492316649685,27.194031024400918],[87.53506978638536,27.194204259889112],[87.53534407837137,27.194417630946255],[87.53555172508416,27.194802865299756],[87.5356526449648,27.195188413832824],[87.53577650909217,27.19549493906543],[87.53593614528702,27.19626403715677],[87.53595321961697,27.19653261504953],[87.53589809256141,27.19741312457986],[87.53580869095175,27.197718215376835],[87.53566971770262,27.19848387959705],[87.53564252777711,27.198867742143317],[87.53567792684169,27.1994025862901],[87.53580035488781,27.199788134607147],[87.53623696747688,27.200558415192393],[87.53646793299744,27.200810297778613],[87.53655071639461,27.20096346692129],[87.53667751499407,27.201080374332708],[87.53703415363664,27.201487549603677],[87.5372237273608,27.201660660075834],[87.53732795563445,27.20181601655239],[87.53760187419425,27.2020677110416],[87.53774805679109,27.202279333330893],[87.53778944844407,27.202355917421418],[87.53778701293429,27.20250946270738],[87.53769761118602,27.20281449047299],[87.53710541749763,27.203958960973953],[87.53680168844527,27.204321259123745],[87.53614896721996,27.20521540644454],[87.53588606730314,27.20567235706407],[87.53568575688202,27.206282601939176],[87.53559391963422,27.206741175185705],[87.53552864697127,27.206818136718763],[87.53541773775889,27.207123290440418],[87.53517634546444,27.207580178257754],[87.53491638083828,27.207865578292704],[87.53454594327857,27.20839974101029],[87.53439033308139,27.208856314775442],[87.53436314354944,27.20924011497167],[87.53433932592017,27.20941179057446],[87.5341869613935,27.20962229230179],[87.53426943341825,27.209834103328408],[87.53443231635227,27.21037075739033],[87.53453654552537,27.21052605147996],[87.53476232826523,27.21114141604694],[87.53507395544447,27.211756465851987],[87.53517581179128,27.212065304888924],[87.53550975765134,27.212605770678618],[87.53571584210205,27.213067715028114],[87.53583558639622,27.21368120532716],[87.53591087766351,27.214371655947026],[87.53613903343638,27.214833475112773],[87.53653762577689,27.21527884932055],[87.5371709918144,27.215725595040475],[87.53780579421436,27.21607756324981],[87.53806120204477,27.216155581467948],[87.53876065222472,27.216430525696982],[87.538993740292,27.216587631125265],[87.53945773120124,27.216994367300238],[87.53966693945767,27.217302829917045],[87.53987521165865,27.21768800110124],[87.54006253700634,27.218055168836056],[87.54035421799225,27.218593509479547],[87.5404176796206,27.218652024796476],[87.54062607682042,27.21905526543136],[87.54079420436372,27.219230625736266],[87.54111220109837,27.219464126708004],[87.54130377337525,27.219542397177538],[87.54187749085024,27.219894490355106],[87.54206949869949,27.219916431152104],[87.54256143035393,27.219961936401347],[87.5428825474393,27.219926734086012],[87.54327006121355,27.2197784964614],[87.54352865306107,27.219608192703685],[87.5436578867322,27.2195716173085],[87.54385045759635,27.219573114233057],[87.54410592885223,27.219673702482577],[87.54448826103777,27.21988888412367],[87.54506010544844,27.22039227219549],[87.54569797130058,27.22070804248671],[87.546017403032,27.220844452174635],[87.54697701065655,27.22112514327086],[87.54723348104139,27.221164775771577],[87.54774735749702,27.221171769852976],[87.54813149935923,27.22123346906872],[87.54845149446143,27.221351873795438],[87.54883338940172,27.22160537884706],[87.5490674151207,27.221703779614902],[87.54940648240736,27.22197554103172],[87.54989248298521,27.22246123757166],[87.5500188441946,27.22261646896112],[87.55022774113124,27.22300164057911],[87.55075575925076,27.22356392191573],[87.55094470932524,27.22385431678621],[87.5513891937426,27.224261053033047],[87.55164385320901,27.224436100164386],[87.55215491897522,27.224634962695006],[87.55285999274486,27.2247562996123],[87.55350347755689,27.224668013707678],[87.55407794281952,27.22492307914843],[87.55426914020217,27.225041923445186],[87.55458857290965,27.225160264862122],[87.55548390691733,27.225456962636216],[87.5561881696824,27.225657259898473],[87.55663621061403,27.225757031229264],[87.55721080199669,27.22603241550094],[87.55752942391963,27.226247848339746],[87.55795464628264,27.226444774011348],[87.55823037697915,27.2266760874562],[87.55850367280361,27.227045253374754],[87.55858857965846,27.227103581561472],[87.55884136660113,27.22741179291257],[87.55909334178287,27.227799027404625],[87.5597280861787,27.22836305708526],[87.56055689947631,27.22885181206061],[87.56074853430985,27.2289300817823],[87.56158153114966,27.22911174697961],[87.56202919821787,27.229249904401367],[87.56235000399046,27.22927340650737],[87.56271095272812,27.22948865134107],[87.56315499965177,27.229915768822266],[87.56342754671667,27.230379650650356],[87.56369815789306,27.230956315461043],[87.56380413696023,27.23107334803361],[87.56393143522448,27.231151806208967],[87.56431470291977,27.231290215353965],[87.56482558411926,27.23156347492537],[87.56501584501203,27.231738835379133],[87.56524774806549,27.23202904160772],[87.56543619890508,27.232337503993886],[87.56598428766999,27.232976369530473],[87.56628152614348,27.23320987124857],[87.56630471925058,27.23305632579695],[87.5662946982969,27.232194072917675],[87.56645698777737,27.231218284485806],[87.56661116250461,27.230874618651125],[87.5669159538945,27.2304738709783],[87.56711370694546,27.230132205398228],[87.56720217209664,27.229901574270198],[87.56729781524133,27.229097649371706],[87.56736546086873,27.2288693937393],[87.5678243634585,27.228124855362587],[87.568199421267,27.227265598022303],[87.56830951957235,27.22705747204326],[87.56859280344901,27.226656788085045],[87.56896193040919,27.226258039710345],[87.56913754999249,27.225914248503745],[87.56931548053873,27.22539884492143],[87.56997213609087,27.224312703724266],[87.57021115601155,27.224027303549825],[87.57047361890436,27.223628995332028],[87.57099598384985,27.222942910632145],[87.57112733938703,27.2227144041224],[87.57177887692437,27.221991681058896]]]}}]}