{"type":"FeatureCollection","features":[{"type":"Feature","properties":{"province":"Koshi Province","district":"Pachthar","municipality":"Tumbewa Rural Municipality","ward":"3","wardNumber":3,"sourceMunicipality":"Tumbewa","sourceType":"Gaunpalika"},"geometry":{"type":"Polygon","coordinates":[[[87.61439787001,27.014726874369764],[87.6145970004285,27.01450255570907],[87.61499319959299,27.01413287856814],[87.61521596292735,27.01385423027604],[87.6152850478291,27.01370268530198],[87.61533274929356,27.01355126457376],[87.61537050433883,27.013077062999592],[87.61546584521851,27.012774159980555],[87.61594143935645,27.011948160375958],[87.61600763757845,27.01126395864187],[87.61597511875235,27.01095936943592],[87.6158179911423,27.01057175866429],[87.61559290346736,27.010317688412318],[87.61530191781243,27.010097753765518],[87.61507789262633,27.00980529658936],[87.61485649083586,27.009417998709566],[87.6146273293527,27.008647026842098],[87.61381333188254,27.00807506036469],[87.61268177194304,27.007032586155024],[87.61229869234778,27.006916870455523],[87.61178856637841,27.006842357623785],[87.61121323092773,27.006817797175508],[87.60888744506508,27.006888855695262],[87.6086793678163,27.006858162809436],[87.60862691087041,27.006822277775484],[87.6083303605742,27.006622661940373],[87.60814816440649,27.00637740584449],[87.60825271903425,27.004158066556606],[87.6082064368504,27.00339978213168],[87.60811052213329,27.003142895779934],[87.60758932334292,27.002763668300027],[87.60754674376713,27.00268708439522],[87.60764414183434,27.002063650122263],[87.60755415701367,27.00137795039322],[87.60723003052743,27.00097071095897],[87.60687057323139,27.00032665336801],[87.60641989558866,26.999707854428557],[87.60540926187105,26.998983158637582],[87.60446333309753,26.997989508486615],[87.60321492121687,26.997091953237927],[87.60275518851546,26.99700368459675],[87.60063772430617,26.99687055568475],[87.59928066130989,26.99662350502539],[87.59880129366024,26.99640663666534],[87.59812509634722,26.99577071158426],[87.59778096026217,26.99526650666762],[87.59748158633477,26.99452967082552],[87.59667013967041,26.993327769569895],[87.59635508199594,26.99307626337521],[87.59641716580926,26.993026372520955],[87.59653038930551,26.992752728537322],[87.59652957129148,26.992477335222492],[87.59662128904478,26.992312160214944],[87.59680128959573,26.99217142887584],[87.59756273554862,26.991190816085307],[87.59780836984463,26.990347815594742],[87.59832873805598,26.989878294304855],[87.59904429279966,26.988909123630577],[87.59931225188465,26.988244362096616],[87.59962667049702,26.987789286107567],[87.60011377665471,26.987349336662813],[87.60148213594496,26.98654895435448],[87.60165438192084,26.98636077152356],[87.60213348400166,26.985835046891236],[87.60266579621741,26.985491937464325],[87.60318722673343,26.9849953461482],[87.60379669174664,26.984584153107093],[87.60470758446272,26.98446960498532],[87.60515937011806,26.984266725432516],[87.60636198296403,26.983584381056183],[87.60714293674246,26.98261939829932],[87.6092127178248,26.9807526919546],[87.61001318914683,26.98035868815106],[87.61045647377722,26.980216827144712],[87.61088643740464,26.979939551042822],[87.61109113251136,26.979697101758585],[87.61169508812903,26.978981194921044],[87.61208147322833,26.978690603357638],[87.61236375751328,26.97835074887214],[87.61258026585006,26.977959318656968],[87.61269516960546,26.977329069146414],[87.6134736090019,26.975700391891486],[87.61379365434927,26.975249754488306],[87.61421161366451,26.974961225283362],[87.61443919525034,26.97488351147529],[87.61462738592249,26.974740466068894],[87.61438304467896,26.974637753151825],[87.61424617825446,26.974473519109445],[87.61421864608025,26.973363069971256],[87.61404376065721,26.97294176171158],[87.61378078152444,26.972532083302667],[87.6134314578255,26.972115966997272],[87.61276233249671,26.971852588462763],[87.61230072437237,26.97174850277197],[87.61223945121402,26.971712618710438],[87.61215098007655,26.971661105105206],[87.61200373441855,26.97144954518433],[87.61200272820493,26.971147018745224],[87.61193813843558,26.970975782342652],[87.61146070486625,26.97050840339491],[87.61128494829696,26.970263084404568],[87.61112075907191,26.970069717929416],[87.61097707882041,26.969939369766937],[87.61088616988565,26.96990811180052],[87.61081676923436,26.96988366848388],[87.6104880262878,26.970004709308082],[87.61035460287981,26.970023341671716],[87.61026075663088,26.970021530248363],[87.60994401310693,26.969919130899527],[87.60971499375243,26.969965210514005],[87.60913534776581,26.970164090378304],[87.60817907464035,26.970825112620428],[87.60749044952894,26.97090258375706],[87.60721509887458,26.970885708818482],[87.60612307785036,26.97102364158511],[87.60560770077252,26.970996516888093],[87.60441608370155,26.97124092076375],[87.60306935079255,26.971689136445228],[87.60215902636946,26.97212421691172],[87.60156312830217,26.97246982795098],[87.60014275344513,26.97340593769249],[87.5993732370366,26.97415185615067],[87.5986425443807,26.97472609844766],[87.59726968330833,26.975492658751154],[87.59636447989415,26.975600329925573],[87.59592506758293,26.97551643775145],[87.59542932627194,26.97562916612968],[87.5951659247373,26.97596883202918],[87.59484163398608,26.97670611582833],[87.59434465607187,26.97753211672466],[87.59402304511377,26.977822394108962],[87.59334667538445,26.977967447612844],[87.59260597730668,26.978460478783333],[87.59200064567987,26.979174073486345],[87.59146233971326,26.979937055490655],[87.59129472317608,26.98028984885412],[87.59116211291503,26.9803423670822],[87.59057333324256,26.98026129046052],[87.58974803611743,26.98047699138668],[87.5887389950402,26.981205784109832],[87.58861457363089,26.981149894576678],[87.58835215899295,26.98083499395613],[87.58792168315112,26.98054097808051],[87.58658193159593,26.979946262543102],[87.5863667264573,26.97987493304465],[87.58582552818417,26.979852309722993],[87.58500609896527,26.979621005315803],[87.58479952359428,26.979621883800835],[87.58451904793627,26.97971785397667],[87.58296968875094,26.980717485079104],[87.58244282088886,26.98127496971024],[87.58230808633114,26.981417825720765],[87.58230827754058,26.981566744916005],[87.58244308179889,26.98181444037787],[87.58256075426725,26.982030688937925],[87.58256107058261,26.982215743048148],[87.58244302806271,26.982286265888554],[87.58238838413193,26.982318026030253],[87.58195472472414,26.98226795621731],[87.58161285032875,26.982298720535827],[87.5814784902728,26.982389562016998],[87.58135995161071,26.982602251130594],[87.58115087856518,26.9827430455934],[87.5817478078839,26.983918880516757],[87.58225650919132,26.984718106604415],[87.58244308576937,26.985105591534843],[87.58247684907947,26.98517542424019],[87.58267681100052,26.985831488355817],[87.58269745069957,26.986169962406443],[87.5826282479352,26.98667592418299],[87.58244306289467,26.987049098790962],[87.5821163940438,26.987707359271973],[87.58172746809858,26.98911296552878],[87.58162107628065,26.99021722787449],[87.58162221359589,26.99081765428974],[87.58130588707307,26.99275347691213],[87.58116303336632,26.99326644197393],[87.58035682656923,26.99451807150848],[87.5802585475324,26.994884180737554],[87.578838782535,26.995041311961415],[87.57578924287083,26.995701617861574],[87.57537365273168,26.995622163221885],[87.5746178695147,26.995282138648257],[87.57445043602489,26.995443063415642],[87.57360622013636,26.996916008826908],[87.57317795093108,26.997552077351315],[87.57286741243065,26.998180891472064],[87.5727675730675,26.99861920897348],[87.57270025874212,26.99975485523862],[87.57281712548178,27.000309703370906],[87.57291947828257,27.00049213070545],[87.57309724421883,27.00112343745277],[87.57302004440504,27.001925111608404],[87.57344659799287,27.003042931570302],[87.57354590088012,27.003861920838787],[87.57351715056417,27.004394764162253],[87.57336272913332,27.004882972603706],[87.5727028770912,27.00558543903981],[87.57233712465285,27.005889408730745],[87.57142680236689,27.00641907887651],[87.57112069648315,27.006675409222325],[87.56948974370458,27.00759170391358],[87.5690001342638,27.007957131974997],[87.56864037968484,27.008078235134658],[87.56858855013637,27.0081664499986],[87.56840305401438,27.008620960991582],[87.56827783215303,27.009151931487448],[87.56817680368081,27.009608254230606],[87.56802043908378,27.009832384623532],[87.56784425291417,27.010000124006567],[87.56721021768476,27.010458706210827],[87.56692199427678,27.01077586665363],[87.56678251187354,27.011115030322497],[87.56676882781213,27.01151689816659],[87.56669911788563,27.01168644896756],[87.56650148730735,27.01185206321374],[87.56634443394202,27.012076132068316],[87.56626485151477,27.01253245476372],[87.56594481046912,27.01317252175803],[87.56637190309927,27.01314825798447],[87.56688246548721,27.013182322499823],[87.56722602739394,27.01309735430312],[87.5676586186127,27.012917294744632],[87.5680961468263,27.012585940572635],[87.56835517766034,27.01247884234536],[87.56878551982254,27.012357424320154],[87.56904192570565,27.012347355144964],[87.5695567995005,27.012248192427844],[87.5710032674179,27.012328129790436],[87.57142754871035,27.01237826336608],[87.57168276697551,27.012386261177404],[87.57185464187843,27.012351748240274],[87.57233324841262,27.012060842742418],[87.57293871507002,27.011810072342584],[87.57362758758822,27.011601812610348],[87.57440111696634,27.01143387584703],[87.57490116832926,27.01114290679527],[87.57527711008096,27.010732780450414],[87.57561960985227,27.010686261305317],[87.57696559954387,27.01059039917162],[87.577156107937,27.010634783832216],[87.57803437644134,27.011118724260673],[87.57873650877988,27.011158724481405],[87.57969760912721,27.011091501711626],[87.57995232783999,27.011117567740545],[87.58020373464824,27.01124066161535],[87.5805852504485,27.011309051185183],[87.58097170194252,27.01122395732347],[87.5814081062991,27.010930926726243],[87.58162980630942,27.010670471484467],[87.58195529777949,27.01050654308566],[87.58221326519475,27.010437769136363],[87.5824690460134,27.010427699812702],[87.58324238768105,27.01023938186733],[87.5835678781417,27.010057448178813],[87.58408375072746,27.00991977400226],[87.58464626335144,27.00964887330942],[87.58471053706,27.00965087272686],[87.58475174087746,27.009691258739732],[87.58478906993575,27.009844678723084],[87.58479458161152,27.010302875362804],[87.58474138084385,27.010605589909005],[87.58449993453706,27.011439525509832],[87.58424754053257,27.011968747333594],[87.58404559738379,27.012267587920416],[87.58373555320198,27.01262325991176],[87.58344414336081,27.013053328031305],[87.58364897257289,27.013289518503935],[87.58383823105743,27.013351909174908],[87.58402980088094,27.01335790742552],[87.58519009363776,27.013046047708613],[87.58538216378864,27.013031727953436],[87.58583445191151,27.01289211656061],[87.58660010712133,27.012913860244048],[87.58711816660691,27.012699414281972],[87.58742339921736,27.01249947627517],[87.58750843053312,27.012501474883646],[87.58756945462984,27.012598189550705],[87.58754251058906,27.012751797514056],[87.58732744628374,27.013432125882165],[87.58742080075731,27.013817674489598],[87.58754047383438,27.014049741001113],[87.58782764789434,27.014382646052763],[87.58795219467991,27.014463354856368],[87.5883946728492,27.01460826527474],[87.58864064278414,27.01488484275033],[87.58886468123775,27.01580710881469],[87.58914685672877,27.016273178783354],[87.58982874329679,27.01688659709361],[87.59089308230776,27.01750957445778],[87.59139870782201,27.01767674028619],[87.59208759347939,27.01807790956051],[87.59245873594925,27.01843300744556],[87.59258115884184,27.018588238394262],[87.59274097390843,27.018899076824933],[87.59279699861868,27.01912908114757],[87.59284921268262,27.019476431973818],[87.59310605541795,27.01942572515432],[87.59335971165318,27.01949011536986],[87.59361599234636,27.01945966397798],[87.59387396053812,27.019390827911245],[87.59428566966446,27.019192700257985],[87.59452769157804,27.018970506192048],[87.59472194804917,27.018881602205106],[87.59497779125493,27.018889599883558],[87.59522757335753,27.019048767752537],[87.59560746485433,27.01915554230757],[87.59623332586645,27.01953883261629],[87.59667630305242,27.019665612654105],[87.59705400718406,27.019828778928748],[87.5974964846202,27.019975814542136],[87.59799717349938,27.020278457971067],[87.59818599491454,27.02035891544792],[87.59845884666677,27.020481947563873],[87.59855100107316,27.020276135425643],[87.59863715694829,27.020239623611307],[87.59883472611291,27.020074009530564],[87.599036168942,27.019793236229948],[87.59910581598403,27.01962368504697],[87.5991024293829,27.019109034399698],[87.59894973808804,27.01859051007715],[87.59896554648321,27.018132188416445],[87.59904506631567,27.017678115709995],[87.59923106283685,27.017225917983193],[87.59949827862411,27.016890690903054],[87.59963382322236,27.01666437217457],[87.59991811086739,27.01644417739183],[87.60025503606653,27.01593939975747],[87.60039876642708,27.01548732660738],[87.60048809715775,27.014744295465125],[87.6005390483514,27.014498034955704],[87.60054504615339,27.01432642224608],[87.60039235553172,27.013807897478053],[87.59995417696543,27.01293621199135],[87.59991953486832,27.012706145293176],[87.5998052349168,27.012302590811714],[87.59976501876912,27.0116142646466],[87.59967441344618,27.01115419439562],[87.59953766944284,27.010804906092385],[87.5991121254749,27.010163413115485],[87.59901764645727,27.009818438028912],[87.59902589427071,27.00958824599668],[87.59939338835098,27.008798821182797],[87.5994498383404,27.008399015747024],[87.5993922508072,27.008225403409867],[87.59886849356356,27.008076430445747],[87.59996131486646,27.007304311315124],[87.60009810595088,27.00684548735453],[87.6000238264424,27.006751022848228],[87.59899781582182,27.00622269787773],[87.59905495836861,27.006062149672342],[87.59925959278709,27.005914540527563],[87.59980128505266,27.005659457015618],[87.6001948656519,27.005614875370867],[87.6004452079198,27.005658946220493],[87.60196727637125,27.006223524496363],[87.60303098773625,27.006731342884294],[87.60379752656395,27.00715914392049],[87.6044852843981,27.007460908054107],[87.60492725976279,27.007526732341457],[87.60629207897802,27.007897819519727],[87.60677556932283,27.007943074201854],[87.60695951144481,27.007933318228456],[87.60727456173619,27.00782584426348],[87.60812592445978,27.007271355279315],[87.60843565703608,27.006994644021674],[87.60856627513765,27.007373315552044],[87.60860298319923,27.007759115930682],[87.60799039050606,27.008075531284174],[87.60855679736396,27.008655504217394],[87.60867116002665,27.00905905796459],[87.60889137416532,27.009466611576265],[87.60925870553267,27.00993680589716],[87.60939982376073,27.01016868354376],[87.60957564778609,27.010632941975576],[87.60978041518435,27.010866819428294],[87.6101333620716,27.01112482705992],[87.61046936243469,27.011270113756037],[87.61088714504274,27.011509801814576],[87.61138127325847,27.012002000366277],[87.61205483643576,27.01223380753612],[87.61230624407646,27.012354588985133],[87.61255715115301,27.012495750811325],[87.61282625404782,27.0127338166148],[87.61316225471984,27.012876790111736],[87.61357453902212,27.01327002347409],[87.61402202703371,27.013875256380437],[87.61431758726171,27.014571455664495],[87.61439787001,27.014726874369764]]]}},{"type":"Feature","properties":{"province":"Koshi Province","district":"Pachthar","municipality":"Tumbewa Rural Municipality","ward":"1","wardNumber":1,"sourceMunicipality":"Tumbewa","sourceType":"Gaunpalika"},"geometry":{"type":"Polygon","coordinates":[[[87.53825901308552,27.04501004875185],[87.53858250398011,27.04490495091942],[87.53884053427197,27.044836238931115],[87.5396872855946,27.04503159507117],[87.54041862452104,27.045473462655675],[87.54083809438293,27.045675014756664],[87.54142887708304,27.045844305022065],[87.54159906373991,27.045850366311797],[87.54228537479293,27.045714565676118],[87.542891153805,27.04546166982859],[87.54356595529859,27.045039159539034],[87.54415853714544,27.044538003070176],[87.5445719949437,27.044281358615617],[87.5450040871644,27.044101361902108],[87.54563337294168,27.043773818426207],[87.54601501386102,27.043840080965516],[87.54686538843056,27.043881892683117],[87.54840013784215,27.043884931221818],[87.54891788609628,27.043688739879364],[87.54922318068658,27.043486676128122],[87.54933409378903,27.043355323274962],[87.54944669376712,27.043185583839094],[87.5497679225234,27.04250262919294],[87.55001238174093,27.04222173014682],[87.55027484797566,27.042019791691718],[87.5504483476475,27.041928825022016],[87.55081397871027,27.0418235380793],[87.55124338476809,27.041738381302874],[87.5516282118779,27.04169167410378],[87.55223881509102,27.04191729247085],[87.55248790987527,27.042096903287675],[87.55300460850383,27.042571097045773],[87.55350698511353,27.04283322767605],[87.55376064132267,27.042897680162845],[87.5541872968401,27.042889233473],[87.55470229576768,27.042787882861564],[87.55513438766646,27.042607823046023],[87.55570052601048,27.042260274944784],[87.5559573680532,27.042209568327443],[87.556213337242,27.042215315748425],[87.55672233745716,27.04228776596289],[87.55714343214014,27.04243280169153],[87.55778574036367,27.042967572909458],[87.55823760299805,27.043457772037883],[87.55848851002463,27.043598996972023],[87.55874160378579,27.043681516824666],[87.55899638585043,27.043707645005167],[87.55942516566233,27.043624613732742],[87.55959803973025,27.04355165217627],[87.55975084438049,27.043460748720452],[87.56017030086579,27.043030177543308],[87.56036524595079,27.04293914796753],[87.56087474561735,27.042991279812828],[87.56121074634395,27.043134378639213],[87.5617680238289,27.043667088970825],[87.56194978359476,27.043959858894215],[87.56213479203628,27.044155475930616],[87.56236425472855,27.044296763745535],[87.56247023076867,27.04431889288281],[87.56281235580511,27.04428819117553],[87.56307094794643,27.044199035661507],[87.56363864743929,27.043792782499196],[87.56406911499553,27.043671427531823],[87.56461162004668,27.043378020385223],[87.56482738560122,27.043307183101813],[87.56516944778333,27.04327867001589],[87.56559491579836,27.043290603431597],[87.56610997706026,27.043189127775126],[87.56636525838347,27.043194875686236],[87.56704163377957,27.043347847477925],[87.56772357066006,27.043347398261528],[87.56840881901849,27.043249796299172],[87.56875363086704,27.04314457196139],[87.56892713026738,27.04305354275291],[87.57030087633116,27.042763560117287],[87.57116443551045,27.042421446357135],[87.57150599807265,27.042413312808105],[87.57271719289636,27.042503132355776],[87.57303730974158,27.042490561111567],[87.57329371567796,27.04247824071803],[87.57406893189642,27.042231280448764],[87.57437366426953,27.04204715895539],[87.57492816701348,27.041412839887425],[87.57544928928534,27.041142001647998],[87.57587800749342,27.041059095334763],[87.57647435096295,27.041076903713407],[87.576767585724,27.04123825843799],[87.5768284849601,27.041317030729733],[87.577307353946,27.041655872054694],[87.57747473020335,27.04173639325029],[87.57806669943572,27.041887489782276],[87.57849335575581,27.041881231293196],[87.57892382325102,27.041759813337674],[87.579265885142,27.041731299750445],[87.57994557233594,27.04178943063465],[87.5802608158012,27.04193259272968],[87.58075938054027,27.042309757552623],[87.58109594375883,27.042434788995894],[87.58124749799043,27.042361889871994],[87.58129257568727,27.04230537249265],[87.58147363544532,27.041986275987675],[87.5815213990436,27.041834793733113],[87.58152971043536,27.041606788760784],[87.58137476897987,27.041142467684953],[87.58140933644853,27.04076079335335],[87.58154706863436,27.040460015047422],[87.58167998967696,27.04033078764591],[87.5817656452816,27.0403146559669],[87.58208519963821,27.04032234081512],[87.58279184400519,27.04084085655677],[87.58322394879416,27.0412724762085],[87.58361709939271,27.041609381004886],[87.58407558523135,27.04190771033604],[87.5841596166659,27.041950221711172],[87.5845004909933,27.04193977523858],[87.58482498207528,27.041796228186193],[87.58493527047693,27.041685131651914],[87.58492644736353,27.041321775442007],[87.58462832585332,27.040702285983567],[87.584574362322,27.04039325883401],[87.58449757902439,27.040163255055212],[87.58425754388927,27.03969705955639],[87.58422290252695,27.039466993151194],[87.58446661065156,27.039186093941588],[87.58470544535481,27.039060866243005],[87.58496397563218,27.03897183535584],[87.58513316330067,27.039013970676113],[87.58530385072781,27.038999713712542],[87.58564041366533,27.039124744535968],[87.58578534410503,27.039243777418076],[87.58598917426393,27.03951829164275],[87.58612473193332,27.03990371501711],[87.58611867014658,27.040075265133563],[87.586192329474,27.040420364791583],[87.58618470639819,27.04065062005642],[87.5861089975898,27.04099178371502],[87.58621272513855,27.041072618356402],[87.58636146670348,27.04107649257687],[87.58688140200871,27.04082378477411],[87.58739796274004,27.040665855346408],[87.58756927520429,27.040633529969995],[87.58799524255004,27.04062495794939],[87.58842346034952,27.040562245336545],[87.58882535938146,27.040648576350865],[87.58905650799197,27.040733347835022],[87.58922563395654,27.04077554440766],[87.58947710255725,27.040896388319418],[87.58982905043098,27.04119284483722],[87.58993059035944,27.041330132929946],[87.59017068775557,27.04179639083566],[87.59025196981882,27.04191342406168],[87.59039689962356,27.042032456949425],[87.59060879002234,27.042056397504],[87.59103700800863,27.041993622489052],[87.59146578892354,27.04190821516511],[87.59172488098864,27.04180111689457],[87.5919824121588,27.041752660937693],[87.59240731817286,27.041782412702585],[87.59283059864029,27.04185286450744],[87.59367447465658,27.042086293345513],[87.59409231990138,27.042328295439475],[87.59451672629113,27.042378427885083],[87.59511294471241,27.042375917350963],[87.59606935817219,27.042441796411204],[87.59624017002642,27.04242753887701],[87.59675666820482,27.042269547165482],[87.59710360473082,27.04208973837795],[87.5973617595026,27.04202096427136],[87.59796716338381,27.041749812117867],[87.59839644312012,27.041648588252855],[87.5988247231571,27.041583562383106],[87.59916503544778,27.04159337179142],[87.59984028591077,27.041766599246145],[87.60060562954769,27.041806223413754],[87.60095037863474,27.041700874199535],[87.60127593176468,27.041518878325274],[87.60162180502107,27.04137745593543],[87.6019301608427,27.041060107772424],[87.602038387487,27.041025783985056],[87.60246491852371,27.040999143744557],[87.60305457537125,27.04118843954575],[87.6033939505262,27.041236635988906],[87.60390832429752,27.041135097830008],[87.60424982403956,27.041126839487404],[87.60442107256118,27.04109226416168],[87.60491893772658,27.04085987554743],[87.60534990462219,27.040718077104447],[87.60561224659037,27.04051601295509],[87.60572465903657,27.040328206258785],[87.60620932731265,27.03986337444727],[87.60662478454559,27.039550088676744],[87.6067971589751,27.03947925237765],[87.60705031606518,27.039561772411766],[87.60715241765429,27.039680930566366],[87.6071663029301,27.039908872017563],[87.60707139900686,27.04019370697498],[87.60706540062684,27.040365257650137],[87.60710385420019,27.04048022843239],[87.60720708176645,27.040579130225183],[87.60731305802072,27.040601197944586],[87.60759140866561,27.040552616719133],[87.60767819024376,27.040516167188414],[87.60811503088915,27.04018468723844],[87.60837574835787,27.04003907795752],[87.60888905983018,27.039978051912932],[87.60914815226732,27.039870953535885],[87.60925844036579,27.039759856833733],[87.60939723422692,27.03943869828452],[87.60952890440556,27.039307157528494],[87.60960080155232,27.039081152170656],[87.60958754157076,27.038850960379428],[87.60951000900043,27.038618830497988],[87.60942978915166,27.038463412045687],[87.60924415483014,27.0382881755982],[87.6090822161617,27.038054110302436],[87.609028877173,27.037745145305685],[87.6091187817264,27.037595724989586],[87.60962801895539,27.037017922189982],[87.60985409397438,27.03664224628136],[87.61001870761211,27.036187797532996],[87.61002895542971,27.035883020721474],[87.60995692071452,27.035497346634468],[87.60938662097978,27.034107073555305],[87.6087956391589,27.033326479345817],[87.60846463793311,27.033050153894578],[87.60811593980563,27.032658919967187],[87.60766057743666,27.0322636235674],[87.60730700563691,27.032023622226404],[87.60712193375086,27.031825816817],[87.60711254795065,27.031482716777703],[87.6072266479388,27.031258773939783],[87.6075158718165,27.030903102366384],[87.60773482273945,27.030719357892092],[87.60804817894463,27.03029135200392],[87.60821272951566,27.029836904196923],[87.60824448452485,27.029534314678113],[87.60840903555709,27.029079866738215],[87.60856102721618,27.028988962075218],[87.60887119648739,27.028655797091613],[87.6097628732244,27.027500694135075],[87.60992261389836,27.027199790665687],[87.61006565604129,27.026745467375893],[87.61014236411961,27.02636591739413],[87.61015061287928,27.026137850500763],[87.60992301227013,27.025310424074167],[87.60989012025506,27.025044221923444],[87.60987898410477,27.024737320105412],[87.60995081843646,27.024511252602018],[87.61010612183743,27.024325507665406],[87.61036902600803,27.02412344403379],[87.61050132231944,27.023994217051637],[87.61091403055137,27.02375764089],[87.61102538025796,27.02360815708314],[87.6111214092983,27.023305317466153],[87.61113446920652,27.02292595605419],[87.61107838096422,27.022693763973667],[87.61107755596157,27.022084272696386],[87.61099782368788,27.021319424748206],[87.6109070931898,27.020857103772613],[87.61092015352907,27.020477804488745],[87.61111639713621,27.01972070453461],[87.61128088542277,27.01926631858069],[87.61150696003729,27.018892892646583],[87.61190753360701,27.018390051588767],[87.61268230008615,27.01753566371046],[87.6130111020859,27.01727914566419],[87.61340667709801,27.016909468205434],[87.61395380558601,27.016487210044172],[87.61425785091647,27.016323344437172],[87.61443234961317,27.016196241993622],[87.61429116839295,27.01596205104176],[87.6141462374517,27.015843080848136],[87.61394690675142,27.015455720834627],[87.61393302195006,27.015227779456186],[87.61411414529027,27.014926750731906],[87.61439787001,27.014726874369764],[87.61431758726171,27.014571455664495],[87.61402202703371,27.013875256380437],[87.61357453902212,27.01327002347409],[87.61316225471984,27.012876790111736],[87.61282625404782,27.0127338166148],[87.61255715115301,27.012495750811325],[87.61230624407646,27.012354588985133],[87.61205483643576,27.01223380753612],[87.61138127325847,27.012002000366277],[87.61088714504274,27.011509801814576],[87.61046936243469,27.011270113756037],[87.6101333620716,27.01112482705992],[87.60978041518435,27.010866819428294],[87.60957564778609,27.010632941975576],[87.60939982376073,27.01016868354376],[87.60925870553267,27.00993680589716],[87.60889137416532,27.009466611576265],[87.60867116002665,27.00905905796459],[87.60855679736396,27.008655504217394],[87.60799039050606,27.008075531284174],[87.60860298319923,27.007759115930682],[87.60856627513765,27.007373315552044],[87.60843565703608,27.006994644021674],[87.60812592445978,27.007271355279315],[87.60727456173619,27.00782584426348],[87.60695951144481,27.007933318228456],[87.60677556932283,27.007943074201854],[87.60629207897802,27.007897819519727],[87.60492725976279,27.007526732341457],[87.6044852843981,27.007460908054107],[87.60379752656395,27.00715914392049],[87.60303098773625,27.006731342884294],[87.60196727637125,27.006223524496363],[87.6004452079198,27.005658946220493],[87.6001948656519,27.005614875370867],[87.59980128505266,27.005659457015618],[87.59925959278709,27.005914540527563],[87.59905495836861,27.006062149672342],[87.59899781582182,27.00622269787773],[87.6000238264424,27.006751022848228],[87.60009810595088,27.00684548735453],[87.59996131486646,27.007304311315124],[87.59886849356356,27.008076430445747],[87.5993922508072,27.008225403409867],[87.5994498383404,27.008399015747024],[87.59939338835098,27.008798821182797],[87.59902589427071,27.00958824599668],[87.59901764645727,27.009818438028912],[87.5991121254749,27.010163413115485],[87.59953766944284,27.010804906092385],[87.59967441344618,27.01115419439562],[87.59976501876912,27.0116142646466],[87.5998052349168,27.012302590811714],[87.59991953486832,27.012706145293176],[87.59995417696543,27.01293621199135],[87.60039235553172,27.013807897478053],[87.60054504615339,27.01432642224608],[87.6005390483514,27.014498034955704],[87.60048809715775,27.014744295465125],[87.60039876642708,27.01548732660738],[87.60025503606653,27.01593939975747],[87.59991811086739,27.01644417739183],[87.59963382322236,27.01666437217457],[87.59949827862411,27.016890690903054],[87.59923106283685,27.017225917983193],[87.59904506631567,27.017678115709995],[87.59896554648321,27.018132188416445],[87.59894973808804,27.01859051007715],[87.5991024293829,27.019109034399698],[87.59910581598403,27.01962368504697],[87.599036168942,27.019793236229948],[87.59883472611291,27.020074009530564],[87.59863715694829,27.020239623611307],[87.59855100107316,27.020276135425643],[87.59845884666677,27.020481947563873],[87.59818599491454,27.02035891544792],[87.59799717349938,27.020278457971067],[87.5974964846202,27.019975814542136],[87.59705400718406,27.019828778928748],[87.59667630305242,27.019665612654105],[87.59623332586645,27.01953883261629],[87.59560746485433,27.01915554230757],[87.59522757335753,27.019048767752537],[87.59497779125493,27.018889599883558],[87.59472194804917,27.018881602205106],[87.59452769157804,27.018970506192048],[87.59428566966446,27.019192700257985],[87.59387396053812,27.019390827911245],[87.59361599234636,27.01945966397798],[87.59335971165318,27.01949011536986],[87.59310605541795,27.01942572515432],[87.59284921268262,27.019476431973818],[87.59279699861868,27.01912908114757],[87.59274097390843,27.018899076824933],[87.59258115884184,27.018588238394262],[87.59245873594925,27.01843300744556],[87.59208759347939,27.01807790956051],[87.59139870782201,27.01767674028619],[87.59089308230776,27.01750957445778],[87.58982874329679,27.01688659709361],[87.58914685672877,27.016273178783354],[87.58886468123775,27.01580710881469],[87.58864064278414,27.01488484275033],[87.5883946728492,27.01460826527474],[87.58795219467991,27.014463354856368],[87.58782764789434,27.014382646052763],[87.58754047383438,27.014049741001113],[87.58742080075731,27.013817674489598],[87.58732744628374,27.013432125882165],[87.58754251058906,27.012751797514056],[87.58756945462984,27.012598189550705],[87.58750843053312,27.012501474883646],[87.58742339921736,27.01249947627517],[87.58711816660691,27.012699414281972],[87.58660010712133,27.012913860244048],[87.58583445191151,27.01289211656061],[87.58538216378864,27.013031727953436],[87.58519009363776,27.013046047708613],[87.58402980088094,27.01335790742552],[87.58383823105743,27.013351909174908],[87.58364897257289,27.013289518503935],[87.58344414336081,27.013053328031305],[87.58373555320198,27.01262325991176],[87.58404559738379,27.012267587920416],[87.58424754053257,27.011968747333594],[87.58449993453706,27.011439525509832],[87.58474138084385,27.010605589909005],[87.58479458161152,27.010302875362804],[87.58478906993575,27.009844678723084],[87.58475174087746,27.009691258739732],[87.58471053706,27.00965087272686],[87.58464626335144,27.00964887330942],[87.58408375072746,27.00991977400226],[87.5835678781417,27.010057448178813],[87.58324238768105,27.01023938186733],[87.5824690460134,27.010427699812702],[87.58221326519475,27.010437769136363],[87.58195529777949,27.01050654308566],[87.58162980630942,27.010670471484467],[87.5814081062991,27.010930926726243],[87.58097170194252,27.01122395732347],[87.5805852504485,27.011309051185183],[87.58020373464824,27.01124066161535],[87.57995232783999,27.011117567740545],[87.57969760912721,27.011091501711626],[87.57873650877988,27.011158724481405],[87.57803437644134,27.011118724260673],[87.577156107937,27.010634783832216],[87.57696559954387,27.01059039917162],[87.57561960985227,27.010686261305317],[87.57527711008096,27.010732780450414],[87.57490116832926,27.01114290679527],[87.57440111696634,27.01143387584703],[87.57362758758822,27.011601812610348],[87.57293871507002,27.011810072342584],[87.57233324841262,27.012060842742418],[87.57185464187843,27.012351748240274],[87.57168276697551,27.012386261177404],[87.57142754871035,27.01237826336608],[87.5710032674179,27.012328129790436],[87.5695567995005,27.012248192427844],[87.56904192570565,27.012347355144964],[87.56878551982254,27.012357424320154],[87.56835517766034,27.01247884234536],[87.5680961468263,27.012585940572635],[87.5676586186127,27.012917294744632],[87.56722602739394,27.01309735430312],[87.56688246548721,27.013182322499823],[87.56637190309927,27.01314825798447],[87.56594481046912,27.01317252175803],[87.5654524432778,27.013235548689778],[87.56484691452867,27.01348619441206],[87.56445221518918,27.01381735979619],[87.56409809301111,27.014188974998177],[87.56394553948778,27.014300197489103],[87.56359972792659,27.01444155717297],[87.56327136259776,27.014682132673418],[87.56309686379814,27.014809235808496],[87.56305234957647,27.014865940479098],[87.5628333349734,27.01503155477318],[87.56265658632913,27.015217361830928],[87.56247596418807,27.015518265381807],[87.5624275739963,27.015669686249925],[87.56233873202906,27.015780657173654],[87.56198723451296,27.016077812126888],[87.5618945173778,27.016303880464267],[87.56183081879988,27.01691362243224],[87.56147344753008,27.017400333865243],[87.56134165197655,27.017509242262324],[87.56090906028736,27.017689302282637],[87.5603880625842,27.017960015301455],[87.55979791826384,27.01840259203915],[87.55910510787278,27.01870550465841],[87.55867464044671,27.01882685885051],[87.5584797584359,27.018917951196222],[87.55834915027783,27.019008730237864],[87.55794501390683,27.019588219530906],[87.55768211051354,27.019810475633854],[87.55750742309135,27.019919510503417],[87.55707651859919,27.020061247226916],[87.55675590201089,27.020089572660922],[87.5565845898015,27.02010376732926],[87.55587539675457,27.02029395957475],[87.5555497813132,27.02045551179931],[87.55503540690782,27.020536544114698],[87.55461000100607,27.02052242145556],[87.55410325003265,27.020375449299735],[87.5539369368102,27.020254291727625],[87.55335071669397,27.01995183786777],[87.5530970597911,27.0198873230657],[87.5521749016602,27.01943958144932],[87.55200577604826,27.01939507107559],[87.55154803976662,27.019076360032326],[87.55121047673762,27.018991903572875],[87.55078557048549,27.018941645410187],[87.55009607320247,27.019172348978866],[87.5498397927304,27.019204924851376],[87.54966685588758,27.019275573971587],[87.5491227890347,27.0196073043318],[87.54899099266174,27.019718401915103],[87.54883393980688,27.019942470498535],[87.54854627880489,27.020261880405982],[87.54821685186543,27.020558910661975],[87.54747740210411,27.020999676564433],[87.5470842644538,27.02127657637529],[87.54674063981764,27.021363732694365],[87.54657045252851,27.021357609183305],[87.54579861056317,27.021491597735835],[87.54536764406373,27.02163320855217],[87.54486865452365,27.021906047163295],[87.54405712034747,27.022575068772788],[87.54363760123455,27.02300557669656],[87.54339389230178,27.023286412731718],[87.5428545869439,27.024094408451962],[87.54241762059824,27.02442788840793],[87.5420694976662,27.024630140275246],[87.5417406332962,27.02490903984753],[87.54084731794956,27.02547909621455],[87.53977156774148,27.0263883799531],[87.53951135003005,27.026515796682563],[87.53929221024653,27.026681474147416],[87.53913790706996,27.02683102013551],[87.53952537192009,27.02733966311048],[87.53960884066323,27.027398053362095],[87.54010065767243,27.027987531321173],[87.54072033326013,27.028560751123596],[87.54097123979244,27.028702038693478],[87.5412874208477,27.02880462643642],[87.54154163973915,27.028851073041853],[87.54179854497228,27.02881843446635],[87.54218062336018,27.02884856230357],[87.54298098363645,27.02911862858377],[87.54306495299646,27.02915888892069],[87.54324996182788,27.029356818936385],[87.54351119176928,27.02982307688375],[87.54373497958846,27.030749969833483],[87.54381283777327,27.03159384045286],[87.54379459223634,27.032131186051686],[87.54376546106333,27.03235925322822],[87.54362429125779,27.03273905418312],[87.54349956897089,27.033272212470816],[87.54345500455624,27.033960914881565],[87.54335666324843,27.034340465377216],[87.54333848010012,27.034877810305865],[87.54318668844462,27.035562263948414],[87.54315032145927,27.036634641282248],[87.54309974471174,27.036862896591895],[87.54308431085175,27.03732340646238],[87.54303092297134,27.03762837118109],[87.5428633719255,27.03816171826064],[87.54280785932531,27.038543393089785],[87.54257447348341,27.03914926191336],[87.5421707754194,27.039733189864315],[87.54174019555472,27.04048654235218],[87.54106515738258,27.041522982506972],[87.54088834614244,27.041711039830336],[87.54060393362931,27.041933359855687],[87.54034527858207,27.042002071364816],[87.53991912223618,27.041990199707207],[87.5393272146612,27.041838978017182],[87.53890605736748,27.041675811269723],[87.5381445257582,27.041500460445857],[87.53763877486352,27.041314976410266],[87.53738455520438,27.041268591427862],[87.5371275867128,27.041301167862613],[87.53678215069792,27.041424397138705],[87.53635505777572,27.041450848861967],[87.5359243391613,27.04155407359248],[87.53531812374943,27.041824975730357],[87.53496662552149,27.042122068627645],[87.53470090980998,27.042421034805656],[87.5345381075468,27.042800899271672],[87.53438269246922,27.043638896858294],[87.53438283140281,27.044329661746215],[87.53445092949276,27.044868881464872],[87.53445606665562,27.045403850812086],[87.53475087785586,27.046179198155905],[87.53497271704634,27.04656887108013],[87.53515497668592,27.046861641684607],[87.53568537286078,27.047584157857514],[87.53630461141219,27.048175445824107],[87.5364489795279,27.048314858935143],[87.53660322061934,27.04814724543987],[87.53714978510442,27.047644026260016],[87.53728420513758,27.0474177706812],[87.53744713039512,27.046963446875612],[87.537719406977,27.046434163051487],[87.53787613467463,27.04559385125427],[87.53803881147219,27.045216363227933],[87.53825901308552,27.04501004875185]]]}},{"type":"Feature","properties":{"province":"Koshi Province","district":"Pachthar","municipality":"Tumbewa Rural Municipality","ward":"5","wardNumber":5,"sourceMunicipality":"Tumbewa","sourceType":"Gaunpalika"},"geometry":{"type":"Polygon","coordinates":[[[87.61462738592249,26.974740466068894],[87.61471704413333,26.974778475970243],[87.61602845429027,26.974443168480537],[87.61663892331993,26.97423959906726],[87.61756468886495,26.973754692350585],[87.61872658927622,26.972566762348354],[87.61971449456752,26.971706869045587],[87.62041643247613,26.971414834260326],[87.62131925183321,26.970893979814665],[87.62194535071188,26.970665465136523],[87.6231021436035,26.970405244546537],[87.62405686699239,26.970380659301707],[87.62412414099114,26.97035783918061],[87.62415240101464,26.970348648207292],[87.62497044945704,26.97031793823042],[87.625550408699,26.970191204283672],[87.62650850905334,26.97020950597052],[87.62738533433398,26.9704493747809],[87.62848411459592,26.970625033166503],[87.62882029860828,26.97059645656908],[87.62917098693943,26.970452658152958],[87.62939844272604,26.970359065288232],[87.63010764128066,26.970475524863147],[87.63070543234736,26.970931085838643],[87.63112133744842,26.971084936954124],[87.63179164553749,26.971113558691673],[87.63203048293506,26.97113281100044],[87.63308674582642,26.971249889942204],[87.63395968763378,26.971133091267028],[87.63480792988295,26.970883254041482],[87.63625088785817,26.970540443014748],[87.63686711184634,26.970478851763453],[87.636994908281,26.97046703351643],[87.63745182577482,26.970512351617604],[87.6388731629876,26.97080385112593],[87.63947931829343,26.970627290082692],[87.64050775676293,26.970611267943593],[87.64078016765424,26.97055812343229],[87.64112510128048,26.970312795117177],[87.64162227192632,26.969784570237305],[87.64190817703168,26.96922796448468],[87.64221627241518,26.968357517227883],[87.64247160199913,26.967731016695687],[87.6434498725273,26.966552780069787],[87.64348919842796,26.966496200916648],[87.64355984771767,26.96639654502444],[87.64416711416438,26.96554503553765],[87.64522504217781,26.964522093325282],[87.64585312887483,26.963670521351332],[87.64639761889866,26.9626363963924],[87.64648627366641,26.962505106373364],[87.64654829508461,26.96244390004613],[87.64706297708449,26.962138989611617],[87.64752744842554,26.96164252383253],[87.64776752545373,26.96112449356854],[87.64781935104087,26.960826280461212],[87.64788037104587,26.9606973662614],[87.64792557377656,26.960665544143414],[87.64822167864607,26.96047229495607],[87.64858930758439,26.960226841315155],[87.64852703310999,26.960125500920505],[87.64741628826184,26.958853020729507],[87.64673883081304,26.957781718521723],[87.64519749410725,26.95663078168592],[87.64390344362643,26.955880582848156],[87.64341982555825,26.95566834134673],[87.64183104838449,26.955239929783602],[87.641467099193,26.955040689854215],[87.64077676575313,26.954116117924645],[87.63939943410614,26.953327846745736],[87.63884684893925,26.952944368423996],[87.63774712483736,26.952464058380958],[87.63676288401048,26.952143480924683],[87.63647602988483,26.95218993680405],[87.63528985746112,26.952689602814182],[87.63437153253496,26.95322652522137],[87.63390630085223,26.953257917343798],[87.63177439412944,26.953098280279516],[87.63001700281089,26.953140009601444],[87.62981124087436,26.953167958086546],[87.62953564099502,26.95320309814056],[87.6279996422493,26.9531986843318],[87.62702591619953,26.953399446689296],[87.62694594949276,26.95339532177732],[87.62643126035738,26.953361445697535],[87.6251665990631,26.952780233159206],[87.62425450579008,26.952285416129047],[87.6241237687839,26.9522092712946],[87.62362020450468,26.951915755565246],[87.62303474050222,26.951940959826082],[87.62270386465062,26.95167382450818],[87.62235873618225,26.951555670709855],[87.62206062888919,26.95162250781163],[87.6217900955424,26.951786185595545],[87.62159758847602,26.951814133653286],[87.62142164820176,26.951774313066903],[87.62122357261316,26.951596826351118],[87.62110095902737,26.951288113486722],[87.62107199452517,26.950484690464506],[87.62089523371498,26.95006106911946],[87.62055985240147,26.949658519516124],[87.6203473962742,26.9494946621515],[87.61978344444489,26.949675474371077],[87.61921730700398,26.949989513819563],[87.61896346347247,26.94999058044988],[87.61868235779431,26.94983160091637],[87.61849409524532,26.94949381731261],[87.6182380598367,26.94930982998801],[87.61773324012344,26.94877937061561],[87.61751014870646,26.948290480999454],[87.6174431854468,26.948250157553716],[87.61752802887335,26.94821364594927],[87.61705372074078,26.947734951227837],[87.61658060644498,26.947581288627102],[87.61588160199616,26.94758211291916],[87.61530795184115,26.947467213705306],[87.61464108352267,26.947467911917677],[87.61378776275086,26.946993099606885],[87.61361900876469,26.94676809899376],[87.61354491042404,26.94633953673183],[87.61326242826868,26.94616017618495],[87.61315188666418,26.946090658228457],[87.61175174022705,26.94556858999245],[87.61147894986343,26.94542080166531],[87.6096430021414,26.944081188841952],[87.60878618708311,26.94400586889186],[87.60838710278087,26.943917349052562],[87.60803221871795,26.943731487827268],[87.60716689807393,26.943471176022157],[87.60709749662051,26.943451108231745],[87.60552191390622,26.943085464463074],[87.60490174308825,26.94274506238646],[87.60436179182265,26.9425623302827],[87.60321318278574,26.94244081323079],[87.60304861913397,26.942292522432787],[87.6031745931955,26.94181569331275],[87.60350570436222,26.941319917464117],[87.60367806712628,26.940707485473393],[87.60376552472852,26.940108933413292],[87.60363478480376,26.939913066068076],[87.60333892505426,26.939812791827766],[87.6021358614943,26.939863076213257],[87.60191540877,26.939961107676684],[87.60141528965748,26.940058019437046],[87.600816579048,26.94042851332136],[87.6007283612917,26.94053273291382],[87.60056736640507,26.940569558764835],[87.60023993125975,26.94045809363606],[87.59957836083268,26.93966412142995],[87.59944336834461,26.93938029043781],[87.5991635107351,26.939092523265803],[87.59893217517752,26.939041575151276],[87.597629806951,26.938171278638798],[87.59645825769871,26.93833653380758],[87.59577513847209,26.93859230745784],[87.59497410040242,26.938807883637836],[87.59491557902022,26.93882388886126],[87.59457013822406,26.93874643416396],[87.5943166047385,26.93855557026383],[87.59407075899733,26.938260925308793],[87.59381952987107,26.937668318547285],[87.59351208269841,26.93655449660823],[87.59331219342643,26.93637476017848],[87.59259011145328,26.936050489477612],[87.59180218717526,26.93551884607342],[87.59092835137959,26.934698620160475],[87.59082656364856,26.93462903900866],[87.59062130293822,26.934747326986514],[87.58990029699603,26.93509569073284],[87.58880652892009,26.93543887174235],[87.5876551121698,26.935599437478075],[87.58736876775919,26.936113092447517],[87.58679831992002,26.936607559220054],[87.58585161214995,26.9372638290088],[87.58389804018209,26.938050779572237],[87.58273962527718,26.938450602806142],[87.58244226846544,26.938539883353904],[87.58190788881456,26.938697813197102],[87.58184311559235,26.938716195280808],[87.58079248481248,26.93889657759984],[87.58042948138544,26.93908095022109],[87.57994693195391,26.939152916313397],[87.57859218794303,26.93921495615897],[87.57775750705817,26.939139385001905],[87.57730852814595,26.939012543097157],[87.57680658900597,26.93875047471591],[87.57585348490537,26.938429333418185],[87.5750557481124,26.93806917826565],[87.57458713661904,26.93791989177842],[87.57228336365534,26.938197885597067],[87.5720508408429,26.93816275429993],[87.57158078717893,26.937853171029836],[87.57097224119089,26.937300331761502],[87.57053350382074,26.936573000216747],[87.5703372311159,26.935867296234616],[87.57014403089863,26.93563554430515],[87.56989618852488,26.93555983891817],[87.56932560935623,26.935778850005715],[87.56917349228338,26.93583586860264],[87.56824422175198,26.936103774490444],[87.56770727576914,26.936137543648332],[87.56727712095967,26.936236329698993],[87.5668303988683,26.936436770743093],[87.56660888380938,26.93658663072246],[87.56607506656768,26.936746811184967],[87.56510028615344,26.937353442105497],[87.5646654481728,26.93777288390437],[87.56365091188977,26.93887609915098],[87.56272266340508,26.94024557805462],[87.56257774222237,26.9406028098923],[87.56261407484199,26.940948098000167],[87.56261809219363,26.941751583108484],[87.5625579623874,26.94257576363594],[87.56219766839013,26.943814194949663],[87.56203311507025,26.94416930131109],[87.56156470393518,26.944672268946512],[87.56129992359126,26.944862953723725],[87.56113980701562,26.945078019844242],[87.56086103357342,26.945875945112103],[87.56086023028112,26.946350021701495],[87.56115517190712,26.94741201606623],[87.56097611611757,26.947877717540372],[87.56078392513123,26.948097472912977],[87.56055027967666,26.94822482640082],[87.56014538157895,26.948221894446572],[87.55991085802677,26.948175446987932],[87.55926342834199,26.9479003773294],[87.5590395956384,26.947851616172482],[87.55882939455704,26.947877252638154],[87.55852516270284,26.948108762231392],[87.55802085909714,26.94839066611486],[87.55695098964888,26.949412920357315],[87.55642374663384,26.950019981720477],[87.55576465927696,26.9514695421848],[87.5553629037921,26.952238586598124],[87.55460365536884,26.95369533818606],[87.55437026147256,26.953872331301678],[87.55427453840218,26.95387270775107],[87.55395498286092,26.953815258535478],[87.55296555099686,26.953412844330735],[87.55219526715717,26.953260123719687],[87.55190178443536,26.953261254256606],[87.55145456104084,26.95337585708195],[87.55127631020937,26.953480453584557],[87.55110987926375,26.95372033889809],[87.55107512858389,26.95433451965164],[87.55068262762795,26.95519834167601],[87.55025603869628,26.955416725045666],[87.5496940853553,26.9554888803062],[87.54892998285214,26.954938856286763],[87.54853627605723,26.954920044194363],[87.54835333813561,26.95511716795496],[87.5482654372111,26.955431260839568],[87.54843888650359,26.955994985702375],[87.54843845547845,26.956295136396665],[87.54826802421441,26.956600541474003],[87.54796954568225,26.956868062247757],[87.5470325862518,26.957289325613434],[87.54661299753121,26.957392550268217],[87.54601371458186,26.957315912347607],[87.54569810185002,26.957420948219642],[87.54548652728191,26.95756399299414],[87.54517856852497,26.95898729033069],[87.54491929990898,26.959683498726374],[87.54448539698332,26.959942518978462],[87.544074746914,26.95994190087217],[87.5426419079656,26.959800694618064],[87.54217217933095,26.960082410090237],[87.5419456019145,26.960372248543866],[87.54119111618705,26.9623300217842],[87.54076027813007,26.962717642013583],[87.54046867697136,26.962980599095207],[87.53983257771236,26.963371286237763],[87.53889493084529,26.963794800223432],[87.538472724125,26.964272697339375],[87.53804170418258,26.964890572699982],[87.53783463903213,26.965451177368337],[87.53772029126515,26.96577439898839],[87.53880825796185,26.966086285877022],[87.53917127136327,26.96639643294766],[87.53934327487023,26.96654472402489],[87.53955035253915,26.966647750933245],[87.5401978387406,26.966647490555022],[87.54076060336547,26.966460238843315],[87.54095179712213,26.966396279830718],[87.54143784633756,26.966236412349044],[87.54172101094302,26.966174389829234],[87.54220525056945,26.966158939662396],[87.54268030210787,26.96632191722762],[87.54278077799177,26.966398251292876],[87.54337562969745,26.966845185042644],[87.54430334549954,26.96697702120627],[87.54543151905511,26.967525663908724],[87.5459078845326,26.96769764382204],[87.54730740055669,26.9679675753515],[87.54895257454505,26.968484825372297],[87.54945457569322,26.968746956581175],[87.55005123992339,26.969178010892563],[87.5508319801481,26.97003043581542],[87.55133098558836,26.97057702557869],[87.55172539076958,26.971117240292624],[87.55333556070903,26.97206349085501],[87.55439502643881,26.972844890393915],[87.55510622932943,26.973126399175865],[87.5561361159905,26.97364153316863],[87.55745873371514,26.97412828020321],[87.55785569172964,26.97416515898648],[87.55843784574404,26.974323071074217],[87.55892621705462,26.97462140100021],[87.5594001488243,26.975048393006595],[87.55963899173827,26.975327346196927],[87.55985032556174,26.975651562783845],[87.5602370375473,26.976026978762828],[87.56113293769421,26.976571873915525],[87.56184107792404,26.97685119439445],[87.56217376192266,26.976874633367142],[87.56258985096417,26.976823361507652],[87.56309015958063,26.976859739068225],[87.56324652658533,26.97676658413166],[87.56374388532282,26.97620928846706],[87.5639885984219,26.97615414292363],[87.56450841595895,26.976310055570607],[87.56523756429296,26.976638952456337],[87.56552466915518,26.976608438980616],[87.56588379336515,26.97626164426809],[87.56643273714386,26.975943416455735],[87.56746204345791,26.975582544265155],[87.56811259050038,26.975437741502994],[87.56962614332016,26.975433840415292],[87.5706412137889,26.97598954966367],[87.57131221689599,26.976408911773753],[87.57332698262354,26.97784086129059],[87.57481535324094,26.978575114401302],[87.57693726859462,26.97927747358842],[87.57823724534981,26.979375919105216],[87.57840211989763,26.979470069083572],[87.57864503487333,26.980153014482575],[87.578788840168,26.980312746625774],[87.57955926001732,26.98093929265735],[87.58002687183027,26.981106647061576],[87.58024014102506,26.98129769963586],[87.5803635025716,26.98151832413694],[87.58064849783567,26.9823094895302],[87.58087933896734,26.982608760684123],[87.58115087856518,26.9827430455934],[87.58135995161071,26.982602251130594],[87.5814784902728,26.982389562016998],[87.58161285032875,26.982298720535827],[87.58195472472414,26.98226795621731],[87.58238838413193,26.982318026030253],[87.58244302806271,26.982286265888554],[87.58256107058261,26.982215743048148],[87.58256075426725,26.982030688937925],[87.58244308179889,26.98181444037787],[87.58230827754058,26.981566744916005],[87.58230808633114,26.981417825720765],[87.58244282088886,26.98127496971024],[87.58296968875094,26.980717485079104],[87.58451904793627,26.97971785397667],[87.58479952359428,26.979621883800835],[87.58500609896527,26.979621005315803],[87.58582552818417,26.979852309722993],[87.5863667264573,26.97987493304465],[87.58658193159593,26.979946262543102],[87.58792168315112,26.98054097808051],[87.58835215899295,26.98083499395613],[87.58861457363089,26.981149894576678],[87.5887389950402,26.981205784109832],[87.58974803611743,26.98047699138668],[87.59057333324256,26.98026129046052],[87.59116211291503,26.9803423670822],[87.59129472317608,26.98028984885412],[87.59146233971326,26.979937055490655],[87.59200064567987,26.979174073486345],[87.59260597730668,26.978460478783333],[87.59334667538445,26.977967447612844],[87.59402304511377,26.977822394108962],[87.59434465607187,26.97753211672466],[87.59484163398608,26.97670611582833],[87.5951659247373,26.97596883202918],[87.59542932627194,26.97562916612968],[87.59592506758293,26.97551643775145],[87.59636447989415,26.975600329925573],[87.59726968330833,26.975492658751154],[87.5986425443807,26.97472609844766],[87.5993732370366,26.97415185615067],[87.60014275344513,26.97340593769249],[87.60156312830217,26.97246982795098],[87.60215902636946,26.97212421691172],[87.60306935079255,26.971689136445228],[87.60441608370155,26.97124092076375],[87.60560770077252,26.970996516888093],[87.60612307785036,26.97102364158511],[87.60721509887458,26.970885708818482],[87.60749044952894,26.97090258375706],[87.60817907464035,26.970825112620428],[87.60913534776581,26.970164090378304],[87.60971499375243,26.969965210514005],[87.60994401310693,26.969919130899527],[87.61026075663088,26.970021530248363],[87.61035460287981,26.970023341671716],[87.6104880262878,26.970004709308082],[87.61081676923436,26.96988366848388],[87.61088616988565,26.96990811180052],[87.61097707882041,26.969939369766937],[87.61112075907191,26.970069717929416],[87.61128494829696,26.970263084404568],[87.61146070486625,26.97050840339491],[87.61193813843558,26.970975782342652],[87.61200272820493,26.971147018745224],[87.61200373441855,26.97144954518433],[87.61215098007655,26.971661105105206],[87.61223945121402,26.971712618710438],[87.61230072437237,26.97174850277197],[87.61276233249671,26.971852588462763],[87.6134314578255,26.972115966997272],[87.61378078152444,26.972532083302667],[87.61404376065721,26.97294176171158],[87.61421864608025,26.973363069971256],[87.61424617825446,26.974473519109445],[87.61438304467896,26.974637753151825],[87.61462738592249,26.974740466068894]]]}},{"type":"Feature","properties":{"province":"Koshi Province","district":"Pachthar","municipality":"Tumbewa Rural Municipality","ward":"2","wardNumber":2,"sourceMunicipality":"Tumbewa","sourceType":"Gaunpalika"},"geometry":{"type":"Polygon","coordinates":[[[87.56594481046912,27.01317252175803],[87.56626485151477,27.01253245476372],[87.56634443394202,27.012076132068316],[87.56650148730735,27.01185206321374],[87.56669911788563,27.01168644896756],[87.56676882781213,27.01151689816659],[87.56678251187354,27.011115030322497],[87.56692199427678,27.01077586665363],[87.56721021768476,27.010458706210827],[87.56784425291417,27.010000124006567],[87.56802043908378,27.009832384623532],[87.56817680368081,27.009608254230606],[87.56827783215303,27.009151931487448],[87.56840305401438,27.008620960991582],[87.56858855013637,27.0081664499986],[87.56864037968484,27.008078235134658],[87.5690001342638,27.007957131974997],[87.56948974370458,27.00759170391358],[87.57112069648315,27.006675409222325],[87.57142680236689,27.00641907887651],[87.57233712465285,27.005889408730745],[87.5727028770912,27.00558543903981],[87.57336272913332,27.004882972603706],[87.57351715056417,27.004394764162253],[87.57354590088012,27.003861920838787],[87.57344659799287,27.003042931570302],[87.57302004440504,27.001925111608404],[87.57309724421883,27.00112343745277],[87.57291947828257,27.00049213070545],[87.57281712548178,27.000309703370906],[87.57270025874212,26.99975485523862],[87.5727675730675,26.99861920897348],[87.57286741243065,26.998180891472064],[87.57317795093108,26.997552077351315],[87.57360622013636,26.996916008826908],[87.57445043602489,26.995443063415642],[87.5746178695147,26.995282138648257],[87.57537365273168,26.995622163221885],[87.57578924287083,26.995701617861574],[87.578838782535,26.995041311961415],[87.5802585475324,26.994884180737554],[87.58035682656923,26.99451807150848],[87.58116303336632,26.99326644197393],[87.58130588707307,26.99275347691213],[87.58162221359589,26.99081765428974],[87.58162107628065,26.99021722787449],[87.58172746809858,26.98911296552878],[87.5821163940438,26.987707359271973],[87.58244306289467,26.987049098790962],[87.5826282479352,26.98667592418299],[87.58269745069957,26.986169962406443],[87.58267681100052,26.985831488355817],[87.58247684907947,26.98517542424019],[87.58244308576937,26.985105591534843],[87.58225650919132,26.984718106604415],[87.5817478078839,26.983918880516757],[87.58115087856518,26.9827430455934],[87.58087933896734,26.982608760684123],[87.58064849783567,26.9823094895302],[87.5803635025716,26.98151832413694],[87.58024014102506,26.98129769963586],[87.58002687183027,26.981106647061576],[87.57955926001732,26.98093929265735],[87.578788840168,26.980312746625774],[87.57864503487333,26.980153014482575],[87.57840211989763,26.979470069083572],[87.57823724534981,26.979375919105216],[87.57693726859462,26.97927747358842],[87.57481535324094,26.978575114401302],[87.57332698262354,26.97784086129059],[87.57131221689599,26.976408911773753],[87.5706412137889,26.97598954966367],[87.56962614332016,26.975433840415292],[87.56811259050038,26.975437741502994],[87.56746204345791,26.975582544265155],[87.56643273714386,26.975943416455735],[87.56588379336515,26.97626164426809],[87.56552466915518,26.976608438980616],[87.56523756429296,26.976638952456337],[87.56450841595895,26.976310055570607],[87.5639885984219,26.97615414292363],[87.56374388532282,26.97620928846706],[87.56324652658533,26.97676658413166],[87.56309015958063,26.976859739068225],[87.56258985096417,26.976823361507652],[87.56217376192266,26.976874633367142],[87.56184107792404,26.97685119439445],[87.56113293769421,26.976571873915525],[87.5602370375473,26.976026978762828],[87.55985032556174,26.975651562783845],[87.55963899173827,26.975327346196927],[87.5594001488243,26.975048393006595],[87.55892621705462,26.97462140100021],[87.55843784574404,26.974323071074217],[87.55785569172964,26.97416515898648],[87.55745873371514,26.97412828020321],[87.5561361159905,26.97364153316863],[87.55510622932943,26.973126399175865],[87.55439502643881,26.972844890393915],[87.55333556070903,26.97206349085501],[87.55172539076958,26.971117240292624],[87.55133098558836,26.97057702557869],[87.5508319801481,26.97003043581542],[87.55005123992339,26.969178010892563],[87.54945457569322,26.968746956581175],[87.54895257454505,26.968484825372297],[87.54730740055669,26.9679675753515],[87.5459078845326,26.96769764382204],[87.54543151905511,26.967525663908724],[87.54430334549954,26.96697702120627],[87.54337562969745,26.966845185042644],[87.54278077799177,26.966398251292876],[87.54268030210787,26.96632191722762],[87.54220525056945,26.966158939662396],[87.54172101094302,26.966174389829234],[87.54143784633756,26.966236412349044],[87.54095179712213,26.966396279830718],[87.54076060336547,26.966460238843315],[87.5401978387406,26.966647490555022],[87.53955035253915,26.966647750933245],[87.53934327487023,26.96654472402489],[87.53917127136327,26.96639643294766],[87.53880825796185,26.966086285877022],[87.53772029126515,26.96577439898839],[87.53760531879472,26.966097683154985],[87.53740331321686,26.966396461338352],[87.53730571754176,26.966541255994443],[87.5368901370155,26.96694463091233],[87.53653776145241,26.967146882769192],[87.5363460057264,26.96721534354117],[87.53568120150888,26.967287876044853],[87.53502738969202,26.966739538246895],[87.5348020520477,26.966501096768816],[87.53462654839753,26.96641369907933],[87.53460254004759,26.966398070035734],[87.53418044161394,26.966099489131853],[87.53358515627039,26.965830856958405],[87.53330142707512,26.965766467847043],[87.53296268141044,26.965919018003802],[87.53239054397329,26.966397479601195],[87.5321929754591,26.966562969378913],[87.53157645107531,26.967251555799407],[87.53092685125362,26.967863495949423],[87.53064387727612,26.96809706830657],[87.53037359303158,26.968217733178378],[87.53006154326727,26.96828888390333],[87.52914045571212,26.968233695290856],[87.52800997545508,26.96798282755251],[87.5274135069308,26.96799190205297],[87.52656470016966,26.968157589467914],[87.52624539609378,26.968154280623928],[87.5260932795819,26.968222552825537],[87.5254209807312,26.968699140997295],[87.52402173114511,26.96930702952164],[87.52360207964473,26.969403376490952],[87.52341376097876,26.96940412997271],[87.52284155567295,26.969602634378592],[87.52192284695259,26.969660228926067],[87.5214147266372,26.969831411702163],[87.52097550825677,26.970056547136068],[87.52067115169469,26.97029693525896],[87.51980115420518,26.970663619257657],[87.519242957468,26.971040363380148],[87.51872697164691,26.9718323536849],[87.51867820523749,26.971907001369047],[87.51826425232738,26.97242772288773],[87.51807024621957,26.97255938969748],[87.51770511347837,26.97260134508514],[87.51693170090834,26.97234690841961],[87.51581785519716,26.97229228525387],[87.51453245118712,26.972455040369248],[87.5138682783357,26.97280734170761],[87.51333778235986,26.97332619013972],[87.51287837736479,26.973962196357657],[87.51273126748042,26.97429229551428],[87.51263111399574,26.97471260776446],[87.51225029990466,26.975334671141503],[87.51168860858499,26.976065832193743],[87.51102538004425,26.976754481305832],[87.50969797315258,26.97753585663148],[87.50876077758579,26.978661138717325],[87.50796956525012,26.97934566499365],[87.50765345299793,26.979511593001245],[87.50732827327545,26.97960987712002],[87.50644601131086,26.979520490569357],[87.50580089199146,26.97908499802156],[87.5055637414051,26.9790067915763],[87.50507437554593,26.979033368983846],[87.50461771131762,26.979181732159162],[87.50433705025786,26.97937010505326],[87.50381630982423,26.979972414103266],[87.50319647502667,26.980821110509204],[87.50272719523528,26.98166486518364],[87.50252843942337,26.981888996401548],[87.5016107398336,26.98245661532625],[87.50132426408373,26.982633671292966],[87.50070067205147,26.983195721435514],[87.49993915247813,26.983631861640085],[87.49927723455419,26.98422785921265],[87.49907854121585,26.984454303644583],[87.49901814417778,26.984470371326154],[87.49851340505535,26.984858118039096],[87.49779759144887,26.985384409004144],[87.49737894856091,26.98586668212693],[87.4971094833666,26.986330384553995],[87.49690204019979,26.986714875570158],[87.49677868913682,26.98702453051672],[87.49670267341514,26.987638774116938],[87.49643897003999,26.988560736037638],[87.49625453733776,26.989021874700683],[87.49619577311893,26.98940580034889],[87.49555049396122,26.990371968594282],[87.49542814409311,26.99075614564972],[87.49543071103949,26.990909628427307],[87.49537000511928,26.991140071855217],[87.49528697856896,26.991314186819864],[87.4951830685559,26.991468046123718],[87.49459336095322,26.991876425278477],[87.494488637773,26.99199421113331],[87.49434446662441,26.99230167878934],[87.49430357969194,26.992455349160885],[87.49426682369226,26.992839212078636],[87.49422656183447,26.992992883148283],[87.49416397859052,26.99309016245955],[87.49441813198459,26.993010322667843],[87.49467228615006,26.99293035795213],[87.49536966021518,26.992634446976417],[87.49619558182962,26.99235835351908],[87.49663861330072,26.99210395959723],[87.49710127486715,26.991734405650913],[87.49748429008226,26.991730774045305],[87.4984446453635,26.991948572364855],[87.49869980098389,26.991945442268154],[87.49895395536498,26.99186779086234],[87.49907887684623,26.99191248911267],[87.49963895392987,26.991784067873077],[87.50022498381401,26.991948981984375],[87.50087421772112,26.99175478987871],[87.50187295532682,26.991669999059802],[87.5023080544419,26.991765457388187],[87.50279792529861,26.991984951063007],[87.5030749685932,26.99223458302203],[87.50371409553857,26.993153154667493],[87.50445919939878,26.994098544017792],[87.50570837108172,26.995484556168815],[87.50603774695136,26.995742938717388],[87.50672569376046,26.99614229462349],[87.50782485375089,26.996544582847342],[87.5088469859883,26.997012766314597],[87.50931566285041,26.99727958657814],[87.5103160422508,26.997971211547906],[87.51140332577083,26.998502224308435],[87.5118644938959,26.998502779580345],[87.51247127638527,26.99838536073871],[87.51255355498958,26.998328717820456],[87.51278789104373,26.99832783893177],[87.51310013159875,26.998398917360923],[87.51361826727953,26.99886429515148],[87.51382309795379,26.999170569019554],[87.51422526022728,26.999904965087865],[87.51474003796763,27.001293551592486],[87.51524311190312,27.002047889479574],[87.51589192192398,27.002571470558305],[87.51618747085055,27.002726135718756],[87.51638385714772,27.002826974904334],[87.51718528631991,27.003383812944172],[87.51758075029032,27.003739035179457],[87.51786836275014,27.004083319846274],[87.51843308905329,27.005088042654126],[87.51918945954017,27.00665624008212],[87.52009763249889,27.008077266460873],[87.52010144650042,27.00808176811773],[87.52024131491605,27.008354345692123],[87.52038118402767,27.00862698618975],[87.5210922143419,27.009644647491314],[87.52166562508273,27.0103309647966],[87.5225952324828,27.01119882888827],[87.5228449526194,27.01137844044696],[87.5237734976326,27.012284690959948],[87.52464320529228,27.013017329673996],[87.5251449575528,27.01332016048126],[87.52546057546891,27.01344312821579],[87.52602541282131,27.01376602697596],[87.52684103326851,27.01422802423141],[87.52727619910864,27.014585246452846],[87.52796433427201,27.01502511443995],[87.52914666150365,27.01599806815547],[87.52983492233714,27.016437873893175],[87.530333862429,27.016815226493296],[87.53064841734911,27.016976581380636],[87.53127409238073,27.017378251126008],[87.5319031402987,27.017682830152335],[87.53290595728649,27.018286241078822],[87.53359877910655,27.018610887480104],[87.53466474381005,27.019234365678283],[87.53516480868073,27.01957326949746],[87.5354776771599,27.01977300999197],[87.53585306881146,27.020015325039108],[87.5362274615024,27.020293838355848],[87.5367292137084,27.02059435636929],[87.53760029631502,27.021308863780636],[87.5379009802672,27.021851705837353],[87.53801565519066,27.022239504900487],[87.53795239364229,27.02285149805876],[87.53789794367398,27.023194848913604],[87.53761560541534,27.023972394284506],[87.53763142752867,27.024125814022696],[87.53757528876073,27.024507551579017],[87.53767408039039,27.024739680443616],[87.53804184866586,27.025210000370866],[87.53812200593124,27.025365419724178],[87.53832339911568,27.02571683135631],[87.53842543871683,27.025833863998372],[87.53865108962323,27.026108315849356],[87.53897321838521,27.026653346018477],[87.53913790706996,27.02683102013551],[87.53929221024653,27.026681474147416],[87.53951135003005,27.026515796682563],[87.53977156774148,27.0263883799531],[87.54084731794956,27.02547909621455],[87.5417406332962,27.02490903984753],[87.5420694976662,27.024630140275246],[87.54241762059824,27.02442788840793],[87.5428545869439,27.024094408451962],[87.54339389230178,27.023286412731718],[87.54363760123455,27.02300557669656],[87.54405712034747,27.022575068772788],[87.54486865452365,27.021906047163295],[87.54536764406373,27.02163320855217],[87.54579861056317,27.021491597735835],[87.54657045252851,27.021357609183305],[87.54674063981764,27.021363732694365],[87.5470842644538,27.02127657637529],[87.54747740210411,27.020999676564433],[87.54821685186543,27.020558910661975],[87.54854627880489,27.020261880405982],[87.54883393980688,27.019942470498535],[87.54899099266174,27.019718401915103],[87.5491227890347,27.0196073043318],[87.54966685588758,27.019275573971587],[87.5498397927304,27.019204924851376],[87.55009607320247,27.019172348978866],[87.55078557048549,27.018941645410187],[87.55121047673762,27.018991903572875],[87.55154803976662,27.019076360032326],[87.55200577604826,27.01939507107559],[87.5521749016602,27.01943958144932],[87.5530970597911,27.0198873230657],[87.55335071669397,27.01995183786777],[87.5539369368102,27.020254291727625],[87.55410325003265,27.020375449299735],[87.55461000100607,27.02052242145556],[87.55503540690782,27.020536544114698],[87.5555497813132,27.02045551179931],[87.55587539675457,27.02029395957475],[87.5565845898015,27.02010376732926],[87.55675590201089,27.020089572660922],[87.55707651859919,27.020061247226916],[87.55750742309135,27.019919510503417],[87.55768211051354,27.019810475633854],[87.55794501390683,27.019588219530906],[87.55834915027783,27.019008730237864],[87.5584797584359,27.018917951196222],[87.55867464044671,27.01882685885051],[87.55910510787278,27.01870550465841],[87.55979791826384,27.01840259203915],[87.5603880625842,27.017960015301455],[87.56090906028736,27.017689302282637],[87.56134165197655,27.017509242262324],[87.56147344753008,27.017400333865243],[87.56183081879988,27.01691362243224],[87.5618945173778,27.016303880464267],[87.56198723451296,27.016077812126888],[87.56233873202906,27.015780657173654],[87.5624275739963,27.015669686249925],[87.56247596418807,27.015518265381807],[87.56265658632913,27.015217361830928],[87.5628333349734,27.01503155477318],[87.56305234957647,27.014865940479098],[87.56309686379814,27.014809235808496],[87.56327136259776,27.014682132673418],[87.56359972792659,27.01444155717297],[87.56394553948778,27.014300197489103],[87.56409809301111,27.014188974998177],[87.56445221518918,27.01381735979619],[87.56484691452867,27.01348619441206],[87.5654524432778,27.013235548689778],[87.56594481046912,27.01317252175803]]]}},{"type":"Feature","properties":{"province":"Koshi Province","district":"Pachthar","municipality":"Tumbewa Rural Municipality","ward":"4","wardNumber":4,"sourceMunicipality":"Tumbewa","sourceType":"Gaunpalika"},"geometry":{"type":"Polygon","coordinates":[[[87.6307043696464,27.013573205879997],[87.63096102502219,27.013499805188474],[87.63162776015801,27.013067980333933],[87.6318438337925,27.012841222526248],[87.63197768700427,27.012441102729618],[87.6320088109807,27.01180891734219],[87.63207807883713,27.01146550345851],[87.63210208345374,27.011255503277518],[87.63221417927984,27.010911900928267],[87.63236666866123,27.01068545703214],[87.63253910283217,27.010533534715947],[87.63266796216071,27.010478703964278],[87.63277381279543,27.010480452802735],[87.63292168119918,27.010558786235936],[87.63304772946144,27.01067338014578],[87.63323517923664,27.01096371187233],[87.63339943481242,27.01136701518973],[87.63365178071193,27.011541937325838],[87.63390762450537,27.011545308621876],[87.63403598291512,27.011508607998053],[87.63435491228843,27.01153198521053],[87.63479989087787,27.011672143497634],[87.6351160101898,27.011867133423518],[87.63536985509572,27.011965282798066],[87.63558336981662,27.011948523830537],[87.63564745528527,27.011912137458342],[87.6357343600852,27.011798853263166],[87.63573623277917,27.011683756731692],[87.63561393143375,27.01133665733007],[87.6355369537735,27.010763678045247],[87.63554344847533,27.010361872032707],[87.63563316188346,27.010056719464213],[87.6358697446466,27.009886352586662],[87.6363194062928,27.00973986492857],[87.63651403569867,27.00951098255603],[87.63655967313832,27.00933918114151],[87.63648057415739,27.00893775223453],[87.6362117151899,27.0084175415858],[87.63604471121432,27.008185852055504],[87.63599118955882,27.008075444780626],[87.63594940983782,27.007380429466],[87.63580403767483,27.00706734052603],[87.63543570541478,27.006558822447644],[87.63543113392942,27.00619090230079],[87.63551984581235,27.00583385817386],[87.63536296725464,27.00539216970279],[87.63503402712512,27.00504607372044],[87.63475504634664,27.00483057767716],[87.63475279200058,27.004665841732354],[87.63481681212996,27.00451879703118],[87.63615822441969,27.00374979962468],[87.63627901498276,27.003600253655673],[87.6362438107401,27.003395006894266],[87.6355322883312,27.002802282324293],[87.63521553702942,27.00227782120769],[87.63504083835788,27.00179330746441],[87.63494946701616,27.00055669679626],[87.6350412914241,26.99952020366158],[87.63589145540352,26.998457691378558],[87.63598898634653,26.998215743443748],[87.6358901912852,26.997796309771655],[87.63558231515891,26.99715212624431],[87.63554642494636,26.997043969864627],[87.63554536095782,26.996967197225178],[87.63559112646648,26.996928622758528],[87.63610405523389,26.99649742553034],[87.63645323895834,26.99619789437473],[87.63657346098097,26.99574363499304],[87.63630296836969,26.994805802084457],[87.63627339057136,26.99458698794821],[87.63625957094106,26.99448777214005],[87.63630277021099,26.994325035569393],[87.63651334139222,26.99402156880095],[87.63682395052581,26.99380575014331],[87.63718976798292,26.993655137395013],[87.63769951499387,26.993564727952645],[87.63779705089728,26.99354628274029],[87.63863548690932,26.99375914394174],[87.63886551307174,26.99399508410729],[87.6389017150167,26.994044598578498],[87.63910848536446,26.994407138410878],[87.63922284085878,26.9944562763876],[87.63940515620305,26.994389941499556],[87.63944510658999,26.994315230856603],[87.63953725633108,26.993915300382636],[87.6396522260957,26.993415901756887],[87.63974369475616,26.99333193856188],[87.63991657001851,26.993279295141367],[87.64133890119741,26.9932388841472],[87.64206798323254,26.993393605174685],[87.6426306294124,26.993515131861574],[87.64304133930673,26.99339365149365],[87.6432042706304,26.99324391751881],[87.64322834020767,26.993155766598225],[87.6432721024542,26.992988529102888],[87.64332973433818,26.992272693684708],[87.64369553877096,26.99148101803545],[87.64463149571658,26.991000424537628],[87.64601699826127,26.990815722295384],[87.64671769290037,26.990853033791318],[87.64707957144351,26.990684415806165],[87.6472198699754,26.99053705757064],[87.64790342292305,26.990102731697853],[87.64832975729387,26.989649342157964],[87.64863110715491,26.989149065730977],[87.64899041768369,26.988752380531658],[87.64949097022335,26.98849273428085],[87.64986159709532,26.98809373614118],[87.6507461595191,26.987568192003376],[87.65107221105924,26.987304860024565],[87.65190319518697,26.98699625548117],[87.65269880141616,26.98710546143713],[87.6532746439087,26.98744361410671],[87.65387762111551,26.987795144454477],[87.65480177775893,26.98812266267302],[87.65529189707085,26.988242314612954],[87.65591931376548,26.98823480170787],[87.65604617157034,26.988175594923497],[87.65625737011811,26.98798272259941],[87.65629869601922,26.98794414750575],[87.65656828625289,26.987507202528057],[87.65709688766238,26.986121100197664],[87.65701354223232,26.98596568075493],[87.65657249851057,26.985638217805942],[87.65626418888081,26.985156581892088],[87.65629431977301,26.984914947822926],[87.65645417720243,26.984248249419842],[87.65645148324253,26.9840044906164],[87.65626803647015,26.98376379839006],[87.65604144777377,26.983464652402354],[87.65605413363923,26.9831621257985],[87.65615103615372,26.982814084497523],[87.65666621583075,26.982369258269472],[87.6569843293656,26.98225940806096],[87.65739817070703,26.982374809940133],[87.65750733617466,26.982405942828194],[87.65787790936506,26.98243125649875],[87.65806084757112,26.98226339147707],[87.65807103071542,26.98185702224413],[87.65803176137638,26.98159538402385],[87.65804063693089,26.981500481208005],[87.65804463740899,26.981432773373946],[87.65819093669924,26.98124021498712],[87.65841514122509,26.981126302275356],[87.65864184696431,26.981007888878693],[87.65886123309011,26.980724614744407],[87.65886979845452,26.98067272484004],[87.65862870212254,26.98027429925881],[87.65849388945745,26.979627111803474],[87.65851163871378,26.979317771004244],[87.65855809134398,26.9791889201833],[87.65858722535864,26.97910526965853],[87.65909683551773,26.978461760508296],[87.65912896586389,26.978141103544143],[87.65896671273693,26.97786646313788],[87.65851923408465,26.977706110842444],[87.65805530665116,26.977329008453044],[87.6579790882868,26.977218789565494],[87.65791843850387,26.97708137540812],[87.65768702494596,26.976287897338917],[87.65752131691761,26.97518482672859],[87.6576141507015,26.97458396135782],[87.65759457017573,26.97404455383138],[87.65737107832675,26.97233686903201],[87.65754538015547,26.971760447645803],[87.65753943004194,26.971288684551705],[87.65729350267912,26.970046137033982],[87.65693491917739,26.96935031371392],[87.65632374298373,26.968569845611977],[87.65620100373431,26.96824994124027],[87.65617880052024,26.967902402855582],[87.65634797762105,26.96742757284855],[87.65638028461214,26.966596766956098],[87.65623679146934,26.96639652316732],[87.65616182430442,26.966290805434518],[87.65567820558742,26.96608087693793],[87.65540178762255,26.965881261078657],[87.65515762499373,26.965367739291796],[87.65459567012178,26.96534324165027],[87.65274160410499,26.96471308751931],[87.65183126157316,26.96422752270558],[87.65081206053135,26.963437683145905],[87.64999699475639,26.96254305920713],[87.64970593926819,26.961977836537713],[87.64865989790717,26.96034162388839],[87.64858930758439,26.960226841315155],[87.64822167864607,26.96047229495607],[87.64792557377656,26.960665544143414],[87.64788037104587,26.9606973662614],[87.64781935104087,26.960826280461212],[87.64776752545373,26.96112449356854],[87.64752744842554,26.96164252383253],[87.64706297708449,26.962138989611617],[87.64654829508461,26.96244390004613],[87.64648627366641,26.962505106373364],[87.64639761889866,26.9626363963924],[87.64585312887483,26.963670521351332],[87.64522504217781,26.964522093325282],[87.64416711416438,26.96554503553765],[87.64355984771767,26.96639654502444],[87.64348919842796,26.966496200916648],[87.6434498725273,26.966552780069787],[87.64247160199913,26.967731016695687],[87.64221627241518,26.968357517227883],[87.64190817703168,26.96922796448468],[87.64162227192632,26.969784570237305],[87.64112510128048,26.970312795117177],[87.64078016765424,26.97055812343229],[87.64050775676293,26.970611267943593],[87.63947931829343,26.970627290082692],[87.6388731629876,26.97080385112593],[87.63745182577482,26.970512351617604],[87.636994908281,26.97046703351643],[87.63686711184634,26.970478851763453],[87.63625088785817,26.970540443014748],[87.63480792988295,26.970883254041482],[87.63395968763378,26.971133091267028],[87.63308674582642,26.971249889942204],[87.63203048293506,26.97113281100044],[87.63179164553749,26.971113558691673],[87.63112133744842,26.971084936954124],[87.63070543234736,26.970931085838643],[87.63010764128066,26.970475524863147],[87.62939844272604,26.970359065288232],[87.62917098693943,26.970452658152958],[87.62882029860828,26.97059645656908],[87.62848411459592,26.970625033166503],[87.62738533433398,26.9704493747809],[87.62650850905334,26.97020950597052],[87.625550408699,26.970191204283672],[87.62497044945704,26.97031793823042],[87.62415240101464,26.970348648207292],[87.62412414099114,26.97035783918061],[87.62405686699239,26.970380659301707],[87.6231021436035,26.970405244546537],[87.62194535071188,26.970665465136523],[87.62131925183321,26.970893979814665],[87.62041643247613,26.971414834260326],[87.61971449456752,26.971706869045587],[87.61872658927622,26.972566762348354],[87.61756468886495,26.973754692350585],[87.61663892331993,26.97423959906726],[87.61602845429027,26.974443168480537],[87.61471704413333,26.974778475970243],[87.61462738592249,26.974740466068894],[87.61443919525034,26.97488351147529],[87.61421161366451,26.974961225283362],[87.61379365434927,26.975249754488306],[87.6134736090019,26.975700391891486],[87.61269516960546,26.977329069146414],[87.61258026585006,26.977959318656968],[87.61236375751328,26.97835074887214],[87.61208147322833,26.978690603357638],[87.61169508812903,26.978981194921044],[87.61109113251136,26.979697101758585],[87.61088643740464,26.979939551042822],[87.61045647377722,26.980216827144712],[87.61001318914683,26.98035868815106],[87.6092127178248,26.9807526919546],[87.60714293674246,26.98261939829932],[87.60636198296403,26.983584381056183],[87.60515937011806,26.984266725432516],[87.60470758446272,26.98446960498532],[87.60379669174664,26.984584153107093],[87.60318722673343,26.9849953461482],[87.60266579621741,26.985491937464325],[87.60213348400166,26.985835046891236],[87.60165438192084,26.98636077152356],[87.60148213594496,26.98654895435448],[87.60011377665471,26.987349336662813],[87.59962667049702,26.987789286107567],[87.59931225188465,26.988244362096616],[87.59904429279966,26.988909123630577],[87.59832873805598,26.989878294304855],[87.59780836984463,26.990347815594742],[87.59756273554862,26.991190816085307],[87.59680128959573,26.99217142887584],[87.59662128904478,26.992312160214944],[87.59652957129148,26.992477335222492],[87.59653038930551,26.992752728537322],[87.59641716580926,26.993026372520955],[87.59635508199594,26.99307626337521],[87.59667013967041,26.993327769569895],[87.59748158633477,26.99452967082552],[87.59778096026217,26.99526650666762],[87.59812509634722,26.99577071158426],[87.59880129366024,26.99640663666534],[87.59928066130989,26.99662350502539],[87.60063772430617,26.99687055568475],[87.60275518851546,26.99700368459675],[87.60321492121687,26.997091953237927],[87.60446333309753,26.997989508486615],[87.60540926187105,26.998983158637582],[87.60641989558866,26.999707854428557],[87.60687057323139,27.00032665336801],[87.60723003052743,27.00097071095897],[87.60755415701367,27.00137795039322],[87.60764414183434,27.002063650122263],[87.60754674376713,27.00268708439522],[87.60758932334292,27.002763668300027],[87.60811052213329,27.003142895779934],[87.6082064368504,27.00339978213168],[87.60825271903425,27.004158066556606],[87.60814816440649,27.00637740584449],[87.6083303605742,27.006622661940373],[87.60862691087041,27.006822277775484],[87.6086793678163,27.006858162809436],[87.60888744506508,27.006888855695262],[87.61121323092773,27.006817797175508],[87.61178856637841,27.006842357623785],[87.61229869234778,27.006916870455523],[87.61268177194304,27.007032586155024],[87.61381333188254,27.00807506036469],[87.6146273293527,27.008647026842098],[87.61485649083586,27.009417998709566],[87.61507789262633,27.00980529658936],[87.61530191781243,27.010097753765518],[87.61559290346736,27.010317688412318],[87.6158179911423,27.01057175866429],[87.61597511875235,27.01095936943592],[87.61600763757845,27.01126395864187],[87.61594143935645,27.011948160375958],[87.61546584521851,27.012774159980555],[87.61537050433883,27.013077062999592],[87.61533274929356,27.01355126457376],[87.6152850478291,27.01370268530198],[87.61521596292735,27.01385423027604],[87.61499319959299,27.01413287856814],[87.6145970004285,27.01450255570907],[87.61439787001,27.014726874369764],[87.61411414529027,27.014926750731906],[87.61393302195006,27.015227779456186],[87.61394690675142,27.015455720834627],[87.6141462374517,27.015843080848136],[87.61429116839295,27.01596205104176],[87.61443234961317,27.016196241993622],[87.61471226284026,27.016109211780282],[87.61575282031421,27.015587729786578],[87.61606173877111,27.015272632353554],[87.61639041640541,27.014995795826582],[87.61654628134292,27.014809988498786],[87.61667632810067,27.014737215338833],[87.6168261942775,27.014722958936588],[87.617080351136,27.014769280839904],[87.6173318207122,27.014890061653624],[87.61756015725379,27.01504929259828],[87.61781212667803,27.015152068106016],[87.61824078196274,27.01508923046156],[87.61871938860156,27.014798137325172],[87.61913859527625,27.014371942718135],[87.61931146947443,27.014301231995766],[87.61946396042251,27.014192197713456],[87.61972242863604,27.014102979415988],[87.62023299071237,27.014139107024064],[87.62083402059014,27.014003307124646],[87.6210764791518,27.01376292018523],[87.6213019288727,27.013389493937293],[87.62143684931459,27.013183494611752],[87.62161297184562,27.013015629979108],[87.62176233926661,27.01302175374465],[87.62201155921399,27.013198988929],[87.62214949153916,27.013527958710473],[87.62222258800807,27.01387299556908],[87.62234457392748,27.014048483240092],[87.62240715919202,27.01408886883743],[87.6226184882675,27.014133003252986],[87.6229664233845,27.013935126610612],[87.62331648330382,27.01365816524504],[87.62356056617519,27.013361386367226],[87.6237581348694,27.013195709921664],[87.62408575040837,27.01295725909314],[87.6243465974735,27.013071226001642],[87.62468316366481,27.01332479487488],[87.62522868623374,27.01386863245557],[87.62554630558013,27.01398684969652],[87.62593038170591,27.013933202515563],[87.6263153334354,27.01382316397331],[87.62650827658696,27.013732009244293],[87.62676480586659,27.013638290239772],[87.62731994383081,27.013529749152323],[87.62749063127478,27.013513178412037],[87.6281936382668,27.01348515902315],[87.62864098886205,27.013489965659662],[87.62940539592653,27.013612926020425],[87.62985212236698,27.013619921065278],[87.63010840217366,27.01358484381127],[87.63055469174188,27.013628099347038],[87.6307043696464,27.013573205879997]]]}}]}