{"type":"FeatureCollection","features":[{"type":"Feature","properties":{"province":"Koshi Province","district":"Taplejung","municipality":"Mikwa Khola Rural Municipality","ward":"1","wardNumber":1,"sourceMunicipality":"Mikwakhola","sourceType":"Gaunpalika"},"geometry":{"type":"Polygon","coordinates":[[[87.6576676939823,27.394577387018728],[87.65693921339867,27.393364231573276],[87.65679340205395,27.392985686087982],[87.65613158722557,27.392596082368247],[87.65511796143248,27.392447368840436],[87.65471512824153,27.392528274444484],[87.65407345295223,27.39243425743658],[87.65255025318926,27.39175752253944],[87.65112377185974,27.390856844330777],[87.65071304776995,27.390355391990454],[87.64974675867452,27.390529146804358],[87.64786676707034,27.391097782793196],[87.64582932361951,27.390798041142837],[87.6441095516677,27.39011987112182],[87.64224948349043,27.389658954577143],[87.64154321656332,27.389310114724825],[87.64091766557415,27.388938328386],[87.63963822893793,27.387535751516793],[87.63955219241902,27.387305873452327],[87.63897441069247,27.38698353874979],[87.63743565207633,27.38675812349949],[87.63562247613058,27.38631052218808],[87.63439895075007,27.38570667855284],[87.63376565194004,27.385520009381846],[87.6323334363439,27.38545201296599],[87.63063137448457,27.385527501556133],[87.6293682728399,27.384966670117223],[87.62908835398184,27.384769305110538],[87.62871385815906,27.385610682566757],[87.62871475333469,27.386547394881227],[87.62916713500209,27.387843141221115],[87.62955205794017,27.389380835574705],[87.62940239514643,27.390191763116775],[87.62870496985049,27.391057215961506],[87.62877783292717,27.392196735733606],[87.62844634233868,27.392496142012785],[87.62817669535764,27.39322192143164],[87.6279935969706,27.39471473734464],[87.62769981078317,27.395190068557444],[87.62671534033889,27.3959483694853],[87.6262936340658,27.396516856150956],[87.62629489853403,27.397184864219753],[87.62650930247025,27.39775727850882],[87.62646945461321,27.39976636725396],[87.62614959603265,27.4002236938903],[87.62591628150096,27.401220177781905],[87.625190909925,27.402196288447175],[87.62519116851563,27.402579963501193],[87.62547722331699,27.40319038694792],[87.62525302847064,27.403794067994284],[87.62454828664592,27.40462557309419],[87.62378731216732,27.407249542444237],[87.62299805412286,27.408801509966366],[87.62139787907807,27.410632448325572],[87.62104997056554,27.41218015718859],[87.62044682841393,27.412993155469373],[87.6201628025052,27.413757321920357],[87.62016324932246,27.41417944571154],[87.62059274316927,27.41532414862451],[87.6205954027951,27.416931244380542],[87.62035365378335,27.418239193976607],[87.61939715337934,27.420098816996845],[87.61950694958885,27.42039171419749],[87.61998556505146,27.420486671219333],[87.62187875956124,27.420356351030087],[87.62230510596548,27.42048306858923],[87.62300306607766,27.421242904751608],[87.62432275327727,27.42189376157903],[87.6251563146693,27.422140506893587],[87.62651749459381,27.421732614758383],[87.62713128212349,27.421684715563746],[87.62761508976422,27.421924027715928],[87.62780728589185,27.421905081024594],[87.62819280640281,27.42209519334022],[87.62925607791502,27.422352250479772],[87.63098327898783,27.42249563916999],[87.63227400103366,27.422381396483],[87.63324860541401,27.422178320082786],[87.63418607719984,27.422232695654923],[87.63504477435261,27.422549336801524],[87.63564913019286,27.4229438167431],[87.63760629215146,27.423149219320862],[87.63805128086541,27.423774707975323],[87.6379874502659,27.42400296295784],[87.63819119165208,27.425986040634907],[87.63889372535887,27.427181316716617],[87.63924010918022,27.427491214569848],[87.6393520896443,27.42759005344121],[87.6401223779016,27.427816732345757],[87.640816133442,27.427815782935053],[87.6419447425189,27.428092658037148],[87.64209128851246,27.42773536265604],[87.64213360454961,27.42717994938078],[87.64232585889896,27.426969134508774],[87.64356442696777,27.426376502773223],[87.6437400440151,27.425903986623556],[87.64337183010954,27.425117949448264],[87.64326527067895,27.42418624065054],[87.64335190235005,27.422996328168686],[87.64328420893327,27.420924598082966],[87.64214784066549,27.417343254989966],[87.64157729675723,27.416327967480687],[87.64106891094336,27.415784066092613],[87.6405847264921,27.41549736549977],[87.63855733967264,27.414716733124553],[87.63812160731943,27.414271797894422],[87.63809940659642,27.414041667886544],[87.63820625343934,27.413810973750437],[87.63861377034034,27.41342766719476],[87.6396304520684,27.41318145294627],[87.6403424546822,27.412756066444086],[87.64068375763723,27.412275982097754],[87.64074746436668,27.412045476088988],[87.64048595435982,27.41023420047789],[87.64168023640046,27.408687038892033],[87.64474675270942,27.40930035550843],[87.64789798009598,27.409590325042473],[87.64875891669361,27.409331296733395],[87.64911860659996,27.409099410374246],[87.64901449477956,27.408592013561147],[87.64952626578823,27.406592043972516],[87.6507361487549,27.4036385957207],[87.65117092151385,27.403054167202278],[87.65127938684138,27.40246680605357],[87.65116042180307,27.40030730043445],[87.65230331012047,27.398767080018477],[87.65327102231834,27.397866424389747],[87.65681382826078,27.39504635162505],[87.6576676939823,27.394577387018728]]]}},{"type":"Feature","properties":{"province":"Koshi Province","district":"Taplejung","municipality":"Mikwa Khola Rural Municipality","ward":"2","wardNumber":2,"sourceMunicipality":"Mikwakhola","sourceType":"Gaunpalika"},"geometry":{"type":"Polygon","coordinates":[[[87.6864894466028,27.416456185326094],[87.6860942128962,27.41522570616576],[87.68592950390102,27.414163460440207],[87.68565126658258,27.413654691215672],[87.68225522203946,27.411538441519216],[87.68074965256353,27.410810003546796],[87.67957394989789,27.409849742000034],[87.67839969439396,27.409325045997598],[87.67568274938496,27.408929725818883],[87.674978985106,27.408718801211343],[87.67430253672052,27.408114885362867],[87.67296942979546,27.405586604487954],[87.67256127230618,27.405222880247717],[87.67155038722795,27.40461834527266],[87.6705933273422,27.403620818787232],[87.66934742405249,27.400320123116305],[87.66930296963218,27.40028873922819],[87.66881209334008,27.399936769693852],[87.66811308337834,27.399770795771623],[87.66696089999046,27.399311367248956],[87.66610745005897,27.39880310834112],[87.66438503214334,27.397195291265408],[87.66418907715226,27.396780860205258],[87.6640936600611,27.39646983330203],[87.66396390655618,27.395610521251253],[87.6636372183908,27.395320817422487],[87.6629468998791,27.395218111096472],[87.66120094857231,27.395373123654863],[87.6599584169466,27.394819294813374],[87.65843117054368,27.394955172911608],[87.6576676939823,27.394577387018728],[87.65681382826078,27.39504635162505],[87.65327102231834,27.397866424389747],[87.65230331012047,27.398767080018477],[87.65116042180307,27.40030730043445],[87.65127938684138,27.40246680605357],[87.65117092151385,27.403054167202278],[87.6507361487549,27.4036385957207],[87.64952626578823,27.406592043972516],[87.64901449477956,27.408592013561147],[87.64911860659996,27.409099410374246],[87.64875891669361,27.409331296733395],[87.64789798009598,27.409590325042473],[87.64474675270942,27.40930035550843],[87.64168023640046,27.408687038892033],[87.64048595435982,27.41023420047789],[87.64074746436668,27.412045476088988],[87.64068375763723,27.412275982097754],[87.6403424546822,27.412756066444086],[87.6396304520684,27.41318145294627],[87.63861377034034,27.41342766719476],[87.63820625343934,27.413810973750437],[87.63809940659642,27.414041667886544],[87.63812160731943,27.414271797894422],[87.63855733967264,27.414716733124553],[87.6405847264921,27.41549736549977],[87.64106891094336,27.415784066092613],[87.64157729675723,27.416327967480687],[87.64214784066549,27.417343254989966],[87.64328420893327,27.420924598082966],[87.64335190235005,27.422996328168686],[87.64326527067895,27.42418624065054],[87.64337183010954,27.425117949448264],[87.6437400440151,27.425903986623556],[87.64356442696777,27.426376502773223],[87.64232585889896,27.426969134508774],[87.64213360454961,27.42717994938078],[87.64209128851246,27.42773536265604],[87.6419447425189,27.428092658037148],[87.64449012080512,27.42829304896839],[87.64697730573916,27.42923847164702],[87.6480363863578,27.42942313290716],[87.64876959245579,27.42934978676689],[87.6495249968161,27.429402664560904],[87.65086787553095,27.429865902852196],[87.65126740395169,27.43016191964596],[87.65199600290357,27.431027473950845],[87.65279512157657,27.431621884131186],[87.6570188042666,27.431771232318486],[87.65737037251029,27.43187338095295],[87.6592583404256,27.432947851743908],[87.65961465326464,27.43267751676904],[87.66041500050518,27.4321974876953],[87.66084727190108,27.431615372355168],[87.66166831291085,27.431110335088892],[87.66275214424789,27.4308749359559],[87.6642665644175,27.43030568063753],[87.66639727726475,27.429898212981225],[87.6669512248945,27.4295659815315],[87.66817358703709,27.428397743687043],[87.66842949033637,27.42826332480788],[87.67032742761286,27.427746328336212],[87.67152085380839,27.4271333792652],[87.6725813630311,27.426816768268345],[87.67268989901224,27.426669535907543],[87.67271934716207,27.426628710924604],[87.67211317687992,27.426155395193412],[87.67058736325286,27.42607927380777],[87.67023760494611,27.425871093387197],[87.66987452760661,27.425545503660302],[87.66983012191969,27.42489343856534],[87.67036236647468,27.424229547697923],[87.67144469650977,27.42396926590611],[87.67175080030681,27.423556952252735],[87.67209159795385,27.422819480554583],[87.67293514456857,27.422187905800847],[87.67336478991382,27.421608041689236],[87.67321533489503,27.420428261405327],[87.67343814633662,27.419420524186403],[87.67430225564569,27.418432220419444],[87.67565654364178,27.417367010780787],[87.67611932751284,27.416832095878775],[87.67636996794445,27.41615370500372],[87.676642528542,27.414288091996447],[87.6771240724704,27.413926789844844],[87.67764463749097,27.413847507806867],[87.67843693371003,27.414060307450733],[87.67909218592412,27.41459201454511],[87.68040237899626,27.415727762024275],[87.68167904072567,27.41591785848373],[87.68410087101203,27.416018784740466],[87.68563656883269,27.41637911433078],[87.68636146101393,27.416418426290292],[87.6864894466028,27.416456185326094]]]}},{"type":"Feature","properties":{"province":"Koshi Province","district":"Taplejung","municipality":"Mikwa Khola Rural Municipality","ward":"3","wardNumber":3,"sourceMunicipality":"Mikwakhola","sourceType":"Gaunpalika"},"geometry":{"type":"Polygon","coordinates":[[[87.65472206453242,27.46040234616801],[87.65477064185454,27.460266805358433],[87.65659334180228,27.458705192370598],[87.65865367410915,27.456269069429897],[87.65919840570771,27.45480156757901],[87.6592453495128,27.45429122938379],[87.6587602869223,27.450903370169932],[87.6588923128615,27.449830616632834],[87.6593919072131,27.448534915463615],[87.66015239507838,27.44656307492575],[87.6603738969378,27.445733640749882],[87.66043914408345,27.444480647849733],[87.6599986999684,27.442968211865324],[87.66008414000345,27.44159549586386],[87.65992936943928,27.440363825256494],[87.65939514420164,27.439018878292018],[87.65937181704717,27.43870747469398],[87.65937324849865,27.438425329404755],[87.65935167548015,27.43831029651059],[87.65967364232333,27.437049296079753],[87.65936834784956,27.43432644105241],[87.65929523913388,27.43341261178257],[87.6592583404256,27.432947851743908],[87.65737037251029,27.43187338095295],[87.6570188042666,27.431771232318486],[87.65279512157657,27.431621884131186],[87.65199600290357,27.431027473950845],[87.65126740395169,27.43016191964596],[87.65086787553095,27.429865902852196],[87.6495249968161,27.429402664560904],[87.64876959245579,27.42934978676689],[87.6480363863578,27.42942313290716],[87.64697730573916,27.42923847164702],[87.64449012080512,27.42829304896839],[87.6419447425189,27.428092658037148],[87.640816133442,27.427815782935053],[87.6401223779016,27.427816732345757],[87.6393520896443,27.42759005344121],[87.63924010918022,27.427491214569848],[87.63889372535887,27.427181316716617],[87.63819119165208,27.425986040634907],[87.6379874502659,27.42400296295784],[87.63805128086541,27.423774707975323],[87.63760629215146,27.423149219320862],[87.63564913019286,27.4229438167431],[87.63504477435261,27.422549336801524],[87.63418607719984,27.422232695654923],[87.63324860541401,27.422178320082786],[87.63227400103366,27.422381396483],[87.63098327898783,27.42249563916999],[87.62925607791502,27.422352250479772],[87.62819280640281,27.42209519334022],[87.62780728589185,27.421905081024594],[87.62761508976422,27.421924027715928],[87.62713128212349,27.421684715563746],[87.62651749459381,27.421732614758383],[87.6251563146693,27.422140506893587],[87.62432275327727,27.42189376157903],[87.62300306607766,27.421242904751608],[87.62230510596548,27.42048306858923],[87.62187875956124,27.420356351030087],[87.61998556505146,27.420486671219333],[87.61950694958885,27.42039171419749],[87.61939715337934,27.420098816996845],[87.61930200414714,27.420611593979174],[87.61836542786071,27.421509623251637],[87.61767169435655,27.4225284325309],[87.61758662980881,27.42393047008562],[87.61780041775569,27.424958767668127],[87.61788573183225,27.426533915324125],[87.61704825008707,27.427180931095624],[87.61651444665421,27.428079391467527],[87.61645519468537,27.42901635364474],[87.61654870432122,27.430817130212837],[87.61655220655365,27.43088033595466],[87.61643541950295,27.431142727611025],[87.61677524471997,27.43174833643655],[87.61681964405527,27.43210925415993],[87.6160239288828,27.432880243230244],[87.61568845333635,27.43396512938284],[87.61568866083259,27.434899527821713],[87.61539852364423,27.436419916117437],[87.6156916165641,27.43872996265373],[87.61577196424456,27.438964342764553],[87.6158706323919,27.439297938995818],[87.6163146789879,27.4427042420021],[87.61680788163127,27.44369521101345],[87.616808516387,27.444164661138945],[87.616996158887,27.444667180149654],[87.61687141273276,27.447037689631426],[87.61698691485249,27.448113878322424],[87.6164493605129,27.45198495879294],[87.61669197444587,27.453175678440626],[87.61666559815365,27.453550476380162],[87.61653968628029,27.453995670955464],[87.61576242140616,27.45504417853788],[87.61466382312287,27.457689909581187],[87.6141982420229,27.459059756543663],[87.61413685423099,27.459504700050005],[87.61610095870321,27.459827699679053],[87.61900588316088,27.46185755878481],[87.61910029847186,27.462112193669093],[87.61902691763007,27.46311917809595],[87.61913433675029,27.463328612303584],[87.61952686240848,27.46360675010888],[87.62022904831491,27.46314766597602],[87.62098519488904,27.462844064162862],[87.62127430215351,27.462842809138525],[87.62210948960633,27.463089555137056],[87.62299444906616,27.463527980994613],[87.62404714748736,27.46341943231527],[87.62502113737477,27.46370850065015],[87.6263080368201,27.46317450988939],[87.62679758488095,27.462826961962378],[87.62705411589855,27.46276937835781],[87.62763251970681,27.46292022598911],[87.62850977465527,27.462656695963528],[87.62960735447786,27.46210776678745],[87.62973858875782,27.46204168357919],[87.6298154309842,27.462091008631415],[87.6299647314359,27.461880382009785],[87.63022176205713,27.461802480392123],[87.6327201215864,27.461942354281344],[87.63424805271855,27.461635175974237],[87.63582151004302,27.461763374728825],[87.63679142774171,27.461689023872513],[87.63760791751318,27.46175965592694],[87.63848449198845,27.46183466345581],[87.6397478320058,27.461831078959108],[87.64105887147748,27.46156772942089],[87.64210238382725,27.461718631081734],[87.64546954806086,27.461138717103584],[87.64965401920277,27.460778354300945],[87.65086189126437,27.46029419210051],[87.65166930945085,27.46010981201454],[87.65305656964723,27.46010553708265],[87.65472206453242,27.46040234616801]]]}},{"type":"Feature","properties":{"province":"Koshi Province","district":"Taplejung","municipality":"Mikwa Khola Rural Municipality","ward":"5","wardNumber":5,"sourceMunicipality":"Mikwakhola","sourceType":"Gaunpalika"},"geometry":{"type":"Polygon","coordinates":[[[87.73491033781494,27.619024944211414],[87.73490814256319,27.618693096978365],[87.73469962136276,27.61840076473386],[87.73444776498917,27.617776898806845],[87.73456930364101,27.617482872825203],[87.73456817352086,27.61729775649868],[87.7344426209698,27.617005048236095],[87.73435664174758,27.616563107060326],[87.73339348753942,27.611408614697268],[87.7336188597073,27.610348862501343],[87.73366893704312,27.610165807600573],[87.73387269068017,27.609749370456417],[87.73399929084829,27.609358191037156],[87.73399797387164,27.609175449375243],[87.73389355666419,27.608990897089804],[87.73378694379265,27.608485876255756],[87.733680644185,27.608028244312358],[87.7337277734724,27.60740737421633],[87.73372426006867,27.60687921947008],[87.73382177794576,27.606027781277746],[87.73387084899291,27.605591902175767],[87.73412555827173,27.60513013798632],[87.73432924904408,27.604716012799088],[87.73453356778035,27.604392164777504],[87.73481397249527,27.60388507336359],[87.73486191622548,27.60337929928001],[87.73498757656282,27.602850454900725],[87.73503809241774,27.602735045339482],[87.73508785356951,27.602412012003537],[87.73521426808534,27.60209085352402],[87.73528816015573,27.601584891983865],[87.73538925251984,27.601261608091132],[87.73554060781129,27.600687499304094],[87.73574505196913,27.600386220583246],[87.73579418780916,27.600065437680374],[87.73584181854667,27.599514463082677],[87.73599392732301,27.599053263102586],[87.73604055447201,27.598362309911035],[87.73606424369893,27.598019146117668],[87.73603258823002,27.597168398002022],[87.73621033183112,27.59675439838409],[87.73636331935859,27.59643086359752],[87.7365155548545,27.596086947534456],[87.73702666494984,27.595325840439088],[87.73712738174716,27.594957418459398],[87.73727949155632,27.594588683352914],[87.7373793305217,27.59408259510337],[87.73747835278031,27.593461411882487],[87.73757957131701,27.593160634419828],[87.73752347462917,27.59254251705856],[87.73746925811675,27.59210488952654],[87.73834675369855,27.59140054297967],[87.73492432778787,27.5896357100569],[87.73448553901697,27.589547754724684],[87.73381272188223,27.589228610041232],[87.73332084736671,27.58897842098265],[87.73138054932483,27.588070062769606],[87.73008567873191,27.587248594435756],[87.72972222640783,27.58697514630415],[87.72935908573923,27.586656558909205],[87.72814023911904,27.58565178525081],[87.72679604662619,27.585220994825413],[87.72551884286065,27.583137656596694],[87.72520778597959,27.58293166430018],[87.72448576922298,27.58291285870023],[87.7241227564333,27.582707117386384],[87.72350264829397,27.58250500597836],[87.7231409495443,27.58239172921063],[87.72191990729314,27.581041667311084],[87.71862654985635,27.57441622071411],[87.71809818956936,27.572536616637418],[87.71768221068412,27.57196320635584],[87.71744736644027,27.57159653987707],[87.7154700791653,27.56891853970803],[87.71381143982435,27.567615811404682],[87.71362723652943,27.567135987018048],[87.71372745073916,27.56667503710807],[87.71359758535142,27.56646810378227],[87.71356500586235,27.566231222892192],[87.71337931032325,27.566108064481128],[87.71291575958936,27.56590507599166],[87.71251341646543,27.565577611402958],[87.71220279422157,27.56522257542668],[87.71192443874442,27.56507278608324],[87.7113355857925,27.564581528069088],[87.71104084508852,27.564239932353917],[87.71056128822579,27.564007684981107],[87.70989841707384,27.563929861682247],[87.70786002543353,27.56321124873013],[87.70551911530363,27.56105415675649],[87.7052548838685,27.560615407525955],[87.70519053990654,27.560259116476807],[87.70517340184072,27.55995665310325],[87.70495462351411,27.55950640013378],[87.70490628641488,27.55917711699694],[87.70481306173923,27.55905345804633],[87.7042857990311,27.558783075277574],[87.70414856020255,27.55871380654769],[87.70377792036199,27.558577961307137],[87.7029743648284,27.558169042264904],[87.70278829256453,27.557978115023317],[87.70230798277875,27.557623957099892],[87.70175070641197,27.557215971662497],[87.7014107643969,27.557023608597504],[87.7011320317436,27.556806049318528],[87.70071424592788,27.556519285141118],[87.70026601456522,27.556329674967312],[87.69998765853741,27.556166319278425],[87.69957156702561,27.556141381930924],[87.69880134628855,27.556199411673944],[87.69840132418615,27.556214986038896],[87.6981529153291,27.555983734920837],[87.69790312416677,27.555436579126102],[87.69768566392727,27.55518938513568],[87.69728488850346,27.555083048158536],[87.69689874422023,27.555001468118704],[87.69621792385621,27.554670883206374],[87.69460412037753,27.55368137081375],[87.69048426247328,27.552458333212783],[87.6882229464205,27.550363758301014],[87.68732454241754,27.549858125419906],[87.68601017003421,27.549255221012373],[87.68495977144559,27.548723207854135],[87.68482278219324,27.54868326128252],[87.68427351365555,27.548523411004435],[87.68381653172018,27.54844445795244],[87.68335954830054,27.548365505183902],[87.68269661429183,27.54824685660176],[87.68210251991613,27.548209168747732],[87.68178170974326,27.548027933141178],[87.68132271955767,27.547621634650127],[87.68106999600677,27.54739944870247],[87.68090855577302,27.5470955504828],[87.680633325632,27.546914126831947],[87.67980844764335,27.546408055148362],[87.67948682295406,27.546104909317314],[87.67921171735857,27.545943741681203],[87.67854683827089,27.545497872307717],[87.67813399258041,27.545195165801807],[87.67774497011627,27.54503456224439],[87.67712698783494,27.54481413367315],[87.6767380286028,27.544673786138045],[87.67637201610896,27.544553757431387],[87.67568663710462,27.544496127193767],[87.67522921720979,27.54443742996252],[87.67481756310774,27.544317589732245],[87.6743136840014,27.544013071503652],[87.6737869854285,27.543812459601213],[87.67339746127546,27.543570645389803],[87.6728469985539,27.54310608085533],[87.67247935502955,27.54271966117976],[87.67220374829563,27.542477220106708],[87.67151504396882,27.541871179395716],[87.67142150095144,27.541483379577464],[87.67114583116522,27.54122062001948],[87.67034258297129,27.540511300301766],[87.67020396507122,27.540308805744484],[87.66972315729353,27.54004705028915],[87.66894329582782,27.53954297830801],[87.66763924203659,27.539039227749814],[87.66654402801666,27.53912570862189],[87.66588028017584,27.538966423211026],[87.66544887428357,27.53913554288272],[87.66503553641641,27.539236829867278],[87.66447201852625,27.539325303042904],[87.66360695044997,27.53937908280736],[87.66326826120674,27.539279184190793],[87.66289130913576,27.53923123886263],[87.66240281719007,27.53924943993188],[87.66204537325672,27.539303087353375],[87.66159521216167,27.53950609170764],[87.66118337828374,27.539758609951573],[87.66054621350266,27.54013179309841],[87.65891331179026,27.540708364057497],[87.65577786437065,27.541711898931997],[87.65519584073832,27.541865828641473],[87.65467015105898,27.542037637640593],[87.6541248866558,27.542006387679383],[87.6535982551087,27.54202465224205],[87.65303429814854,27.542045354907827],[87.65265703137709,27.541945581980404],[87.65220599152836,27.541997355555463],[87.6513215385284,27.541884087290104],[87.6508698705992,27.541836642726526],[87.65038012600336,27.541771194512545],[87.64941983069983,27.541559023952118],[87.64898516204909,27.54117510647386],[87.64849560563252,27.54114354291973],[87.64766930528333,27.541332486664142],[87.64714430579922,27.54161939176839],[87.6467320954339,27.541822146239962],[87.64592492910552,27.542144191449893],[87.64543681444215,27.54224804244033],[87.64491055967983,27.542334014185197],[87.64436536058182,27.542420048725283],[87.64400835432875,27.542421742322837],[87.64355618452787,27.542290649526564],[87.6421641089206,27.542297111896776],[87.63620549282317,27.543150775183737],[87.63586192717266,27.54307788456338],[87.63573275197048,27.542963352622223],[87.6356020730817,27.54269533885013],[87.63542982028605,27.542580995669788],[87.63474143555824,27.542317805710393],[87.63388192711007,27.542129952324114],[87.63302304674009,27.54205713272868],[87.63165129621918,27.542291349675843],[87.63130816984321,27.542292918572123],[87.63079373328767,27.542448722590663],[87.63010748006238,27.54245185986306],[87.6299551123149,27.542486435442157],[87.62959285528432,27.5425693404465],[87.62865245994224,27.543183035999586],[87.62762314479619,27.54330277558946],[87.62676620952759,27.54357305669535],[87.62665985820914,27.543573496518828],[87.62621606966569,27.543575504607926],[87.62612234744809,27.543575880873846],[87.62526327867387,27.543464737521802],[87.6240619616594,27.543508520973273],[87.62358002840483,27.543260143354747],[87.62354514085946,27.543242263982794],[87.62280783923097,27.541832613605163],[87.62263645936915,27.54164606158129],[87.62280993300259,27.54030679097345],[87.62311665026401,27.539357445253362],[87.62309200054786,27.53857659247197],[87.62296149554686,27.53766757829609],[87.62304144951298,27.5370352033419],[87.6235381818772,27.53644164651102],[87.62382727814669,27.535955061451702],[87.623739169131,27.535269362497758],[87.6237782330941,27.534673249157397],[87.62379823821959,27.534526456021677],[87.62367118482351,27.534224557063997],[87.62333598342812,27.533487971912507],[87.6230828105891,27.53271493747668],[87.62249876725282,27.531979419537823],[87.62220696535599,27.53164676382594],[87.6218722034937,27.53098470053148],[87.62186881416741,27.530393340022012],[87.62195452980693,27.530212410325085],[87.62199147975375,27.530135449475264],[87.6226113263497,27.52983697717803],[87.62306417282325,27.5294286620917],[87.6235184588504,27.529167078596302],[87.62401325840824,27.52879689877351],[87.62454919583158,27.528313748355338],[87.62483760682366,27.527942259628595],[87.62491844370854,27.527682369860536],[87.62512188115272,27.527053994861173],[87.6254915050024,27.526499326039357],[87.62577847543201,27.525981106818787],[87.62602512109436,27.52560993168423],[87.6260629328168,27.524907725388932],[87.62589404669552,27.524391577014132],[87.62560149347769,27.5240250996667],[87.62568169810731,27.523435550129843],[87.62572014029632,27.5229523459368],[87.62588237437443,27.522324158412232],[87.62629445436066,27.521879896414873],[87.62703797018077,27.521508587659987],[87.6274476706688,27.52087927161774],[87.62740546118879,27.520581560340077],[87.62723626395352,27.520103798015136],[87.62718042981624,27.520083731119517],[87.62700548002059,27.519594715027488],[87.62689917914591,27.519044493355988],[87.62689466059268,27.518245509082345],[87.62700769008727,27.517644644075208],[87.62706176594598,27.51735768369703],[87.62743576542495,27.51668110474532],[87.62774211647347,27.51612900032439],[87.62797944170424,27.515574959309966],[87.62797435920696,27.514687824463028],[87.62803880311651,27.513888651787234],[87.62809885677815,27.512418970087502],[87.62812746956772,27.511346717821283],[87.62812056701304,27.510150429515598],[87.62808216508155,27.509507367041813],[87.62804520369727,27.50901772419362],[87.62794947479392,27.508765276875476],[87.62776571011887,27.50828320108383],[87.62752993412649,27.508221062296382],[87.6271396500993,27.50748022667521],[87.6252631592921,27.505139072220267],[87.62432611291071,27.50450227634465],[87.62358281953074,27.503557637148816],[87.62130658915537,27.49977137783671],[87.62051546564605,27.498858561370536],[87.61952401927607,27.497991761656788],[87.61924547219716,27.497629597207858],[87.61880803879939,27.496588736808246],[87.61808807268051,27.495946435784447],[87.61680283781833,27.495376602996426],[87.61564557511869,27.49426898563657],[87.6145527069525,27.492912793612664],[87.61372525843952,27.49204524069791],[87.61285439169794,27.492809728947538],[87.61169531391613,27.49455732291048],[87.61122627506033,27.49497707873554],[87.6096078185634,27.495713196442704],[87.60827309572562,27.496612857126966],[87.60741247351814,27.49695747253123],[87.60602734389956,27.497202880369173],[87.60328296833259,27.49768650536437],[87.6009039008768,27.497516306858877],[87.60040515605115,27.49761778291524],[87.59920123084197,27.498491995921576],[87.59893176665604,27.49897614270987],[87.59874021405055,27.499834646898073],[87.59797094381264,27.50046321959838],[87.59728894563196,27.50061740025552],[87.59684846816518,27.500488432740497],[87.59594113211526,27.5003997969954],[87.59542363773764,27.500787981766244],[87.59446730678168,27.501816799217522],[87.5931505798042,27.50221293688827],[87.59194990811282,27.503229254356448],[87.59134169203571,27.503595247109043],[87.59031175058325,27.50364252802007],[87.58974935959321,27.503809711012078],[87.58894664053214,27.504465416793465],[87.58864191118926,27.50487522887458],[87.58853544642429,27.50544677285366],[87.58867001511354,27.50634228296188],[87.58858568319843,27.506906887936676],[87.58841412437226,27.50713564473326],[87.58815709476889,27.507233740667445],[87.58653005798215,27.507256461842584],[87.58626054132071,27.508221373616255],[87.58581226311875,27.508783045656738],[87.58566409486217,27.50936971995034],[87.58563815041893,27.50947225082054],[87.58545202677097,27.509820605944306],[87.5852853462521,27.510135075791016],[87.58454652384707,27.51069343930531],[87.58395362087113,27.510829113787192],[87.58324204714198,27.510911086361148],[87.58253355071822,27.511575418446462],[87.58182756340892,27.512716013833817],[87.58173798469572,27.513488304009996],[87.5817137917624,27.513696053088722],[87.58175102326318,27.51512472068555],[87.58208329574926,27.516315001679178],[87.58211832593192,27.517186131769538],[87.58218678978095,27.51720844933777],[87.58214541065104,27.51776154964064],[87.58201600175502,27.518432435566417],[87.58184320618341,27.519261556891262],[87.58175793726727,27.51989393092031],[87.58193826657212,27.52048453849784],[87.58198554472075,27.52103732438482],[87.58176590928153,27.521394870617918],[87.58141542013561,27.52214572110143],[87.58102248354598,27.52313370444965],[87.58093702927175,27.523847289854857],[87.5810293886153,27.52443827468165],[87.58080987845914,27.524831955941917],[87.58014758037676,27.525270344956606],[87.57948609669187,27.525747121148523],[87.57829354727265,27.526460849417372],[87.57789747241006,27.52685747250211],[87.57732521331828,27.52757312898606],[87.57679558671519,27.52785071908277],[87.57635229755373,27.52781183988288],[87.5756893068555,27.528011033918368],[87.57502738619146,27.528528446497354],[87.57458535253451,27.528728887551676],[87.57400976451287,27.528692887003],[87.5730354050198,27.52865632982398],[87.57259123658227,27.528459529240077],[87.57170434204617,27.52818783965596],[87.57112706167389,27.52795321728038],[87.5703297040214,27.527877458371815],[87.56944500571826,27.528036894820467],[87.56882590829932,27.528278726144897],[87.56807388358652,27.528399211076668],[87.56705475777672,27.528403354072527],[87.56656820387103,27.52844599980978],[87.5659942506185,27.528843312867252],[87.56506572654459,27.52912247237229],[87.56444549568458,27.52900538619728],[87.563116253534,27.528893437139256],[87.56262963973319,27.52905342979709],[87.56196721701818,27.52948944352906],[87.56161578795687,27.53008449901218],[87.56130667515943,27.53016477706626],[87.56068588215076,27.53008826541007],[87.55953288859469,27.52977694277432],[87.55820490142425,27.52990193840166],[87.55696663981846,27.530259063918198],[87.55581722504982,27.530660950491928],[87.55559796319261,27.5309913629832],[87.55551362667809,27.531339279047067],[87.5550844765547,27.531724711255922],[87.55478255306528,27.53172596678284],[87.5541770761376,27.53153648398437],[87.55361718624648,27.53173061189359],[87.55336141646275,27.532347797171838],[87.55250305635295,27.533233820977166],[87.55207459668259,27.53377498696743],[87.55186171736936,27.534351346795823],[87.55186517062872,27.53504661269624],[87.55186981659419,27.53596969518753],[87.5517466106533,27.53727708103867],[87.55135934665861,27.53743206953244],[87.55019648772401,27.537822703129567],[87.54980872413226,27.53801601641201],[87.54821671602758,27.53878983148998],[87.54774574597425,27.539563691259396],[87.54727439883321,27.54025615177875],[87.54637138995014,27.540835336271964],[87.54503653487056,27.541418403928702],[87.54357206676752,27.541886877510585],[87.54215061496761,27.542352912491868],[87.54051302018203,27.542781377347303],[87.5390910684728,27.54328804923623],[87.5376695544047,27.543756272533685],[87.53711092040649,27.544218917136472],[87.53637953321379,27.54456709354664],[87.53517115134312,27.54461012591984],[87.5342223640615,27.544652153168364],[87.53370467426728,27.54469479933778],[87.53279997421906,27.545081989684927],[87.53189646343752,27.545584339907236],[87.53103395960028,27.545664376967263],[87.53056016119132,27.54574522130449],[87.53040461602838,27.54631232710494],[87.53025213051862,27.54673045221041],[87.53012590354652,27.547074117865243],[87.52923654614597,27.5486845409956],[87.52886985381016,27.548913926902],[87.52868234898207,27.54903196487404],[87.52791219466029,27.549226783881764],[87.52740001047809,27.549497309592446],[87.52586822796677,27.551033472390824],[87.52551529717829,27.5516374676493],[87.52548641301522,27.551687231834517],[87.52566098734047,27.552183187264863],[87.52587951938919,27.55286850953663],[87.52587533147674,27.55290239429536],[87.52583944917909,27.55321398599621],[87.52575736773208,27.55378759343408],[87.52546127080593,27.554362016433387],[87.52478185159245,27.555283297898878],[87.52418564390345,27.555861101380795],[87.52384596551634,27.556320616733686],[87.52347022489367,27.557464083004746],[87.5232980426341,27.55773785307298],[87.52317131287698,27.557968610971585],[87.52291528506802,27.5581998075394],[87.52244561562986,27.55835504787357],[87.52141698514164,27.55828216840977],[87.52090304592733,27.558324751796928],[87.5203466537683,27.55836521001819],[87.51970648844163,27.55875133382269],[87.51932310400674,27.559095940837093],[87.51885506663325,27.559596470346865],[87.51877085396745,27.559863111933996],[87.51876729071016,27.559919566774326],[87.51873191382631,27.560474917536382],[87.51873417205552,27.5608202682742],[87.51891087892687,27.561623125746575],[87.51882647741145,27.5618513815187],[87.51874151057248,27.56196685420296],[87.51839970019638,27.562121592480192],[87.51762985727284,27.562277963691482],[87.51730399112323,27.562468774630197],[87.517032457009,27.56262557485638],[87.516479389761,27.563239326477216],[87.51609588032122,27.56354773557055],[87.51507070082167,27.564088723305165],[87.51502155797098,27.564134049706794],[87.51473020598694,27.564394693135306],[87.51439008851575,27.564779686272747],[87.51418458520298,27.565243138472216],[87.51413638154051,27.565353921698037],[87.51405216333288,27.565358737149523],[87.51392474873097,27.565738412381155],[87.51367216968833,27.56642780635718],[87.51295180478454,27.567692188752225],[87.51282601787874,27.5681531384259],[87.51252929295137,27.568612402587647],[87.51223532855934,27.569532177046568],[87.51134503038594,27.57102737947379],[87.51105106589367,27.571947153227054],[87.51071007201682,27.572291509801826],[87.51041140324872,27.572484446814855],[87.51028423463029,27.572638431289377],[87.51015788281381,27.57298197098287],[87.51037522481876,27.573554447921143],[87.51067815831006,27.574013764833346],[87.51128164176009,27.574544223651007],[87.51141125661765,27.574773976259923],[87.5112860952166,27.575232612266984],[87.51103263940645,27.575885870601656],[87.5110575243777,27.575919567293074],[87.51142210720387,27.576419333352842],[87.51155172205227,27.57664683540347],[87.51164313407261,27.576833888314788],[87.5118119534351,27.577180862603893],[87.51190724000311,27.57725269432711],[87.51211381976321,27.577409924141506],[87.51280089151719,27.57767374039006],[87.51305911591585,27.577900740714913],[87.51396628997551,27.57919523009086],[87.51435701265967,27.579997271436614],[87.51455527913556,27.58027641229593],[87.51467895278616,27.580449773788562],[87.51478924744461,27.580605067706365],[87.51504722081542,27.580795994309952],[87.51509331038815,27.58129238880006],[87.51522292534212,27.58151989090982],[87.51526881876177,27.581580658020826],[87.51565497179782,27.582091551558012],[87.51625914831767,27.582890588051566],[87.51643303224428,27.58323524925693],[87.51645410360219,27.58327132144741],[87.51677892181677,27.583805035289714],[87.51679680375979,27.583836606739794],[87.51705353281707,27.584286984760368],[87.51708229406107,27.58433881158866],[87.5170416627389,27.584722674945947],[87.51721717881806,27.585408185183844],[87.51722225972726,27.586211670495086],[87.51675367937369,27.587705366314417],[87.51663383134206,27.588087292031787],[87.51625546488138,27.589235322176442],[87.51630293603185,27.59003868190138],[87.51647839292927,27.590848354145386],[87.51657955728466,27.59094725588201],[87.51651085411466,27.591423771657652],[87.51626490308632,27.592169557285636],[87.5156788824761,27.592553178909316],[87.51541379456282,27.593014630970952],[87.515005650639,27.59336599036914],[87.5153819256255,27.593919834557724],[87.51532984890765,27.59415928015645],[87.51513597314586,27.59457077910928],[87.51506626800331,27.59495245401738],[87.5153972481071,27.597174537324904],[87.51554162217978,27.59757121431746],[87.51584912851361,27.59844133918465],[87.51638483068491,27.59867858734937],[87.5162796751486,27.599076267965064],[87.51624579481175,27.599423995278087],[87.51646226307109,27.600059615270876],[87.51639456482951,27.600741567054897],[87.51676952117457,27.601011014934432],[87.51698416501003,27.601120730425254],[87.51728891096509,27.601548475808112],[87.51737957552488,27.601832558216394],[87.51771914345646,27.602102131256775],[87.51807772202592,27.602529626027927],[87.51864931472558,27.602859275786827],[87.51957753813558,27.60315822306028],[87.52018363958521,27.603282374233384],[87.52077355121254,27.603582577806502],[87.52120271598437,27.603915043550554],[87.52168521435668,27.604276578931064],[87.52184202942182,27.60462130235307],[87.52448972870084,27.60329080672632],[87.52459288934595,27.60313707296032],[87.52495157142245,27.602505944208765],[87.52532832339388,27.601951463179123],[87.52611747604398,27.60127362693816],[87.52663228176729,27.60084280471358],[87.52683923249347,27.60081041659761],[87.52749510681369,27.601130687104593],[87.52808195178366,27.60132704760673],[87.52904875289387,27.601630307873826],[87.5296015232197,27.601842611573957],[87.5302745887074,27.60205672610585],[87.53065498622263,27.602391567866153],[87.53103688736043,27.602897959683407],[87.53107328477041,27.603358281540082],[87.53097175498966,27.603710761912794],[87.5306297651783,27.604249237348306],[87.53044138988652,27.604588527425516],[87.5304087597077,27.604911435132713],[87.53011872572883,27.605449722049393],[87.53005158490315,27.60584952845888],[87.53001864310603,27.606233329015286],[87.53002134300229,27.60679987004929],[87.52995589669648,27.60753821206246],[87.52992496084234,27.608213160068285],[87.52992872862593,27.608996389840982],[87.52960606722392,27.609979433236457],[87.52936968902836,27.611025431331225],[87.52991882905211,27.614016235746075],[87.53004508806474,27.615227713405645],[87.53025643411986,27.616102716527166],[87.53041331386315,27.616578353526855],[87.5308658095947,27.61738920826978],[87.53117818592324,27.6179251727459],[87.53163087150031,27.61879917140722],[87.53210916697276,27.621514896966403],[87.53221609388757,27.622144204641437],[87.5324589419723,27.62257213914254],[87.53284071809001,27.623046896848617],[87.53318879827941,27.623752034919555],[87.53346678624642,27.624242987312023],[87.53381568062782,27.624977446732828],[87.53414468592537,27.625405003948316],[87.5345457274437,27.626310762274844],[87.53485828975825,27.62675426276619],[87.535187605588,27.62710510987084],[87.53543038851788,27.62739756677893],[87.53584623915849,27.62782480982722],[87.53619494719,27.628638230343977],[87.53675148745708,27.629739793308357],[87.53755344546533,27.631517551494948],[87.5377283960864,27.632040514298016],[87.53776523293699,27.63257754621106],[87.5375454181324,27.633359403676206],[87.53727189083374,27.63391338275166],[87.53703274975699,27.63437477239585],[87.5369656677596,27.634652667607043],[87.53709048325706,27.635557242270426],[87.53692036645435,27.636002563744178],[87.53661320514172,27.636680892087597],[87.53658063695191,27.637017366849133],[87.53658201868751,27.637294947793965],[87.53658446750481,27.63780053364688],[87.53641636071069,27.638661163586097],[87.5363154584149,27.63915362139255],[87.53628327061571,27.63969090457886],[87.53638800228394,27.639981675778166],[87.53675233196059,27.640363906408265],[87.53792872214827,27.641219325116673],[87.53886151154376,27.641615175965804],[87.53934557089977,27.64185705121788],[87.53998519144676,27.642301421344882],[87.54045280911413,27.64268333853854],[87.54072897585962,27.642774798162545],[87.54141848032637,27.642801419476303],[87.54179830969292,27.64286086780728],[87.54279855535498,27.642933685821543],[87.54329905511521,27.64304002096876],[87.54362705278452,27.64311547520962],[87.54557954282032,27.644044465170698],[87.54592624137298,27.644442576175596],[87.54620416633185,27.64490195610096],[87.54658763636067,27.645683616523332],[87.5466935612726,27.646204579860775],[87.54671471084734,27.647017067601045],[87.54670034195479,27.647570104849688],[87.54663577434131,27.648461929385572],[87.54653468377902,27.648906936767236],[87.5464350366035,27.64962958721262],[87.54633413751876,27.65024395648509],[87.54623505615646,27.651102022009027],[87.54615141045876,27.651578601194046],[87.5461369790421,27.652131638194767],[87.54613842310282,27.652422785804127],[87.54607159543143,27.65286998049068],[87.54603946666907,27.653283164953606],[87.54593856438368,27.65375980571658],[87.54561345447414,27.654268897596218],[87.54544208358908,27.654468208928986],[87.54501205549046,27.65477686948557],[87.54451325120668,27.655024887753132],[87.54429036039758,27.655179249091297],[87.54392923245508,27.655456023055233],[87.54343067897089,27.65575143078467],[87.54298477344699,27.656182001822245],[87.54262445894217,27.65649041022517],[87.54233298468772,27.656890970565577],[87.54194192438887,27.657906086457686],[87.54189122287583,27.6581522216793],[87.5413611066148,27.658982661715058],[87.5409650890184,27.659137650934206],[87.54055168796219,27.65921605532109],[87.53996559689678,27.659247699493104],[87.53925802202136,27.65918956890913],[87.5386200344979,27.65909955321784],[87.53772320247894,27.659073623006105],[87.53705195982697,27.65932226931656],[87.53629430868327,27.659508086272425],[87.53558867742521,27.65971171936694],[87.53531251351286,27.65974210848269],[87.53476225246274,27.659974435049214],[87.53464120753556,27.659974937288236],[87.53393563960738,27.660194325429742],[87.53527026769943,27.660701514848505],[87.53613972396445,27.6611947076423],[87.53694715543658,27.66159556198629],[87.53744440824768,27.6619254630485],[87.53781686282957,27.66214514600972],[87.53831424151768,27.662508869483716],[87.53872902640455,27.66282101710374],[87.5395354555588,27.6631293441456],[87.54023890832129,27.663383844375],[87.54088040112897,27.663658976804996],[87.54146074795719,27.66400431878797],[87.5422261625826,27.664351157776025],[87.54272303935882,27.664606474732317],[87.54383933254952,27.664897728641158],[87.54437784845548,27.665114596481327],[87.54520672963342,27.66571844667961],[87.54578808326725,27.666395510260852],[87.54605818824594,27.666672087066058],[87.54651380211874,27.66703818742171],[87.54711509704626,27.667512003857286],[87.54736494768717,27.66791730604344],[87.54757434812365,27.668467213669988],[87.54768159211928,27.669256755228165],[87.54778845862151,27.66995602064019],[87.54777102873896,27.670653538054765],[87.54676737916111,27.67223970680683],[87.54676989035119,27.672736289996],[87.54683222686127,27.672790179583153],[87.54697816136687,27.673065007713046],[87.54728947199503,27.67346774532592],[87.54811822566401,27.67392492888191],[87.54871745041821,27.67408727833583],[87.54921501683368,27.67447125837301],[87.54965112356793,27.674855488008546],[87.5500453387491,27.67522183959909],[87.55027462092059,27.675699412599577],[87.55067009310302,27.676323026395156],[87.55083860528164,27.676911445829656],[87.55086231515386,27.677590770314087],[87.55092835561905,27.678380437324932],[87.55107510736096,27.67882231490854],[87.55116027474914,27.679372662249595],[87.55128626605429,27.67972201218466],[87.55120630898122,27.680200779317],[87.55112528697883,27.680605148591518],[87.5509227269359,27.68128535166426],[87.5507802479123,27.68182082333971],[87.55059788211983,27.682482895161982],[87.55060365732302,27.683622666062647],[87.55052514436676,27.684394894034792],[87.55063157221248,27.685019762712148],[87.55061320067709,27.685516346407542],[87.55065791905085,27.68621361183712],[87.55074314737327,27.686655614921744],[87.55074754154674,27.68752005560369],[87.55083208190102,27.68794180323075],[87.55102191906414,27.688749099172608],[87.55131309775395,27.68919028594471],[87.55172869791687,27.6896287825295],[87.5519788000679,27.690070095627505],[87.55222871329923,27.69047314706418],[87.5523131896445,27.690876826018567],[87.55237778634452,27.691373157762445],[87.55246220118296,27.691758832465297],[87.55306606924253,27.692713352059066],[87.55325377096227,27.69309852410898],[87.55358853552744,27.693851051206085],[87.5538390137873,27.69436463569456],[87.55413188763534,27.69511735124314],[87.5545071038737,27.695851622244117],[87.55498522932575,27.69636432750058],[87.55548348578222,27.696858839283493],[87.55654001557396,27.697552024710138],[87.55736858012672,27.697916618280598],[87.55792735445178,27.698207756876315],[87.55887946350363,27.698553717256257],[87.55929374605581,27.69875520717204],[87.55964682179288,27.699103615806685],[87.5597309222996,27.699432773406638],[87.55989905749203,27.699946733746852],[87.55987999575885,27.700314779156344],[87.55984080171945,27.700700830028538],[87.55971945648,27.701272312154394],[87.55959986615017,27.70206279600996],[87.55968497081244,27.70257707017856],[87.55985153685025,27.7027975692156],[87.56005993295015,27.703126287181274],[87.56043445832697,27.703713890728924],[87.56111941322784,27.704372385204046],[87.56169975872471,27.704665648837107],[87.56230061590564,27.705121397339912],[87.56259329848535,27.705691247080676],[87.56269953896688,27.706370194431706],[87.5627831346807,27.706480412915138],[87.56317709918983,27.706772241273683],[87.56365353124411,27.70706600738057],[87.56400553884646,27.707211294459963],[87.56460513740086,27.7072990595673],[87.5651205102671,27.70702159507626],[87.56588328764312,27.706799517677027],[87.56639778108729,27.70637307132501],[87.56691070777129,27.705763821714434],[87.56725926297926,27.705247789845142],[87.56772992008196,27.704437794809834],[87.5678325173549,27.704290687067314],[87.56822259013633,27.703828607895357],[87.56851031561946,27.703570152996583],[87.56871525965124,27.703239740044264],[87.5687980386089,27.703183034396044],[87.56929221468677,27.702869496587667],[87.5700766903726,27.702791773269094],[87.57077851230163,27.702788760829854],[87.57168715880972,27.702692530451987],[87.57226543566242,27.7027082130474],[87.57338034335375,27.702520701618337],[87.57418470018986,27.702370644338856],[87.57465861892983,27.702073049289478],[87.57513222678303,27.701834033911183],[87.5755446884432,27.701665290651036],[87.57589481283809,27.70144490775231],[87.57620241985816,27.701111867168635],[87.57628551349387,27.701129558698735],[87.57632451887221,27.700689241622726],[87.57636132784083,27.69987881620458],[87.57635919324164,27.699474823019994],[87.57618986506124,27.698739734884324],[87.57618735472631,27.698261220101237],[87.5762274244189,27.69793155987325],[87.57643055101859,27.697377707255672],[87.5765937271951,27.696936887430866],[87.57659159308479,27.696532894188543],[87.57650592285003,27.695926092594874],[87.57639999910006,27.69543001228199],[87.57627457261927,27.695209324381956],[87.57618934242315,27.6946769826811],[87.57616588601283,27.694198592929908],[87.57612179593403,27.693648057131288],[87.57611953614082,27.69322599570206],[87.57615866775272,27.69281956392363],[87.57631914426241,27.691882223748973],[87.57643992731577,27.691330997721924],[87.57652013391976,27.690816033028568],[87.57674445632881,27.690318571232435],[87.57698865687874,27.68961786173941],[87.57719159203185,27.68891952914504],[87.57727205226576,27.68855135746501],[87.5775374487525,27.68790691435964],[87.57786480800002,27.687352558151325],[87.57809050902009,27.687001827379216],[87.5785835565881,27.686505423707818],[87.57893161231392,27.68602546419266],[87.57911680096319,27.685803521667484],[87.57954889213613,27.685526245942523],[87.5798990800027,27.685339747201247],[87.58109168934011,27.684434149789134],[87.58146225736726,27.684139182474155],[87.58166877100066,27.68412029846796],[87.58232800928343,27.683878216254286],[87.58257585143657,27.683877212443537],[87.58303114780131,27.68402199688424],[87.58350770333583,27.684241115991057],[87.58437703297673,27.684641469016835],[87.58495675378514,27.68495048691382],[87.58586797333952,27.685352901898028],[87.58638592214807,27.68571856357712],[87.58700897746205,27.686302786369556],[87.58746546635135,27.686668760831203],[87.58817048929748,27.687272863741626],[87.58862704109285,27.687656905911496],[87.58925015914029,27.688243317552388],[87.58966469459547,27.688589099245597],[87.59063843952228,27.689063472016848],[87.5912997486129,27.689207316080385],[87.59196193493116,27.689389546019516],[87.5922923704783,27.689424238041994],[87.59282869106082,27.68929331541867],[87.59315642729523,27.68883148717639],[87.59348478892045,27.68837184706119],[87.59356637823008,27.68822480309096],[87.59393682101428,27.68790945432807],[87.59418422321359,27.687836178997983],[87.5950107810049,27.687940945577008],[87.59563032308392,27.68797663364133],[87.59587816521413,27.687975566479153],[87.59653966036763,27.68802688291522],[87.5971585752735,27.68795203796508],[87.59748894512768,27.687839936832074],[87.59800425754074,27.68772708318825],[87.59858146722752,27.687559836836545],[87.59946872999778,27.687407027313405],[87.60008826945247,27.687332119938876],[87.60054318919214,27.687402320786465],[87.60172012280941,27.687361163728024],[87.60217297157426,27.687065694978763],[87.60266526480083,27.686438315081084],[87.60266288043637,27.686014003174567],[87.60261659581309,27.685206204753396],[87.60261395975277,27.68472769023309],[87.6025687404423,27.68399209972267],[87.60255559919376,27.683455005282138],[87.60256315417152,27.682980991337217],[87.6026303598796,27.68263989002259],[87.60284830763028,27.68228228241422],[87.60309558381232,27.682170619954338],[87.60363978154871,27.68200349989124],[87.60414546770184,27.68197642049193],[87.6049742754497,27.682033735756416],[87.60542894383363,27.682067863241773],[87.60637948440781,27.68213818100805],[87.60695801235275,27.68221006745273],[87.6075996297126,27.68246456809171],[87.60813751940321,27.68264505002689],[87.60854642103727,27.682652232254313],[87.6090778101647,27.682911737656845],[87.60940481346346,27.683248830580567],[87.60951479225417,27.68330028134004],[87.60951929399957,27.683307033049946],[87.60978809049814,27.683761723988667],[87.60998417058212,27.684144582912293],[87.61026759827975,27.684617216647194],[87.61069408680274,27.685502469409435],[87.61100033465155,27.685970538957413],[87.61152710882872,27.686762699614867],[87.61168567978879,27.68734655560899],[87.61167624642029,27.687698720874614],[87.61167075439283,27.688181737391005],[87.61166220236653,27.68880698330994],[87.61164476932125,27.68932169708827],[87.61170285876118,27.689608093047045],[87.6119178889601,27.690203013205757],[87.61218125346956,27.691045880536322],[87.61349819743552,27.69199707485628],[87.61511331341244,27.692874742802374],[87.6157700027591,27.693311859350047],[87.61623036816795,27.69367314523238],[87.61691982564967,27.694408161553113],[87.61722601055205,27.69484909807943],[87.61743103229989,27.695231956890062],[87.61755252046677,27.69552935416303],[87.61777429971119,27.695961664340658],[87.61808486610757,27.6966193520723],[87.61809049990538,27.69693982131113],[87.61818954828676,27.697512674121768],[87.61821675797908,27.69808359165497],[87.61835094088465,27.698491520946956],[87.61827867840161,27.69915990583797],[87.61816708187615,27.69949669330438],[87.61792800300184,27.699931137444327],[87.61774625308085,27.700173461712026],[87.61764022063672,27.7004966832542],[87.61754725912155,27.70098238932697],[87.61745392185271,27.70140939117734],[87.61741235225956,27.701800069039304],[87.61735527722715,27.702240449020213],[87.61730765102284,27.703008049526492],[87.61718286507909,27.703475813408783],[87.61688033166409,27.704240042524876],[87.61671852884582,27.704563514797112],[87.61637441205932,27.705030032370527],[87.61611332030694,27.70527717200003],[87.61586342235394,27.705603333642085],[87.6155396879216,27.706090044666983],[87.61502826197494,27.70669047897355],[87.6144733202226,27.707338427972054],[87.61453029775173,27.708225186752113],[87.61479103372207,27.708923699636184],[87.61498011385298,27.709401399178702],[87.61531331057061,27.70991448144115],[87.61562574771138,27.71033516131475],[87.6158343971239,27.710794667837252],[87.61595719627782,27.710985971220822],[87.61615490351137,27.711411655576825],[87.61652348913944,27.71200363534529],[87.61686693992219,27.71253703559684],[87.61721045109884,27.712957527825466],[87.6176261154464,27.7134702962748],[87.61791754258769,27.71376237703165],[87.61874780168246,27.714476385097175],[87.61949552989901,27.71517276347638],[87.6199944768037,27.71572122883872],[87.62038900498686,27.716087328894478],[87.62092921618897,27.716635605345466],[87.62124784501117,27.717132996194366],[87.62186527443367,27.71777573615805],[87.62238472576873,27.718247366061696],[87.6229690824011,27.71897150589965],[87.6232173698178,27.719365367266875],[87.6235999592154,27.7198511276733],[87.62435780685499,27.72009599963467],[87.62688962676907,27.720515579820503],[87.62767629696295,27.720681239713343],[87.62826607751327,27.720703423647723],[87.62867866628534,27.720663155371746],[87.62916734656103,27.72063157527193],[87.6296256405033,27.720602371787272],[87.62991755948552,27.720546912882718],[87.6305576701625,27.720471754815637],[87.63097669911758,27.720453992915537],[87.63130119416066,27.72043223060933],[87.63178999942112,27.72041871846803],[87.63242316694831,27.720257785375644],[87.63317856513844,27.7199631870578],[87.63375571140232,27.71975736650762],[87.6343136679803,27.719754793677904],[87.63466410675683,27.719606494313965],[87.63505380760189,27.719340597517753],[87.63528094957286,27.719145474127505],[87.63588760437247,27.718795111140782],[87.63633101128367,27.7184950782226],[87.63718344376579,27.71810069845457],[87.6377322030656,27.717827296755946],[87.63804112735939,27.717735577224374],[87.63851724107855,27.7177221273653],[87.6389642209858,27.717826150794796],[87.63922775697431,27.717888101932623],[87.63963834470736,27.71783426695067],[87.64107538237099,27.71809394323876],[87.64098192713482,27.718915935408088],[87.64092178770824,27.719248033662563],[87.64089334925647,27.719697290728497],[87.64098470712027,27.720247575444525],[87.64096827708423,27.720906706521546],[87.64103793936253,27.72143454784036],[87.64128998478722,27.722130747642503],[87.64137621845745,27.722775871826574],[87.64109950642094,27.72349039877991],[87.64091082113248,27.723967542033026],[87.64058001962213,27.724323401449595],[87.64020413522752,27.724575669074273],[87.6397915534113,27.724936469468215],[87.63963389193967,27.725948330649057],[87.63954168031299,27.72643853906751],[87.63962278000429,27.72675419192125],[87.63995647581788,27.727213071493775],[87.64018588172763,27.7276159981527],[87.64036326557377,27.72790858044394],[87.64105405198787,27.729349866155477],[87.64200255924462,27.730823843998333],[87.64259328982138,27.731425948085125],[87.64296624815857,27.731755976239],[87.64322860087383,27.732050432818504],[87.6436013055868,27.7322315424906],[87.64405216647242,27.732549940252653],[87.64455830724366,27.73331265472296],[87.64480490753874,27.73372458388393],[87.64530798054507,27.734284176819916],[87.64569607082515,27.734717984884355],[87.64583025575168,27.73520037383101],[87.64567307965117,27.735544164930175],[87.64529263606894,27.73598380000671],[87.64478515166562,27.736712959435405],[87.6443955805888,27.73721136230895],[87.64369658567998,27.737839808042217],[87.6430820641999,27.73870713498093],[87.64291807191921,27.73896521391805],[87.64314203373766,27.73918983813529],[87.64341745581538,27.73954968872665],[87.64398329741589,27.73989459278525],[87.64512979092595,27.74018947222145],[87.64532661826753,27.740436791928232],[87.64569663381901,27.74058845486388],[87.64631843428778,27.740951238043383],[87.64679599285977,27.741280826811423],[87.64756897879478,27.74189105471895],[87.64810874608672,27.74211648628081],[87.64862544558751,27.742511280995284],[87.64887135501851,27.74279679751594],[87.64916334758381,27.743273933049217],[87.6499523411328,27.743913418765437],[87.65026433807992,27.74422344202691],[87.65078335267368,27.74468144270961],[87.65107840839065,27.7451246295992],[87.65132456490066,27.745249912476623],[87.65184238613399,27.74550472861968],[87.65226466312697,27.745274778610945],[87.6526870018052,27.74505158116565],[87.65309439592056,27.744772054832175],[87.65361408503307,27.744593493522213],[87.65419217238808,27.744536592001726],[87.65520310193155,27.74422035718585],[87.65666907563386,27.74394475202197],[87.65718495252065,27.74387916118078],[87.6578443785006,27.743636703673083],[87.65823602006458,27.74348815346524],[87.6585657626344,27.743265395098685],[87.65887449878761,27.743135227218936],[87.65926551230369,27.74287608216305],[87.65967753494937,27.74263487958777],[87.660048730727,27.74245025638581],[87.66037734591002,27.742152976268805],[87.66062355582817,27.741858386118004],[87.66090971306551,27.741360484761458],[87.66107370532072,27.741102406951494],[87.66123682187077,27.740808192975535],[87.66148322060131,27.740549737814643],[87.6617079803284,27.74007015641016],[87.66211862479527,27.73970029094508],[87.66257222576814,27.739515291675286],[87.66345923539407,27.73927176727303],[87.66483910434027,27.738511271256904],[87.66535479090885,27.738323707577624],[87.66574718571303,27.738285689331253],[87.66613970559247,27.73828380776044],[87.66667640275695,27.738206712767372],[87.66700602181278,27.73807648143343],[87.66721040094578,27.7376895521274],[87.66739352233736,27.737248544956834],[87.6674527837557,27.73676971632442],[87.66753217703986,27.736272819497273],[87.66765408872489,27.735886266486265],[87.66785947302807,27.735664073367236],[87.66818670708632,27.735147916063653],[87.66839152674584,27.734835446439245],[87.668553576933,27.73437418377889],[87.66879928488092,27.73400513405755],[87.6691280857539,27.73363564480715],[87.66943550445147,27.733304605437326],[87.66980462962992,27.732788197861087],[87.6702359680874,27.732400139075395],[87.67060622543211,27.732177192465414],[87.67091533652382,27.732010888406908],[87.67120300017675,27.731770250335302],[87.67165522134134,27.73136406123291],[87.67208668519937,27.730994070464014],[87.6724770721782,27.730642336340644],[87.67288827787736,27.730272407756512],[87.67321739603968,27.730067654988925],[87.67389575969932,27.729531673690076],[87.67426620328153,27.729236455888834],[87.67455386652394,27.728995818098408],[87.6752940647693,27.728403069379308],[87.67578742596952,27.727996691908267],[87.6760747756974,27.727701850620292],[87.67660821022642,27.72711016822137],[87.67689524657509,27.726758873024224],[87.67716246406718,27.72650029274647],[87.67742987023169,27.726259717477028],[87.67858096495189,27.725371563123918],[87.6795459882903,27.724430145954976],[87.68014345311799,27.724151803837703],[87.6805137079797,27.7238362052465],[87.68080193692496,27.723688157095427],[87.68127366265134,27.72317118441686],[87.68145728506133,27.722820454019004],[87.6816627323295,27.72261857906077],[87.68194888954491,27.7221386834927],[87.68223692762778,27.721861910065638],[87.68248363958787,27.72165753277554],[87.68268770859879,27.72134506342807],[87.68293460866444,27.721176822109378],[87.68334669291244,27.720955812620183],[87.68359340524583,27.720769504426766],[87.68429346806575,27.72036205999303],[87.68460101227633,27.720049025367096],[87.68488974042756,27.71989866404339],[87.6853209535172,27.719492475712723],[87.68556710150453,27.71921589038605],[87.68581362535761,27.7189935079781],[87.68618407057961,27.718808822721133],[87.68653407117938,27.71860394475516],[87.68700780423723,27.718418757454447],[87.68735818058127,27.718270332554955],[87.68766672656018,27.718029569175613],[87.6880778079197,27.71765964108514],[87.68852827329368,27.71699606435631],[87.68876752160685,27.715726375588492],[87.68820009017624,27.714128980332195],[87.68807127589531,27.7133938920359],[87.68790426960393,27.713062922491424],[87.68784005180912,27.712733702786764],[87.68760888973694,27.712073513065143],[87.68809924161894,27.711299152866903],[87.68900337114488,27.710502466518896],[87.68976558117716,27.7101127145673],[87.69009438528452,27.70987176281947],[87.69038292708376,27.70978004356616],[87.69120703765428,27.709462186539508],[87.69180494182372,27.709258304383777],[87.69217695329877,27.709236166430454],[87.69329054733713,27.708973319803757],[87.69541456908634,27.708375733973508],[87.69628978562099,27.70633093233663],[87.69669842089485,27.705593084283855],[87.69681914299102,27.70513207177175],[87.69714769598934,27.70485504719587],[87.6974345445556,27.70450375198996],[87.69761923112488,27.70422748065906],[87.69792715235603,27.70400472262898],[87.69854399479745,27.703505066058213],[87.69897646295874,27.703320004406386],[87.69930614591446,27.703225845863518],[87.6999252460811,27.70307597857756],[87.7002939348511,27.70263396819523],[87.7004568612865,27.70222690856928],[87.70043284267636,27.70175076911977],[87.70053368359004,27.701362028481935],[87.70057313013814,27.70108651003247],[87.7005278494304,27.70044351010995],[87.70044349876825,27.700150487897155],[87.7003163795457,27.699708735692788],[87.70002438733775,27.69925204410192],[87.69994041304689,27.699013226024235],[87.69985543586469,27.698609671403386],[87.69989400419861,27.69820311436971],[87.7000566186236,27.69785482253347],[87.70028232035776,27.69755798145208],[87.70065170001367,27.697226565404506],[87.70114518730445,27.696874203770157],[87.70163923905776,27.696614431351563],[87.70205163793699,27.696465630661862],[87.70246322402011,27.696278444045355],[87.70423454900921,27.69551556532022],[87.70515291210344,27.693709707935515],[87.7053996240963,27.69352564954004],[87.70597394803487,27.692933653994576],[87.70630206219101,27.69260017596008],[87.70679504800636,27.692175605291105],[87.70720525115092,27.691695020390014],[87.70745095969177,27.691364231530592],[87.70775856540955,27.690994742848194],[87.70839560290872,27.69049489783072],[87.70868251363557,27.690161670907656],[87.7089284736257,27.68986695481732],[87.70946247303917,27.68942187776671],[87.70962490016649,27.68905539286419],[87.70976625492852,27.68855811968028],[87.70972191520411,27.688079855506082],[87.70959648836629,27.687805152156535],[87.70951245083863,27.687548265360917],[87.70950969093104,27.68712395372624],[87.70960833875634,27.686498269301758],[87.7096477826842,27.686130160717063],[87.70972880796948,27.685910782674245],[87.70980876728531,27.685542486023305],[87.71032370125113,27.685282525510715],[87.71077724125897,27.68513347393406],[87.711147938011,27.68502099754418],[87.71209609396023,27.68470238798343],[87.7125078677317,27.684571592305378],[87.71283817525402,27.684477371199723],[87.71343545260373,27.684216972343748],[87.713764508152,27.684032412993965],[87.7141343894378,27.683791273181836],[87.71471046826011,27.68338426935315],[87.71524478214354,27.682977515437507],[87.7156555522627,27.682700052093608],[87.71684797446599,27.681847469558626],[87.71871982861532,27.680697912709284],[87.71978776651049,27.67980988417456],[87.72019966365764,27.679604567495346],[87.72044556026864,27.679309851478184],[87.72064918804287,27.67884833776599],[87.72081155242985,27.678479602108208],[87.7209130217493,27.678203707545283],[87.72109689653834,27.677927435982177],[87.72154849079918,27.677484923513134],[87.72171148055484,27.677116125193045],[87.72187541087656,27.676894119395442],[87.72224428899104,27.676506312172503],[87.72265392783562,27.675951142455812],[87.72289894671447,27.675527764127455],[87.72310295390616,27.675233299210188],[87.72351253059567,27.674678192324944],[87.72371628309489,27.6742369969058],[87.72371433856227,27.673943598483515],[87.72375347164116,27.67362956813664],[87.72379222718959,27.67326158465562],[87.72383123505247,27.672931800268678],[87.72382929017044,27.672636151045957],[87.72378306862394,27.671882555937856],[87.72369802893283,27.671479001713177],[87.72346805900365,27.671019808563212],[87.72325916134527,27.670673273019887],[87.72306989518285,27.67023189765961],[87.7229027000433,27.669864855370975],[87.72271412121621,27.669425729627612],[87.72252535542812,27.669058812775493],[87.72239992821595,27.668784109683333],[87.72216945877197,27.668342984745045],[87.7220020127705,27.667939806725094],[87.72116798997443,27.666693768933833],[87.72256887310827,27.66624636326463],[87.72285616127239,27.66598747021329],[87.72328793968803,27.66572794911068],[87.72372002987959,27.66543004205016],[87.72417206603455,27.665152328319998],[87.72450105659306,27.664875240944873],[87.7247473925407,27.664652734036885],[87.72515728497433,27.664246545511478],[87.72550603099772,27.66389487403428],[87.7257526188778,27.663710816291317],[87.72599845229472,27.663413787662897],[87.72634857878283,27.663265237928474],[87.72676066458344,27.663098306695098],[87.72704883077016,27.66296813871785],[87.72787237791566,27.662631963303983],[87.72818086177492,27.662429524029456],[87.72834448129692,27.662243591577],[87.72863258268998,27.66202314703235],[87.72887797800325,27.661653972368327],[87.72912330976482,27.661284671938578],[87.7290766524054,27.660567275057158],[87.72886750270531,27.660089889018003],[87.7287001845502,27.659797368673996],[87.72849134947955,27.659466650199033],[87.72836636122094,27.659248400954233],[87.72749245519393,27.658296012801173],[87.7260424662097,27.65753175139132],[87.72591446826203,27.656961398755453],[87.7258705686018,27.656557593861777],[87.72586843619811,27.656228121858224],[87.7259465132241,27.65558443203335],[87.72602659528103,27.655141613610198],[87.72618864614611,27.654736742272032],[87.72637189376024,27.65436788084852],[87.72653557288298,27.65410973990514],[87.72678065512511,27.653704429875255],[87.72694408358679,27.653407902783275],[87.72714664735015,27.65289224815272],[87.72741236109495,27.652450739410234],[87.727780986384,27.651952211382707],[87.72802594423804,27.651601104397535],[87.72785009346151,27.64994768633388],[87.72717711794503,27.6481319784031],[87.72701042442675,27.64783720721253],[87.72659382217338,27.647306746710886],[87.72600644927655,27.645894655586584],[87.72671723627805,27.644143943296932],[87.72650871540475,27.643851673295696],[87.72605316763065,27.643668940568446],[87.72586653385785,27.643523213728237],[87.72553578431851,27.643432442971836],[87.72530556527822,27.643011573565786],[87.72509804573721,27.64277350704005],[87.72495211188433,27.642553007321872],[87.7246406798984,27.6423176311633],[87.72434981568767,27.642023488197562],[87.72264797179317,27.640709757101874],[87.72272121835822,27.639312284277604],[87.72277953972575,27.63874092845971],[87.72279678442727,27.638190142057585],[87.7229398326286,27.637968199745657],[87.7231442761376,27.637655729666317],[87.72343125019692,27.637358511923182],[87.72384158191721,27.637026783002103],[87.72423228439564,27.636803648721354],[87.72449969078734,27.63661708906082],[87.72478666515602,27.636322185551226],[87.72533960422352,27.635621845958646],[87.72556480713234,27.63536332871808],[87.72710171162025,27.633626355571238],[87.72722450387958,27.633515133552798],[87.72765414802848,27.63285155715915],[87.72773172409902,27.632133407463584],[87.72781093018865,27.631654515780745],[87.7277467748846,27.6313433638092],[87.72768299382935,27.630993949779917],[87.7275970776856,27.630554260046324],[87.7274712109907,27.630205035006274],[87.72716053138463,27.63007800241816],[87.72682921711487,27.62989464216769],[87.72622930421765,27.629714974903052],[87.72652568207701,27.62769112704985],[87.72558768110233,27.62629892339432],[87.72525310712327,27.625711631592157],[87.72508622531362,27.62538297595052],[87.72510428764365,27.625051065853025],[87.7249362771836,27.62455542332104],[87.72470129051806,27.623416843799944],[87.72621931981386,27.621993714044375],[87.72625782529724,27.621589469737188],[87.72619504849622,27.621386661230634],[87.7260898149861,27.62109382755875],[87.72610731236554,27.62066938990612],[87.72639435018685,27.620392553817222],[87.72672359211498,27.620171858823582],[87.72717650670789,27.62007694822543],[87.72748580641796,27.620000857878157],[87.72783618354912,27.619908699869193],[87.72849579894405,27.619738201152753],[87.72896940812137,27.619607029564825],[87.72921574419587,27.619404903406803],[87.72954467460735,27.619218093526232],[87.7296669009826,27.618942073166497],[87.72987159577679,27.618665613397354],[87.73020052581451,27.61849687081806],[87.7306748880037,27.618476293761663],[87.73112918103712,27.618491916024077],[87.73168726340081,27.618581557474066],[87.7321831983498,27.618653382682943],[87.7325961655823,27.61874146301284],[87.73313461775473,27.618923694679477],[87.73350619320914,27.61897589144419],[87.73400156389178,27.618973256789367],[87.73437276331414,27.618971312388823],[87.73491033781494,27.619024944211414]]]}},{"type":"Feature","properties":{"province":"Koshi Province","district":"Taplejung","municipality":"Mikwa Khola Rural Municipality","ward":"4","wardNumber":4,"sourceMunicipality":"Mikwakhola","sourceType":"Gaunpalika"},"geometry":{"type":"Polygon","coordinates":[[[87.66588028017584,27.538966423211026],[87.66640509220262,27.53866145066183],[87.66659159283262,27.53840999835541],[87.66790186546964,27.537347352868927],[87.66933483974631,27.53480802176387],[87.66925636188407,27.534289245854644],[87.66921602615734,27.533903446108845],[87.66898793247688,27.533450880146262],[87.6685310573454,27.53254799859499],[87.66830277816857,27.53218120760764],[87.66811006587483,27.5313944176158],[87.66814500558122,27.53089089417617],[87.66817982107207,27.530470895678476],[87.66825346770102,27.530202003672315],[87.66849385493202,27.52954849563776],[87.66871730355669,27.52912761854825],[87.66882833893776,27.528858474783593],[87.66897650949649,27.52845597951236],[87.6702408006626,27.52610258168048],[87.67059548487272,27.525714836295545],[87.6718860618968,27.524568729130372],[87.67099852893386,27.52081726982819],[87.67101383705877,27.520316123275865],[87.67116213361757,27.519929444693283],[87.6713848920415,27.519409226049337],[87.67151449529761,27.519072250415242],[87.67155018982668,27.518803483816004],[87.67158531981809,27.518435437108938],[87.6714136848091,27.51800062516801],[87.67129907372419,27.51768290938531],[87.67122191314203,27.51738088466839],[87.6711071767389,27.517045100662152],[87.6708588229715,27.516493318661144],[87.67072451413563,27.51604256376228],[87.67060958867661,27.515672957364966],[87.67041863302472,27.515188568935677],[87.67033946595276,27.51455250887523],[87.67033670456058,27.514098812950643],[87.67025935697568,27.513762903213706],[87.67021845414742,27.513178483284484],[87.67027190175301,27.512708782301257],[87.67040068853458,27.512238642585423],[87.67051147293834,27.51193567667629],[87.67080988574313,27.511464720866492],[87.6710139530854,27.51109585990029],[87.67126378592307,27.510656788774714],[87.6713677578108,27.51047342146033],[87.67125138916342,27.50986912139976],[87.67278536489323,27.508604474508868],[87.67294441514612,27.508222235314335],[87.6729223702291,27.506477599418073],[87.67276816659026,27.50547843423186],[87.67276583246093,27.504483079708102],[87.67240124484665,27.503737742849815],[87.67056763984569,27.501200655465],[87.66973869648692,27.500583926337463],[87.66854728974089,27.49916321818261],[87.66677969733871,27.49600726121051],[87.66479537241928,27.494563246626857],[87.66373802160055,27.49341499023572],[87.66189436852916,27.49167676240367],[87.66101514591382,27.490588520887027],[87.66055972012379,27.490184410473276],[87.65867640457893,27.487385496610536],[87.65776939095471,27.484800943087745],[87.65740083830495,27.482834373021287],[87.65704443834538,27.481964936149968],[87.65685192728819,27.481830399957165],[87.65682916636082,27.481731184160886],[87.65635488580763,27.479652396135222],[87.65592414018253,27.478498752798988],[87.65536127891411,27.47716299590643],[87.65529754223438,27.475912818026234],[87.65531247467321,27.475441054195347],[87.65527157443415,27.474944659412973],[87.655137984365,27.473013221027504],[87.654190566283,27.46976966165428],[87.65424618973154,27.46869503402061],[87.6538360014687,27.466940901980163],[87.65366623877298,27.463384487388293],[87.65472206453242,27.46040234616801],[87.65305656964723,27.46010553708265],[87.65166930945085,27.46010981201454],[87.65086189126437,27.46029419210051],[87.64965401920277,27.460778354300945],[87.64546954806086,27.461138717103584],[87.64210238382725,27.461718631081734],[87.64105887147748,27.46156772942089],[87.6397478320058,27.461831078959108],[87.63848449198845,27.46183466345581],[87.63760791751318,27.46175965592694],[87.63679142774171,27.461689023872513],[87.63582151004302,27.461763374728825],[87.63424805271855,27.461635175974237],[87.6327201215864,27.461942354281344],[87.63022176205713,27.461802480392123],[87.6299647314359,27.461880382009785],[87.6298154309842,27.462091008631415],[87.62973858875782,27.46204168357919],[87.62960735447786,27.46210776678745],[87.62850977465527,27.462656695963528],[87.62763251970681,27.46292022598911],[87.62705411589855,27.46276937835781],[87.62679758488095,27.462826961962378],[87.6263080368201,27.46317450988939],[87.62502113737477,27.46370850065015],[87.62404714748736,27.46341943231527],[87.62299444906616,27.463527980994613],[87.62210948960633,27.463089555137056],[87.62127430215351,27.462842809138525],[87.62098519488904,27.462844064162862],[87.62022904831491,27.46314766597602],[87.61952686240848,27.46360675010888],[87.61913433675029,27.463328612303584],[87.61902691763007,27.46311917809595],[87.61910029847186,27.462112193669093],[87.61900588316088,27.46185755878481],[87.61610095870321,27.459827699679053],[87.61413685423099,27.459504700050005],[87.61404077059473,27.460195842193286],[87.613467708821,27.46135175274802],[87.61229148920152,27.46256675344782],[87.61120299054214,27.463869402556575],[87.60943806429182,27.46559712632563],[87.60886112043018,27.46651834249075],[87.60883961820389,27.466748661124207],[87.60897325635919,27.468041412353745],[87.60930464712125,27.46892916725291],[87.6098959476194,27.469917509112168],[87.61012988219852,27.471611564270667],[87.61032235714076,27.47300340615246],[87.60989386182935,27.474815506458725],[87.60989431537719,27.475567102177443],[87.61053834782658,27.477735664114842],[87.61087380153478,27.4785557110902],[87.61130340669848,27.47901427559962],[87.61160290414696,27.479615634199558],[87.6114409364606,27.48098641396618],[87.61133635328308,27.481869424228115],[87.61140573355891,27.483880199567473],[87.61253259503667,27.487290305524745],[87.61250661429216,27.48864689058795],[87.61294480283583,27.489947327142794],[87.61294501021426,27.490904357163767],[87.61372275761953,27.492042989828164],[87.61372525843952,27.49204524069791],[87.6145527069525,27.492912793612664],[87.61564557511869,27.49426898563657],[87.61680283781833,27.495376602996426],[87.61808807268051,27.495946435784447],[87.61880803879939,27.496588736808246],[87.61924547219716,27.497629597207858],[87.61952401927607,27.497991761656788],[87.62051546564605,27.498858561370536],[87.62130658915537,27.49977137783671],[87.62358281953074,27.503557637148816],[87.62432611291071,27.50450227634465],[87.6252631592921,27.505139072220267],[87.6271396500993,27.50748022667521],[87.62752993412649,27.508221062296382],[87.62776571011887,27.50828320108383],[87.62794947479392,27.508765276875476],[87.62804520369727,27.50901772419362],[87.62808216508155,27.509507367041813],[87.62812056701304,27.510150429515598],[87.62812746956772,27.511346717821283],[87.62809885677815,27.512418970087502],[87.62803880311651,27.513888651787234],[87.62797435920696,27.514687824463028],[87.62797944170424,27.515574959309966],[87.62774211647347,27.51612900032439],[87.62743576542495,27.51668110474532],[87.62706176594598,27.51735768369703],[87.62700769008727,27.517644644075208],[87.62689466059268,27.518245509082345],[87.62689917914591,27.519044493355988],[87.62700548002059,27.519594715027488],[87.62718042981624,27.520083731119517],[87.62723626395352,27.520103798015136],[87.62740546118879,27.520581560340077],[87.6274476706688,27.52087927161774],[87.62703797018077,27.521508587659987],[87.62629445436066,27.521879896414873],[87.62588237437443,27.522324158412232],[87.62572014029632,27.5229523459368],[87.62568169810731,27.523435550129843],[87.62560149347769,27.5240250996667],[87.62589404669552,27.524391577014132],[87.6260629328168,27.524907725388932],[87.62602512109436,27.52560993168423],[87.62577847543201,27.525981106818787],[87.6254915050024,27.526499326039357],[87.62512188115272,27.527053994861173],[87.62491844370854,27.527682369860536],[87.62483760682366,27.527942259628595],[87.62454919583158,27.528313748355338],[87.62401325840824,27.52879689877351],[87.6235184588504,27.529167078596302],[87.62306417282325,27.5294286620917],[87.6226113263497,27.52983697717803],[87.62199147975375,27.530135449475264],[87.62195452980693,27.530212410325085],[87.62186881416741,27.530393340022012],[87.6218722034937,27.53098470053148],[87.62220696535599,27.53164676382594],[87.62249876725282,27.531979419537823],[87.6230828105891,27.53271493747668],[87.62333598342812,27.533487971912507],[87.62367118482351,27.534224557063997],[87.62379823821959,27.534526456021677],[87.6237782330941,27.534673249157397],[87.623739169131,27.535269362497758],[87.62382727814669,27.535955061451702],[87.6235381818772,27.53644164651102],[87.62304144951298,27.5370352033419],[87.62296149554686,27.53766757829609],[87.62309200054786,27.53857659247197],[87.62311665026401,27.539357445253362],[87.62280993300259,27.54030679097345],[87.62263645936915,27.54164606158129],[87.62280783923097,27.541832613605163],[87.62354514085946,27.543242263982794],[87.62358002840483,27.543260143354747],[87.6240619616594,27.543508520973273],[87.62526327867387,27.543464737521802],[87.62612234744809,27.543575880873846],[87.62621606966569,27.543575504607926],[87.62665985820914,27.543573496518828],[87.62676620952759,27.54357305669535],[87.62762314479619,27.54330277558946],[87.62865245994224,27.543183035999586],[87.62959285528432,27.5425693404465],[87.6299551123149,27.542486435442157],[87.63010748006238,27.54245185986306],[87.63079373328767,27.542448722590663],[87.63130816984321,27.542292918572123],[87.63165129621918,27.542291349675843],[87.63302304674009,27.54205713272868],[87.63388192711007,27.542129952324114],[87.63474143555824,27.542317805710393],[87.63542982028605,27.542580995669788],[87.6356020730817,27.54269533885013],[87.63573275197048,27.542963352622223],[87.63586192717266,27.54307788456338],[87.63620549282317,27.543150775183737],[87.6421641089206,27.542297111896776],[87.64355618452787,27.542290649526564],[87.64400835432875,27.542421742322837],[87.64436536058182,27.542420048725283],[87.64491055967983,27.542334014185197],[87.64543681444215,27.54224804244033],[87.64592492910552,27.542144191449893],[87.6467320954339,27.541822146239962],[87.64714430579922,27.54161939176839],[87.64766930528333,27.541332486664142],[87.64849560563252,27.54114354291973],[87.64898516204909,27.54117510647386],[87.64941983069983,27.541559023952118],[87.65038012600336,27.541771194512545],[87.6508698705992,27.541836642726526],[87.6513215385284,27.541884087290104],[87.65220599152836,27.541997355555463],[87.65265703137709,27.541945581980404],[87.65303429814854,27.542045354907827],[87.6535982551087,27.54202465224205],[87.6541248866558,27.542006387679383],[87.65467015105898,27.542037637640593],[87.65519584073832,27.541865828641473],[87.65577786437065,27.541711898931997],[87.65891331179026,27.540708364057497],[87.66054621350266,27.54013179309841],[87.66118337828374,27.539758609951573],[87.66159521216167,27.53950609170764],[87.66204537325672,27.539303087353375],[87.66240281719007,27.53924943993188],[87.66289130913576,27.53923123886263],[87.66326826120674,27.539279184190793],[87.66360695044997,27.53937908280736],[87.66447201852625,27.539325303042904],[87.66503553641641,27.539236829867278],[87.66544887428357,27.53913554288272],[87.66588028017584,27.538966423211026]]]}}]}