{"type":"FeatureCollection","features":[{"type":"Feature","properties":{"province":"Koshi Province","district":"Sankhuwasabha","municipality":"Madi Municipality","ward":"5","wardNumber":5,"sourceMunicipality":"Madi","sourceType":"Nagarpalika"},"geometry":{"type":"Polygon","coordinates":[[[87.37697482403242,27.301609176333827],[87.3770899882762,27.301475635264627],[87.3771005282938,27.300114486657822],[87.37740800452842,27.299508741103903],[87.37979300265464,27.296111896043918],[87.38475079649382,27.291482212108157],[87.38571556439891,27.29027865713213],[87.38719564687612,27.289035332350227],[87.38976042665766,27.28715692936927],[87.39289285248455,27.28523619245506],[87.3939883715027,27.284788419889306],[87.39509139535336,27.284487314347533],[87.39826928303293,27.2829704454008],[87.39976774570837,27.281647908633],[87.40070938271283,27.280582019831474],[87.4029193444874,27.278681802695267],[87.40639838239555,27.27599227271443],[87.40730344119574,27.27479559531439],[87.40822443794981,27.27330089310026],[87.4137237585636,27.269515009941458],[87.41294233475558,27.268934977110963],[87.40709096425708,27.26714423111041],[87.40394579704014,27.266548480931636],[87.40090524844177,27.26679653801654],[87.39969974680317,27.266994114790794],[87.39929978617404,27.266936541859184],[87.39908483497274,27.26705007888916],[87.3979695534112,27.267222584312634],[87.39691311454683,27.267778700797766],[87.39612157588942,27.267891496299708],[87.39483579135968,27.26788382609441],[87.39090533537596,27.267229070451975],[87.39029661523537,27.26740688233698],[87.38982282141066,27.267717417912188],[87.38801162586127,27.269347736303818],[87.3871965846364,27.269765308967155],[87.38443502024906,27.270375656160496],[87.38329184650593,27.27018699338917],[87.38120243115229,27.268978359147486],[87.37978176443816,27.26796195791923],[87.3797015619985,27.268695799080177],[87.37836028985518,27.270383314510728],[87.37651214877079,27.272347668737794],[87.37457159163958,27.273908219220083],[87.37358293995271,27.275136469192887],[87.37326338855291,27.275324717047727],[87.3727920303794,27.27546138940919],[87.37094544143262,27.273613125621694],[87.36934455632019,27.271172810585952],[87.36870340814733,27.269231001366663],[87.36834301639362,27.268739925074296],[87.36797737805311,27.26851967910085],[87.367298815833,27.26846504805655],[87.36428547564093,27.269326222250367],[87.36408296525295,27.269383116441826],[87.36288366374902,27.270142482554405],[87.3620706252857,27.27065251977548],[87.36084075709003,27.27173466888789],[87.35892601861222,27.273127856012962],[87.35874870815226,27.273387872675897],[87.35867943412349,27.273446765780946],[87.35909541680051,27.274344022751084],[87.35952059923429,27.275751491703183],[87.35970207704793,27.277595153802366],[87.35964900973538,27.278353752217427],[87.35929554015257,27.280171727637057],[87.35894405610408,27.281240296662183],[87.35894037599469,27.281669172045515],[87.35856676290298,27.282922921003472],[87.35861909795982,27.283092094146646],[87.35860778096279,27.2830965958],[87.3568487198204,27.284265902954694],[87.35524089594027,27.28514806119022],[87.3540611708585,27.28618719647915],[87.35383066356363,27.286986809869223],[87.35388701689133,27.288020486485554],[87.3583269545395,27.290986350516686],[87.35969211643737,27.292779605358202],[87.36003145582112,27.294191763868906],[87.3596867753799,27.29464633938138],[87.35914458207978,27.29496375369152],[87.35843696070685,27.29569685471842],[87.36144698001078,27.29764162842805],[87.36464736330949,27.298680633533884],[87.3659170242133,27.29904747141406],[87.36983323582221,27.30025820323175],[87.3701337241609,27.30041543228235],[87.37361802500446,27.301451181981633],[87.3749448924338,27.301725241402472],[87.37608187148524,27.301683837309774],[87.37628282071191,27.301699026204123],[87.37697482403242,27.301609176333827]]]}},{"type":"Feature","properties":{"province":"Koshi Province","district":"Sankhuwasabha","municipality":"Madi Municipality","ward":"4","wardNumber":4,"sourceMunicipality":"Madi","sourceType":"Nagarpalika"},"geometry":{"type":"Polygon","coordinates":[[[87.35867943412349,27.273446765780946],[87.35874870815226,27.273387872675897],[87.35892601861222,27.273127856012962],[87.36084075709003,27.27173466888789],[87.3620706252857,27.27065251977548],[87.36288366374902,27.270142482554405],[87.36408296525295,27.269383116441826],[87.36428547564093,27.269326222250367],[87.367298815833,27.26846504805655],[87.36797737805311,27.26851967910085],[87.36834301639362,27.268739925074296],[87.36870340814733,27.269231001366663],[87.36934455632019,27.271172810585952],[87.37094544143262,27.273613125621694],[87.3727920303794,27.27546138940919],[87.37326338855291,27.275324717047727],[87.37358293995271,27.275136469192887],[87.37457159163958,27.273908219220083],[87.37651214877079,27.272347668737794],[87.37836028985518,27.270383314510728],[87.3797015619985,27.268695799080177],[87.37978176443816,27.26796195791923],[87.37991285251519,27.26676529282757],[87.3802415225074,27.26611653458888],[87.38122786685071,27.265170304547322],[87.38169584425115,27.264814630301846],[87.3826558146385,27.264464450955057],[87.38452136786866,27.264129698997287],[87.3857811990334,27.26376275932242],[87.3866336220436,27.263013213799617],[87.3920202979779,27.26033684603101],[87.39296297613761,27.25816500651794],[87.39327138971836,27.25752312605414],[87.39306392609294,27.25689163212952],[87.39258291744493,27.255856899153688],[87.39230980877088,27.255415273556356],[87.39178054044612,27.254856993095977],[87.3899968624872,27.253643102727303],[87.38972287956628,27.25329850598033],[87.38965997936903,27.253183535825766],[87.38964040667206,27.25300973448964],[87.38966222531323,27.252932962312297],[87.3898562947781,27.252801545101438],[87.39037054363547,27.252709760632005],[87.39158980354725,27.252697300150555],[87.39235908655942,27.25274023842786],[87.39302151774464,27.252763235189896],[87.39315068937363,27.252688336302874],[87.39323784260947,27.252516596919364],[87.39321939345054,27.252286405158205],[87.39309440335472,27.251941430527115],[87.39269586844803,27.251193155140093],[87.39248796850354,27.250620365236326],[87.3923016380321,27.25004532491265],[87.39224098420624,27.249700098977193],[87.39220570819946,27.249011772939348],[87.39223376888552,27.248381900539144],[87.39237560718931,27.24706326201248],[87.39223491457328,27.24620370005124],[87.39198368691558,27.245685239163883],[87.39177304204206,27.245399158745318],[87.39154182355946,27.244995731066037],[87.39128866164612,27.244648821442468],[87.39103468919376,27.24441932060331],[87.39036067307313,27.243441606268664],[87.38989929873021,27.2425783607046],[87.38929030585449,27.24158007777642],[87.38876378697819,27.2408863194993],[87.388489430276,27.2405981774344],[87.38794140279795,27.23988641438335],[87.38713915430709,27.239039928769028],[87.38646457907859,27.238231452220017],[87.38606186209955,27.237884982008932],[87.38591424317636,27.237749945195713],[87.38578744316122,27.237594463755727],[87.38514602074801,27.23760985291957],[87.38463439415516,27.23753002545853],[87.38318054862951,27.237576936606747],[87.38215667019045,27.23745560398667],[87.3811307313243,27.23744936783858],[87.38044610663215,27.2375573475943],[87.37924910567317,27.23756968279795],[87.37881976446532,27.237758181608417],[87.37823837060294,27.23815480717315],[87.3774605995846,27.23891535473599],[87.37642248948775,27.23997905779262],[87.37551405023201,27.24094760553003],[87.37516905339467,27.241232944122796],[87.37482649233436,27.241326414199264],[87.37454814064111,27.241342986320785],[87.3741865053331,27.241226582934694],[87.37403788651457,27.24112768100626],[87.37389833539073,27.2411325599913],[87.37338627193914,27.241120314032305],[87.37312830428071,27.241191026119253],[87.37293292224878,27.241299936200058],[87.3722927011852,27.242051041222638],[87.37207200051898,27.242313496115514],[87.371853485755,27.24249917969066],[87.3716360964673,27.24262840789428],[87.3712048166929,27.242789837024933],[87.37068713001904,27.242987590036485],[87.370295803385,27.243227916757494],[87.37003439836568,27.243413663141027],[87.36972729135798,27.243712442247215],[87.36924224930543,27.244255484110276],[87.36882841526682,27.24455226537606],[87.36820281499887,27.24476614970004],[87.36787932354191,27.24489337956895],[87.36684157713312,27.245365659309485],[87.36612282216065,27.24586419153315],[87.36566378598486,27.246237808102048],[87.36527477191635,27.246419367089025],[87.36469037520995,27.24669176850994],[87.36430017337487,27.24689377122014],[87.36391234652154,27.24703694420849],[87.36345955839167,27.247198373621742],[87.36216527894955,27.247628332364748],[87.36100148390314,27.247983579129855],[87.36029391294106,27.248062113095152],[87.3595852801983,27.248199413699528],[87.35906578156025,27.24843549156388],[87.35860949376418,27.248694011271915],[87.35817184051055,27.24906756521925],[87.3575952049464,27.249800414040404],[87.35741445831941,27.250141704499207],[87.3572974844067,27.25048511959112],[87.35696418272721,27.2509171264282],[87.35658917822028,27.251331190348314],[87.35639042170406,27.2515551342269],[87.35617128300308,27.2517430677874],[87.3558928686221,27.25177308105838],[87.35540043805825,27.251801471719094],[87.35482453913183,27.251787101483],[87.35450260892297,27.2518173023881],[87.35340658650024,27.252059390029338],[87.35301800849767,27.252184495532397],[87.35243186229604,27.252515538808648],[87.35184165393535,27.252982060128797],[87.35113959667649,27.253615818739256],[87.35066292569546,27.253836078788265],[87.35008184012776,27.253993196008818],[87.34963292545623,27.254003392941428],[87.34948043420177,27.254094047314567],[87.3492200907866,27.254241406752588],[87.34844907308951,27.255028899649876],[87.347030821998,27.256050470584984],[87.34615595144898,27.256759191579643],[87.3454437569866,27.256991145336077],[87.3446661024023,27.25729780994827],[87.34433967446434,27.25750181231834],[87.3438973338035,27.258008530197372],[87.34224613043462,27.259477548189043],[87.34181260667174,27.25998651660503],[87.34082844669462,27.260708993323558],[87.34178213376835,27.261988729678052],[87.34361099327316,27.265264036517745],[87.34386305028431,27.26667869696738],[87.343263564226,27.2690976025679],[87.34346211521373,27.271223472670275],[87.34403978289491,27.27216786605393],[87.34492700669641,27.27334844806983],[87.34590530342255,27.273350496757256],[87.34739463631945,27.275215770420076],[87.34941274104932,27.277881021301916],[87.34984529031817,27.27866999543945],[87.35028701938434,27.278937504793905],[87.35068160076531,27.27888004416992],[87.35333161305769,27.27766345960399],[87.35400484901785,27.27707033741849],[87.35560085368246,27.276066269006797],[87.35867943412349,27.273446765780946]]]}},{"type":"Feature","properties":{"province":"Koshi Province","district":"Sankhuwasabha","municipality":"Madi Municipality","ward":"1","wardNumber":1,"sourceMunicipality":"Madi","sourceType":"Nagarpalika"},"geometry":{"type":"Polygon","coordinates":[[[87.4705166101922,27.228636509001724],[87.47024144139316,27.22834855475184],[87.47007206335482,27.228157313602146],[87.46922903827354,27.226758416686383],[87.46912580578099,27.2263749939527],[87.46910685480809,27.22607034215434],[87.46900305969697,27.225707299970125],[87.4689415299304,27.225344069657616],[87.46892257895486,27.225039417759415],[87.46896802752231,27.224734514947883],[87.46989902286835,27.223063323327878],[87.47002781760638,27.222913902848262],[87.47020137489037,27.22260856028409],[87.4703562931496,27.221924107404625],[87.47029563748099,27.221466098827296],[87.4700876099958,27.220778338421486],[87.47000613306136,27.22032039248121],[87.46992902131612,27.21925070520226],[87.47001891826626,27.218717673174663],[87.47002172470579,27.21833624842759],[87.47015644515528,27.217498313585143],[87.47014373174991,27.21643068758993],[87.4702108736518,27.216051263610648],[87.47027589477216,27.215897591817473],[87.4702954824955,27.213667313349717],[87.47039298966308,27.212238205524994],[87.4703765340831,27.211626526015742],[87.47025428748202,27.21093845157106],[87.47014980796193,27.21070857366111],[87.47000249889746,27.210496888646244],[87.46943090424432,27.209959365487325],[87.46909239777207,27.209612893764863],[87.4690512545949,27.209441469451587],[87.4689642258186,27.209611083436315],[87.46866181130332,27.210047715601462],[87.4684677443338,27.210274097302495],[87.46831563256383,27.210579314834224],[87.46820591066691,27.21090247356735],[87.46799052440024,27.211167304681133],[87.46773262163288,27.211393875501795],[87.46728146285903,27.2117136637262],[87.46685312277864,27.21192054331645],[87.46625540282747,27.211933806816884],[87.4653178049152,27.21171575758133],[87.46506214894654,27.211714323817986],[87.46463449295476,27.211785788699306],[87.46403689974483,27.211819371203454],[87.46309543324811,27.212039200599474],[87.4623265292763,27.212165874038558],[87.46155562615242,27.212425775430443],[87.46035887807156,27.21258771670372],[87.45993128550512,27.212679438225997],[87.45950344464788,27.21284786911868],[87.45907535296939,27.21297797663133],[87.45839060527952,27.2131607905648],[87.45762107478359,27.213287465237862],[87.4571937942903,27.213304664433124],[87.45668035742844,27.21339444909355],[87.45556670343422,27.213650854533793],[87.45505183121905,27.213855672229563],[87.45479505079521,27.213890373616543],[87.45445286256123,27.213889253968922],[87.45265626485359,27.21383639167644],[87.45197138862672,27.213829650789613],[87.45102935695084,27.21391844170246],[87.44939970361213,27.21426681937357],[87.4490766514031,27.21445519263239],[87.44847543544228,27.214698647991373],[87.4474433782963,27.215169240095932],[87.44684297344921,27.215297536888535],[87.44615591410012,27.21554130691789],[87.44581147942391,27.215747809825405],[87.44521063678985,27.215932498364396],[87.4446946406056,27.21617801640723],[87.44368459073225,27.216628164206142],[87.44342718497371,27.216665116507677],[87.44282821557105,27.21667831761037],[87.44163270854926,27.21638187447413],[87.44103629682506,27.216090298574944],[87.4407808257906,27.215973767812713],[87.44039849208265,27.215704069834146],[87.44022842837772,27.21562561234707],[87.43963058022608,27.21544919503919],[87.43937467272019,27.215389056480884],[87.43809220024748,27.215264414654683],[87.43732428827356,27.21502760729749],[87.43672843869932,27.214699895910574],[87.43647240541551,27.214601370981207],[87.43621612321094,27.214599937084373],[87.43578721767643,27.2146915960922],[87.43553024830877,27.214669780841604],[87.4354448416175,27.214631708639907],[87.4351703597779,27.214323310101847],[87.43444839500872,27.213725145954427],[87.43419248740243,27.2136469391984],[87.43397865946964,27.21368370409928],[87.43376364491024,27.213756603418545],[87.43339676620829,27.21404219247141],[87.43296299359803,27.214648439897765],[87.43250671487402,27.215331584415143],[87.43198478945001,27.216168400701008],[87.43140033833802,27.21683154186182],[87.43127073011631,27.21694707734944],[87.43062468956607,27.217362146592777],[87.43004385676602,27.217661931241807],[87.4295274233937,27.217963653210607],[87.42866680372282,27.21839516796323],[87.4278930266409,27.218752034986675],[87.42690286237135,27.21931709119555],[87.42587124198114,27.219767239210423],[87.42544096410433,27.21999424936655],[87.42466762420781,27.220312604899778],[87.4238927848326,27.22072580086625],[87.42341830651182,27.221124549777365],[87.4227256298283,27.22190085125338],[87.42197055224153,27.222526170838357],[87.42086991616347,27.22343464211512],[87.419900010871,27.22405608948668],[87.41957608495811,27.22435949610832],[87.41899475345875,27.22471792261283],[87.4183928508445,27.22497932142711],[87.41813550736511,27.2250342784906],[87.41764039361476,27.22531786919962],[87.41712533326299,27.225504557100408],[87.41652236803691,27.225824598053173],[87.41615742431894,27.225974772402214],[87.4158766382564,27.2261809627885],[87.41572471217279,27.226409344339455],[87.41537896724822,27.22678964896972],[87.41512025145714,27.226998088815318],[87.41469041041607,27.227186713654852],[87.41443362949249,27.227223603018285],[87.41417722220643,27.22720403910411],[87.41400559691469,27.227240677770848],[87.41374787978144,27.22735427725689],[87.41348872681277,27.227601104014486],[87.41329484662778,27.227752901640525],[87.41310052900032,27.2279611525322],[87.41269219542723,27.228149714839354],[87.4124978155856,27.22833989817608],[87.4119823186149,27.228585228287262],[87.41155497427944,27.228584234187476],[87.41095450748372,27.228750792409375],[87.41026694872293,27.229073335690963],[87.4092535295925,27.229868584065017],[87.40899574952849,27.229982246458967],[87.40822528207124,27.230092853904704],[87.40740911451273,27.23045184690731],[87.40723617943469,27.230641967481187],[87.40716940992003,27.230870160273316],[87.40714465666291,27.23117493803786],[87.40716048465386,27.231709906328774],[87.40705057565951,27.23203525414519],[87.40694247663487,27.232168731654763],[87.40668332375544,27.232415558244817],[87.40644698949534,27.232529095327656],[87.40627480192762,27.232583738737777],[87.40593280285538,27.232620880129],[87.40558911577577,27.23273248128398],[87.40535234508238,27.23290472256111],[87.40511463731198,27.23315148607198],[87.40494257591642,27.233226448236916],[87.40477101395417,27.233283405383585],[87.40408632661132,27.2333553744958],[87.40228973082844,27.233401228266015],[87.40083575956491,27.233394123553477],[87.3999822554319,27.233236278082618],[87.39938603246065,27.233003281611044],[87.39898094377091,27.232884815808823],[87.39902202461799,27.2330765588043],[87.39912556948191,27.233403528076405],[87.3994797162366,27.234282843276215],[87.40013266150211,27.235204165124642],[87.40042915052402,27.235492245565],[87.4006836862208,27.235705991606874],[87.40136244605064,27.23624351292722],[87.40229848503658,27.23669000428205],[87.40263961192765,27.236768022529727],[87.40349417729935,27.23684903290717],[87.4041784277062,27.236815449647953],[87.40452161449655,27.236739984761805],[87.40512295513051,27.236476398398572],[87.40587772098887,27.235869207951083],[87.40611455409788,27.235717285480852],[87.40641516191661,27.235567423935926],[87.40658622503,27.235566858424498],[87.40684219462831,27.235627122195506],[87.40703283103252,27.235800357294856],[87.407134939546,27.236278621556878],[87.40730331948839,27.23656482722363],[87.40749439255946,27.236681608806983],[87.4077936264708,27.236664912123324],[87.40805109591824,27.23662808427309],[87.40916662281961,27.236270400045402],[87.40959633825975,27.236043389063013],[87.41011139885039,27.235836508149266],[87.41114077129029,27.23557610302157],[87.41127031657474,27.235442561849954],[87.41140086003003,27.235232248130927],[87.41153053072347,27.235119025180907],[87.41168052160833,27.23504406320078],[87.41223809835319,27.234913766776547],[87.41275178583953,27.234858054892058],[87.41326459982452,27.234899433741756],[87.41488588943446,27.235233193916535],[87.41659327341793,27.23564791392612],[87.41693371499002,27.235841027532803],[87.41716730453442,27.236016388144566],[87.41791189789424,27.23642274528016],[87.4185074357753,27.236791031237757],[87.41893359598832,27.236965826016586],[87.42004063860077,27.237549417080743],[87.42097842818292,27.237939391811455],[87.42166155685764,27.2380975526971],[87.42337056557093,27.238417432155465],[87.42486636801397,27.23862053056729],[87.4259347638694,27.23882038478702],[87.42618973559378,27.238957296100644],[87.42695783464822,27.239212295850795],[87.4275551201589,27.239388776343343],[87.42789606045902,27.239543441321956],[87.42832178403874,27.23975887237328],[87.42932902595041,27.23965188795188],[87.43052740357852,27.239661746528387],[87.4313821578422,27.239803587914935],[87.43206528661037,27.239961686031954],[87.43266213467136,27.240176551955706],[87.4331742639848,27.240371350857824],[87.43366394870424,27.24062260444374],[87.43417745040966,27.24066617170775],[87.43450062859314,27.24049586626526],[87.43519112113555,27.23994744473625],[87.43529915767355,27.23981390452082],[87.43572968694144,27.239625217379846],[87.43607281149143,27.23955194017356],[87.43641512520729,27.239573441118434],[87.43690493634283,27.239863080900268],[87.43718110394714,27.240094706741203],[87.43754405304412,27.2402312411167],[87.43795026565799,27.240291001828318],[87.4387632530733,27.240392206836443],[87.43934190228923,27.240338432039493],[87.4401777078777,27.24028615291123],[87.44120521094707,27.240350593126486],[87.44343071799887,27.24049928966888],[87.44411621973602,27.24046545611071],[87.44428846943948,27.240428817500593],[87.44463209330243,27.240317091931747],[87.44532021394157,27.239978544526277],[87.44650444742217,27.23929988946138],[87.44753756530785,27.238734519629435],[87.44788168865696,27.238582095263748],[87.44835504602949,27.238377464783785],[87.44887104246162,27.238111754086418],[87.44921466696832,27.23800002789498],[87.4500750376737,27.237642847088402],[87.45153618814321,27.23708059743457],[87.45196565592025,27.236968557466565],[87.45256762236957,27.236725101866956],[87.45334121293395,27.2364630130397],[87.45428593002069,27.236202608846096],[87.45540170956987,27.235943953308556],[87.45600323831825,27.235756825812327],[87.45651792510976,27.235644534642837],[87.45780601428491,27.235215951162512],[87.45814994983327,27.23502745323765],[87.45922551632705,27.234233891493993],[87.4598261690712,27.233972305407182],[87.46094032065965,27.23363681397963],[87.46222566103044,27.233323264825387],[87.46316968724823,27.23291156613585],[87.46364304171733,27.23257145919856],[87.46429138960909,27.231813101542908],[87.46472129160009,27.23151138154446],[87.4654933179629,27.23119283813026],[87.46592159840796,27.23110111684424],[87.46652006777418,27.23108560313432],[87.46763041511637,27.23120818346315],[87.46857044728819,27.2312163591257],[87.46899929024906,27.231104319072607],[87.46923593617149,27.23093651641588],[87.46945244706761,27.230631111188906],[87.46986527121912,27.22987125641789],[87.47045133850006,27.22873160088741],[87.4705166101922,27.228636509001724]]]}},{"type":"Feature","properties":{"province":"Koshi Province","district":"Sankhuwasabha","municipality":"Madi Municipality","ward":"3","wardNumber":3,"sourceMunicipality":"Madi","sourceType":"Nagarpalika"},"geometry":{"type":"Polygon","coordinates":[[[87.4137237585636,27.269515009941458],[87.41468465526496,27.268595725241262],[87.41497575583944,27.268244993134363],[87.41591688106907,27.266592118732294],[87.41729704742622,27.265159177811025],[87.41819411510969,27.264576367559904],[87.41943588207482,27.264477819318262],[87.42143312345043,27.26491647939788],[87.42378380359864,27.26514632216515],[87.42556720546406,27.26498062039723],[87.42675782433626,27.264710585604398],[87.42828143576118,27.264164150783866],[87.4305148708381,27.263638149711763],[87.43603386061275,27.26179483505435],[87.43679663684557,27.261614082385023],[87.44210682765461,27.261145861772714],[87.44482620490508,27.26135387960517],[87.44755045089882,27.26118034829172],[87.44769381717921,27.261211479874483],[87.4470943871181,27.26007803231223],[87.44628861328238,27.258022067858363],[87.43900681019545,27.257778861090735],[87.43868806234865,27.25749096916951],[87.4383707508121,27.257087918786752],[87.43816160104925,27.25656939475087],[87.43816546865325,27.256113448290115],[87.43806260952921,27.255653315240966],[87.43795856552498,27.25536692109376],[87.43781050648437,27.255137168488528],[87.43759861131733,27.25488728584527],[87.43708922832444,27.25444422650865],[87.43660160160026,27.25392658276235],[87.43636950791488,27.253523280698843],[87.43529045838999,27.25208431284192],[87.4345699905673,27.25127846307675],[87.43418865437287,27.250816896370193],[87.43346781290428,27.250069751212937],[87.43332037840948,27.249819680438137],[87.43291747092007,27.249340108617343],[87.43255645757824,27.249032023736554],[87.43200318495795,27.248665800415306],[87.43106551898583,27.248181172931165],[87.43046804488266,27.247968557969557],[87.43012647890245,27.247813892407013],[87.42972207653862,27.24758039305653],[87.42914673247613,27.247214232500472],[87.42865835847475,27.24680943338865],[87.4282538928164,27.246560116710913],[87.42802017784115,27.246366689029202],[87.42776395636578,27.246232028339385],[87.42716698208464,27.24599690610899],[87.42588650543561,27.245662203853637],[87.4253954482624,27.24554411418519],[87.42534159538691,27.244510437157974],[87.4253901034366,27.243975341449982],[87.42547856744869,27.24367031325017],[87.42606607677406,27.242758850073415],[87.42641419323944,27.24216867139247],[87.42713031241067,27.24122069480948],[87.42782305102857,27.240424075483176],[87.42832178403874,27.23975887237328],[87.42789606045902,27.239543441321956],[87.4275551201589,27.239388776343343],[87.42695783464822,27.239212295850795],[87.42618973559378,27.238957296100644],[87.4259347638694,27.23882038478702],[87.42486636801397,27.23862053056729],[87.42337056557093,27.238417432155465],[87.42166155685764,27.2380975526971],[87.42097842818292,27.237939391811455],[87.42004063860077,27.237549417080743],[87.41893359598832,27.236965826016586],[87.4185074357753,27.236791031237757],[87.41791189789424,27.23642274528016],[87.41716730453442,27.236016388144566],[87.41693371499002,27.235841027532803],[87.41659327341793,27.23564791392612],[87.41488588943446,27.235233193916535],[87.41326459982452,27.234899433741756],[87.41275178583953,27.234858054892058],[87.41223809835319,27.234913766776547],[87.41168052160833,27.23504406320078],[87.41153053072347,27.235119025180907],[87.41140086003003,27.235232248130927],[87.41127031657474,27.235442561849954],[87.41114077129029,27.23557610302157],[87.41011139885039,27.235836508149266],[87.40959633825975,27.236043389063013],[87.40916662281961,27.236270400045402],[87.40805109591824,27.23662808427309],[87.4077936264708,27.236664912123324],[87.40749439255946,27.236681608806983],[87.40730331948839,27.23656482722363],[87.407134939546,27.236278621556878],[87.40703283103252,27.235800357294856],[87.40684219462831,27.235627122195506],[87.40658622503,27.235566858424498],[87.40641516191661,27.235567423935926],[87.40611455409788,27.235717285480852],[87.40587772098887,27.235869207951083],[87.40512295513051,27.236476398398572],[87.40452161449655,27.236739984761805],[87.4041784277062,27.236815449647953],[87.40349417729935,27.23684903290717],[87.40263961192765,27.236768022529727],[87.40229848503658,27.23669000428205],[87.40136244605064,27.23624351292722],[87.4006836862208,27.235705991606874],[87.40042915052402,27.235492245565],[87.40013266150211,27.235204165124642],[87.3994797162366,27.234282843276215],[87.39912556948191,27.233403528076405],[87.39902202461799,27.2330765588043],[87.39898094377091,27.232884815808823],[87.39874604482891,27.232865126165986],[87.3984892641581,27.2329200838111],[87.39797414112205,27.233108896858027],[87.39730809039078,27.233447132160034],[87.39648992661347,27.233997993269497],[87.39573622247954,27.234546353691194],[87.39524260841769,27.234753171681458],[87.39487897455058,27.234769995129973],[87.39457880395676,27.234863464339682],[87.39415195924842,27.23484209005285],[87.39355436308624,27.23474219491292],[87.39287061190983,27.234737329277714],[87.39252854997602,27.23477215709988],[87.38987071371778,27.235520042137214],[87.38901259274733,27.235838399244113],[87.38841312464041,27.23593043509736],[87.38811438911326,27.235908683249868],[87.38749484848469,27.235847174698403],[87.38736673879549,27.235865619650742],[87.3871512254747,27.235999412129946],[87.38598095022923,27.237501432930262],[87.38578744316122,27.237594463755727],[87.38591424317636,27.237749945195713],[87.38606186209955,27.237884982008932],[87.38646457907859,27.238231452220017],[87.38713915430709,27.239039928769028],[87.38794140279795,27.23988641438335],[87.388489430276,27.2405981774344],[87.38876378697819,27.2408863194993],[87.38929030585449,27.24158007777642],[87.38989929873021,27.2425783607046],[87.39036067307313,27.243441606268664],[87.39103468919376,27.24441932060331],[87.39128866164612,27.244648821442468],[87.39154182355946,27.244995731066037],[87.39177304204206,27.245399158745318],[87.39198368691558,27.245685239163883],[87.39223491457328,27.24620370005124],[87.39237560718931,27.24706326201248],[87.39223376888552,27.248381900539144],[87.39220570819946,27.249011772939348],[87.39224098420624,27.249700098977193],[87.3923016380321,27.25004532491265],[87.39248796850354,27.250620365236326],[87.39269586844803,27.251193155140093],[87.39309440335472,27.251941430527115],[87.39321939345054,27.252286405158205],[87.39323784260947,27.252516596919364],[87.39315068937363,27.252688336302874],[87.39302151774464,27.252763235189896],[87.39235908655942,27.25274023842786],[87.39158980354725,27.252697300150555],[87.39037054363547,27.252709760632005],[87.3898562947781,27.252801545101438],[87.38966222531323,27.252932962312297],[87.38964040667206,27.25300973448964],[87.38965997936903,27.253183535825766],[87.38972287956628,27.25329850598033],[87.3899968624872,27.253643102727303],[87.39178054044612,27.254856993095977],[87.39230980877088,27.255415273556356],[87.39258291744493,27.255856899153688],[87.39306392609294,27.25689163212952],[87.39327138971836,27.25752312605414],[87.39296297613761,27.25816500651794],[87.3920202979779,27.26033684603101],[87.3866336220436,27.263013213799617],[87.3857811990334,27.26376275932242],[87.38452136786866,27.264129698997287],[87.3826558146385,27.264464450955057],[87.38169584425115,27.264814630301846],[87.38122786685071,27.265170304547322],[87.3802415225074,27.26611653458888],[87.37991285251519,27.26676529282757],[87.37978176443816,27.26796195791923],[87.38120243115229,27.268978359147486],[87.38329184650593,27.27018699338917],[87.38443502024906,27.270375656160496],[87.3871965846364,27.269765308967155],[87.38801162586127,27.269347736303818],[87.38982282141066,27.267717417912188],[87.39029661523537,27.26740688233698],[87.39090533537596,27.267229070451975],[87.39483579135968,27.26788382609441],[87.39612157588942,27.267891496299708],[87.39691311454683,27.267778700797766],[87.3979695534112,27.267222584312634],[87.39908483497274,27.26705007888916],[87.39929978617404,27.266936541859184],[87.39969974680317,27.266994114790794],[87.40090524844177,27.26679653801654],[87.40394579704014,27.266548480931636],[87.40709096425708,27.26714423111041],[87.41294233475558,27.268934977110963],[87.4137237585636,27.269515009941458]]]}},{"type":"Feature","properties":{"province":"Koshi Province","district":"Sankhuwasabha","municipality":"Madi Municipality","ward":"2","wardNumber":2,"sourceMunicipality":"Madi","sourceType":"Nagarpalika"},"geometry":{"type":"Polygon","coordinates":[[[87.48126295185145,27.25803182879026],[87.48119623529743,27.257801824803757],[87.48107579975988,27.256962580485776],[87.4809317348988,27.256351340883857],[87.48089894995869,27.255204817998866],[87.48084783965062,27.25375358103902],[87.48068788194863,27.252532975574574],[87.48052199698124,27.251996321661892],[87.48007994536077,27.25124842184844],[87.48003917570394,27.25101835503858],[87.48004934410027,27.249873894397716],[87.48009909689382,27.24911079451717],[87.48001718405071,27.248729621791572],[87.47982929262636,27.248193029875658],[87.47984170682312,27.246818314638052],[87.479758920682,27.246513914354274],[87.47965874458085,27.24582577646697],[87.47936843094618,27.244831365247574],[87.478949071378,27.243929920212025],[87.47867714614421,27.243242409920583],[87.47850914058851,27.242935947850984],[87.47823421965472,27.242571220173897],[87.47722063288201,27.24120683695895],[87.47683961158683,27.240842485773914],[87.47645721573534,27.24059098103143],[87.47630921931264,27.24037929593753],[87.47592888266672,27.239881781592157],[87.47574036887995,27.239496421214948],[87.4755328408356,27.238808660466308],[87.47496604730891,27.2376593959004],[87.47473707541378,27.236971760438294],[87.47444339274374,27.236358772556905],[87.47421423410918,27.23574559639617],[87.47400414896995,27.235362613156052],[87.473714271221,27.234291428764188],[87.47369837827193,27.23367974917547],[87.473658981822,27.233316393856484],[87.47347158915325,27.232761796148914],[87.4730726159651,27.232016022112237],[87.47254403445369,27.23138128171166],[87.47224847846611,27.230921776281193],[87.47188958700309,27.230403880762623],[87.4713422435955,27.229502812572964],[87.4710249937849,27.229117892675173],[87.47077083430587,27.228886265727397],[87.4705166101922,27.228636509001724],[87.47045133850006,27.22873160088741],[87.46986527121912,27.22987125641789],[87.46945244706761,27.230631111188906],[87.46923593617149,27.23093651641588],[87.46899929024906,27.231104319072607],[87.46857044728819,27.2312163591257],[87.46763041511637,27.23120818346315],[87.46652006777418,27.23108560313432],[87.46592159840796,27.23110111684424],[87.4654933179629,27.23119283813026],[87.46472129160009,27.23151138154446],[87.46429138960909,27.231813101542908],[87.46364304171733,27.23257145919856],[87.46316968724823,27.23291156613585],[87.46222566103044,27.233323264825387],[87.46094032065965,27.23363681397963],[87.4598261690712,27.233972305407182],[87.45922551632705,27.234233891493993],[87.45814994983327,27.23502745323765],[87.45780601428491,27.235215951162512],[87.45651792510976,27.235644534642837],[87.45600323831825,27.235756825812327],[87.45540170956987,27.235943953308556],[87.45428593002069,27.236202608846096],[87.45334121293395,27.2364630130397],[87.45256762236957,27.236725101866956],[87.45196565592025,27.236968557466565],[87.45153618814321,27.23708059743457],[87.4500750376737,27.237642847088402],[87.44921466696832,27.23800002789498],[87.44887104246162,27.238111754086418],[87.44835504602949,27.238377464783785],[87.44788168865696,27.238582095263748],[87.44753756530785,27.238734519629435],[87.44650444742217,27.23929988946138],[87.44532021394157,27.239978544526277],[87.44463209330243,27.240317091931747],[87.44428846943948,27.240428817500593],[87.44411621973602,27.24046545611071],[87.44343071799887,27.24049928966888],[87.44120521094707,27.240350593126486],[87.4401777078777,27.24028615291123],[87.43934190228923,27.240338432039493],[87.4387632530733,27.240392206836443],[87.43795026565799,27.240291001828318],[87.43754405304412,27.2402312411167],[87.43718110394714,27.240094706741203],[87.43690493634283,27.239863080900268],[87.43641512520729,27.239573441118434],[87.43607281149143,27.23955194017356],[87.43572968694144,27.239625217379846],[87.43529915767355,27.23981390452082],[87.43519112113555,27.23994744473625],[87.43450062859314,27.24049586626526],[87.43417745040966,27.24066617170775],[87.43366394870424,27.24062260444374],[87.4331742639848,27.240371350857824],[87.43266213467136,27.240176551955706],[87.43206528661037,27.239961686031954],[87.4313821578422,27.239803587914935],[87.43052740357852,27.239661746528387],[87.42932902595041,27.23965188795188],[87.42832178403874,27.23975887237328],[87.42782305102857,27.240424075483176],[87.42713031241067,27.24122069480948],[87.42641419323944,27.24216867139247],[87.42606607677406,27.242758850073415],[87.42547856744869,27.24367031325017],[87.4253901034366,27.243975341449982],[87.42534159538691,27.244510437157974],[87.4253954482624,27.24554411418519],[87.42588650543561,27.245662203853637],[87.42716698208464,27.24599690610899],[87.42776395636578,27.246232028339385],[87.42802017784115,27.246366689029202],[87.4282538928164,27.246560116710913],[87.42865835847475,27.24680943338865],[87.42914673247613,27.247214232500472],[87.42972207653862,27.24758039305653],[87.43012647890245,27.247813892407013],[87.43046804488266,27.247968557969557],[87.43106551898583,27.248181172931165],[87.43200318495795,27.248665800415306],[87.43255645757824,27.249032023736554],[87.43291747092007,27.249340108617343],[87.43332037840948,27.249819680438137],[87.43346781290428,27.250069751212937],[87.43418865437287,27.250816896370193],[87.4345699905673,27.25127846307675],[87.43529045838999,27.25208431284192],[87.43636950791488,27.253523280698843],[87.43660160160026,27.25392658276235],[87.43708922832444,27.25444422650865],[87.43759861131733,27.25488728584527],[87.43781050648437,27.255137168488528],[87.43795856552498,27.25536692109376],[87.43806260952921,27.255653315240966],[87.43816546865325,27.256113448290115],[87.43816160104925,27.25656939475087],[87.4383707508121,27.257087918786752],[87.43868806234865,27.25749096916951],[87.43900681019545,27.257778861090735],[87.44628861328238,27.258022067858363],[87.4470943871181,27.26007803231223],[87.44769381717921,27.261211479874483],[87.44979534734773,27.261662954531005],[87.45145764974296,27.26188099223728],[87.45404047348089,27.261888391175468],[87.45785807189728,27.26240635729036],[87.4593892074999,27.26296105801754],[87.45941759284021,27.262958744287385],[87.45972695616729,27.26294417299747],[87.46341128067236,27.264649676698347],[87.46439827354538,27.264951124355488],[87.46636606230875,27.26510482570572],[87.46687856140552,27.26503085847714],[87.46812408161189,27.26508535414763],[87.46904397810756,27.26488359319022],[87.4720995152843,27.263774032286378],[87.474444989389,27.263197201059572],[87.47713734287312,27.26267563018773],[87.47937502611953,27.262020089735014],[87.48010653684291,27.26164284289258],[87.48060477338375,27.261201018084854],[87.4806595737283,27.25957335239558],[87.48081411765986,27.25894303982922],[87.48126295185145,27.25803182879026]]]}},{"type":"Feature","properties":{"province":"Koshi Province","district":"Sankhuwasabha","municipality":"Madi Municipality","ward":"7","wardNumber":7,"sourceMunicipality":"Madi","sourceType":"Nagarpalika"},"geometry":{"type":"Polygon","coordinates":[[[87.40772823044914,27.307169828027153],[87.40794204457691,27.306390408980825],[87.40843870368957,27.30521968269402],[87.40907073246164,27.301190929910643],[87.41056456835074,27.296714969505548],[87.41124683519243,27.294345139305808],[87.41131322141104,27.29368356950186],[87.41117994830412,27.291817273679236],[87.4111055428908,27.29166172943259],[87.412174228564,27.29065404236181],[87.41487204748914,27.28828949482093],[87.41599013292395,27.28763378492614],[87.41874191581611,27.285560197224527],[87.41999198356048,27.284761880562115],[87.42038799788854,27.284417586023693],[87.42177996593017,27.282228359871517],[87.42269739055033,27.28032497569911],[87.42299985665373,27.27932411455404],[87.42357044374559,27.276245766421273],[87.42347279128074,27.27350127612505],[87.42329389557523,27.272623771094935],[87.42330524846697,27.27127837657908],[87.42362970688389,27.269444584619613],[87.42412199769788,27.268700358580407],[87.4246422275153,27.267502499612412],[87.4254388673313,27.266098325115472],[87.42556720546406,27.26498062039723],[87.42378380359864,27.26514632216515],[87.42143312345043,27.26491647939788],[87.41943588207482,27.264477819318262],[87.41819411510969,27.264576367559904],[87.41729704742622,27.265159177811025],[87.41591688106907,27.266592118732294],[87.41497575583944,27.268244993134363],[87.41468465526496,27.268595725241262],[87.4137237585636,27.269515009941458],[87.40822443794981,27.27330089310026],[87.40730344119574,27.27479559531439],[87.40639838239555,27.27599227271443],[87.4029193444874,27.278681802695267],[87.40070938271283,27.280582019831474],[87.39976774570837,27.281647908633],[87.39826928303293,27.2829704454008],[87.39509139535336,27.284487314347533],[87.3939883715027,27.284788419889306],[87.39289285248455,27.28523619245506],[87.38976042665766,27.28715692936927],[87.38719564687612,27.289035332350227],[87.38571556439891,27.29027865713213],[87.38475079649382,27.291482212108157],[87.37979300265464,27.296111896043918],[87.37740800452842,27.299508741103903],[87.3771005282938,27.300114486657822],[87.3770899882762,27.301475635264627],[87.37697482403242,27.301609176333827],[87.3797609183989,27.302043947866977],[87.38017269332006,27.302006743061817],[87.38159070627472,27.30159428801778],[87.38281816088961,27.301785012414612],[87.38328221199838,27.302065899822157],[87.38382042080525,27.302615177888807],[87.38446003911625,27.303067049975883],[87.38537657411034,27.303581436885104],[87.38799980283862,27.30438219304323],[87.38863861166062,27.304960540345487],[87.39043565612238,27.305431775518613],[87.39124746155422,27.305801934154097],[87.3937275138281,27.306641391477182],[87.39614346823073,27.306864731428362],[87.40264124232176,27.307468994871133],[87.4065441141948,27.307450866683226],[87.40770040859941,27.30717207859333],[87.40772823044914,27.307169828027153]]]}},{"type":"Feature","properties":{"province":"Koshi Province","district":"Sankhuwasabha","municipality":"Madi Municipality","ward":"8","wardNumber":8,"sourceMunicipality":"Madi","sourceType":"Nagarpalika"},"geometry":{"type":"Polygon","coordinates":[[[87.45941759284021,27.262958744287385],[87.4593892074999,27.26296105801754],[87.45785807189728,27.26240635729036],[87.45404047348089,27.261888391175468],[87.45145764974296,27.26188099223728],[87.44979534734773,27.261662954531005],[87.44769381717921,27.261211479874483],[87.44755045089882,27.26118034829172],[87.44482620490508,27.26135387960517],[87.44210682765461,27.261145861772714],[87.43679663684557,27.261614082385023],[87.43603386061275,27.26179483505435],[87.4305148708381,27.263638149711763],[87.42828143576118,27.264164150783866],[87.42675782433626,27.264710585604398],[87.42556720546406,27.26498062039723],[87.4254388673313,27.266098325115472],[87.4246422275153,27.267502499612412],[87.42412199769788,27.268700358580407],[87.42362970688389,27.269444584619613],[87.42330524846697,27.27127837657908],[87.42329389557523,27.272623771094935],[87.42347279128074,27.27350127612505],[87.42357044374559,27.276245766421273],[87.42299985665373,27.27932411455404],[87.42269739055033,27.28032497569911],[87.42177996593017,27.282228359871517],[87.42038799788854,27.284417586023693],[87.41999198356048,27.284761880562115],[87.41874191581611,27.285560197224527],[87.41599013292395,27.28763378492614],[87.41487204748914,27.28828949482093],[87.412174228564,27.29065404236181],[87.4111055428908,27.29166172943259],[87.41117994830412,27.291817273679236],[87.41131322141104,27.29368356950186],[87.41124683519243,27.294345139305808],[87.41056456835074,27.296714969505548],[87.40907073246164,27.301190929910643],[87.40843870368957,27.30521968269402],[87.40794204457691,27.306390408980825],[87.40772823044914,27.307169828027153],[87.41018863009259,27.306941222183948],[87.41102887702489,27.30694558534889],[87.41264685338876,27.307301914680135],[87.41391544382547,27.307309459196155],[87.41521285450416,27.30709787752532],[87.4173757727282,27.30705533063836],[87.41869757517034,27.307258994864057],[87.42087963666141,27.307764796062212],[87.42114916941975,27.3075607952744],[87.42252514221391,27.305895285428754],[87.42339412177213,27.304511240923304],[87.42536010806765,27.30203135849683],[87.42679729738916,27.300740332293913],[87.42941113969363,27.297926528992424],[87.43295961881171,27.294107604005905],[87.43409307876539,27.293201132444977],[87.43566362575184,27.291659093217937],[87.43688067769558,27.29065302993347],[87.43855312598683,27.28854175967911],[87.4400139392663,27.28674496026942],[87.44227857221775,27.28299976409351],[87.44467695703716,27.280050986985803],[87.4473741868142,27.276381118728413],[87.44799107253236,27.27493674776026],[87.44917259063756,27.27287887672134],[87.45249596667506,27.268109863582428],[87.45419912392767,27.266553567709646],[87.45539423640255,27.26584765522561],[87.45672620199205,27.264669538797683],[87.4591147397918,27.263323168162888],[87.45941759284021,27.262958744287385]]]}},{"type":"Feature","properties":{"province":"Koshi Province","district":"Sankhuwasabha","municipality":"Madi Municipality","ward":"9","wardNumber":9,"sourceMunicipality":"Madi","sourceType":"Nagarpalika"},"geometry":{"type":"Polygon","coordinates":[[[87.49576419910898,27.279185171035408],[87.49418314651804,27.277439309217762],[87.49344048497862,27.2767647487241],[87.49092423951373,27.27316654692417],[87.49052532055191,27.272066481325762],[87.49022209782747,27.269609453549133],[87.48980953907724,27.268008240304667],[87.48833202312008,27.266182854720896],[87.48393519848041,27.261927552906396],[87.48274504931156,27.260667639943946],[87.48126295185145,27.25803182879026],[87.48081411765986,27.25894303982922],[87.4806595737283,27.25957335239558],[87.48060477338375,27.261201018084854],[87.48010653684291,27.26164284289258],[87.47937502611953,27.262020089735014],[87.47713734287312,27.26267563018773],[87.474444989389,27.263197201059572],[87.4720995152843,27.263774032286378],[87.46904397810756,27.26488359319022],[87.46812408161189,27.26508535414763],[87.46687856140552,27.26503085847714],[87.46636606230875,27.26510482570572],[87.46439827354538,27.264951124355488],[87.46341128067236,27.264649676698347],[87.45972695616729,27.26294417299747],[87.45941759284021,27.262958744287385],[87.4591147397918,27.263323168162888],[87.45672620199205,27.264669538797683],[87.45539423640255,27.26584765522561],[87.45419912392767,27.266553567709646],[87.45249596667506,27.268109863582428],[87.44917259063756,27.27287887672134],[87.44799107253236,27.27493674776026],[87.4473741868142,27.276381118728413],[87.44467695703716,27.280050986985803],[87.44227857221775,27.28299976409351],[87.4400139392663,27.28674496026942],[87.43855312598683,27.28854175967911],[87.43688067769558,27.29065302993347],[87.43566362575184,27.291659093217937],[87.43409307876539,27.293201132444977],[87.43295961881171,27.294107604005905],[87.42941113969363,27.297926528992424],[87.42679729738916,27.300740332293913],[87.42536010806765,27.30203135849683],[87.42339412177213,27.304511240923304],[87.42252514221391,27.305895285428754],[87.42114916941975,27.3075607952744],[87.42087963666141,27.307764796062212],[87.42198554811118,27.308020979043913],[87.42391358563498,27.308841251346976],[87.42653212543229,27.30964132034513],[87.42730916421466,27.30978566312506],[87.42887785251853,27.309151076848796],[87.42973847868343,27.309028778176753],[87.43025072960977,27.309011389490582],[87.43192072213971,27.309240930545794],[87.43358847200508,27.309849707500792],[87.43456019186401,27.309228197480724],[87.43661719194492,27.308905758484293],[87.4387796487204,27.307630350034017],[87.43982007418235,27.306660987274565],[87.44077491384445,27.306098182293784],[87.44296257594618,27.305296662870127],[87.44475845730821,27.3038463342335],[87.44672942834744,27.303686506529203],[87.44736053214376,27.30352644929488],[87.44777724054812,27.303159460663736],[87.44824419986323,27.301932281349593],[87.4488771076257,27.30130046084092],[87.45039151816624,27.30025950710227],[87.45093470491635,27.299618872797797],[87.45116096396929,27.299022319437775],[87.45116657834501,27.29837900567163],[87.45169995010366,27.297826460595818],[87.45238156712752,27.2973750672379],[87.45375012099679,27.296822133772416],[87.45441103417622,27.29594417870502],[87.45530065894792,27.29522345349414],[87.45860952602797,27.29341130755207],[87.45962337413584,27.292216128408988],[87.46076439830436,27.29120556443989],[87.46373815441206,27.28999266164696],[87.46540374742513,27.289063862657308],[87.46933672979836,27.287813684217923],[87.472636119208,27.287310483966063],[87.47649008034433,27.286520816266233],[87.47661149823232,27.286414282655123],[87.47891759237287,27.286273267330845],[87.48067128848601,27.285759275856996],[87.48366318807177,27.285150675480143],[87.48558894275482,27.28443299657993],[87.48790357903742,27.283086377131685],[87.4893173345058,27.28242453607081],[87.49009786506731,27.282103554802447],[87.49180454569847,27.28170478520578],[87.49316653016125,27.280900902572302],[87.4946950028682,27.279626880398656],[87.49514684360875,27.278988748675886],[87.49576419910898,27.279185171035408]]]}},{"type":"Feature","properties":{"province":"Koshi Province","district":"Sankhuwasabha","municipality":"Madi Municipality","ward":"6","wardNumber":6,"sourceMunicipality":"Madi","sourceType":"Nagarpalika"},"geometry":{"type":"Polygon","coordinates":[[[87.35867943412349,27.273446765780946],[87.35560085368246,27.276066269006797],[87.35400484901785,27.27707033741849],[87.35333161305769,27.27766345960399],[87.35068160076531,27.27888004416992],[87.35028701938434,27.278937504793905],[87.34984529031817,27.27866999543945],[87.34941274104932,27.277881021301916],[87.34739463631945,27.275215770420076],[87.34590530342255,27.273350496757256],[87.34492700669641,27.27334844806983],[87.34403978289491,27.27216786605393],[87.34346211521373,27.271223472670275],[87.343263564226,27.2690976025679],[87.34386305028431,27.26667869696738],[87.34361099327316,27.265264036517745],[87.34178213376835,27.261988729678052],[87.34082844669462,27.260708993323558],[87.33823727167318,27.26209450229409],[87.33766481756062,27.262400600551352],[87.33670122929644,27.263249426849875],[87.33389864345024,27.266820391164874],[87.33288053545022,27.267630956361007],[87.3320545525112,27.26805734424886],[87.33102312702103,27.268863345966302],[87.33097279689652,27.26892661550117],[87.3298459096083,27.270322041885677],[87.32910935034634,27.271535971394155],[87.32758703398756,27.274446847979423],[87.32758040833338,27.274553004474893],[87.32862860921834,27.27469946827825],[87.32999780242389,27.274890378486877],[87.3314378447116,27.275543735503156],[87.3326431131013,27.27626542878805],[87.33415694250407,27.27748751416185],[87.33544212139255,27.278497915516763],[87.33657324001118,27.279330329775497],[87.33729178449659,27.280901904818958],[87.33914811579888,27.282165934063325],[87.34097519179527,27.283766312560747],[87.34189122466827,27.28422905910736],[87.34244781734316,27.284877803492726],[87.34253717205365,27.285378636714313],[87.34253492724186,27.285685664336125],[87.34214086446902,27.286718222864366],[87.34217963799225,27.28721693124229],[87.34230606380373,27.287446871142702],[87.34392124403684,27.288697901258235],[87.34443419443124,27.289337705957738],[87.34479252626204,27.28999139152204],[87.3514731212455,27.294051104487732],[87.35262336758385,27.294648699430137],[87.3543940301004,27.295249035003433],[87.35722638604192,27.295417915963053],[87.35843696070685,27.29569685471842],[87.35914458207978,27.29496375369152],[87.3596867753799,27.29464633938138],[87.36003145582112,27.294191763868906],[87.35969211643737,27.292779605358202],[87.3583269545395,27.290986350516686],[87.35388701689133,27.288020486485554],[87.35383066356363,27.286986809869223],[87.3540611708585,27.28618719647915],[87.35524089594027,27.28514806119022],[87.3568487198204,27.284265902954694],[87.35860778096279,27.2830965958],[87.35861909795982,27.283092094146646],[87.35856676290298,27.282922921003472],[87.35894037599469,27.281669172045515],[87.35894405610408,27.281240296662183],[87.35929554015257,27.280171727637057],[87.35964900973538,27.278353752217427],[87.35970207704793,27.277595153802366],[87.35952059923429,27.275751491703183],[87.35909541680051,27.274344022751084],[87.35867943412349,27.273446765780946]]]}}]}