{"type":"FeatureCollection","features":[{"type":"Feature","properties":{"province":"Koshi Province","district":"Morang","municipality":"Dhanpalthan Rural Municipality","ward":"2","wardNumber":2,"sourceMunicipality":"Dhanpalthan","sourceType":"Gaunpalika"},"geometry":{"type":"Polygon","coordinates":[[[87.43281237280335,26.432457094944144],[87.43265149990307,26.432349253011346],[87.43166956820896,26.431636622413713],[87.43053257848672,26.43084315704538],[87.42989215065042,26.43040941433805],[87.42930324191762,26.430002617080337],[87.42853033750131,26.430013881992174],[87.42735553615249,26.430026528516937],[87.42636642840641,26.43005661500901],[87.42593333464194,26.430069187680456],[87.42494435251216,26.4301353471022],[87.42362549984085,26.43016862695106],[87.4222133007052,26.430218037826894],[87.42170868043988,26.43022854861737],[87.4206683048018,26.43029708517989],[87.42011203958127,26.43024682860669],[87.41978154514334,26.430216199740833],[87.41856472519237,26.430025662655886],[87.41734796823235,26.429871135266264],[87.4161312119822,26.42970773108408],[87.4157046810318,26.429643469392357],[87.41488363081132,26.429517194347337],[87.41384181287286,26.42935322484773],[87.41274922630107,26.4292073864235],[87.4115017714024,26.429043982005297],[87.4103258427195,26.428889330006637],[87.40892401784767,26.428690230391915],[87.40837719374805,26.428635347305597],[87.40704758315248,26.42846312958936],[87.40570671962276,26.428308917161548],[87.40483077529811,26.42823690911238],[87.4046890363556,26.42822378289701],[87.40397483925084,26.428155836354897],[87.40292395645726,26.428093333981266],[87.40144985825255,26.427995952357644],[87.40022266176535,26.427879749942406],[87.3992950736143,26.427780797346614],[87.39853191981885,26.427708412534656],[87.3975523756297,26.42759826968874],[87.39595429180895,26.42736122453163],[87.39494398657952,26.427253396338305],[87.39395437471461,26.427127499549197],[87.39280989569626,26.427008731898756],[87.39175826261938,26.426892026131217],[87.39127402221943,26.42680075614873],[87.39003663359037,26.426646167024106],[87.3900398330857,26.427217272177092],[87.39026179586197,26.4276050070105],[87.3905213999981,26.428166355420434],[87.39063576256218,26.428628864567127],[87.39073442807121,26.42888143676375],[87.39096032719613,26.429135883242022],[87.39127538163179,26.429256913735173],[87.39180351148882,26.429325488906116],[87.39186291101034,26.42946077766381],[87.39187748297108,26.42969096937289],[87.39196051427103,26.42976974133368],[87.39215108359853,26.429773740098113],[87.39253734513508,26.42961012358186],[87.39273241315898,26.42946288965612],[87.39288096659132,26.42944663304071],[87.39292241986335,26.429484893088844],[87.39298188167895,26.429640500278524],[87.39303234624738,26.430100885006304],[87.39300434064606,26.430331202831145],[87.39310081932844,26.43067861587597],[87.39324375032396,26.43087235796117],[87.39411832695272,26.43142982025047],[87.39430333631967,26.43164375578439],[87.39445527807115,26.432259621481318],[87.39457582616596,26.432494063419576],[87.394760334484,26.43272606548158],[87.39477940536987,26.432805026406875],[87.39486243660427,26.432863541742336],[87.39550769195276,26.434028811455015],[87.39554583347835,26.43418223085896],[87.39552007800692,26.434353969466635],[87.39547518766898,26.434428491375506],[87.39497801375902,26.434782040489125],[87.3943770515854,26.43503656193146],[87.39327146465328,26.435127667827686],[87.39250406384883,26.435283349876702],[87.39165919281386,26.43516826598355],[87.39039772863757,26.43477441969639],[87.39006085554851,26.43470996825672],[87.38946826404072,26.434657336935697],[87.38871029870036,26.434469793572504],[87.38676221569779,26.434387049043636],[87.38625146966828,26.43445163827157],[87.38599469003118,26.434522349776913],[87.38573909858246,26.43457499427985],[87.38518402465705,26.434696100581665],[87.38496882442418,26.434825392034003],[87.38457637582786,26.435198944636454],[87.38444233147813,26.43542738845629],[87.38432798353588,26.435730103887344],[87.38432404722163,26.435865581195106],[87.38417046033317,26.437547827175017],[87.38426631400156,26.437913307901013],[87.38434753356532,26.43803046628112],[87.38448665260928,26.438359685454454],[87.38473443424186,26.438593749975176],[87.38529564529765,26.4389918586318],[87.38561069833003,26.43909257050646],[87.38617522118443,26.43937545772523],[87.3864253151482,26.439532812940847],[87.38655204867604,26.439555067063395],[87.38698933711851,26.43983376759778],[87.38717484505422,26.44000937849487],[87.38723430743632,26.440164985390894],[87.38742326578864,26.440974907582895],[87.38756619640874,26.441168712704876],[87.38787850054592,26.44136870363985],[87.38800235995217,26.441485736396356],[87.38832648816552,26.442028953085078],[87.38831530416915,26.44243082114896],[87.38822671209508,26.44256423672537],[87.38798837871158,26.442729663372464],[87.38764756840236,26.442800564951675],[87.38705322880284,26.442804450048232],[87.38629413780853,26.44265529216698],[87.3860160383168,26.442744073061355],[87.38590612593826,26.442875300753393],[87.3858382919116,26.443026783076885],[87.38564711174539,26.443790322803512],[87.38539103407714,26.444608253685885],[87.3857648621231,26.444864635717742],[87.38626048799551,26.44533726680374],[87.3865100197498,26.44551494029179],[87.38719171540984,26.44614292660973],[87.38727587182706,26.44618331228506],[87.3875230912057,26.44643775815101],[87.38804066273191,26.44687206487665],[87.38808099086584,26.446948711499445],[87.38849533441089,26.447283928450222],[87.38886603917028,26.44767572537237],[87.38898714949565,26.447907916429735],[87.38908187891845,26.448293653354835],[87.38902581932152,26.449519639136213],[87.38905946231904,26.44982654107855],[87.38909760314232,26.44997996045121],[87.38923947151476,26.45021208812684],[87.38985677037932,26.450878650013042],[87.38995824826628,26.451034131448797],[87.39003009542202,26.451496702806537],[87.39025319628739,26.45257514113356],[87.39026326936389,26.452961191912106],[87.39021225656721,26.45326609391139],[87.39020494618298,26.45351441705453],[87.39015174676709,26.453898342771314],[87.3901427483719,26.454203120223127],[87.39017864124762,26.454435562410062],[87.39031826000972,26.454744463859402],[87.39048082297278,26.454978779468497],[87.390667019335,26.455156642025365],[87.39084865372737,26.455467604580075],[87.39084585602079,26.456311915197446],[87.39100623213658,26.45662075329495],[87.39196672879054,26.45787104265054],[87.39227178560274,26.45833973824725],[87.39237157563272,26.45855167408975],[87.39246911639628,26.458842632232795],[87.39270401273471,26.45877198324186],[87.39321825903785,26.458592234797358],[87.39347391292706,26.458539590809764],[87.39364391208332,26.458543652319886],[87.39387880891523,26.45847300237107],[87.39445176530067,26.45844886191933],[87.39538366680783,26.45848910969352],[87.39572453906507,26.458420459231707],[87.39589672506678,26.458347747859353],[87.39626454150067,26.45808710355549],[87.39637945203029,26.457763944072134],[87.39648992722847,26.457614649458073],[87.39690419390877,26.457200395871833],[87.39708025420839,26.45697639008203],[87.39721036233492,26.456883486015727],[87.39783220839375,26.456646970346924],[87.39847918556221,26.456259096346017],[87.39873646372425,26.456149998061278],[87.39901856243142,26.455927991543106],[87.39944740160043,26.455746181191614],[87.39970311915496,26.455713855399566],[87.40013314578609,26.455493658993174],[87.40047857920123,26.45528953213178],[87.40086702846371,26.455031075268643],[87.4010403389096,26.454919977442042],[87.40128980691344,26.455079520084535],[87.40162349429347,26.45527951190493],[87.40187015088252,26.45553389451112],[87.40209836263574,26.4557115684642],[87.40259911145213,26.455992330341473],[87.4029109166126,26.456210452290936],[87.40397912527416,26.45667694837008],[87.40431437396946,26.456800166448165],[87.40515662046148,26.45700996560005],[87.40566405614881,26.457060472510452],[87.40608458527439,26.457185689952663],[87.40650736401273,26.457216067766012],[87.40675914494062,26.457316905697038],[87.407264892891,26.457423804696354],[87.40760295393497,26.457452120491542],[87.4083671675745,26.457411658758723],[87.40887797671087,26.45734694521301],[87.40964556438256,26.457193513144148],[87.41024552819788,26.456977315567734],[87.4107618347655,26.456700351614966],[87.41110501940362,26.456575247064794],[87.41195832580156,26.456383115753226],[87.41297713142133,26.456350840752688],[87.41356809783485,26.45643935732822],[87.41440971953072,26.456651406721814],[87.4146609999212,26.45677256328227],[87.41497230512181,26.45701094124679],[87.41533950974365,26.457497515195737],[87.41545680913134,26.457847053637646],[87.41538791285576,26.45803686090928],[87.41525730567406,26.45816821388162],[87.41503304404327,26.458584214134124],[87.41485225087207,26.459731552887746],[87.41484556522241,26.459961870888833],[87.4149028397489,26.460191937278328],[87.41529648857053,26.460509086646947],[87.41570545300318,26.460711076780512],[87.41630386146183,26.460935071482513],[87.41664148624545,26.46101984083422],[87.41764898540215,26.461484211966752],[87.41783524344116,26.46166201097761],[87.41804782076179,26.46166582157391],[87.41837143497133,26.461502393314838],[87.41852617433985,26.461294267870052],[87.41857387611968,26.46112252913783],[87.41858274886928,26.460815501616366],[87.41854454409618,26.460662082320944],[87.41857642418577,26.46027821921211],[87.41880462128033,26.459747060048674],[87.41895936097646,26.459538871178108],[87.41909553024948,26.45923596834861],[87.41916780041622,26.45893100285803],[87.41925695495742,26.458779519337586],[87.41938875046512,26.458648166055543],[87.41956149894149,26.45855738735381],[87.42017102274656,26.458052167205206],[87.42047719046859,26.457753324538874],[87.42080355431587,26.457492680542178],[87.42091402893365,26.457361390960887],[87.42106551913679,26.4572684234868],[87.4213513669961,26.456931195403133],[87.42144045932615,26.456779649157703],[87.42146627753974,26.456626103820952],[87.42148408512757,26.45601198651237],[87.4215327860624,26.45578385615293],[87.42139115339096,26.454781939304123],[87.42138320411671,26.454321429793815],[87.42129884706587,26.453554143561],[87.42127788668284,26.452784418229495],[87.42119796622625,26.451863586884777],[87.42104808612399,26.451168698341856],[87.42103726183244,26.450784960928623],[87.42092114986949,26.450399287135337],[87.42088198060571,26.448787502164443],[87.42076299468447,26.448476412937698],[87.42062937332327,26.44793725721235],[87.42047280784902,26.447472685749354],[87.42044353839523,26.447012238467867],[87.42036656754837,26.446721217254904],[87.4203092922118,26.446491150412783],[87.42028227295333,26.445953931111895],[87.42022499705332,26.44572155138004],[87.4202062245895,26.44487736624421],[87.4202578004133,26.444572401583727],[87.42033057002018,26.444247117449926],[87.42050662995669,26.444041179213638],[87.42067931648197,26.44394808666211],[87.42147228663782,26.44373582469862],[87.42198484645871,26.443653043097804],[87.42241387495386,26.443529812984494],[87.42351921266199,26.443535547183007],[87.42419721046159,26.443610309106212],[87.42496273724934,26.443608046514676],[87.42564029762121,26.44371888144384],[87.4260647642252,26.443728878039657],[87.42674950965733,26.443593639884757],[87.42769434575406,26.44324989965577],[87.42829274860432,26.443148736388004],[87.42914349447928,26.44315066107087],[87.42948499247703,26.443100015738857],[87.4297395844941,26.443106014390395],[87.43016805045828,26.443000851777484],[87.43118929612679,26.442986456881492],[87.43135810728032,26.44302884137831],[87.4316099515724,26.44314999871307],[87.4320458039059,26.443505345925008],[87.43216703939241,26.443739787808216],[87.43228496412189,26.44408707514821],[87.43228960157292,26.444662744262537],[87.43216869239602,26.44517777149046],[87.43211336821015,26.44563621977126],[87.43188910724241,26.44603421475428],[87.43185010533333,26.446666463410995],[87.43186480237524,26.44689659297653],[87.4319614057235,26.447244005379737],[87.43193008865602,26.447589482664185],[87.43204470139274,26.44805192915556],[87.4321243589397,26.44822554065991],[87.43230955563159,26.44845973203126],[87.43243403995659,26.448558696360248],[87.43262367192116,26.448621336933787],[87.43381379177589,26.448649327205963],[87.43440994525484,26.448624872760092],[87.43543450162966,26.448477251397538],[87.43552090667625,26.44844086467667],[87.43594543600824,26.448450860477614],[87.43637221433497,26.448402153038298],[87.43654490020756,26.448311311208585],[87.43691659107664,26.447955763742122],[87.43702925283094,26.447727381964285],[87.43728458127856,26.44696584208133],[87.43737022268841,26.446200304053537],[87.43744074328673,26.445974299551747],[87.43742892133588,26.445667334463316],[87.43726398333706,26.445489534615998],[87.43718370038735,26.445315922505255],[87.43711016662905,26.44493012343632],[87.43700800200429,26.444774704491888],[87.43677797831106,26.444635417033837],[87.4364347298502,26.444722259941905],[87.43624459851719,26.444680001144324],[87.43605833982167,26.444502201731808],[87.43591640869106,26.44427007352032],[87.43585907083464,26.44403775610885],[87.43583036494614,26.44357730902978],[87.4360848817132,26.442894854914552],[87.43609481592651,26.442549378409336],[87.43629781972389,26.442171702275953],[87.43606984466281,26.441246871814837],[87.43556095806557,26.440467338847874],[87.43530060368221,26.4399240587658],[87.43507557800551,26.439613220991397],[87.43464135069738,26.439181100903536],[87.43441195130023,26.439021557445407],[87.43426377214236,26.438979109892102],[87.43343709549151,26.438864213991874],[87.43306126698901,26.438623836798943],[87.4329400309167,26.438391708122097],[87.43303924592668,26.437935385179067],[87.43324218698561,26.43755545775731],[87.43324662378113,26.43740422637852],[87.43320841966698,26.437248556484477],[87.4330446059386,26.437034621382747],[87.43302553496943,26.436957910924427],[87.43301083742867,26.436727719125734],[87.43308429674455,26.436422691294677],[87.43287264246737,26.435651280704654],[87.4329167692915,26.434885930832316],[87.43285793197637,26.43473026096688],[87.43286343052344,26.434540642587276],[87.43291163230487,26.43434858525094],[87.43292337932186,26.433967035691193],[87.43284865795725,26.433601554829046],[87.43286202860634,26.43316130104538],[87.43281237280335,26.432457094944144]]]}},{"type":"Feature","properties":{"province":"Koshi Province","district":"Morang","municipality":"Dhanpalthan Rural Municipality","ward":"5","wardNumber":5,"sourceMunicipality":"Dhanpalthan","sourceType":"Gaunpalika"},"geometry":{"type":"Polygon","coordinates":[[[87.40473565674358,26.52361581156673],[87.40473721853205,26.523518720567488],[87.40474183977737,26.523250079376155],[87.4048775052181,26.5227530560075],[87.4049430263922,26.522658027308914],[87.40511564892017,26.522506230183946],[87.40530802965885,26.52243351804784],[87.40577376267723,26.522497655475117],[87.40596720526105,26.522366176537254],[87.40612212999345,26.522002254223914],[87.40622972985919,26.521927481134334],[87.40648451018082,26.52193122852264],[87.40686446331442,26.522052069999358],[87.40724597611356,26.52205775361625],[87.40769357448593,26.521966157672157],[87.40814167235861,26.521820357808796],[87.40865266847966,26.521751204791858],[87.40918398579235,26.521720312949746],[87.4093123435998,26.52164541407996],[87.40942050613936,26.52153000309559],[87.40946527040828,26.52141696986477],[87.4093831516741,26.520033377686673],[87.40930611474019,26.5195528003184],[87.40924808840367,26.519263966685386],[87.40925164801239,26.519051779058074],[87.40911901914517,26.518108567792293],[87.40908899561028,26.517417865007076],[87.40884620673984,26.51672322819191],[87.40849638055177,26.516085358780387],[87.40841522144359,26.515853104413054],[87.40839814848971,26.515622912468487],[87.4084023332548,26.51539259416664],[87.4084709146972,26.51510569686846],[87.40845065624812,26.515047117449996],[87.40849685682555,26.514818925340286],[87.40847659856934,26.514760282774244],[87.40852767093753,26.514299646954335],[87.40861601083404,26.51409170985613],[87.40874593042523,26.513940163971313],[87.4088748507662,26.513844883750366],[87.40913119200319,26.513771921013152],[87.40951314257238,26.513757286151364],[87.40981050067933,26.513742839248394],[87.4102559120864,26.513748334381383],[87.41061879289447,26.513657051925602],[87.4108111108209,26.513563896824692],[87.41102837100641,26.513278810197573],[87.4110527521853,26.513086815675145],[87.41120567829027,26.512860684214232],[87.41146083227112,26.512823794809908],[87.41177957338196,26.51282966688791],[87.41203322862786,26.512889868381595],[87.41220366482099,26.512835161786786],[87.41231120233914,26.512740069945544],[87.41243968536433,26.512703557458856],[87.41320221400149,26.512791634171933],[87.41352139158631,26.512756868873957],[87.4137344671467,26.512683969178646],[87.4138857073956,26.51253229776924],[87.41401937423741,26.512188756940045],[87.4140899538848,26.51176869549672],[87.41424125587335,26.511616960998733],[87.41456149557159,26.51152574158578],[87.41539098184168,26.511401380744644],[87.41570609418949,26.511292093273],[87.41592542240824,26.511217005629184],[87.4163788294141,26.510820570352852],[87.41659671532459,26.510535483141766],[87.41666323648273,26.510363744554876],[87.41677189860789,26.510232516304203],[87.4168794983517,26.51015542986764],[87.41713534107514,26.510120791014327],[87.41745464415183,26.510126724877843],[87.41853554050594,26.51031532616844],[87.41872692175383,26.51031701126593],[87.41891880383866,26.510300629071104],[87.41917514530955,26.51022772856813],[87.42006797042862,26.51025884855564],[87.42028273384491,26.510147625156563],[87.4204567915052,26.509901050173607],[87.420597766163,26.509153392032204],[87.42060232487506,26.50886668297583],[87.4206776532737,26.5082139901987],[87.42068364979806,26.5079544138831],[87.42064719892257,26.507931970088755],[87.42080800483978,26.507820873068287],[87.42094142397778,26.50759474228261],[87.42117068386166,26.50698680997247],[87.42126589798293,26.506605009127604],[87.42128914049628,26.50576063621848],[87.42112768725102,26.50468432389181],[87.42108723326231,26.5046054263346],[87.42103794116323,26.50330073134342],[87.4209300138573,26.502608029971253],[87.42077657125186,26.501989914158944],[87.4203560258583,26.501058834733893],[87.42019877265628,26.500596451721293],[87.41987483119155,26.500012785469632],[87.41973896077718,26.499548151034116],[87.41972651366015,26.49924118706938],[87.4196860595,26.499164539433043],[87.41968987077817,26.499010994709305],[87.41980865464905,26.498552420971464],[87.41989142230831,26.497865905709762],[87.42001020688394,26.497407269643826],[87.42014643726623,26.49710436590973],[87.42040307754816,26.496266053908215],[87.42049829266642,26.495884253650146],[87.42062976059913,26.494967357122466],[87.42067180942135,26.493434407043058],[87.4206205940951,26.492971772538308],[87.42063327749372,26.492511199457],[87.42085171282626,26.49151953039028],[87.42088802822879,26.490984373038092],[87.42095805018207,26.49075392920036],[87.42101049907944,26.490372254469246],[87.42102555687194,26.489834909486607],[87.42099560036604,26.489374524788733],[87.42082596126912,26.488602925870286],[87.4205239028994,26.487983061269727],[87.42011086938928,26.4875508159586],[87.41967489245957,26.487195468523545],[87.41951051627393,26.48699953833069],[87.41947231245415,26.486846119439228],[87.4195455821102,26.486482448643983],[87.41936207206366,26.486209809485196],[87.41912403716175,26.485589755815127],[87.41887656697001,26.485317305407587],[87.41843890214413,26.48501834900796],[87.41805913799915,26.484931454621364],[87.41786563178191,26.485004228704884],[87.41735850862256,26.48491546077004],[87.41698093118838,26.484733725450255],[87.41679361054906,26.48459656326683],[87.41660454013481,26.484533922655075],[87.41629092387308,26.484354250137347],[87.415849385221,26.484190708906407],[87.41570570823437,26.484179832722955],[87.41553133172847,26.484164580314033],[87.41508042126324,26.484346453024166],[87.41482189346797,26.484494000961014],[87.41384674090658,26.48521922770358],[87.4132012622172,26.48553270520449],[87.41275197629322,26.485655872948012],[87.41262468011713,26.485653936638133],[87.41243561066202,26.485573228077747],[87.41239403235373,26.485532717441544],[87.41237608621034,26.48541768401624],[87.412346191656,26.484957236403663],[87.41205839283168,26.48462395627189],[87.41195622790212,26.48446847396022],[87.41191802419672,26.484315054912162],[87.41196897445187,26.484007838710237],[87.41214953280885,26.483628162953668],[87.41251664666277,26.482640554513264],[87.41247950404578,26.482428431027017],[87.4119251027994,26.48174380133876],[87.41148918827847,26.48138839117985],[87.41104939968594,26.48116839559176],[87.41054147840241,26.481885488893756],[87.41046702184893,26.482287545426882],[87.41046033647024,26.482517862582544],[87.41051592459732,26.482806634359477],[87.41048324766602,26.484014489128786],[87.41055846854076,26.484361902277332],[87.41058161570743,26.485052666701062],[87.41071317460742,26.485688851277203],[87.41072605998326,26.485975497533566],[87.4105405657249,26.48654723067922],[87.4104525360741,26.48666032746979],[87.41027041674772,26.487116901532634],[87.41014657072942,26.487747088530437],[87.40988936815714,26.488603405657315],[87.40983279520073,26.489120495637746],[87.40971238625797,26.489635586153057],[87.40958330709839,26.491245559535415],[87.40884397400576,26.491114470478415],[87.40744271494991,26.49110273817737],[87.40617281436391,26.490977658212422],[87.4054065375956,26.49103856320068],[87.404834392118,26.49100631205484],[87.40457861239257,26.491038700045568],[87.40394306870745,26.490986320142724],[87.4038168347892,26.490946059418423],[87.40311458076752,26.491006713551485],[87.40292382347921,26.490982459006354],[87.40273200496378,26.49101684678408],[87.40254187265306,26.490994781381612],[87.40203137570876,26.491021109094834],[87.40190295439054,26.491057496486512],[87.40157877778633,26.491259435875968],[87.40119457774558,26.491348530548795],[87.40100325816242,26.491344594496894],[87.4006229321018,26.491277830800417],[87.40024935315603,26.490980999138284],[87.400038400589,26.490920609630482],[87.39940391816039,26.490829842607667],[87.39908592796534,26.490821720272933],[87.3985743062598,26.490886372109976],[87.39831690211714,26.490997720868382],[87.3982720126609,26.49107236830852],[87.3982183136195,26.49149236792074],[87.39810833889149,26.491625908532537],[87.39793615229958,26.491698619566417],[87.3976814980887,26.491710627480558],[87.39755526326827,26.49165229951313],[87.39732186554954,26.491646176725226],[87.39706671183708,26.49167850222984],[87.39645080037513,26.491684700962793],[87.39608729536809,26.491771544347607],[87.39579000026866,26.491765547403123],[87.3955348456198,26.491797872932302],[87.39487904360315,26.491707168964417],[87.39443588108806,26.49160226962614],[87.39333197958959,26.491596347068473],[87.39313889657168,26.490901584147903],[87.39309899176814,26.490057399259992],[87.39304221631582,26.48978663389849],[87.39253459293104,26.489718058332294],[87.3920298446358,26.489572711511613],[87.3913500366092,26.48961298299326],[87.39105174098292,26.48966350279838],[87.39076901880065,26.48990807852944],[87.39021764510503,26.490643240048193],[87.39017162965766,26.490758524939874],[87.38999725785519,26.490926076516757],[87.38982844596538,26.49090394761743],[87.38966132080259,26.49082311375782],[87.38900000694804,26.490210944646986],[87.38860917035066,26.489798892025384],[87.38839484419641,26.48987172874786],[87.38822215836171,26.48998276364141],[87.38807241765714,26.490035094150223],[87.38762425621913,26.490122126474443],[87.38711438485856,26.490148329709708],[87.38698658888983,26.490182591751676],[87.38644702338911,26.490497816702106],[87.38631691601586,26.490608789235306],[87.38587601705541,26.491194717751718],[87.38545981228651,26.49164504333848],[87.38512895053802,26.492099744096336],[87.38493200792125,26.49230568263884],[87.38445690347415,26.49260271428461],[87.3843071627093,26.492636976727194],[87.38411590555846,26.492651045817933],[87.38392858601806,26.49253188845987],[87.38361959231369,26.49221661349146],[87.38321355845287,26.491592499305472],[87.38282090973328,26.49123683822193],[87.38263196475647,26.49117638595908],[87.38244070861532,26.49119045531693],[87.38230947574996,26.49132174647029],[87.3821916282202,26.49172167720285],[87.38192235171813,26.492234831965018],[87.38165651340536,26.492632828261858],[87.38149833735598,26.492974180353645],[87.38147189359665,26.493145793583057],[87.38122737468929,26.493543788496318],[87.38083523837179,26.4938992739851],[87.3806187258673,26.49404882072026],[87.38021101844953,26.494230505957372],[87.38005952735568,26.494323472450258],[87.37973422670191,26.49458399110603],[87.37971954318122,26.49508288750225],[87.37964264933083,26.49554139892745],[87.37950241964577,26.495999972996845],[87.37936606254145,26.496302876349727],[87.37926778623446,26.49676144924587],[87.37923984246054,26.49701208610302],[87.379077542451,26.497468534994272],[87.37900358454503,26.49783220519788],[87.37893231395631,26.49809878417375],[87.37892106669076,26.498482583810613],[87.37893389005903,26.49877148130583],[87.37899116528504,26.49900386087982],[87.37898654075366,26.499157343830767],[87.37909365564794,26.499850107841947],[87.3791744378698,26.500005714384333],[87.37923108705041,26.500238031932163],[87.37949131681853,26.500781436764818],[87.37957428595554,26.500842141242135],[87.37965444239822,26.50099762333043],[87.38018614854762,26.50168256544764],[87.38031069529693,26.501781530200102],[87.38057654893177,26.502130754141575],[87.38082570564487,26.502349001714855],[87.38113651111168,26.502623577223055],[87.38142818340268,26.502821506037424],[87.38199370576982,26.503102141916482],[87.38237240782547,26.50322754857564],[87.3825631657737,26.5032496141155],[87.38287784464434,26.503372895346214],[87.38319483602329,26.50343753458298],[87.38363468714043,26.503657592408103],[87.3846421850609,26.50406344626964],[87.38514430958256,26.504341957743904],[87.38558247443075,26.504620720995426],[87.38576935775716,26.504778264312996],[87.38602007624287,26.504917488367454],[87.38683194472743,26.5055112751753],[87.38710067154126,26.50576790876145],[87.38757247881459,26.506353573168553],[87.38798488639053,26.506803886539984],[87.38818634244045,26.507191622778777],[87.38847420330421,26.50754303341165],[87.38863520452739,26.5078541227566],[87.3887760074381,26.507932767864464],[87.38887860908677,26.50803629724304],[87.38904117630068,26.508439913075993],[87.38932903970445,26.508962874334255],[87.38942970705685,26.509251582388796],[87.38948842137209,26.509540354238172],[87.38950405871556,26.509885704605967],[87.38966450119322,26.51040447990238],[87.38970189513027,26.510693251132366],[87.38994174716225,26.511503110244895],[87.39006448520672,26.51179175490719],[87.39010181669528,26.512080589618712],[87.39026444562471,26.51248420532239],[87.39028257984079,26.51265800540658],[87.39050642103922,26.513178842777997],[87.39061096159243,26.513295937903358],[87.39083480261705,26.51381683677565],[87.3913752602587,26.51445645442353],[87.39150105817434,26.514553167748883],[87.392214638381,26.515004977057057],[87.39263566955361,26.515202465673507],[87.39326459395404,26.51567021887929],[87.39334875001087,26.51569034873404],[87.39351668807599,26.51580725476317],[87.39380817442537,26.51611796694377],[87.39403476391719,26.516505577347935],[87.39449056652424,26.517145507206322],[87.39471927986686,26.517415771208167],[87.39482207082092,26.5175892575796],[87.39498469987181,26.517995186869936],[87.39498213942606,26.518166736897985],[87.39504022879147,26.51845557120432],[87.39503560675043,26.518744530521033],[87.39499078065273,26.518857502112635],[87.39440383257056,26.519656057496945],[87.3934129256818,26.52048725382334],[87.39326262257902,26.520580283370435],[87.39289562174197,26.520940207166998],[87.39280615604356,26.521188780788663],[87.39286274639268,26.521592711075964],[87.39296347637276,26.521881419683492],[87.39314954876997,26.522172064191114],[87.39333768324899,26.522327356475675],[87.39350605847818,26.522405877548696],[87.39375983894053,26.52246614122578],[87.39392977563278,26.522470139315878],[87.39444133423324,26.522360349305643],[87.39486811088268,26.522212362494695],[87.39512226632668,26.522236552960727],[87.39520654816235,26.522295006071126],[87.39562339489916,26.52272281294428],[87.39578496274513,26.52318513335284],[87.39594865374026,26.52353229519139],[87.39627922115581,26.524055130893263],[87.39688632496522,26.524541014035737],[87.39762284849624,26.52487760207039],[87.39829916065032,26.52505851954563],[87.39872225243035,26.525122781912437],[87.39889287663289,26.525106524609967],[87.39940118704413,26.525152530777255],[87.39973968677499,26.525232798725934],[87.39990968609935,26.525234547180926],[87.40058543457101,26.525417777820067],[87.40117958750292,26.52542739629793],[87.40177842493405,26.52516612314082],[87.40216587330737,26.524882784205808],[87.40261878013632,26.524486473795815],[87.40287605832043,26.524336738308946],[87.40381383143948,26.524101530179863],[87.40432857599495,26.523820127091927],[87.40473565674358,26.52361581156673]]]}},{"type":"Feature","properties":{"province":"Koshi Province","district":"Morang","municipality":"Dhanpalthan Rural Municipality","ward":"6","wardNumber":6,"sourceMunicipality":"Dhanpalthan","sourceType":"Gaunpalika"},"geometry":{"type":"Polygon","coordinates":[[[87.41104939968594,26.48116839559176],[87.41092597729458,26.48103104488414],[87.41070320148324,26.480643434773764],[87.41051806756309,26.480427249373783],[87.41007996638353,26.48015086248128],[87.40943703554753,26.479599647701722],[87.40914642508724,26.47936339524952],[87.40858702536146,26.47885031600602],[87.40809777114592,26.478111294224455],[87.40802142503108,26.47780220526655],[87.40802178645444,26.477036917724053],[87.40780956977578,26.476263256605783],[87.40782400208909,26.475728162720475],[87.40789627269753,26.475423196872878],[87.40790683149304,26.475039396992646],[87.40786868955223,26.474883726752157],[87.40774695457682,26.474671916661947],[87.40730660392995,26.474488056965058],[87.40709571391945,26.474445735054417],[87.40677941059613,26.47437897010765],[87.4063980841076,26.474371035868458],[87.40556872306588,26.47446595162506],[87.40492886819627,26.474587434175916],[87.40454754167023,26.47457718759097],[87.40417015285699,26.474433838317907],[87.40377756620393,26.47407830306847],[87.40359024609927,26.473959145497172],[87.40327281809306,26.473932955095854],[87.40307993685306,26.474005729597316],[87.40269130052774,26.4742461185014],[87.40204813358001,26.47449851467914],[87.40140940374799,26.474581610814408],[87.40108860159195,26.474668328943448],[87.4009624924754,26.47464607415393],[87.40057941783346,26.47469465732554],[87.4003225758086,26.474767557690775],[87.40006804570842,26.47477956511977],[87.39968390858138,26.474866408865537],[87.39930258209436,26.47485853683804],[87.39911357519232,26.47479577119298],[87.39888755057542,26.474541325136503],[87.39868672037018,26.47415133861503],[87.39850227519487,26.473937404389822],[87.39828243646956,26.473470707644378],[87.39792741487149,26.472539377607447],[87.39780230536557,26.47246066951213],[87.39761167353319,26.472456733666462],[87.39748544034599,26.472414223116928],[87.39723759640029,26.472198163389898],[87.39713555617907,26.472060749206562],[87.39635213266413,26.471293161365416],[87.39578122314101,26.470491059529333],[87.39557483183998,26.470295255771678],[87.39542965253618,26.470196353805328],[87.39507239577851,26.470073198220568],[87.39475890425385,26.469911530415313],[87.39467874694999,26.469755985992013],[87.39468155877665,26.469658894981094],[87.39490475793447,26.46928128082051],[87.39492995145788,26.469127673201534],[87.39489462229142,26.468895230044915],[87.3947740737573,26.468663038951654],[87.39465008928418,26.468543756541067],[87.39450372222937,26.46846517320292],[87.39401192113323,26.468606534188652],[87.39375795358667,26.468600411010033],[87.39363178203837,26.468560151163498],[87.39338112686542,26.468438932085434],[87.39275083205551,26.468230755512693],[87.39143921533754,26.46739459258536],[87.39120819286575,26.467329764732167],[87.39108652047669,26.467135959758103],[87.39088300377354,26.46684300220796],[87.39086393288889,26.466766354968875],[87.39093176640819,26.466612621242145],[87.39099735141403,26.466537973026636],[87.39114821760916,26.466465325084883],[87.39152948131772,26.466473258637397],[87.39172523671931,26.466305706839957],[87.39172692330749,26.466253753864827],[87.39172861035252,26.46619048559002],[87.39146838095449,26.4656472055568],[87.39139497214444,26.465261405535625],[87.39149243652996,26.46480508294938],[87.39194270718868,26.463894059381328],[87.39205318239402,26.463742513240735],[87.39251077807305,26.46331231756668],[87.39274736136379,26.4631830262219],[87.39311124063612,26.46305785880038],[87.3935380192739,26.462973139733542],[87.3937539070599,26.462843848636574],[87.39380823218141,26.462421536107335],[87.39396522069124,26.462118695434743],[87.39411939703457,26.46191275720873],[87.39410032645203,26.461833797611508],[87.39403924043026,26.461757213635646],[87.3937487559383,26.461539028445717],[87.3934981002042,26.461399741310792],[87.39312416118591,26.46187038481166],[87.3929077101867,26.462038000046487],[87.39237220674111,26.462215560638008],[87.39141954865029,26.46217531259133],[87.39072198164725,26.462100551265195],[87.38982765947856,26.46223391642272],[87.38912840645119,26.46223580289158],[87.38878803336686,26.462266067069542],[87.3887392701211,26.46249425920752],[87.38868375836944,26.462954895866826],[87.38866188882808,26.463702177542594],[87.38869440741857,26.464047528482855],[87.38868322365646,26.464449395837796],[87.38863552184633,26.464621071885766],[87.3884156349955,26.464903846253947],[87.38834392665817,26.465190743252773],[87.38833717880726,26.465421061627424],[87.38826878206949,26.465590549387134],[87.38811566668248,26.46574222134195],[87.38771252083559,26.46575010431624],[87.38760260829937,26.465901650473896],[87.38759254937048,26.466253816236147],[87.38759136142953,26.46628545049522],[87.38745963002692,26.46645512749414],[87.38709568721788,26.46656222678298],[87.38677888384436,26.46653597389562],[87.38658656503999,26.466588367691003],[87.38645702017077,26.46666101607751],[87.38634766947716,26.466774175746988],[87.38618724476028,26.467194551046497],[87.38607620691282,26.46736416489443],[87.38590464648514,26.46743681388587],[87.38564886712153,26.46746914008269],[87.38547055802626,26.467772106318627],[87.38523397454003,26.467901460732868],[87.38487396821255,26.467893401038367],[87.38295952825116,26.468097239612636],[87.3821284798667,26.46825079750061],[87.38180936421041,26.46828093629922],[87.38116844734833,26.46845874811361],[87.38101477029991,26.468626236939052],[87.38087791416635,26.468969714359897],[87.3807533181326,26.469599901135112],[87.38066191435281,26.469828156571445],[87.38046278550365,26.470113118333106],[87.38031198192533,26.470203835017596],[87.3806180523001,26.471345290173996],[87.3806280625452,26.471729027309184],[87.38049189440795,26.472052311157707],[87.38050977801433,26.472169595191783],[87.38043963124977,26.47239778856515],[87.38012271728346,26.473080368401785],[87.37987876056017,26.473460296454334],[87.37900271024168,26.474419840736704],[87.3783628561147,26.474557015887694],[87.37784911075579,26.474718570317894],[87.37763434644418,26.474809538272588],[87.3772411490016,26.475203346979725],[87.37696681159743,26.47588811420412],[87.37669591211609,26.476457722624144],[87.37643288451845,26.47675862752272],[87.37585130396565,26.477071728414813],[87.37559446327884,26.477162696098553],[87.37495910726491,26.477146326279282],[87.37451944387279,26.476944336020093],[87.37408259264019,26.47664525517792],[87.37402357091663,26.476627312998197],[87.37355902421268,26.476477338358745],[87.37314086971756,26.476331676684847],[87.37255790324227,26.47604653997137],[87.3719162872519,26.47562605125838],[87.37167094459369,26.475389673329172],[87.37138177264933,26.475189493709717],[87.37118138282074,26.47489878597995],[87.37103920300558,26.474741179431323],[87.37093141424822,26.474775316597],[87.3704532465928,26.475065596317783],[87.36967778344734,26.475365508443712],[87.3689904750475,26.47557276732984],[87.36873413326937,26.47562309842727],[87.36847954054728,26.47561472406524],[87.36830904219687,26.47564673652068],[87.36709973857103,26.476182661650537],[87.36675755302039,26.47624674828542],[87.36619697850271,26.476478386785928],[87.36613613298229,26.475866834019996],[87.36604809262862,26.475406574794796],[87.36602338761273,26.474948316368508],[87.36591752652816,26.47441134783183],[87.36590495481029,26.474181093006415],[87.36570530491508,26.47333503516667],[87.36562583595281,26.4731998096182],[87.36549227973279,26.472814135924747],[87.36527113162224,26.47250092211694],[87.36482258551531,26.4720482958568],[87.3640773695098,26.47158517213909],[87.36370241675738,26.471401060625414],[87.36326294202011,26.47125314907809],[87.36256943732027,26.471078858072012],[87.36206725254605,26.47091081631466],[87.3600478248626,26.470482533825773],[87.35908190700486,26.470223096909923],[87.35889166016288,26.470751880601636],[87.35854229809905,26.471540616475597],[87.3584086278005,26.471707980182515],[87.3578482604354,26.473007556878272],[87.3577963088624,26.473235624956967],[87.35768164673239,26.47345937967231],[87.35761863253856,26.473974219011616],[87.3576525873887,26.4742044736789],[87.35791957314723,26.474955502232202],[87.35892258857568,26.476420354667635],[87.35905720619553,26.476767641324884],[87.35933825324575,26.477177820322044],[87.35947192371201,26.477010394121372],[87.3600621198267,26.47603591162735],[87.36010650999785,26.475981645278928],[87.36025800169156,26.475908996941364],[87.36041361708084,26.475723502174656],[87.36060837310146,26.475634973906185],[87.36092923830287,26.475568699343366],[87.3611999639833,26.475692169323125],[87.36136583878495,26.475791070883346],[87.36166982975428,26.476144732594175],[87.36194269059371,26.47676484773418],[87.36203073143098,26.47722510602672],[87.36202186679552,26.477988204798297],[87.36213967444029,26.47875542850876],[87.3621557444639,26.478888591845894],[87.36222596473945,26.47927214096632],[87.3623617695907,26.479581104661012],[87.36250232456182,26.479795227740965],[87.36270671525654,26.479993344882455],[87.36308330160765,26.480671850831442],[87.36336547327016,26.481043643178584],[87.36348289547443,26.481293902649398],[87.36413658257743,26.481944645517967],[87.3642604417518,26.482023354098285],[87.36450809698584,26.482203278831555],[87.36488017501351,26.482462035756722],[87.3650057836749,26.48250454677211],[87.36531677436895,26.48268659545457],[87.36586854670468,26.483217930064647],[87.36627226579932,26.483745141232845],[87.36666961058444,26.484443902963832],[87.36685386781919,26.484601446608792],[87.36722656977184,26.484842073700978],[87.36747716315027,26.484945225370797],[87.36810851936674,26.485079129553924],[87.36918816253207,26.485150760146606],[87.36995431431187,26.485078789217987],[87.37071827858341,26.485083529181313],[87.3714229069584,26.484973361889917],[87.3718089203277,26.48487076302346],[87.37257394793285,26.484837116977186],[87.37293576587648,26.48480910329546],[87.37402385118567,26.48498226277276],[87.37455973459424,26.48506890485249],[87.37487316413977,26.485230634708255],[87.37505829713444,26.485426564614357],[87.37515808758968,26.48564075061683],[87.37513096945213,26.48656183418641],[87.37501206060608,26.487020469838992],[87.37451439972466,26.488085039858948],[87.37432927988975,26.488618261760404],[87.37431848422567,26.489731275437403],[87.3743526269281,26.490020109838092],[87.37448999614597,26.490407971062147],[87.37465037265986,26.490719185288064],[87.3749778121505,26.49112917574234],[87.37537264805302,26.491408063440275],[87.37606696545565,26.49159810856693],[87.37657346387223,26.491687065099324],[87.37688864243412,26.491790027347097],[87.37714154722893,26.491834536844845],[87.3773299921963,26.49191530821459],[87.3775835852581,26.49195975457411],[87.3783395520719,26.49220831597381],[87.37892339509055,26.492547656622452],[87.3792301386149,26.492939641650892],[87.3795256346964,26.493715427332265],[87.37958728351177,26.493792011575138],[87.3797033959727,26.494179936341432],[87.37973422670191,26.49458399110603],[87.38005952735568,26.494323472450258],[87.38021101844953,26.494230505957372],[87.3806187258673,26.49404882072026],[87.38083523837179,26.4938992739851],[87.38122737468929,26.493543788496318],[87.38147189359665,26.493145793583057],[87.38149833735598,26.492974180353645],[87.38165651340536,26.492632828261858],[87.38192235171813,26.492234831965018],[87.3821916282202,26.49172167720285],[87.38230947574996,26.49132174647029],[87.38244070861532,26.49119045531693],[87.38263196475647,26.49117638595908],[87.38282090973328,26.49123683822193],[87.38321355845287,26.491592499305472],[87.38361959231369,26.49221661349146],[87.38392858601806,26.49253188845987],[87.38411590555846,26.492651045817933],[87.3843071627093,26.492636976727194],[87.38445690347415,26.49260271428461],[87.38493200792125,26.49230568263884],[87.38512895053802,26.492099744096336],[87.38545981228651,26.49164504333848],[87.38587601705541,26.491194717751718],[87.38631691601586,26.490608789235306],[87.38644702338911,26.490497816702106],[87.38698658888983,26.490182591751676],[87.38711438485856,26.490148329709708],[87.38762425621913,26.490122126474443],[87.38807241765714,26.490035094150223],[87.38822215836171,26.48998276364141],[87.38839484419641,26.48987172874786],[87.38860917035066,26.489798892025384],[87.38900000694804,26.490210944646986],[87.38966132080259,26.49082311375782],[87.38982844596538,26.49090394761743],[87.38999725785519,26.490926076516757],[87.39017162965766,26.490758524939874],[87.39021764510503,26.490643240048193],[87.39076901880065,26.48990807852944],[87.39105174098292,26.48966350279838],[87.3913500366092,26.48961298299326],[87.3920298446358,26.489572711511613],[87.39253459293104,26.489718058332294],[87.39304221631582,26.48978663389849],[87.39309899176814,26.490057399259992],[87.39313889657168,26.490901584147903],[87.39333197958959,26.491596347068473],[87.39443588108806,26.49160226962614],[87.39487904360315,26.491707168964417],[87.3955348456198,26.491797872932302],[87.39579000026866,26.491765547403123],[87.39608729536809,26.491771544347607],[87.39645080037513,26.491684700962793],[87.39706671183708,26.49167850222984],[87.39732186554954,26.491646176725226],[87.39755526326827,26.49165229951313],[87.3976814980887,26.491710627480558],[87.39793615229958,26.491698619566417],[87.39810833889149,26.491625908532537],[87.3982183136195,26.49149236792074],[87.3982720126609,26.49107236830852],[87.39831690211714,26.490997720868382],[87.3985743062598,26.490886372109976],[87.39908592796534,26.490821720272933],[87.39940391816039,26.490829842607667],[87.400038400589,26.490920609630482],[87.40024935315603,26.490980999138284],[87.4006229321018,26.491277830800417],[87.40100325816242,26.491344594496894],[87.40119457774558,26.491348530548795],[87.40157877778633,26.491259435875968],[87.40190295439054,26.491057496486512],[87.40203137570876,26.491021109094834],[87.40254187265306,26.490994781381612],[87.40273200496378,26.49101684678408],[87.40292382347921,26.490982459006354],[87.40311458076752,26.491006713551485],[87.4038168347892,26.490946059418423],[87.40394306870745,26.490986320142724],[87.40457861239257,26.491038700045568],[87.404834392118,26.49100631205484],[87.4054065375956,26.49103856320068],[87.40617281436391,26.490977658212422],[87.40744271494991,26.49110273817737],[87.40884397400576,26.491114470478415],[87.40958330709839,26.491245559535415],[87.40971238625797,26.489635586153057],[87.40983279520073,26.489120495637746],[87.40988936815714,26.488603405657315],[87.41014657072942,26.487747088530437],[87.41027041674772,26.487116901532634],[87.4104525360741,26.48666032746979],[87.4105405657249,26.48654723067922],[87.41072605998326,26.485975497533566],[87.41071317460742,26.485688851277203],[87.41058161570743,26.485052666701062],[87.41055846854076,26.484361902277332],[87.41048324766602,26.484014489128786],[87.41051592459732,26.482806634359477],[87.41046033647024,26.482517862582544],[87.41046702184893,26.482287545426882],[87.41054147840241,26.481885488893756],[87.41104939968594,26.48116839559176]]]}},{"type":"Feature","properties":{"province":"Koshi Province","district":"Morang","municipality":"Dhanpalthan Rural Municipality","ward":"7","wardNumber":7,"sourceMunicipality":"Dhanpalthan","sourceType":"Gaunpalika"},"geometry":{"type":"Polygon","coordinates":[[[87.3934981002042,26.461399741310792],[87.39335354549152,26.461280521667007],[87.3932912091988,26.461221943060192],[87.3932323728482,26.461066397636905],[87.39326200271546,26.46075930767579],[87.39318353242507,26.460547309285037],[87.39312069688096,26.460506860971083],[87.39267884673242,26.460401961846145],[87.39223980857213,26.460179653277894],[87.39186698040233,26.45988275939454],[87.39178682341073,26.45972721420942],[87.39178900998361,26.45963237405872],[87.39190392072872,26.459327283439833],[87.39196950547746,26.459252635078084],[87.3922067142341,26.459123281558295],[87.39235807981477,26.45901224623082],[87.39246911639628,26.458842632232795],[87.39237157563272,26.45855167408975],[87.39227178560274,26.45833973824725],[87.39196672879054,26.45787104265054],[87.39100623213658,26.45662075329495],[87.39084585602079,26.456311915197446],[87.39084865372737,26.455467604580075],[87.390667019335,26.455156642025365],[87.39048082297278,26.454978779468497],[87.39031826000972,26.454744463859402],[87.39017864124762,26.454435562410062],[87.3901427483719,26.454203120223127],[87.39015174676709,26.453898342771314],[87.39020494618298,26.45351441705453],[87.39021225656721,26.45326609391139],[87.39026326936389,26.452961191912106],[87.39025319628739,26.45257514113356],[87.39003009542202,26.451496702806537],[87.38995824826628,26.451034131448797],[87.38985677037932,26.450878650013042],[87.38923947151476,26.45021208812684],[87.38909760314232,26.44997996045121],[87.38905946231904,26.44982654107855],[87.38902581932152,26.449519639136213],[87.38908187891845,26.448293653354835],[87.38898714949565,26.447907916429735],[87.38886603917028,26.44767572537237],[87.38849533441089,26.447283928450222],[87.38808099086584,26.446948711499445],[87.38804066273191,26.44687206487665],[87.3875230912057,26.44643775815101],[87.38727587182706,26.44618331228506],[87.38719171540984,26.44614292660973],[87.3865100197498,26.44551494029179],[87.38626048799551,26.44533726680374],[87.3857648621231,26.444864635717742],[87.38539103407714,26.444608253685885],[87.38455386274688,26.444953617367045],[87.38429708306003,26.445042397447313],[87.38412602216938,26.445076784988455],[87.38404192857082,26.44505659280372],[87.38370230579407,26.445086856856808],[87.38350873747174,26.445159631300545],[87.38344427683786,26.445195955000656],[87.38298336985793,26.445741246876477],[87.38248500873179,26.446133120103237],[87.38145501842796,26.44654900673597],[87.38111352125439,26.4466199082043],[87.3806891797932,26.446648172676277],[87.3803291735373,26.446619732725434],[87.37954476382367,26.44660161428934],[87.37928911033599,26.44665419572713],[87.37909797803874,26.44666820280023],[87.37854340408418,26.44677130331974],[87.37828887469601,26.446785436883985],[87.37752634791686,26.446749187311475],[87.37735822385663,26.446706740517357],[87.37659344690425,26.44674713830998],[87.3759149501737,26.446730956366938],[87.37498542354277,26.446613686262936],[87.37473314327148,26.446551171833452],[87.37429360562564,26.446349119306202],[87.37422964503816,26.446347057255355],[87.37421957891962,26.446335804004345],[87.37402313065041,26.44625728397143],[87.37389439543215,26.446212459871813],[87.37370782663706,26.44610912008915],[87.37352475615516,26.445913190177393],[87.37339977210355,26.445850361072385],[87.37325934303617,26.445654305569157],[87.37297260867729,26.44539767265679],[87.37241402501515,26.44503344859979],[87.37147536423801,26.444620529349308],[87.37124446649496,26.4445557015448],[87.3708205629129,26.444540953433812],[87.37013387930912,26.444707574979812],[87.36928732158616,26.444639818328394],[87.36843488841764,26.444707475834075],[87.36818029619668,26.44469910230954],[87.36715386459711,26.444873356017258],[87.36655771130172,26.44491100116754],[87.3661303079773,26.444973088255946],[87.36519728089343,26.444939342697946],[87.36498651598016,26.444894769904558],[87.36483208868809,26.44504187836036],[87.3647024798511,26.44509414549621],[87.36425606750221,26.445099840771952],[87.36394107733769,26.445012570360507],[87.3634970404101,26.444977566464324],[87.3631140266943,26.44498307413861],[87.36279322430423,26.445049347950164],[87.36253038204858,26.445230654904865],[87.3623511966808,26.44545459880169],[87.36225904089035,26.445642217467842],[87.36224904232785,26.445870222108653],[87.3621787693756,26.44603971037526],[87.36208880141142,26.446150556681832],[87.36195806790568,26.44624346082162],[87.3616147581781,26.446325614936395],[87.36129501742573,26.446353502994214],[87.36103698814826,26.446421902423534],[87.36052674003008,26.446441227599394],[87.3595816430654,26.44617954050147],[87.35938926111794,26.446211615422037],[87.35849881319149,26.446179993692112],[87.35817682249278,26.44626658652989],[87.35741017055207,26.446315987689562],[87.35698045401892,26.44643446640238],[87.35702516710845,26.44689485052136],[87.3571165184475,26.44724226339113],[87.35719918480892,26.447817744027386],[87.35722257679038,26.44827594061974],[87.35729554609415,26.44856471113593],[87.35733557104123,26.449140254186435],[87.3574086025898,26.449429025803727],[87.35739460414095,26.449772251377325],[87.35720666920479,26.4502264495092],[87.35703074273329,26.450910902957744],[87.35688776141605,26.45130633395128],[87.35684414039898,26.452396842077665],[87.35693611785723,26.452744254315036],[87.35699808842622,26.453321986080955],[87.3571447150845,26.45389959072115],[87.35721638185147,26.454764030178545],[87.35725377201435,26.454879063153584],[87.35722839055344,26.45499422234538],[87.35728010202057,26.455283056155903],[87.35746474439203,26.455977882016963],[87.35758266660942,26.45621238690115],[87.35791147791211,26.456471207817614],[87.35809454778686,26.456669388283352],[87.35858917169512,26.457029298469116],[87.35914363062528,26.45748617413885],[87.35960993517723,26.458017761062788],[87.35974636519707,26.45832897509849],[87.35990524051319,26.45860173998735],[87.36012220181452,26.45901204438695],[87.36031321843923,26.459535257862697],[87.36043914906618,26.460094794592187],[87.36049204821185,26.460363310008457],[87.36058871254275,26.46059562701929],[87.3605840256404,26.46071072290199],[87.36071001944502,26.461290578492203],[87.36080437190404,26.46157928734248],[87.36088703747993,26.46215701821286],[87.36100033465402,26.462504368328236],[87.36098471144923,26.462906298221213],[87.36104143255055,26.463596937516623],[87.36110815216436,26.46405950999874],[87.36116511427369,26.464233247386158],[87.3611938178742,26.464578535368595],[87.36114180353529,26.464806666017026],[87.36097756350645,26.465204409695993],[87.36070722273767,26.465597904725197],[87.36059024821898,26.465880364183345],[87.36025969789262,26.466253728141183],[87.36007907391324,26.466457352902086],[87.35991833384675,26.46677607437845],[87.35969063398612,26.46716944263955],[87.35957303314038,26.46745196498214],[87.35951933165636,26.467736487109587],[87.35944899650961,26.46790609998207],[87.35940431401401,26.469050686374032],[87.35908190700486,26.470223096909923],[87.3600478248626,26.470482533825773],[87.36206725254605,26.47091081631466],[87.36256943732027,26.471078858072012],[87.36326294202011,26.47125314907809],[87.36370241675738,26.471401060625414],[87.3640773695098,26.47158517213909],[87.36482258551531,26.4720482958568],[87.36527113162224,26.47250092211694],[87.36549227973279,26.472814135924747],[87.36562583595281,26.4731998096182],[87.36570530491508,26.47333503516667],[87.36590495481029,26.474181093006415],[87.36591752652816,26.47441134783183],[87.36602338761273,26.474948316368508],[87.36604809262862,26.475406574794796],[87.36613613298229,26.475866834019996],[87.36619697850271,26.476478386785928],[87.36675755302039,26.47624674828542],[87.36709973857103,26.476182661650537],[87.36830904219687,26.47564673652068],[87.36847954054728,26.47561472406524],[87.36873413326937,26.47562309842727],[87.3689904750475,26.47557276732984],[87.36967778344734,26.475365508443712],[87.3704532465928,26.475065596317783],[87.37093141424822,26.474775316597],[87.37103920300558,26.474741179431323],[87.37118138282074,26.47489878597995],[87.37138177264933,26.475189493709717],[87.37167094459369,26.475389673329172],[87.3719162872519,26.47562605125838],[87.37255790324227,26.47604653997137],[87.37314086971756,26.476331676684847],[87.37355902421268,26.476477338358745],[87.37402357091663,26.476627312998197],[87.37408259264019,26.47664525517792],[87.37451944387279,26.476944336020093],[87.37495910726491,26.477146326279282],[87.37559446327884,26.477162696098553],[87.37585130396565,26.477071728414813],[87.37643288451845,26.47675862752272],[87.37669591211609,26.476457722624144],[87.37696681159743,26.47588811420412],[87.3772411490016,26.475203346979725],[87.37763434644418,26.474809538272588],[87.37784911075579,26.474718570317894],[87.3783628561147,26.474557015887694],[87.37900271024168,26.474419840736704],[87.37987876056017,26.473460296454334],[87.38012271728346,26.473080368401785],[87.38043963124977,26.47239778856515],[87.38050977801433,26.472169595191783],[87.38049189440795,26.472052311157707],[87.3806280625452,26.471729027309184],[87.3806180523001,26.471345290173996],[87.38031198192533,26.470203835017596],[87.38046278550365,26.470113118333106],[87.38066191435281,26.469828156571445],[87.3807533181326,26.469599901135112],[87.38087791416635,26.468969714359897],[87.38101477029991,26.468626236939052],[87.38116844734833,26.46845874811361],[87.38180936421041,26.46828093629922],[87.3821284798667,26.46825079750061],[87.38295952825116,26.468097239612636],[87.38487396821255,26.467893401038367],[87.38523397454003,26.467901460732868],[87.38547055802626,26.467772106318627],[87.38564886712153,26.46746914008269],[87.38590464648514,26.46743681388587],[87.38607620691282,26.46736416489443],[87.38618724476028,26.467194551046497],[87.38634766947716,26.466774175746988],[87.38645702017077,26.46666101607751],[87.38658656503999,26.466588367691003],[87.38677888384436,26.46653597389562],[87.38709568721788,26.46656222678298],[87.38745963002692,26.46645512749414],[87.38759136142953,26.46628545049522],[87.38759254937048,26.466253816236147],[87.38760260829937,26.465901650473896],[87.38771252083559,26.46575010431624],[87.38811566668248,26.46574222134195],[87.38826878206949,26.465590549387134],[87.38833717880726,26.465421061627424],[87.38834392665817,26.465190743252773],[87.3884156349955,26.464903846253947],[87.38863552184633,26.464621071885766],[87.38868322365646,26.464449395837796],[87.38869440741857,26.464047528482855],[87.38866188882808,26.463702177542594],[87.38868375836944,26.462954895866826],[87.3887392701211,26.46249425920752],[87.38878803336686,26.462266067069542],[87.38912840645119,26.46223580289158],[87.38982765947856,26.46223391642272],[87.39072198164725,26.462100551265195],[87.39141954865029,26.46217531259133],[87.39237220674111,26.462215560638008],[87.3929077101867,26.462038000046487],[87.39312416118591,26.46187038481166],[87.3934981002042,26.461399741310792]]]}},{"type":"Feature","properties":{"province":"Koshi Province","district":"Morang","municipality":"Dhanpalthan Rural Municipality","ward":"1","wardNumber":1,"sourceMunicipality":"Dhanpalthan","sourceType":"Gaunpalika"},"geometry":{"type":"Polygon","coordinates":[[[87.38539103407714,26.444608253685885],[87.38564711174539,26.443790322803512],[87.3858382919116,26.443026783076885],[87.38590612593826,26.442875300753393],[87.3860160383168,26.442744073061355],[87.38629413780853,26.44265529216698],[87.38705322880284,26.442804450048232],[87.38764756840236,26.442800564951675],[87.38798837871158,26.442729663372464],[87.38822671209508,26.44256423672537],[87.38831530416915,26.44243082114896],[87.38832648816552,26.442028953085078],[87.38800235995217,26.441485736396356],[87.38787850054592,26.44136870363985],[87.38756619640874,26.441168712704876],[87.38742326578864,26.440974907582895],[87.38723430743632,26.440164985390894],[87.38717484505422,26.44000937849487],[87.38698933711851,26.43983376759778],[87.38655204867604,26.439555067063395],[87.3864253151482,26.439532812940847],[87.38617522118443,26.43937545772523],[87.38561069833003,26.43909257050646],[87.38529564529765,26.4389918586318],[87.38473443424186,26.438593749975176],[87.38448665260928,26.438359685454454],[87.38434753356532,26.43803046628112],[87.38426631400156,26.437913307901013],[87.38417046033317,26.437547827175017],[87.38432404722163,26.435865581195106],[87.38432798353588,26.435730103887344],[87.38444233147813,26.43542738845629],[87.38457637582786,26.435198944636454],[87.38496882442418,26.434825392034003],[87.38518402465705,26.434696100581665],[87.38573909858246,26.43457499427985],[87.38599469003118,26.434522349776913],[87.38625146966828,26.43445163827157],[87.38676221569779,26.434387049043636],[87.38871029870036,26.434469793572504],[87.38946826404072,26.434657336935697],[87.39006085554851,26.43470996825672],[87.39039772863757,26.43477441969639],[87.39165919281386,26.43516826598355],[87.39250406384883,26.435283349876702],[87.39327146465328,26.435127667827686],[87.3943770515854,26.43503656193146],[87.39497801375902,26.434782040489125],[87.39547518766898,26.434428491375506],[87.39552007800692,26.434353969466635],[87.39554583347835,26.43418223085896],[87.39550769195276,26.434028811455015],[87.39486243660427,26.432863541742336],[87.39477940536987,26.432805026406875],[87.394760334484,26.43272606548158],[87.39457582616596,26.432494063419576],[87.39445527807115,26.432259621481318],[87.39430333631967,26.43164375578439],[87.39411832695272,26.43142982025047],[87.39324375032396,26.43087235796117],[87.39310081932844,26.43067861587597],[87.39300434064606,26.430331202831145],[87.39303234624738,26.430100885006304],[87.39298188167895,26.429640500278524],[87.39292241986335,26.429484893088844],[87.39288096659132,26.42944663304071],[87.39273241315898,26.42946288965612],[87.39253734513508,26.42961012358186],[87.39215108359853,26.429773740098113],[87.39196051427103,26.42976974133368],[87.39187748297108,26.42969096937289],[87.39186291101034,26.42946077766381],[87.39180351148882,26.429325488906116],[87.39127538163179,26.429256913735173],[87.39096032719613,26.429135883242022],[87.39073442807121,26.42888143676375],[87.39063576256218,26.428628864567127],[87.3905213999981,26.428166355420434],[87.39026179586197,26.4276050070105],[87.3900398330857,26.427217272177092],[87.39003663359037,26.426646167024106],[87.389863755626,26.426497626720042],[87.38950918352614,26.426191604314386],[87.38872350921925,26.42539688366253],[87.38818567904684,26.42484973133304],[87.38789957032034,26.424575092442083],[87.3872033681062,26.4239065318371],[87.3871568508017,26.42386151903839],[87.386376365831,26.42311187346837],[87.38559094263647,26.422362291237906],[87.38443250140638,26.421223162296126],[87.38353322216192,26.420363173331793],[87.38275780215776,26.419604525107886],[87.38210699227777,26.418985478296417],[87.38148625551986,26.41836405588796],[87.38076235474803,26.417643605219755],[87.38013230294713,26.41705156622084],[87.37913929914268,26.41606091530512],[87.3783539380053,26.41531126985918],[87.37759946450717,26.41460895037888],[87.37650744669138,26.41476082377971],[87.3760851689581,26.414816159519635],[87.37526137346731,26.414949273281856],[87.374200679629,26.415110148334904],[87.37402217775453,26.415160228376788],[87.37400467169621,26.415162541806197],[87.37030108838212,26.415634986170843],[87.37036437173504,26.416212779811666],[87.37044122544343,26.41690335557087],[87.3703854698151,26.417704904404673],[87.37041586148464,26.417991550201506],[87.37039830003904,26.418391167717303],[87.3703228398526,26.418675814710344],[87.37029302967635,26.419362204216238],[87.37033949157393,26.419766133978303],[87.37028904825253,26.42045033592792],[87.3700899887091,26.421132601502418],[87.36990068839496,26.42210157582454],[87.36980678284911,26.422327581083188],[87.36975133140042,26.422630232604536],[87.36967343403035,26.42297346018718],[87.36957890413524,26.42319952790831],[87.36933089298856,26.424051280758995],[87.36927137893446,26.42445102431998],[87.3692353676746,26.42457524869646],[87.36912314633305,26.42496161383704],[87.36911852194153,26.425074459335118],[87.36885443988866,26.42581111694956],[87.36876729392272,26.42638022201652],[87.3686940212615,26.42660847766234],[87.36865470305771,26.427046481819062],[87.36855323656673,26.42744403739748],[87.36856287028043,26.427730746703425],[87.36811879899749,26.42922412803204],[87.36788167146682,26.430342209809908],[87.36778707886123,26.430568152067803],[87.3676739259052,26.431252479624273],[87.3675528261137,26.431611774312174],[87.36748130286145,26.43179933051331],[87.36710937995936,26.433105094126546],[87.36695565852395,26.43424555582208],[87.36667763947467,26.43532537605787],[87.36650784690032,26.436350741638318],[87.36643694944995,26.436520167543097],[87.36643226237805,26.43663532652861],[87.36633598337534,26.43691784855883],[87.3660786597576,26.437997543539247],[87.36596162183372,26.438261935604526],[87.3659315526857,26.438469747227842],[87.36563802652829,26.43941634186403],[87.36560277001385,26.43975731683969],[87.36552718477806,26.440041963741482],[87.3654283522808,26.440897841218],[87.3652841204293,26.441295585270346],[87.36514733468599,26.442034053845113],[87.36510483834036,26.443065857335583],[87.36501294261973,26.44375012104886],[87.36497975794693,26.444551607079138],[87.36498651598016,26.444894769904558],[87.36519728089343,26.444939342697946],[87.3661303079773,26.444973088255946],[87.36655771130172,26.44491100116754],[87.36715386459711,26.444873356017258],[87.36818029619668,26.44469910230954],[87.36843488841764,26.444707475834075],[87.36928732158616,26.444639818328394],[87.37013387930912,26.444707574979812],[87.3708205629129,26.444540953433812],[87.37124446649496,26.4445557015448],[87.37147536423801,26.444620529349308],[87.37241402501515,26.44503344859979],[87.37297260867729,26.44539767265679],[87.37325934303617,26.445654305569157],[87.37339977210355,26.445850361072385],[87.37352475615516,26.445913190177393],[87.37370782663706,26.44610912008915],[87.37389439543215,26.446212459871813],[87.37402313065041,26.44625728397143],[87.37421957891962,26.446335804004345],[87.37422964503816,26.446347057255355],[87.37429360562564,26.446349119306202],[87.37473314327148,26.446551171833452],[87.37498542354277,26.446613686262936],[87.3759149501737,26.446730956366938],[87.37659344690425,26.44674713830998],[87.37735822385663,26.446706740517357],[87.37752634791686,26.446749187311475],[87.37828887469601,26.446785436883985],[87.37854340408418,26.44677130331974],[87.37909797803874,26.44666820280023],[87.37928911033599,26.44665419572713],[87.37954476382367,26.44660161428934],[87.3803291735373,26.446619732725434],[87.3806891797932,26.446648172676277],[87.38111352125439,26.4466199082043],[87.38145501842796,26.44654900673597],[87.38248500873179,26.446133120103237],[87.38298336985793,26.445741246876477],[87.38344427683786,26.445195955000656],[87.38350873747174,26.445159631300545],[87.38370230579407,26.445086856856808],[87.38404192857082,26.44505659280372],[87.38412602216938,26.445076784988455],[87.38429708306003,26.445042397447313],[87.38455386274688,26.444953617367045],[87.38539103407714,26.444608253685885]]]}},{"type":"Feature","properties":{"province":"Koshi Province","district":"Morang","municipality":"Dhanpalthan Rural Municipality","ward":"4","wardNumber":4,"sourceMunicipality":"Dhanpalthan","sourceType":"Gaunpalika"},"geometry":{"type":"Polygon","coordinates":[[[87.43500338487155,26.47702668986162],[87.43469357930609,26.47669353441041],[87.43444667163222,26.476398576962424],[87.43434725622548,26.476166385859912],[87.43431292524804,26.475877551802903],[87.43434255620106,26.475590717161154],[87.43443558400912,26.475306007394924],[87.43452586339997,26.475134142824082],[87.43487742104664,26.474740272101776],[87.43513068762284,26.474055504595785],[87.4351817003177,26.47376860749356],[87.43508122336657,26.473574801787585],[87.43499869161936,26.47347796218345],[87.43403370733633,26.473013590846453],[87.43344242777226,26.47286643196146],[87.43242536890617,26.47274541192739],[87.43200233872965,26.472658705789733],[87.43098359349972,26.472578197761884],[87.43056125038655,26.472491429176827],[87.42996715929345,26.472439047368837],[87.42979609827411,26.472473434957926],[87.42877791396857,26.47237267124073],[87.42708873082182,26.471948885254747],[87.42728892342238,26.471648044420338],[87.42768543310052,26.471177275369396],[87.4278216010877,26.47087212094437],[87.42759081377211,26.470024001189916],[87.42748126261458,26.46940800929995],[87.42746887793584,26.46910104495756],[87.4272256429034,26.4679437087492],[87.42713678605892,26.46732765443356],[87.42709281982198,26.466637015634234],[87.42709768942407,26.466253215670314],[87.4271267817407,26.46395272786171],[87.4270930127519,26.46364357560942],[87.42687910952932,26.462948937434955],[87.42671410879571,26.462771075419745],[87.42654642239272,26.46269030439068],[87.42643925873912,26.46270868660601],[87.42605280856063,26.462834041512114],[87.42579434154307,26.462961207935116],[87.42502256588176,26.463173469028785],[87.42451325569934,26.463141155563658],[87.42425691347626,26.463173481252905],[87.42393554796752,26.46326251161155],[87.42374429123669,26.463258576093374],[87.42361530822396,26.463313157228118],[87.42303872585629,26.46339612750774],[87.42278125886828,26.463466839156602],[87.42124495475622,26.463640726469293],[87.4208623778982,26.463630604371176],[87.42028748362917,26.4636751886919],[87.41977761022007,26.463645125098008],[87.41920265179256,26.4636693910267],[87.41882232540345,26.463582433852363],[87.41827818498,26.46328379242952],[87.41824560413687,26.462936253380658],[87.41795310575382,26.462009298539932],[87.41787232270448,26.46185375420092],[87.41783524344116,26.46166201097761],[87.41764898540215,26.461484211966752],[87.41664148624545,26.46101984083422],[87.41630386146183,26.460935071482513],[87.41570545300318,26.460711076780512],[87.41529648857053,26.460509086646947],[87.4149028397489,26.460191937278328],[87.41484556522241,26.459961870888833],[87.41485225087207,26.459731552887746],[87.41503304404327,26.458584214134124],[87.41525730567406,26.45816821388162],[87.41538791285576,26.45803686090928],[87.41545680913134,26.457847053637646],[87.41533950974365,26.457497515195737],[87.41497230512181,26.45701094124679],[87.4146609999212,26.45677256328227],[87.41440971953072,26.456651406721814],[87.41356809783485,26.45643935732822],[87.41297713142133,26.456350840752688],[87.41195832580156,26.456383115753226],[87.41110501940362,26.456575247064794],[87.4107618347655,26.456700351614966],[87.41024552819788,26.456977315567734],[87.40964556438256,26.457193513144148],[87.40887797671087,26.45734694521301],[87.4083671675745,26.457411658758723],[87.40760295393497,26.457452120491542],[87.407264892891,26.457423804696354],[87.40675914494062,26.457316905697038],[87.40650736401273,26.457216067766012],[87.40608458527439,26.457185689952663],[87.40566405614881,26.457060472510452],[87.40515662046148,26.45700996560005],[87.40431437396946,26.456800166448165],[87.40397912527416,26.45667694837008],[87.4029109166126,26.456210452290936],[87.40259911145213,26.455992330341473],[87.40209836263574,26.4557115684642],[87.40187015088252,26.45553389451112],[87.40162349429347,26.45527951190493],[87.40128980691344,26.455079520084535],[87.4010403389096,26.454919977442042],[87.40086702846371,26.455031075268643],[87.40047857920123,26.45528953213178],[87.40013314578609,26.455493658993174],[87.39970311915496,26.455713855399566],[87.39944740160043,26.455746181191614],[87.39901856243142,26.455927991543106],[87.39873646372425,26.456149998061278],[87.39847918556221,26.456259096346017],[87.39783220839375,26.456646970346924],[87.39721036233492,26.456883486015727],[87.39708025420839,26.45697639008203],[87.39690419390877,26.457200395871833],[87.39648992722847,26.457614649458073],[87.39637945203029,26.457763944072134],[87.39626454150067,26.45808710355549],[87.39589672506678,26.458347747859353],[87.39572453906507,26.458420459231707],[87.39538366680783,26.45848910969352],[87.39445176530067,26.45844886191933],[87.39387880891523,26.45847300237107],[87.39364391208332,26.458543652319886],[87.39347391292706,26.458539590809764],[87.39321825903785,26.458592234797358],[87.39270401273471,26.45877198324186],[87.39246911639628,26.458842632232795],[87.39235807981477,26.45901224623082],[87.3922067142341,26.459123281558295],[87.39196950547746,26.459252635078084],[87.39190392072872,26.459327283439833],[87.39178900998361,26.45963237405872],[87.39178682341073,26.45972721420942],[87.39186698040233,26.45988275939454],[87.39223980857213,26.460179653277894],[87.39267884673242,26.460401961846145],[87.39312069688096,26.460506860971083],[87.39318353242507,26.460547309285037],[87.39326200271546,26.46075930767579],[87.3932323728482,26.461066397636905],[87.3932912091988,26.461221943060192],[87.39335354549152,26.461280521667007],[87.3934981002042,26.461399741310792],[87.3937487559383,26.461539028445717],[87.39403924043026,26.461757213635646],[87.39410032645203,26.461833797611508],[87.39411939703457,26.46191275720873],[87.39396522069124,26.462118695434743],[87.39380823218141,26.462421536107335],[87.3937539070599,26.462843848636574],[87.3935380192739,26.462973139733542],[87.39311124063612,26.46305785880038],[87.39274736136379,26.4631830262219],[87.39251077807305,26.46331231756668],[87.39205318239402,26.463742513240735],[87.39194270718868,26.463894059381328],[87.39149243652996,26.46480508294938],[87.39139497214444,26.465261405535625],[87.39146838095449,26.4656472055568],[87.39172861035252,26.46619048559002],[87.39172692330749,26.466253753864827],[87.39172523671931,26.466305706839957],[87.39152948131772,26.466473258637397],[87.39114821760916,26.466465325084883],[87.39099735141403,26.466537973026636],[87.39093176640819,26.466612621242145],[87.39086393288889,26.466766354968875],[87.39088300377354,26.46684300220796],[87.39108652047669,26.467135959758103],[87.39120819286575,26.467329764732167],[87.39143921533754,26.46739459258536],[87.39275083205551,26.468230755512693],[87.39338112686542,26.468438932085434],[87.39363178203837,26.468560151163498],[87.39375795358667,26.468600411010033],[87.39401192113323,26.468606534188652],[87.39450372222937,26.46846517320292],[87.39465008928418,26.468543756541067],[87.3947740737573,26.468663038951654],[87.39489462229142,26.468895230044915],[87.39492995145788,26.469127673201534],[87.39490475793447,26.46928128082051],[87.39468155877665,26.469658894981094],[87.39467874694999,26.469755985992013],[87.39475890425385,26.469911530415313],[87.39507239577851,26.470073198220568],[87.39542965253618,26.470196353805328],[87.39557483183998,26.470295255771678],[87.39578122314101,26.470491059529333],[87.39635213266413,26.471293161365416],[87.39713555617907,26.472060749206562],[87.39723759640029,26.472198163389898],[87.39748544034599,26.472414223116928],[87.39761167353319,26.472456733666462],[87.39780230536557,26.47246066951213],[87.39792741487149,26.472539377607447],[87.39828243646956,26.473470707644378],[87.39850227519487,26.473937404389822],[87.39868672037018,26.47415133861503],[87.39888755057542,26.474541325136503],[87.39911357519232,26.47479577119298],[87.39930258209436,26.47485853683804],[87.39968390858138,26.474866408865537],[87.40006804570842,26.47477956511977],[87.4003225758086,26.474767557690775],[87.40057941783346,26.47469465732554],[87.4009624924754,26.47464607415393],[87.40108860159195,26.474668328943448],[87.40140940374799,26.474581610814408],[87.40204813358001,26.47449851467914],[87.40269130052774,26.4742461185014],[87.40307993685306,26.474005729597316],[87.40327281809306,26.473932955095854],[87.40359024609927,26.473959145497172],[87.40377756620393,26.47407830306847],[87.40417015285699,26.474433838317907],[87.40454754167023,26.47457718759097],[87.40492886819627,26.474587434175916],[87.40556872306588,26.47446595162506],[87.4063980841076,26.474371035868458],[87.40677941059613,26.47437897010765],[87.40709571391945,26.474445735054417],[87.40730660392995,26.474488056965058],[87.40774695457682,26.474671916661947],[87.40786868955223,26.474883726752157],[87.40790683149304,26.475039396992646],[87.40789627269753,26.475423196872878],[87.40782400208909,26.475728162720475],[87.40780956977578,26.476263256605783],[87.40802178645444,26.477036917724053],[87.40802142503108,26.47780220526655],[87.40809777114592,26.478111294224455],[87.40858702536146,26.47885031600602],[87.40914642508724,26.47936339524952],[87.40943703554753,26.479599647701722],[87.41007996638353,26.48015086248128],[87.41051806756309,26.480427249373783],[87.41070320148324,26.480643434773764],[87.41092597729458,26.48103104488414],[87.41104939968594,26.48116839559176],[87.41148918827847,26.48138839117985],[87.4119251027994,26.48174380133876],[87.41247950404578,26.482428431027017],[87.41251664666277,26.482640554513264],[87.41214953280885,26.483628162953668],[87.41196897445187,26.484007838710237],[87.41191802419672,26.484315054912162],[87.41195622790212,26.48446847396022],[87.41205839283168,26.48462395627189],[87.412346191656,26.484957236403663],[87.41237608621034,26.48541768401624],[87.41239403235373,26.485532717441544],[87.41243561066202,26.485573228077747],[87.41262468011713,26.485653936638133],[87.41275197629322,26.485655872948012],[87.4132012622172,26.48553270520449],[87.41384674090658,26.48521922770358],[87.41482189346797,26.484494000961014],[87.41508042126324,26.484346453024166],[87.41553133172847,26.484164580314033],[87.41570570823437,26.484179832722955],[87.415849385221,26.484190708906407],[87.41629092387308,26.484354250137347],[87.41660454013481,26.484533922655075],[87.41679361054906,26.48459656326683],[87.41698093118838,26.484733725450255],[87.41735850862256,26.48491546077004],[87.41786563178191,26.485004228704884],[87.41805913799915,26.484931454621364],[87.41843890214413,26.48501834900796],[87.41887656697001,26.485317305407587],[87.41912403716175,26.485589755815127],[87.41936207206366,26.486209809485196],[87.4195455821102,26.486482448643983],[87.41983267818765,26.48608657861449],[87.4203778038941,26.48558154690432],[87.42068447185966,26.485244256241323],[87.42109717737658,26.484908901786874],[87.42125072996559,26.484721094226643],[87.42190401796904,26.484141226420867],[87.4220581948917,26.48393303804022],[87.42270979620875,26.483411937806512],[87.42377185494234,26.48263219306216],[87.42418624768969,26.482238134169275],[87.42486023131602,26.481678522199072],[87.42589233260833,26.48043607965013],[87.42663465046357,26.479706916553333],[87.42791064555517,26.478107053398244],[87.4283032187892,26.47776951067287],[87.42873793302796,26.477454411436085],[87.42912663274588,26.4772522836331],[87.42976942516616,26.47707653492162],[87.43066643623435,26.47696317582454],[87.43104845040523,26.476991365538932],[87.4312380826643,26.477051755683643],[87.43181135328071,26.477065813031768],[87.43200098572511,26.477128453566706],[87.4323196644692,26.47715458097802],[87.43257263229604,26.477219283874422],[87.43327507478536,26.477214834242652],[87.43353135445678,26.477164440435846],[87.43391280535626,26.47721063577977],[87.43442392865805,26.477204563579416],[87.4347452936419,26.47711547037634],[87.43500338487155,26.47702668986162]]]}},{"type":"Feature","properties":{"province":"Koshi Province","district":"Morang","municipality":"Dhanpalthan Rural Municipality","ward":"3","wardNumber":3,"sourceMunicipality":"Dhanpalthan","sourceType":"Gaunpalika"},"geometry":{"type":"Polygon","coordinates":[[[87.45663034763338,26.47338966603745],[87.45693757746379,26.473050061649495],[87.45704911497074,26.47288032262334],[87.456978142427,26.472379489691853],[87.45682801205345,26.47168691361517],[87.45683132371926,26.471571754842284],[87.45656959413638,26.471046604922268],[87.45657290511832,26.470931446147862],[87.45670682416656,26.47070531593364],[87.4567774080869,26.470477060070603],[87.45651242883893,26.470067068902033],[87.45637368459337,26.469719844579043],[87.45638193255041,26.469430884835017],[87.45658643547485,26.4689764359739],[87.45678700134891,26.468634895030785],[87.45685596092642,26.468465406676334],[87.4568608971597,26.4682915435292],[87.45668619740744,26.467711938409792],[87.45636444402362,26.467071880349813],[87.45620706507144,26.4666073090807],[87.45617173257868,26.466250768024572],[87.45615741250674,26.46610860190058],[87.45614602715442,26.465763250670324],[87.45621935944033,26.465437903682275],[87.45639535720375,26.46523184039956],[87.4569753145942,26.46505396720368],[87.4571032980131,26.465058091100847],[87.45738727613067,26.465039081597116],[87.45755027254687,26.46502951327321],[87.45843965829391,26.46507182502805],[87.45914272362306,26.464954404561606],[87.45931372169879,26.464901948909894],[87.45946508741923,26.46480885671004],[87.45985959643944,26.46435834363553],[87.46052345877241,26.464146271307854],[87.4608283760384,26.463865371924033],[87.4609426001823,26.463580473793193],[87.46099567451866,26.46321917953342],[87.46110721136856,26.463029184632433],[87.4618863588063,26.462493890710466],[87.46208192604396,26.462326213826305],[87.46234645308074,26.461986735526978],[87.46234814031548,26.461930281184234],[87.46243598290071,26.461817121937152],[87.46246398819133,26.461588991640614],[87.4624252842587,26.461471770194255],[87.46218118910215,26.46112035826545],[87.4620627032105,26.460831838517322],[87.46202674841236,26.46059939619438],[87.46205856596806,26.46025617002951],[87.46201923711246,26.460141136504724],[87.46187730617649,26.45992713860258],[87.46138255582609,26.459454694894212],[87.46102973545004,26.459196250100973],[87.46086536006874,26.459020763926862],[87.46076381967495,26.45886528183156],[87.460641459945,26.458689545119793],[87.4605230359875,26.45839871110653],[87.46047125971346,26.45799484356294],[87.46049331609342,26.457249750221226],[87.46115640012765,26.455599693313598],[87.46120728833681,26.455312796583346],[87.46120146403553,26.454795832369083],[87.4608859584632,26.45398416213068],[87.46091109012208,26.45385093437827],[87.46099912043762,26.4537558434908],[87.46125639949378,26.453648870048703],[87.46151036613672,26.45365480526367],[87.46247239744314,26.453389838347384],[87.46255817761138,26.453353450725146],[87.46292918061239,26.453000028803334],[87.4630581638715,26.4529454484047],[87.46333014020567,26.453066479598345],[87.46337046774146,26.453125059044616],[87.46341092208348,26.453201643083425],[87.46342118267708,26.453567313283823],[87.46346101076776,26.453643959403067],[87.46352384729151,26.453684345307625],[87.46364945558395,26.453724605819453],[87.46403128133873,26.45373466463534],[87.4644703826686,26.45393640493872],[87.46471997550132,26.454095885538518],[87.46490898334439,26.454158462813936],[87.46516295072624,26.454164398599566],[87.46593322488202,26.45393388126166],[87.4665073074955,26.453871041606412],[87.46708413849592,26.45371336182705],[87.4672562621692,26.4536405250575],[87.46758024994897,26.45343858569937],[87.46784246490522,26.453157749181653],[87.4679671855647,26.45252750008215],[87.46797543380207,26.452240791060174],[87.46790064956883,26.451895628607797],[87.46784225053675,26.45172201611069],[87.46759984158986,26.451311962270886],[87.46730397064343,26.450558933470365],[87.46710414019626,26.450151004044205],[87.46655430163466,26.449392040064097],[87.46593887699777,26.448687468636347],[87.46558886827384,26.448334182928548],[87.4652989464414,26.448095804493374],[87.465214790181,26.448075800178533],[87.46498657929101,26.447916257396656],[87.46488385296342,26.447799223991904],[87.46465564208515,26.447639681502018],[87.46436728131243,26.447344974067413],[87.46405660192265,26.44710884760853],[87.46384414391292,26.446809325400867],[87.4637104077974,26.446771378847334],[87.46309086701699,26.44659733767917],[87.46192468848214,26.446276010903734],[87.46082053174612,26.445954558539405],[87.45989175050221,26.445587340533354],[87.45862221920515,26.445126412359777],[87.4574971165629,26.444732689570014],[87.45738657584661,26.444690178653726],[87.45657846409064,26.444381225332187],[87.45557696931135,26.44400519344473],[87.45552294909253,26.44398512598885],[87.4540906688788,26.44343429879357],[87.45285196169938,26.44299350139867],[87.4519641959409,26.442671295707697],[87.45107630516888,26.442321956285003],[87.44989974534609,26.441899038594485],[87.44875388499904,26.441475994440076],[87.44725708145448,26.44092310556456],[87.44640057715486,26.440573641283382],[87.44617343161312,26.44052688109238],[87.4454935614253,26.44061260375514],[87.44457648011773,26.44065381770012],[87.44390535416275,26.440256335991574],[87.44305715940963,26.43960884681096],[87.44198281854844,26.438860456318853],[87.44146612401774,26.438500859098692],[87.4404741887989,26.43781767415043],[87.43951301526188,26.43715243160074],[87.43847956463769,26.43641291795708],[87.43772528137875,26.435887025172626],[87.4367949308262,26.43522165695901],[87.43570996078013,26.434464201355997],[87.43455215133295,26.43365954642663],[87.43359172769888,26.432985238264184],[87.43281237280335,26.432457094944144],[87.43286202860634,26.43316130104538],[87.43284865795725,26.433601554829046],[87.43292337932186,26.433967035691193],[87.43291163230487,26.43434858525094],[87.43286343052344,26.434540642587276],[87.43285793197637,26.43473026096688],[87.4329167692915,26.434885930832316],[87.43287264246737,26.435651280704654],[87.43308429674455,26.436422691294677],[87.43301083742867,26.436727719125734],[87.43302553496943,26.436957910924427],[87.4330446059386,26.437034621382747],[87.43320841966698,26.437248556484477],[87.43324662378113,26.43740422637852],[87.43324218698561,26.43755545775731],[87.43303924592668,26.437935385179067],[87.4329400309167,26.438391708122097],[87.43306126698901,26.438623836798943],[87.43343709549151,26.438864213991874],[87.43426377214236,26.438979109892102],[87.43441195130023,26.439021557445407],[87.43464135069738,26.439181100903536],[87.43507557800551,26.439613220991397],[87.43530060368221,26.4399240587658],[87.43556095806557,26.440467338847874],[87.43606984466281,26.441246871814837],[87.43629781972389,26.442171702275953],[87.43609481592651,26.442549378409336],[87.4360848817132,26.442894854914552],[87.43583036494614,26.44357730902978],[87.43585907083464,26.44403775610885],[87.43591640869106,26.44427007352032],[87.43605833982167,26.444502201731808],[87.43624459851719,26.444680001144324],[87.4364347298502,26.444722259941905],[87.43677797831106,26.444635417033837],[87.43700800200429,26.444774704491888],[87.43711016662905,26.44493012343632],[87.43718370038735,26.445315922505255],[87.43726398333706,26.445489534615998],[87.43742892133588,26.445667334463316],[87.43744074328673,26.445974299551747],[87.43737022268841,26.446200304053537],[87.43728458127856,26.44696584208133],[87.43702925283094,26.447727381964285],[87.43691659107664,26.447955763742122],[87.43654490020756,26.448311311208585],[87.43637221433497,26.448402153038298],[87.43594543600824,26.448450860477614],[87.43552090667625,26.44844086467667],[87.43543450162966,26.448477251397538],[87.43440994525484,26.448624872760092],[87.43381379177589,26.448649327205963],[87.43262367192116,26.448621336933787],[87.43243403995659,26.448558696360248],[87.43230955563159,26.44845973203126],[87.4321243589397,26.44822554065991],[87.43204470139274,26.44805192915556],[87.43193008865602,26.447589482664185],[87.4319614057235,26.447244005379737],[87.43186480237524,26.44689659297653],[87.43185010533333,26.446666463410995],[87.43188910724241,26.44603421475428],[87.43211336821015,26.44563621977126],[87.43216869239602,26.44517777149046],[87.43228960157292,26.444662744262537],[87.43228496412189,26.44408707514821],[87.43216703939241,26.443739787808216],[87.4320458039059,26.443505345925008],[87.4316099515724,26.44314999871307],[87.43135810728032,26.44302884137831],[87.43118929612679,26.442986456881492],[87.43016805045828,26.443000851777484],[87.4297395844941,26.443106014390395],[87.42948499247703,26.443100015738857],[87.42914349447928,26.44315066107087],[87.42829274860432,26.443148736388004],[87.42769434575406,26.44324989965577],[87.42674950965733,26.443593639884757],[87.4260647642252,26.443728878039657],[87.42564029762121,26.44371888144384],[87.42496273724934,26.443608046514676],[87.42419721046159,26.443610309106212],[87.42351921266199,26.443535547183007],[87.42241387495386,26.443529812984494],[87.42198484645871,26.443653043097804],[87.42147228663782,26.44373582469862],[87.42067931648197,26.44394808666211],[87.42050662995669,26.444041179213638],[87.42033057002018,26.444247117449926],[87.4202578004133,26.444572401583727],[87.4202062245895,26.44487736624421],[87.42022499705332,26.44572155138004],[87.42028227295333,26.445953931111895],[87.4203092922118,26.446491150412783],[87.42036656754837,26.446721217254904],[87.42044353839523,26.447012238467867],[87.42047280784902,26.447472685749354],[87.42062937332327,26.44793725721235],[87.42076299468447,26.448476412937698],[87.42088198060571,26.448787502164443],[87.42092114986949,26.450399287135337],[87.42103726183244,26.450784960928623],[87.42104808612399,26.451168698341856],[87.42119796622625,26.451863586884777],[87.42127788668284,26.452784418229495],[87.42129884706587,26.453554143561],[87.42138320411671,26.454321429793815],[87.42139115339096,26.454781939304123],[87.4215327860624,26.45578385615293],[87.42148408512757,26.45601198651237],[87.42146627753974,26.456626103820952],[87.42144045932615,26.456779649157703],[87.4213513669961,26.456931195403133],[87.42106551913679,26.4572684234868],[87.42091402893365,26.457361390960887],[87.42080355431587,26.457492680542178],[87.42047719046859,26.457753324538874],[87.42017102274656,26.458052167205206],[87.41956149894149,26.45855738735381],[87.41938875046512,26.458648166055543],[87.41925695495742,26.458779519337586],[87.41916780041622,26.45893100285803],[87.41909553024948,26.45923596834861],[87.41895936097646,26.459538871178108],[87.41880462128033,26.459747060048674],[87.41857642418577,26.46027821921211],[87.41854454409618,26.460662082320944],[87.41858274886928,26.460815501616366],[87.41857387611968,26.46112252913783],[87.41852617433985,26.461294267870052],[87.41837143497133,26.461502393314838],[87.41804782076179,26.46166582157391],[87.41783524344116,26.46166201097761],[87.41787232270448,26.46185375420092],[87.41795310575382,26.462009298539932],[87.41824560413687,26.462936253380658],[87.41827818498,26.46328379242952],[87.41882232540345,26.463582433852363],[87.41920265179256,26.4636693910267],[87.41977761022007,26.463645125098008],[87.42028748362917,26.4636751886919],[87.4208623778982,26.463630604371176],[87.42124495475622,26.463640726469293],[87.42278125886828,26.463466839156602],[87.42303872585629,26.46339612750774],[87.42361530822396,26.463313157228118],[87.42374429123669,26.463258576093374],[87.42393554796752,26.46326251161155],[87.42425691347626,26.463173481252905],[87.42451325569934,26.463141155563658],[87.42502256588176,26.463173469028785],[87.42579434154307,26.462961207935116],[87.42605280856063,26.462834041512114],[87.42643925873912,26.46270868660601],[87.42654642239272,26.46269030439068],[87.42671410879571,26.462771075419745],[87.42687910952932,26.462948937434955],[87.4270930127519,26.46364357560942],[87.4271267817407,26.46395272786171],[87.42709768942407,26.466253215670314],[87.42709281982198,26.466637015634234],[87.42713678605892,26.46732765443356],[87.4272256429034,26.4679437087492],[87.42746887793584,26.46910104495756],[87.42748126261458,26.46940800929995],[87.42759081377211,26.470024001189916],[87.4278216010877,26.47087212094437],[87.42768543310052,26.471177275369396],[87.42728892342238,26.471648044420338],[87.42708873082182,26.471948885254747],[87.42877791396857,26.47237267124073],[87.42979609827411,26.472473434957926],[87.42996715929345,26.472439047368837],[87.43056125038655,26.472491429176827],[87.43098359349972,26.472578197761884],[87.43200233872965,26.472658705789733],[87.43242536890617,26.47274541192739],[87.43344242777226,26.47286643196146],[87.43403370733633,26.473013590846453],[87.43499869161936,26.47347796218345],[87.43508122336657,26.473574801787585],[87.4351817003177,26.47376860749356],[87.43513068762284,26.474055504595785],[87.43487742104664,26.474740272101776],[87.43452586339997,26.475134142824082],[87.43443558400912,26.475306007394924],[87.43434255620106,26.475590717161154],[87.43431292524804,26.475877551802903],[87.43434725622548,26.476166385859912],[87.43444667163222,26.476398576962424],[87.43469357930609,26.47669353441041],[87.43500338487155,26.47702668986162],[87.43519682915776,26.476933535179988],[87.43571513709678,26.476679139930354],[87.43623500668201,26.476345659336044],[87.43703422597267,26.475923335207447],[87.43727474649431,26.475678759801994],[87.43746881470189,26.47558791809145],[87.43768645297614,26.47542017780508],[87.43787995901705,26.475347340851744],[87.43839426833183,26.47520579206576],[87.43865285957567,26.475096631150503],[87.43878296749908,26.475005914488733],[87.43923450376552,26.47484198442152],[87.43955974246832,26.474619727025154],[87.44013913636059,26.474441791143285],[87.44033045626958,26.47444578915043],[87.44058729802734,26.47437501473673],[87.44122684146278,26.474332367142267],[87.441548206845,26.474245586689346],[87.44231667097294,26.474148358897327],[87.4430184254651,26.47414390974041],[87.44333654146682,26.474190356122453],[87.44428420424899,26.474519249873378],[87.44510981768069,26.474634020785917],[87.4457477373815,26.474650078178062],[87.44619602354399,26.47460355766004],[87.44735081328646,26.474360594195044],[87.44818273822611,26.474285746954276],[87.44901847544423,26.47407542201873],[87.44934096509868,26.47394794251634],[87.44978968869755,26.473863035003557],[87.45002527245074,26.473810328809186],[87.45038984014626,26.473703104494756],[87.45070895625241,26.47369078352535],[87.45180440899253,26.47333284919485],[87.4520601259492,26.473300460800296],[87.45328068877708,26.473023422744852],[87.45372716312994,26.47301522605545],[87.45411248854353,26.47292819448897],[87.4558980740984,26.47296986656337],[87.45627733944802,26.473092834315494],[87.45646640896183,26.473173480221565],[87.45663034763338,26.47338966603745]]]}}]}