{"type":"FeatureCollection","features":[{"type":"Feature","properties":{"province":"Koshi Province","district":"Morang","municipality":"Urlabari Municipality","ward":"1","wardNumber":1,"sourceMunicipality":"Uralabari","sourceType":"Nagarpalika"},"geometry":{"type":"Polygon","coordinates":[[[87.63049580345783,26.729362990692625],[87.63150115721103,26.728757983947617],[87.63169497340624,26.728567550639497],[87.6325078217907,26.72803794474392],[87.63276541061303,26.727790742711903],[87.63357981940258,26.727204682857195],[87.63385872885654,26.726957355917882],[87.63503520552747,26.726259068920832],[87.63563472652075,26.72580492669744],[87.6367420003842,26.725565150815527],[87.63731970363139,26.725244234245352],[87.6377490387685,26.724806661380946],[87.63805426006827,26.72410094954768],[87.6385515510721,26.723338030242747],[87.63874474248726,26.723167852994365],[87.63919377494165,26.722883637327264],[87.63947281010901,26.72265662794332],[87.63979342206537,26.722449750085584],[87.64030610335163,26.722203607122918],[87.64096933655478,26.72178753639573],[87.64141762113651,26.721600412301914],[87.64171666492788,26.721468055690288],[87.6420583484318,26.721317569005276],[87.64265412609981,26.721208777122378],[87.64375852777471,26.72123758025652],[87.64426965055094,26.721165300637836],[87.6446957402335,26.721052760573848],[87.64529276538849,26.72082880974151],[87.64580432462303,26.720718081727142],[87.64648631904777,26.720511822514204],[87.64674084891351,26.720515131742296],[87.64750824830128,26.720290428542366],[87.64818899512757,26.72021958364703],[87.64870130214399,26.720014077655314],[87.64912689234315,26.719921793894525],[87.64938242188937,26.71988452877349],[87.64980732739288,26.71988933517216],[87.6502304212602,26.720025055688733],[87.65050527431156,26.720181847045414],[87.65110354746021,26.719840487527435],[87.65146705197684,26.719671744521243],[87.65176678083097,26.719444672997266],[87.6521297851484,26.71929399780805],[87.6522999090853,26.71925710898098],[87.6532352479738,26.71918957382306],[87.65357612016642,26.71911573398608],[87.65417320863223,26.7189097888866],[87.65527923362335,26.718782796051133],[87.65572701857006,26.718633995085824],[87.65568768545425,26.718347474823425],[87.65564804143013,26.718117407250105],[87.65565453162911,26.717503477369423],[87.65578944167885,26.716814273253984],[87.65574066307833,26.716322380216482],[87.65571333524488,26.71604936309894],[87.65576340210498,26.715360660494312],[87.65572463194829,26.7150538207572],[87.65535765931197,26.713748507157796],[87.65527593725106,26.713518690827772],[87.65517295626668,26.71320985237853],[87.65505252475768,26.71259642472711],[87.65507230953504,26.71091236794298],[87.6549811263808,26.709687010583668],[87.65488301487318,26.708996747422585],[87.65490604471704,26.707005601593167],[87.6549742497843,26.706623862967206],[87.65496066949063,26.70600993331124],[87.65479591286513,26.705550176687915],[87.65458820396299,26.705165129775214],[87.65429502755265,26.70478045966073],[87.65396289417778,26.704163471775196],[87.6536126221007,26.70324183219372],[87.65353352052513,26.70270498894033],[87.65364442753337,26.70232293782349],[87.65386149873666,26.701942697181337],[87.65399397573422,26.701483873005678],[87.65427600620863,26.701026547265872],[87.65434258840614,26.700798291437916],[87.65432282759198,26.700644872433507],[87.65424048068091,26.700414930705126],[87.65376272605013,26.699509736392066],[87.65307376648174,26.698470005273457],[87.65248030006455,26.698409622182385],[87.6513351298791,26.69824553010097],[87.64986878379511,26.69827262482781],[87.64757738440125,26.69808223154969],[87.64649617440149,26.697881753153027],[87.64567011993421,26.697702714591166],[87.64524577739414,26.69765945837424],[87.64403752083645,26.697439351363084],[87.64352777249584,26.697416728627232],[87.64295337821838,26.697507389305105],[87.6423771727828,26.697731214099868],[87.6420578082817,26.697807179179005],[87.64142020147277,26.697839448894747],[87.64084799149619,26.69775849769021],[87.64034042847588,26.697562135885427],[87.63951786980722,26.697096325236764],[87.63888494472891,26.696728978092263],[87.63717243361799,26.696102447149617],[87.63615618308066,26.695827070947107],[87.63558515889225,26.695631022086566],[87.6353318767051,26.69551474279223],[87.63495235914559,26.69528168030622],[87.63457377860725,26.694992226414932],[87.63400493858462,26.694624566314253],[87.63235407770378,26.69411275516563],[87.63171921850329,26.693955344543053],[87.6313828410932,26.693683645537053],[87.63094104834101,26.693335738097083],[87.63062455414244,26.69314306176072],[87.63011811466757,26.692908251440905],[87.62992741925503,26.69285042534566],[87.62961055086991,26.692693821826257],[87.62916632454674,26.692576169334306],[87.62903865291342,26.69257448349587],[87.62846725384806,26.69239869136003],[87.62827755796,26.692302478924084],[87.62733057458858,26.691586597039088],[87.62676822605432,26.6906635228849],[87.62664305016912,26.690413514705707],[87.62645747552581,26.690028342664426],[87.62627046305737,26.68972219312386],[87.62589356781042,26.689279132061362],[87.62560288792156,26.688740916164296],[87.62497358449006,26.688102614697538],[87.62451583953828,26.687334897066037],[87.62411799982928,26.68697998745079],[87.62407442066444,26.68694178891325],[87.62365426154403,26.686620826657133],[87.62283483386898,26.686364827369555],[87.6223952942334,26.68617715508902],[87.62226718541255,26.68619128579632],[87.62207236692915,26.686280189939495],[87.62181002477178,26.68646418617006],[87.62163265217693,26.686647804964707],[87.62123014077264,26.687150708989158],[87.62104664315407,26.68749012406708],[87.62082269278848,26.687786839320523],[87.62032226607478,26.68807793354795],[87.61980489455823,26.688251805431953],[87.61910420108669,26.688227746676993],[87.61878339810733,26.68827432830125],[87.61833673607528,26.688278523883312],[87.61807889301262,26.688345110752863],[87.61799023837003,26.688438076734258],[87.61799718520275,26.68880149547295],[87.61786076512323,26.689027814223813],[87.61699577056362,26.68939949945315],[87.61686266205504,26.689528789545648],[87.61676900760149,26.689754919884827],[87.61667972740474,26.689865953580956],[87.61661345482024,26.689922658676952],[87.61631178484643,26.69002556931084],[87.61611634017818,26.690134729678743],[87.61591920912568,26.690280150426062],[87.61571432889743,26.69061731507618],[87.61560154139167,26.69078711593722],[87.61541641987672,26.69118298509571],[87.61516946134476,26.69151821287074],[87.61448160024952,26.692241248376263],[87.61376378579742,26.692655130905337],[87.61337564723375,26.69279680377938],[87.61298963318421,26.692877521493106],[87.61233859048546,26.693200876857713],[87.61168098694083,26.693713850287732],[87.61107853212238,26.69443888545354],[87.61084783233287,26.694891334281756],[87.61082577349438,26.695464814687007],[87.61086410220402,26.69557978492405],[87.61133253289613,26.696112746861676],[87.61151254190989,26.69640539144577],[87.61203938279651,26.6976288668948],[87.61222908883427,26.698208221103418],[87.61224166080842,26.698438475405023],[87.61208761877438,26.699120803399488],[87.61180821685284,26.699742802059152],[87.61168143125222,26.70025576775685],[87.61156426911131,26.700538414760906],[87.61092280945147,26.701721834638246],[87.61085709915336,26.70177628846661],[87.61049222899634,26.702396351603106],[87.61006753313788,26.70347273623517],[87.61000495887893,26.703987638457093],[87.61004041218318,26.70416131372535],[87.61002279043,26.704621886315362],[87.60992188690047,26.70501962940997],[87.60980773481774,26.705762786957717],[87.60968601165509,26.706162905722096],[87.60945093703864,26.70672826284727],[87.60927187672854,26.706952519034463],[87.6089859027143,26.707192969355447],[87.60913264404412,26.70725561043242],[87.61014051754357,26.707594318377446],[87.61051934537569,26.707701092991872],[87.61102365751172,26.707872697765367],[87.6125319064244,26.708475662740597],[87.61303552967115,26.70864501632539],[87.61347956841188,26.708717593296203],[87.61385727054379,26.708844623961234],[87.61442004397009,26.70915145519121],[87.61518095964647,26.709827578091293],[87.61567795966485,26.710168545048333],[87.61618277194592,26.71031989389952],[87.61656722312159,26.710293317074946],[87.61701232407312,26.710327507345756],[87.61732769045078,26.710432220173452],[87.61807772179792,26.71083976493182],[87.6183930885925,26.710926472414556],[87.61864768099139,26.71095466436798],[87.61915249284844,26.711105950622517],[87.61959590575658,26.711178526902017],[87.61984837481506,26.711263172755537],[87.62050642687203,26.71128510605939],[87.62071669224818,26.71134968396426],[87.6208403643685,26.71144846061188],[87.62113923377188,26.711975360131962],[87.62146217295923,26.712427675418322],[87.6220193331206,26.71342070711051],[87.62215007787405,26.71388515322957],[87.62219322950696,26.714422185011546],[87.62226657466135,26.714731212304486],[87.62244277201269,26.715118635431015],[87.6225434360911,26.71525592408935],[87.62283236947049,26.716031146686127],[87.62299355910795,26.716321666251275],[87.62307102709858,26.71646126852269],[87.6232871778084,26.716925338324785],[87.6233972269114,26.71738759717799],[87.62340367485677,26.717771334039323],[87.62307976928446,26.71898269469134],[87.62304957505499,26.719210762318788],[87.62285895356155,26.71973985785317],[87.6221073310706,26.72101405611905],[87.6219507163312,26.721217930262096],[87.62155470329586,26.721549284284272],[87.62057160915583,26.722205929814795],[87.62038967332431,26.722504707820953],[87.62024450506983,26.72295909399668],[87.62022688311889,26.72341741583332],[87.62027272127209,26.723877737379237],[87.62069038914031,26.724634327372918],[87.62087489700338,26.724814126618174],[87.62149856949743,26.725197416387743],[87.62198738343022,26.725746069463927],[87.6224111745075,26.726353678412078],[87.62308007151611,26.727750264198896],[87.62334386218387,26.72808316998259],[87.62365210479125,26.728359558669474],[87.62411952862543,26.72855154454172],[87.62436262101127,26.728755912518906],[87.6247022459032,26.728797294699994],[87.62495771259267,26.728741961586326],[87.62504205568739,26.72876190318832],[87.62514784581182,26.72879985027128],[87.62531640930916,26.728936762720586],[87.62573919261526,26.729131312554376],[87.62650072595922,26.729425886689608],[87.62734810159822,26.72968169828996],[87.62828113182103,26.729842292345147],[87.62862100579589,26.7298250941507],[87.62930231342565,26.729715925718512],[87.6298985901079,26.72956881075012],[87.63032555452483,26.72937949792502],[87.63049580345783,26.729362990692625]]]}},{"type":"Feature","properties":{"province":"Koshi Province","district":"Morang","municipality":"Urlabari Municipality","ward":"8","wardNumber":8,"sourceMunicipality":"Uralabari","sourceType":"Nagarpalika"},"geometry":{"type":"Polygon","coordinates":[[[87.64591072750405,26.652520407820347],[87.64606071718146,26.652386491569313],[87.64648955300369,26.652025628279567],[87.6467455804259,26.65187545502083],[87.64725713829229,26.651706084438636],[87.64793788313013,26.651578786578757],[87.64819347346678,26.65146474890172],[87.64836409781279,26.651427860259496],[87.64887584142511,26.65118396758009],[87.64915418844068,26.650975026813146],[87.64937057139164,26.650592536424586],[87.6495678195895,26.650058876469966],[87.64974075147724,26.649753347204477],[87.65002059532397,26.649372855563993],[87.65080134799214,26.647845520313403],[87.65118910424827,26.647331300695686],[87.65153465596512,26.64679926471836],[87.65164325315922,26.646568507657737],[87.6517312797284,26.646263354293048],[87.65167362197975,26.645726322612134],[87.65176065136528,26.645574651935075],[87.6522519484799,26.645272179854054],[87.65296081491528,26.644472058992164],[87.65324128408415,26.64409156816291],[87.6538202960939,26.643540333856137],[87.65418379820204,26.643294881426584],[87.65452753988461,26.642893695298348],[87.65489428707811,26.642341153191893],[87.65500163587923,26.642227867495087],[87.65562952929237,26.64110302792592],[87.65569604823972,26.640872458814563],[87.65570010503106,26.640488721669264],[87.65556003763095,26.639721812058603],[87.65554527035621,26.63910788223376],[87.65561416103425,26.638649309136717],[87.6557919600671,26.637883269385824],[87.65584034179177,26.63734804885173],[87.65582064395682,26.63719462965516],[87.6556764583822,26.63680926879186],[87.65527986485955,26.636194845272637],[87.6549939899384,26.635193869478293],[87.65497510413743,26.634965990580334],[87.65485255034451,26.634503794774684],[87.65479564164326,26.63389005288426],[87.6548424631759,26.633508314875158],[87.65499513355341,26.63297715682938],[87.65499819645382,26.63296359033335],[87.65504796098448,26.632775972222397],[87.65533036857572,26.632415737346058],[87.65565910072839,26.631806928601993],[87.65587654866982,26.631503523028123],[87.65607486098085,26.63104432320604],[87.6562052185758,26.630894777225],[87.65642347767772,26.630514474772838],[87.65662378918408,26.62998081513436],[87.65669817923046,26.629368759000002],[87.65668491423655,26.628908312090772],[87.65668872388,26.628698313077162],[87.65663700378032,26.62800779944452],[87.65647774582013,26.627394559826946],[87.65642090558553,26.627011073262796],[87.65636119119304,26.62677881853726],[87.65629922951007,26.626702359277186],[87.65626164730367,26.6263955198407],[87.65622106884021,26.626318998642066],[87.65624607243804,26.62608861775788],[87.65620630570298,26.625935261561285],[87.65621723442669,26.62532345721109],[87.65628431698147,26.625092950464563],[87.6567419687394,26.624411305613304],[87.6568952681951,26.624105900948276],[87.65707207460838,26.62372578678976],[87.65709714180862,26.623495469178184],[87.65689805404273,26.62272662222967],[87.65671435430941,26.622341511953955],[87.6564868267127,26.621976784266323],[87.65621784615102,26.62160780513075],[87.65584270235955,26.621221323297778],[87.65548644283278,26.620967880352772],[87.65539835267185,26.621157874818643],[87.655158709599,26.621517921652117],[87.65489631158317,26.621975122011676],[87.65469737386378,26.622432072052938],[87.6545241278524,26.6226608293579],[87.65420101546171,26.622924161783317],[87.65383632491574,26.62316742616426],[87.65357723672528,26.623432695609107],[87.65331483771878,26.623889896513727],[87.65324706758645,26.624118214867597],[87.65263611637663,26.625105326790074],[87.65250057573863,26.62556415108107],[87.65251015595067,26.626252602238786],[87.65260826366755,26.62671492389136],[87.65256037786199,26.627019889284732],[87.65221413419137,26.627418761338134],[87.65180617909024,26.627680282340105],[87.65137478176962,26.628115666973688],[87.65100297208915,26.628762987593053],[87.65048142140878,26.629483207326082],[87.64972210324937,26.630450627837845],[87.64913746687218,26.631112456998416],[87.64888081374937,26.631262630000442],[87.64841127092743,26.631409242908227],[87.64806927481094,26.63155979250909],[87.64789927599381,26.631594430353974],[87.64749238338499,26.63181975320749],[87.6472549256808,26.632028505606822],[87.6470815543099,26.63223700723898],[87.64679696160877,26.632768792654943],[87.64685329916992,26.63296491236478],[87.64685842617135,26.63298297979627],[87.646847172038,26.632989794078853],[87.64594024655115,26.63441160076805],[87.64538080707966,26.635095810659845],[87.64484424725082,26.63561071981944],[87.64473770952478,26.63564729529811],[87.6443792629034,26.635452556439805],[87.64395897719862,26.635084267568832],[87.64400361438057,26.634874143477088],[87.64416071802944,26.634110417030403],[87.64416901806926,26.6333428168468],[87.64421784402846,26.633105621473526],[87.644237411721,26.63301071855486],[87.64424410079685,26.63296551739129],[87.644268293539,26.632805157598487],[87.64426296467272,26.632087322596185],[87.6442844476467,26.630879592902414],[87.64433283401907,26.63053617910505],[87.6442848604547,26.629617660348412],[87.64433287147727,26.629330763056785],[87.64466585012255,26.62847369454922],[87.64474111403794,26.627784865847413],[87.64474839592296,26.626177519864168],[87.64462803240508,26.625774028957345],[87.64433854230964,26.625328465420072],[87.64406856277516,26.62500006064749],[87.64337861405238,26.624456850831955],[87.6429403831359,26.624029982626496],[87.642333715873,26.623563168278373],[87.6414806368858,26.622614467171505],[87.64127368106453,26.622324197516843],[87.64098569051191,26.621804050150303],[87.64067356958223,26.621455515497644],[87.63996879510758,26.62050831149546],[87.63947728343084,26.619526344554682],[87.63904205108689,26.61894593143878],[87.638921749252,26.61854237761681],[87.63892893153655,26.618140572186878],[87.63910548737536,26.617719883318696],[87.63872097636589,26.617888689661086],[87.63848558017285,26.61801841852492],[87.63824731189898,26.618303881783806],[87.6380284278272,26.618684059058587],[87.63784887417482,26.619256042234863],[87.63771858066814,26.61942596870601],[87.6375892229502,26.61953937927893],[87.6373325075454,26.61967148445029],[87.63713881554361,26.61984166268887],[87.6369862642228,26.62006810674327],[87.63642438514164,26.62065528779906],[87.63612552873079,26.620764949815836],[87.63453551232125,26.620742781501804],[87.63436301525134,26.62089476648929],[87.63433982206195,26.62100998818133],[87.63420859174215,26.62123630701997],[87.6341015533965,26.62129326217104],[87.6338888522552,26.6213280887052],[87.63172718985082,26.62125872830492],[87.63147091153648,26.621352323133088],[87.63134155407593,26.62146360734335],[87.63118950265975,26.621674233951673],[87.63102927073459,26.622343120131866],[87.6309851309395,26.62241783010925],[87.63079044007199,26.622646650386518],[87.63044600858741,26.62292811352777],[87.6303374711535,26.623061780045834],[87.63003724128569,26.623268532738674],[87.62969468271497,26.623434837341453],[87.62915174976166,26.62415736996534],[87.6289570584741,26.62438400200129],[87.6288713412158,26.6244407702974],[87.62866013858716,26.624398824104823],[87.62861887225498,26.624322302063728],[87.6285029423634,26.623668174816164],[87.62848886664935,26.623284437109366],[87.62844909874605,26.6231311432308],[87.62834493388937,26.623032240659008],[87.62790064634906,26.622968791910754],[87.62726254157523,26.623055139947752],[87.62681781639719,26.6230300151972],[87.62643555331901,26.623063280794234],[87.62573411305684,26.62316801051752],[87.62522580195764,26.62310249942417],[87.62477970354935,26.623174465760712],[87.62411721331388,26.623163848533444],[87.62409070317324,26.62313684046722],[87.62348166913442,26.62315316824612],[87.62331185666507,26.62311547233304],[87.62297235908646,26.62313273250595],[87.62220845918829,26.62330317025836],[87.62169883808232,26.623359569997703],[87.6211451397116,26.623490680074752],[87.62112631826407,26.623377897441813],[87.62085220524402,26.622747029518663],[87.62057878367554,26.622231257482436],[87.62038883390908,26.621943176509554],[87.62030473561025,26.621715548482427],[87.6201144727882,26.621371013175775],[87.61998767399338,26.6212564186074],[87.61977702949021,26.620968462799862],[87.61965016558196,26.620740961182975],[87.61939743829595,26.62022281317936],[87.6191651599693,26.619880779317743],[87.61887010604502,26.619421524439367],[87.61846944446701,26.61861742023961],[87.61825829929298,26.61833165230233],[87.61794217198923,26.617700972914896],[87.61756233491431,26.617126998431115],[87.61735181328625,26.61674413902817],[87.61730985587602,26.616534391160393],[87.61712133812287,26.61592340301113],[87.61676350145387,26.615006264758357],[87.61655291740922,26.614605275086188],[87.61642705105429,26.61420409746205],[87.61615430991476,26.61334291222114],[87.61602937524361,26.61265496283678],[87.61569261081462,26.611796403624094],[87.6147211685421,26.610475532228193],[87.61453221581112,26.6100180893157],[87.61408903887647,26.60921411028987],[87.61392146855654,26.608756541484073],[87.61383798945276,26.608183562342436],[87.61371187412905,26.607838713996188],[87.61341713158775,26.60732306699777],[87.61310112715049,26.606577228458146],[87.61299887905871,26.605430894725213],[87.6130004973068,26.605031339794756],[87.6130661952872,26.604401279581914],[87.61302505013379,26.60411475803671],[87.61304711313495,26.60377153216816],[87.61281682626236,26.602968863295878],[87.61279606361084,26.602720665699074],[87.61275460609404,26.60249059963306],[87.61275821146779,26.601402530185013],[87.61280377088661,26.60042936930306],[87.61286853732138,26.600085954819107],[87.61287015472747,26.59968415034443],[87.61278742563132,26.599111108686806],[87.61283074722503,26.598767819258256],[87.61283236434286,26.59836595160492],[87.6129620839492,26.597622731488155],[87.61298576552753,26.59687770095858],[87.61315818831638,26.59613423006403],[87.61322413604324,26.59544546448275],[87.613395623835,26.594873606311314],[87.61337142404562,26.594693116633593],[87.61331121533414,26.5947023707797],[87.61284435835056,26.59473826348527],[87.61242045470047,26.594717514060093],[87.61157189640376,26.594754976425627],[87.6096201251884,26.594729625976125],[87.60911069106673,26.594806281183473],[87.60860156883314,26.594803976048787],[87.60826213367743,26.594841492473922],[87.60732860708224,26.594838756879266],[87.60665035961993,26.594798819208595],[87.60631048751672,26.594854466030633],[87.60597105295126,26.594891982422915],[87.6056319291412,26.594873169247926],[87.6052073390234,26.594947135439227],[87.60452815538446,26.59496590249467],[87.60418853328315,26.595077940100925],[87.60348678865513,26.59557303447482],[87.60306220113831,26.59578254053926],[87.60246761159011,26.595875389115943],[87.60161905496973,26.595912852155998],[87.6013645258359,26.59598844009966],[87.60119440211292,26.59598688052845],[87.60093981052658,26.596044401238583],[87.60025963146327,26.596347500946376],[87.60000516550255,26.596423089491427],[87.59966529385838,26.59649905465381],[87.59907107894054,26.59655570585315],[87.59873208061735,26.596554961201615],[87.59839270604361,26.596477319654603],[87.59805414260705,26.59632296664606],[87.59763029879434,26.596189309208558],[87.59737595378249,26.596054961383995],[87.5968677026853,26.595860725428953],[87.59644391887177,26.595611909290785],[87.59593554173402,26.595399605656816],[87.59555458679738,26.595170982552517],[87.59540665635208,26.595092586210047],[87.59525729504215,26.59534147478962],[87.59519283920827,26.59562849739454],[87.595191531285,26.595856501480977],[87.59531727439747,26.596372963393254],[87.59616129417556,26.59763575692623],[87.59649923743947,26.598038369617367],[87.59685887468862,26.59838227730739],[87.59711178774705,26.598841720477722],[87.59761649805735,26.60016016114172],[87.59765752093692,26.600561778095486],[87.59763377953958,26.601421968209326],[87.59733406164548,26.602222394992932],[87.59714224756708,26.602509857123295],[87.5969704438335,26.602928232673918],[87.59662808720928,26.60384381904736],[87.59630835794863,26.60441636742949],[87.59605140249838,26.605103698033158],[87.59590054673008,26.605675492742698],[87.59587848382812,26.606020906955667],[87.59600422656946,26.6065351182654],[87.59608801034311,26.606708542069157],[87.59659545771609,26.607340782300877],[87.59686944066675,26.607741395194605],[87.59705920449227,26.608142447283655],[87.59760742382467,26.609117599194732],[87.59766914313872,26.609634249508773],[87.59773117504771,26.61009232042392],[87.59796065698283,26.61124027730488],[87.59814917480973,26.61186933430277],[87.59823327298328,26.612099212735412],[87.59836007358368,26.612328965223234],[87.59844323673889,26.612748461695208],[87.59859135772378,26.612978089466797],[87.59880231408835,26.61320971625704],[87.59905585354205,26.61366690870627],[87.5992036601529,26.61384008186975],[87.59939255100159,26.614299775880827],[87.59949828002391,26.61447082498277],[87.59953967439523,26.614700953915175],[87.60002318926321,26.616019519925434],[87.60004320269553,26.616362557465976],[87.60023166355374,26.617221806206942],[87.60025173825463,26.61745199898398],[87.60039948530701,26.61773807985393],[87.60067352987912,26.61814094347948],[87.60105380184869,26.61857956575599],[87.60130764964858,26.618849328602348],[87.60153955747371,26.619365288144706],[87.60168705238137,26.61959491558249],[87.6017921587611,26.619881185820645],[87.60193965493579,26.620110812864155],[87.60225534813469,26.62091310527996],[87.60265613160948,26.621543471475047],[87.60276130039635,26.621831992022525],[87.60288604731805,26.62251769073917],[87.60294913622397,26.622691240460178],[87.60311770327729,26.622977196692016],[87.60337130190123,26.623321480577477],[87.60349791409931,26.623512847709005],[87.60408908174145,26.62427781205186],[87.60429929474284,26.62485260182027],[87.60453126245999,26.625253402953323],[87.604636056904,26.6255960645453],[87.60467608772291,26.62639954976139],[87.60454760894073,26.626684510318917],[87.60416385639346,26.627257246108694],[87.60382143721792,26.628172958102294],[87.60386314413424,26.62834438281555],[87.60403233615726,26.62863258946139],[87.60413744231225,26.628918858476617],[87.60428363448328,26.629606620924697],[87.60428263740624,26.629778296247334],[87.60406906877269,26.630237434103897],[87.60398261056807,26.630752523708093],[87.60398130457838,26.63109562421957],[87.60400131811025,26.631438662372876],[87.60416851883767,26.632185127874415],[87.60418822439037,26.632699716381875],[87.60423605942486,26.632965918543647],[87.60425031624848,26.633044878750155],[87.60435367491628,26.63346881416043],[87.60445471794715,26.63382047765388],[87.60488195582187,26.634809698489125],[87.6050043797041,26.635037200638205],[87.60505958930791,26.63514079256103],[87.60528273839044,26.63541524379667],[87.60544280171455,26.635649310426576],[87.60563956867806,26.636038921379097],[87.60576099029986,26.636196403044153],[87.60631113979153,26.636787817738625],[87.60659381303604,26.637161422425617],[87.60754706794687,26.638818705026885],[87.60764385790357,26.63905077174421],[87.60773446050561,26.639436445502028],[87.60770540172524,26.640122771929683],[87.60761969367714,26.64065586733512],[87.60752210116827,26.640956519143508],[87.60741163555198,26.641564261679306],[87.60775693619729,26.644023289752933],[87.60777676632046,26.64455825854293],[87.60756165729015,26.646157417471382],[87.60729152438007,26.64754232794759],[87.60749766534617,26.647701746856576],[87.60783028965535,26.6478854198117],[87.61008476716741,26.649491978940915],[87.61066804750158,26.649798747125192],[87.61099961025803,26.65002080673736],[87.61132729753392,26.650337644379352],[87.6117807830788,26.650696867486168],[87.61194647016164,26.65079776945943],[87.61236618815768,26.650947181208828],[87.61275846136331,26.65124576204195],[87.61304732135456,26.651465697271373],[87.61337944573165,26.65166968913978],[87.61363060222205,26.651772402189497],[87.61388731920292,26.651744202428862],[87.61432034832497,26.651568519400442],[87.61475069085215,26.65146729531215],[87.61509056426317,26.651479355251478],[87.6153472822106,26.651448904444155],[87.61586465454317,26.651295413689517],[87.61612080969232,26.651285282209194],[87.61762178824988,26.651030432580384],[87.61762403743073,26.65097397839783],[87.6174649119948,26.650701526826996],[87.6175109898169,26.650626816331837],[87.6176187781936,26.65059024134657],[87.61794014402481,26.650545972831022],[87.61870473545851,26.650590035731142],[87.61929238999963,26.65078158278691],[87.61968691390796,26.651025897639478],[87.6200240384364,26.65111248041575],[87.6204415684271,26.65131828375535],[87.62078088061152,26.65134841207631],[87.62138253376963,26.651217113861435],[87.62163700210104,26.651245367860106],[87.6218044390454,26.65130782082165],[87.6219696892908,26.651428979007754],[87.62213268994788,26.65160659106664],[87.62267634009473,26.65236949293219],[87.622860723586,26.65254697914628],[87.62374649759506,26.653265425919358],[87.62406793320334,26.653584576417373],[87.62411770171717,26.653615960110827],[87.6243099613981,26.65373924266534],[87.62462714134904,26.65383714133551],[87.62494500765699,26.653858329770152],[87.62513638870406,26.65382362926015],[87.62609548024837,26.65348532661249],[87.62633175232855,26.65339173325647],[87.6267567153688,26.653222801312328],[87.62764797761318,26.653230102121963],[87.62834760853937,26.653333120089744],[87.62993375830429,26.653824926176725],[87.63037879598046,26.65388618714213],[87.63241485234067,26.654075709012513],[87.6336893138244,26.653970720553335],[87.63379560265398,26.65399053644222],[87.63398486191286,26.654145454364794],[87.63423589699052,26.65445360283694],[87.63465418578642,26.65501382303653],[87.63528604918297,26.65546019319886],[87.63566669017106,26.655578096877427],[87.636176625633,26.655562271241244],[87.63770892482277,26.655173881806018],[87.63847750886835,26.65479569599216],[87.63918113364817,26.65449453364194],[87.63975627705443,26.65434748181274],[87.63999017365174,26.65427189288999],[87.64113989777124,26.653993543037302],[87.64222597457588,26.65367711991092],[87.6431214797538,26.65332087528699],[87.64363328650589,26.65307704541698],[87.64414471803079,26.65288960759772],[87.64510299891467,26.65262788976637],[87.64561311941374,26.65253754241898],[87.64591072750405,26.652520407820347]]]}},{"type":"Feature","properties":{"province":"Koshi Province","district":"Morang","municipality":"Urlabari Municipality","ward":"9","wardNumber":9,"sourceMunicipality":"Uralabari","sourceType":"Nagarpalika"},"geometry":{"type":"Polygon","coordinates":[[[87.65548644283278,26.620967880352772],[87.65517294856483,26.620714248216608],[87.6548185621906,26.620347959458265],[87.65442066173767,26.620054067087114],[87.6540455811345,26.619685590347633],[87.65379404860052,26.61951066824061],[87.65348086525937,26.619200582096042],[87.65291446535386,26.618869119550844],[87.65228535292479,26.61843856587067],[87.65203238466269,26.618340416606333],[87.65140289812963,26.61795056294075],[87.6505864638256,26.61736509185675],[87.64983186723704,26.616840325572024],[87.64945578660883,26.616510234640607],[87.64912328224976,26.61612125158915],[87.6489574673263,26.61588949877814],[87.64875251066464,26.615504389128173],[87.64865009311417,26.61527463610072],[87.64857193197074,26.614888962200492],[87.6485771151336,26.61458418543663],[87.64868983603215,26.614202196024813],[87.64877898882884,26.613973753030564],[87.64893153971857,26.61374505827022],[87.64912573153774,26.613556812654267],[87.64964765556388,26.612816274618464],[87.64997107976474,26.61249423752301],[87.65005867072331,26.61234256653624],[87.65012650357143,26.61211431105723],[87.65015300710299,26.61180715751824],[87.65011405051794,26.611577028954212],[87.64981242237589,26.610655200804462],[87.64931934955901,26.609729687526524],[87.64905417850107,26.609132704816805],[87.64895094993214,26.608979661529],[87.64862662781228,26.608132356290856],[87.64833907450026,26.607589639466987],[87.64815100279276,26.60741440379829],[87.64727017173644,26.606865381811243],[87.6451238727461,26.60591582586402],[87.64487009244382,26.605892135570485],[87.64436434281572,26.605711590972753],[87.64303160438291,26.605521244749543],[87.64239381309666,26.60564604195142],[87.64194627772449,26.605774461560717],[87.64143715622313,26.605785723772446],[87.64098949509147,26.605893950352865],[87.64058997190578,26.605735472748417],[87.64042272002105,26.60557817900815],[87.64023471161474,26.605423262226434],[87.64006902244195,26.60520951460314],[87.63996666756738,26.604977510241905],[87.63988781996107,26.604670922119634],[87.63985460996435,26.604131514436204],[87.63990249614672,26.603826549098468],[87.6401780709867,26.6026018107906],[87.64031080066661,26.602298719909776],[87.6403166094197,26.601991692375655],[87.6402569576719,26.60175950011502],[87.64003211733758,26.601295430497238],[87.63991275230269,26.600833234182986],[87.63983609004373,26.60037297577752],[87.63984046198057,26.60014278288337],[87.63998199618254,26.599300159508],[87.6401626116211,26.598689789399533],[87.64027814298213,26.598154318639622],[87.64069840064732,26.59718171371048],[87.64076660743535,26.59691500986185],[87.64117116582909,26.59561518509114],[87.64141218164747,26.59515810939052],[87.64173660513435,26.594799999548197],[87.64195586347918,26.59438137290985],[87.64245415795857,26.593792192232566],[87.64258532553295,26.59356587409838],[87.64338666017004,26.592616395269758],[87.64371532980915,26.592007648468204],[87.64375978107681,26.591874295959318],[87.64378772057938,26.59149037066284],[87.64372388099481,26.591287500313722],[87.64366760664556,26.591107135622536],[87.64339862676707,26.59072008909803],[87.6430867571139,26.590410003150936],[87.64285560718702,26.590273341688647],[87.64264677859002,26.590098168663523],[87.64201516868523,26.589841479416233],[87.64176182560772,26.589779402137225],[87.64150998133853,26.589642866337933],[87.64132066144893,26.589582789436424],[87.64112984198944,26.589579104538043],[87.64081310043977,26.589517341239407],[87.64011696796193,26.589296975592962],[87.63935949936435,26.58900021383218],[87.6389148367577,26.588957020853726],[87.63847211064947,26.588816798900964],[87.63809147191645,26.588773417877476],[87.63777460478919,26.588691273284326],[87.63746029992679,26.588496346260605],[87.6373774551047,26.588399694807904],[87.63735844466024,26.588246212601323],[87.63738270094831,26.588092604240522],[87.63747041716827,26.587940934084724],[87.63803354557724,26.587281543967634],[87.63857241916054,26.586773448916574],[87.63956088783894,26.586060161048497],[87.63990219679678,26.58591186194524],[87.64007275771176,26.58587722420053],[87.64050028433304,26.585672157252727],[87.64075562644437,26.585637142665668],[87.64144417750133,26.58507415395459],[87.64179079410532,26.584639207830993],[87.6419849241518,26.5844509625092],[87.64220374547851,26.584072972750747],[87.64253678727759,26.583236285245157],[87.64257496957161,26.58231951553369],[87.64253888666832,26.581935966325908],[87.64247986019593,26.581705962364133],[87.64248654261496,26.58132447558045],[87.64253442890119,26.58101944781317],[87.64249466137053,26.580866153145376],[87.6424834589679,26.580331184263144],[87.64234858245358,26.579564274653592],[87.6423765841962,26.57918266177536],[87.64221376753942,26.57879736405204],[87.64201324534604,26.57818431300602],[87.64198009715518,26.577647156167163],[87.64207355886921,26.577190771309795],[87.64234026751602,26.576507816768952],[87.64245442492238,26.57604905535858],[87.64244703149106,26.575286081224338],[87.64249635403968,26.57490434409686],[87.64250453574009,26.57444608478034],[87.64245056791992,26.573909052855257],[87.64247569687886,26.573680923685043],[87.64238352295912,26.57291382540407],[87.64242630667094,26.57069686202075],[87.64252120528252,26.570161453473382],[87.64250425710752,26.56993351210741],[87.64257489971287,26.56955171129323],[87.6426307189705,26.56886294671328],[87.64269992500401,26.56855785622868],[87.64270860614188,26.56809959658948],[87.64282488807082,26.56756631338307],[87.64288295439987,26.56672406566673],[87.64302673908341,26.565847493717037],[87.6426032102999,26.565860754649268],[87.64234949292872,26.565837063920686],[87.64215773644607,26.56589208307883],[87.64190070965626,26.566060324446468],[87.6414693735396,26.566473077549652],[87.64118509201231,26.56692815250286],[87.64092125638075,26.567441745106688],[87.6405629594316,26.56846823905561],[87.64046856098454,26.56898332980458],[87.63988517398629,26.569606771348955],[87.63969091950197,26.56977469855641],[87.63936993164438,26.569961258617383],[87.63902625011089,26.570224654104305],[87.63799888801508,26.57080040198815],[87.63761500149187,26.570948889007777],[87.63710125857526,26.57124686018515],[87.63639638388526,26.5715615891769],[87.63543235849916,26.572139273609007],[87.63530356373838,26.572232490586366],[87.63523772928454,26.572347838260665],[87.63542161525096,26.57269462455633],[87.63567333434693,26.572813154486628],[87.63584283339675,26.57281465238622],[87.63609505185526,26.572915115473673],[87.63665751612552,26.573382180997385],[87.63675924530891,26.57361418449258],[87.63675143752769,26.57401605275397],[87.63666228505447,26.574242182216597],[87.63622457814873,26.574982281273805],[87.63591522929913,26.575665424609912],[87.63578493611061,26.575837601971024],[87.63554329486351,26.576292489099195],[87.63482805261818,26.577142124475166],[87.6345640913717,26.577653466271386],[87.63441160346115,26.5778821611577],[87.63425717881856,26.578223701244045],[87.63424250124518,26.5789687317295],[87.63419355284378,26.579312083695715],[87.63425164226369,26.579600729895308],[87.63429278322833,26.57965924654088],[87.63434737544355,26.58011950489986],[87.63427616992689,26.580519435581333],[87.63427179753513,26.580749690816088],[87.63434933431927,26.581151181953203],[87.634472383523,26.581383123249097],[87.63445895650099,26.58212809174644],[87.63457669722418,26.582644553821673],[87.63454906860449,26.582987780044203],[87.63446154066204,26.583159768792335],[87.63392197923082,26.583667801983868],[87.633515648101,26.58385248745656],[87.63306386701215,26.584229230232033],[87.63280721381989,26.58435902229354],[87.63248947255127,26.58433564561097],[87.63198378584252,26.584155038815446],[87.63179359141535,26.58415360373235],[87.63078340432176,26.58377438409661],[87.63008814857227,26.583592341728863],[87.62911448187819,26.583576353068338],[87.62896343023128,26.58372827486492],[87.62859149473739,26.584352964430117],[87.62843301016778,26.58486836828163],[87.62840788043344,26.585096497998816],[87.62818499896541,26.58566635561384],[87.62819851211013,26.58607034888921],[87.6280425258131,26.586468343384087],[87.62799545062887,26.586696535462266],[87.627979461749,26.587556663216123],[87.62769755370175,26.58789651755074],[87.62749955265288,26.588297012820167],[87.6272835409545,26.588521394360257],[87.6271126058583,26.58859666919041],[87.62681512263386,26.588611553402895],[87.6264960089707,26.588682892430285],[87.62640885434907,26.588816495549153],[87.62638216343142,26.589101016745843],[87.62643456963254,26.58973288812233],[87.62653092723615,26.590251664026354],[87.62653969440201,26.590937864655],[87.6264324130652,26.591285968418635],[87.6262923708324,26.59174035396116],[87.62622272802687,26.592083768676083],[87.62617527876243,26.59237060354554],[87.62619222642093,26.59260085755862],[87.62598604408863,26.593461801504418],[87.62591446505455,26.5939203743415],[87.62590915649793,26.594207083534076],[87.6258206290203,26.59443777704196],[87.62577068176238,26.594839770851703],[87.62568121658276,26.595124605936434],[87.62565458819019,26.595413690926428],[87.6254135094078,26.59587076606539],[87.62530203707833,26.596155663796424],[87.6254634182876,26.596617734353178],[87.62539808422045,26.5967331447427],[87.62524846876543,26.59680829368279],[87.62505758651673,26.596804608528075],[87.62467388665954,26.59689432874865],[87.62448025793849,26.597084824736708],[87.6243694099706,26.597351717608646],[87.62411644397022,26.597355034488494],[87.62356905713082,26.597361920560864],[87.62289081019264,26.597322107419917],[87.6225513755393,26.597359686284584],[87.62212634765447,26.597472101988696],[87.62119338366621,26.59745142336755],[87.62072658768541,26.59739253843606],[87.62066331248916,26.59729801153088],[87.62070632534835,26.59712621110777],[87.62068625051306,26.596896081421256],[87.62074995787597,26.596724217211683],[87.62072913536693,26.596591116299173],[87.62068743164731,26.596534912628705],[87.62028509381378,26.596322169814705],[87.61998947724885,26.5958629769359],[87.61992794289266,26.595292123738542],[87.61984371941422,26.595023858532237],[87.61971704686674,26.594947651204407],[87.61929301670696,26.59488857764363],[87.61863633415135,26.594543800426614],[87.61829739539718,26.59442789666211],[87.61804280204916,26.59437032169493],[87.61770367888096,26.59434919522584],[87.61736474115705,26.594235542946947],[87.61685567878374,26.594138460085503],[87.61600649847787,26.59428889315792],[87.6153278765354,26.594287341286186],[87.61371454805564,26.594644222238422],[87.61337142404562,26.594693116633593],[87.613395623835,26.594873606311314],[87.61322413604324,26.59544546448275],[87.61315818831638,26.59613423006403],[87.61298576552753,26.59687770095858],[87.6129620839492,26.597622731488155],[87.61283236434286,26.59836595160492],[87.61283074722503,26.598767819258256],[87.61278742563132,26.599111108686806],[87.61287015472747,26.59968415034443],[87.61286853732138,26.600085954819107],[87.61280377088661,26.60042936930306],[87.61275821146779,26.601402530185013],[87.61275460609404,26.60249059963306],[87.61279606361084,26.602720665699074],[87.61281682626236,26.602968863295878],[87.61304711313495,26.60377153216816],[87.61302505013379,26.60411475803671],[87.6130661952872,26.604401279581914],[87.6130004973068,26.605031339794756],[87.61299887905871,26.605430894725213],[87.61310112715049,26.606577228458146],[87.61341713158775,26.60732306699777],[87.61371187412905,26.607838713996188],[87.61383798945276,26.608183562342436],[87.61392146855654,26.608756541484073],[87.61408903887647,26.60921411028987],[87.61453221581112,26.6100180893157],[87.6147211685421,26.610475532228193],[87.61569261081462,26.611796403624094],[87.61602937524361,26.61265496283678],[87.61615430991476,26.61334291222114],[87.61642705105429,26.61420409746205],[87.61655291740922,26.614605275086188],[87.61676350145387,26.615006264758357],[87.61712133812287,26.61592340301113],[87.61730985587602,26.616534391160393],[87.61735181328625,26.61674413902817],[87.61756233491431,26.617126998431115],[87.61794217198923,26.617700972914896],[87.61825829929298,26.61833165230233],[87.61846944446701,26.61861742023961],[87.61887010604502,26.619421524439367],[87.6191651599693,26.619880779317743],[87.61939743829595,26.62022281317936],[87.61965016558196,26.620740961182975],[87.61977702949021,26.620968462799862],[87.61998767399338,26.6212564186074],[87.6201144727882,26.621371013175775],[87.62030473561025,26.621715548482427],[87.62038883390908,26.621943176509554],[87.62057878367554,26.622231257482436],[87.62085220524402,26.622747029518663],[87.62112631826407,26.623377897441813],[87.6211451397116,26.623490680074752],[87.62169883808232,26.623359569997703],[87.62220845918829,26.62330317025836],[87.62297235908646,26.62313273250595],[87.62331185666507,26.62311547233304],[87.62348166913442,26.62315316824612],[87.62409070317324,26.62313684046722],[87.62411721331388,26.623163848533444],[87.62477970354935,26.623174465760712],[87.62522580195764,26.62310249942417],[87.62573411305684,26.62316801051752],[87.62643555331901,26.623063280794234],[87.62681781639719,26.6230300151972],[87.62726254157523,26.623055139947752],[87.62790064634906,26.622968791910754],[87.62834493388937,26.623032240659008],[87.62844909874605,26.6231311432308],[87.62848886664935,26.623284437109366],[87.6285029423634,26.623668174816164],[87.62861887225498,26.624322302063728],[87.62866013858716,26.624398824104823],[87.6288713412158,26.6244407702974],[87.6289570584741,26.62438400200129],[87.62915174976166,26.62415736996534],[87.62969468271497,26.623434837341453],[87.63003724128569,26.623268532738674],[87.6303374711535,26.623061780045834],[87.63044600858741,26.62292811352777],[87.63079044007199,26.622646650386518],[87.6309851309395,26.62241783010925],[87.63102927073459,26.622343120131866],[87.63118950265975,26.621674233951673],[87.63134155407593,26.62146360734335],[87.63147091153648,26.621352323133088],[87.63172718985082,26.62125872830492],[87.6338888522552,26.6213280887052],[87.6341015533965,26.62129326217104],[87.63420859174215,26.62123630701997],[87.63433982206195,26.62100998818133],[87.63436301525134,26.62089476648929],[87.63453551232125,26.620742781501804],[87.63612552873079,26.620764949815836],[87.63642438514164,26.62065528779906],[87.6369862642228,26.62006810674327],[87.63713881554361,26.61984166268887],[87.6373325075454,26.61967148445029],[87.6375892229502,26.61953937927893],[87.63771858066814,26.61942596870601],[87.63784887417482,26.619256042234863],[87.6380284278272,26.618684059058587],[87.63824731189898,26.618303881783806],[87.63848558017285,26.61801841852492],[87.63872097636589,26.617888689661086],[87.63910548737536,26.617719883318696],[87.63892893153655,26.618140572186878],[87.638921749252,26.61854237761681],[87.63904205108689,26.61894593143878],[87.63947728343084,26.619526344554682],[87.63996879510758,26.62050831149546],[87.64067356958223,26.621455515497644],[87.64098569051191,26.621804050150303],[87.64127368106453,26.622324197516843],[87.6414806368858,26.622614467171505],[87.642333715873,26.623563168278373],[87.6429403831359,26.624029982626496],[87.64337861405238,26.624456850831955],[87.64406856277516,26.62500006064749],[87.64433854230964,26.625328465420072],[87.64462803240508,26.625774028957345],[87.64474839592296,26.626177519864168],[87.64474111403794,26.627784865847413],[87.64466585012255,26.62847369454922],[87.64433287147727,26.629330763056785],[87.6442848604547,26.629617660348412],[87.64433283401907,26.63053617910505],[87.6442844476467,26.630879592902414],[87.64426296467272,26.632087322596185],[87.644268293539,26.632805157598487],[87.64424410079685,26.63296551739129],[87.644237411721,26.63301071855486],[87.64421784402846,26.633105621473526],[87.64416901806926,26.6333428168468],[87.64416071802944,26.634110417030403],[87.64400361438057,26.634874143477088],[87.64395897719862,26.635084267568832],[87.6443792629034,26.635452556439805],[87.64473770952478,26.63564729529811],[87.64484424725082,26.63561071981944],[87.64538080707966,26.635095810659845],[87.64594024655115,26.63441160076805],[87.646847172038,26.632989794078853],[87.64685842617135,26.63298297979627],[87.64685329916992,26.63296491236478],[87.64679696160877,26.632768792654943],[87.6470815543099,26.63223700723898],[87.6472549256808,26.632028505606822],[87.64749238338499,26.63181975320749],[87.64789927599381,26.631594430353974],[87.64806927481094,26.63155979250909],[87.64841127092743,26.631409242908227],[87.64888081374937,26.631262630000442],[87.64913746687218,26.631112456998416],[87.64972210324937,26.630450627837845],[87.65048142140878,26.629483207326082],[87.65100297208915,26.628762987593053],[87.65137478176962,26.628115666973688],[87.65180617909024,26.627680282340105],[87.65221413419137,26.627418761338134],[87.65256037786199,26.627019889284732],[87.65260826366755,26.62671492389136],[87.65251015595067,26.626252602238786],[87.65250057573863,26.62556415108107],[87.65263611637663,26.625105326790074],[87.65324706758645,26.624118214867597],[87.65331483771878,26.623889896513727],[87.65357723672528,26.623432695609107],[87.65383632491574,26.62316742616426],[87.65420101546171,26.622924161783317],[87.6545241278524,26.6226608293579],[87.65469737386378,26.622432072052938],[87.65489631158317,26.621975122011676],[87.655158709599,26.621517921652117],[87.65539835267185,26.621157874818643],[87.65548644283278,26.620967880352772]]]}},{"type":"Feature","properties":{"province":"Koshi Province","district":"Morang","municipality":"Urlabari Municipality","ward":"4","wardNumber":4,"sourceMunicipality":"Uralabari","sourceType":"Nagarpalika"},"geometry":{"type":"Polygon","coordinates":[[[87.63328008832335,26.671805765724255],[87.63257920864069,26.671838287299597],[87.63068858523077,26.67188057988775],[87.63066982358605,26.67166845619678],[87.63069869559828,26.670979878625158],[87.63058032309868,26.67013613295195],[87.6304988490171,26.669829481921788],[87.63036390081704,26.66860206191546],[87.63020014281297,26.668065532829647],[87.62997560584361,26.667220038108248],[87.62989669205076,26.666683132377003],[87.62975506564611,26.666067517016618],[87.62965807524371,26.665223645978084],[87.62959704836844,26.664993705147147],[87.62951900789352,26.66438002623779],[87.62952156686025,26.664149771278307],[87.62942264360605,26.663536218022678],[87.6294514519623,26.66284532719557],[87.62935702138275,26.661771202103584],[87.6292350930221,26.661311256894862],[87.62898761386009,26.660619370004138],[87.62899154608647,26.660312342982824],[87.62920749289685,26.659950170252642],[87.62955735178387,26.659034396471373],[87.62956315552023,26.65849711401403],[87.62942077981013,26.657960458983535],[87.62923482824625,26.657498577150246],[87.62887887785351,26.657073520088176],[87.62856381949867,26.656783690501456],[87.62826864516681,26.65657057089408],[87.62793326615127,26.656222224016574],[87.62776607611245,26.655972340899506],[87.62759982190106,26.65566381578589],[87.62751753729414,26.655433936937552],[87.62716302107572,26.654816949537146],[87.6269358025109,26.65427848331673],[87.62668439283698,26.654008657803743],[87.62633175232855,26.65339173325647],[87.62609548024837,26.65348532661249],[87.62513638870406,26.65382362926015],[87.62494500765699,26.653858329770152],[87.62462714134904,26.65383714133551],[87.6243099613981,26.65373924266534],[87.62411770171717,26.653615960110827],[87.62406793320334,26.653584576417373],[87.62374649759506,26.653265425919358],[87.622860723586,26.65254697914628],[87.62267634009473,26.65236949293219],[87.62213268994788,26.65160659106664],[87.6219696892908,26.651428979007754],[87.6218044390454,26.65130782082165],[87.62163700210104,26.651245367860106],[87.62138253376963,26.651217113861435],[87.62078088061152,26.65134841207631],[87.6204415684271,26.65131828375535],[87.6200240384364,26.65111248041575],[87.61968691390796,26.651025897639478],[87.61929238999963,26.65078158278691],[87.61870473545851,26.650590035731142],[87.61794014402481,26.650545972831022],[87.6176187781936,26.65059024134657],[87.6175109898169,26.650626816331837],[87.6174649119948,26.650701526826996],[87.61762403743073,26.65097397839783],[87.61762178824988,26.651030432580384],[87.61612080969232,26.651285282209194],[87.61586465454317,26.651295413689517],[87.6153472822106,26.651448904444155],[87.61509056426317,26.651479355251478],[87.61475069085215,26.65146729531215],[87.61432034832497,26.651568519400442],[87.61388731920292,26.651744202428862],[87.61363060222205,26.651772402189497],[87.61337944573165,26.65166968913978],[87.61304732135456,26.651465697271373],[87.61275846136331,26.65124576204195],[87.61236618815768,26.650947181208828],[87.61194647016164,26.65079776945943],[87.6117807830788,26.650696867486168],[87.61132729753392,26.650337644379352],[87.61099961025803,26.65002080673736],[87.61066804750158,26.649798747125192],[87.61008476716741,26.649491978940915],[87.60783028965535,26.6478854198117],[87.60749766534617,26.647701746856576],[87.60729152438007,26.64754232794759],[87.60730384586032,26.647752201761143],[87.60730904300684,26.648135938987345],[87.60743566192701,26.64867490752398],[87.60758697652565,26.649139353704165],[87.60764676060225,26.64975303238479],[87.60762113851003,26.650362649462036],[87.60765215601641,26.650651483298848],[87.60768867170827,26.65078677268559],[87.60770637762334,26.651398451891694],[87.60767274683342,26.651682973308784],[87.60795104441404,26.65217167438493],[87.60800725587589,26.65234522403084],[87.60800063232561,26.652516836996032],[87.60787709503055,26.652912392270277],[87.60779194983344,26.653427420075058],[87.60774219506767,26.654113934031844],[87.60766204960882,26.65451155240518],[87.60748693511238,26.655135362542037],[87.60733545399091,26.655704844982907],[87.60724107025563,26.65696265188252],[87.60715361245978,26.657531882607053],[87.60703076319312,26.657929689311125],[87.60696312600203,26.65855743686388],[87.60676350585443,26.659296531114872],[87.60660357876806,26.659579429408325],[87.6064150813739,26.660031690005805],[87.60641084282778,26.660661500009393],[87.60655334575917,26.661353950415652],[87.60666483178093,26.661759754799984],[87.60687304554465,26.662397750484644],[87.60699165582183,26.66263200541758],[87.60731484469078,26.66304368283724],[87.607695494161,26.66363122444187],[87.60855157449264,26.66455760678394],[87.60877141161745,26.664908705669696],[87.60906221833369,26.665607343390484],[87.60922084503568,26.66590011411964],[87.60933471601425,26.666764177766353],[87.60929789810508,26.66716392124823],[87.60913734587115,26.667444505262193],[87.60865442762018,26.667830376908736],[87.60850168607948,26.667921281063002],[87.60794011201384,26.66815173222849],[87.60763175498046,26.668408124920763],[87.60738360945152,26.668763608505436],[87.60722143145772,26.66910064735793],[87.60693114561184,26.66943600018395],[87.60676896818335,26.669775289816194],[87.60676234402803,26.669946902705277],[87.60681411928364,26.67023561122801],[87.60703176904279,26.670643227236113],[87.60742655285883,26.6714023184771],[87.60790680526665,26.6721654712298],[87.60839030707857,26.672831596875074],[87.60852698769864,26.673140247608938],[87.60890707593883,26.673727788605795],[87.60905620309259,26.674248563849204],[87.60904295478092,26.674591851464296],[87.60902751281365,26.67464374239124],[87.6089936276763,26.67476359050973],[87.60885064647084,26.67515920853198],[87.60873779640323,26.675329009846795],[87.60864351602388,26.675555140505185],[87.6087747612533,26.676017398992226],[87.60895695713329,26.67625359029876],[87.60940619220263,26.676727971838357],[87.60964516261143,26.677137775591884],[87.60974257730827,26.67736984219203],[87.61010471978348,26.67789880365912],[87.61018137747274,26.67813093295577],[87.6101653173879,26.678532863414233],[87.60992643186017,26.6792133170484],[87.60946571954364,26.680116026714877],[87.60941483045785,26.68034421896391],[87.60940758116038,26.680515832154683],[87.60948305186052,26.680766091395686],[87.60966249758945,26.681079055305187],[87.60994648337542,26.68143227954954],[87.61014343866837,26.681842270994625],[87.61044593190782,26.682254011688322],[87.61064288600743,26.68266169061706],[87.61069091191384,26.683065620642147],[87.6105714379796,26.683404785041585],[87.61053686966109,26.683748010995615],[87.61041964511917,26.684030720195977],[87.61041077176174,26.68426097585137],[87.61046767046736,26.684434588049772],[87.6106711874215,26.68467071609195],[87.61089939821532,26.684811941503455],[87.61159184235197,26.68506631753328],[87.6119016476692,26.685306507928818],[87.61194097549725,26.68538309205706],[87.61234919521324,26.685816962762335],[87.61266538593507,26.6864408904072],[87.61300757139429,26.686394245974643],[87.6132632274379,26.686384113832272],[87.61359978862316,26.686472947125083],[87.61399443719579,26.686715011722306],[87.61426097689582,26.68697345792799],[87.61441735361686,26.687322683120826],[87.61440635511465,26.687609454283056],[87.61426556068041,26.687948618305004],[87.61425674998239,26.688178936001766],[87.61429507872356,26.68829390710368],[87.61435416497456,26.68841100319018],[87.6146808533704,26.68876622616508],[87.61486086164142,26.68905893454505],[87.61511246691815,26.689698930561182],[87.61534937490461,26.690165187993067],[87.61555076581253,26.690460021175774],[87.61571432889743,26.69061731507618],[87.61591920912568,26.690280150426062],[87.61611634017818,26.690134729678743],[87.61631178484643,26.69002556931084],[87.61661345482024,26.689922658676952],[87.61667972740474,26.689865953580956],[87.61676900760149,26.689754919884827],[87.61686266205504,26.689528789545648],[87.61699577056362,26.68939949945315],[87.61786076512323,26.689027814223813],[87.61799718520275,26.68880149547295],[87.61799023837003,26.688438076734258],[87.61807889301262,26.688345110752863],[87.61833673607528,26.688278523883312],[87.61878339810733,26.68827432830125],[87.61910420108669,26.688227746676993],[87.61980489455823,26.688251805431953],[87.62032226607478,26.68807793354795],[87.62082269278848,26.687786839320523],[87.62104664315407,26.68749012406708],[87.62123014077264,26.687150708989158],[87.62163265217693,26.686647804964707],[87.62181002477178,26.68646418617006],[87.62207236692915,26.686280189939495],[87.62226718541255,26.68619128579632],[87.6223952942334,26.68617715508902],[87.62283483386898,26.686364827369555],[87.62365426154403,26.686620826657133],[87.62407442066444,26.68694178891325],[87.62411799982928,26.68697998745079],[87.62451583953828,26.687334897066037],[87.62497358449006,26.688102614697538],[87.62560288792156,26.688740916164296],[87.62589356781042,26.689279132061362],[87.62627046305737,26.68972219312386],[87.62645747552581,26.690028342664426],[87.62664305016912,26.690413514705707],[87.62668981217391,26.69012661722734],[87.62701529317489,26.689554069530004],[87.62710232192475,26.68938439336047],[87.62740486110074,26.6889835203696],[87.62766338648251,26.688697932268834],[87.62790184078192,26.688299561695654],[87.62805451383792,26.687955771120507],[87.6284016278187,26.687326643630502],[87.62885890019078,26.686392362147487],[87.62921100819717,26.685420134666195],[87.62932185340063,26.68501782695715],[87.62945283277182,26.684732804385458],[87.62982351396344,26.683932063382034],[87.62998274160245,26.68307124637201],[87.63015667240303,26.682709324965398],[87.63043901557182,26.682195606649156],[87.63108735724317,26.681283016022356],[87.63132668518257,26.680823690033023],[87.63128741482872,26.680537169245387],[87.63110296307444,26.680018833338814],[87.63100148038086,26.679617466986667],[87.63079601863748,26.679040489053993],[87.63067065707989,26.678867253210356],[87.6305883729241,26.678637374713503],[87.63054916513401,26.678368921279336],[87.63061449914129,26.67825576176985],[87.63067839680771,26.67821706225855],[87.63099782467168,26.678161477772687],[87.63157434156207,26.677899329543223],[87.63232360411511,26.67740617248651],[87.63301109060161,26.676761910129247],[87.63339610101464,26.6765163948418],[87.63365312761175,26.676307579022563],[87.63376241257411,26.676079072994217],[87.63368443534083,26.675503843396474],[87.63360308762729,26.675217510673694],[87.63358513719946,26.674928613493396],[87.63348378264884,26.674644656633877],[87.63346202302493,26.674583827030165],[87.63340137012567,26.674295118508958],[87.63336359734814,26.673837047409886],[87.63328131264714,26.673604918515736],[87.63318257477808,26.672914654537472],[87.63310122699406,26.672628259901575],[87.63314923460932,26.672111107592013],[87.63328008832335,26.671805765724255]]]}},{"type":"Feature","properties":{"province":"Koshi Province","district":"Morang","municipality":"Urlabari Municipality","ward":"5","wardNumber":5,"sourceMunicipality":"Uralabari","sourceType":"Nagarpalika"},"geometry":{"type":"Polygon","coordinates":[[[87.64567011993421,26.697702714591166],[87.64548323214706,26.697317542428863],[87.64508963437186,26.696490868482172],[87.64459755089736,26.69503263745254],[87.6444311715303,26.694724111692075],[87.6441214809814,26.693955766977698],[87.6439970560494,26.693726076635524],[87.64364135472886,26.69326494761774],[87.64297159504703,26.692493732019752],[87.64213183472907,26.69164430918968],[87.64131745337166,26.690510241037515],[87.6411106187389,26.69004842153564],[87.64075722746021,26.68943374658366],[87.64042684170198,26.68866546476618],[87.64028103388189,26.68843364874054],[87.63990875672408,26.687588782331467],[87.63938985982224,26.68659106101125],[87.63908079454421,26.685822778200436],[87.6388338157559,26.685130892172143],[87.6387331448809,26.684670821932638],[87.63870005417598,26.683905723149458],[87.63873261006226,26.682986827935984],[87.63893953455299,26.68168794465975],[87.63909339297355,26.68122899517604],[87.63909651528806,26.681000990176354],[87.63923691913647,26.679930361955932],[87.63943685124003,26.67916644709801],[87.63955081789216,26.678554203198132],[87.63957638184932,26.678172590873462],[87.63963106898868,26.67717686131226],[87.63972065614993,26.676794934856858],[87.63981829518161,26.675724495182877],[87.63990788318259,26.675342631807624],[87.63997777207251,26.674807285954646],[87.63997926966864,26.674644738326123],[87.6399949352405,26.673274461102018],[87.6398970087713,26.672507426234954],[87.6398995050087,26.67227942193196],[87.63975950107091,26.671510260635774],[87.63920742579695,26.671526211993136],[87.63818742988586,26.671555737253858],[87.63774189282258,26.67153292537044],[87.63672208553866,26.67160296252251],[87.63551070928122,26.671669377400374],[87.63500121085663,26.671664884320844],[87.63410801433238,26.671793123771984],[87.63328008832335,26.671805765724255],[87.63314923460932,26.672111107592013],[87.63310122699406,26.672628259901575],[87.63318257477808,26.672914654537472],[87.63328131264714,26.673604918515736],[87.63336359734814,26.673837047409886],[87.63340137012567,26.674295118508958],[87.63346202302493,26.674583827030165],[87.63348378264884,26.674644656633877],[87.63358513719946,26.674928613493396],[87.63360308762729,26.675217510673694],[87.63368443534083,26.675503843396474],[87.63376241257411,26.676079072994217],[87.63365312761175,26.676307579022563],[87.63339610101464,26.6765163948418],[87.63301109060161,26.676761910129247],[87.63232360411511,26.67740617248651],[87.63157434156207,26.677899329543223],[87.63099782467168,26.678161477772687],[87.63067839680771,26.67821706225855],[87.63061449914129,26.67825576176985],[87.63054916513401,26.678368921279336],[87.6305883729241,26.678637374713503],[87.63067065707989,26.678867253210356],[87.63079601863748,26.679040489053993],[87.63100148038086,26.679617466986667],[87.63110296307444,26.680018833338814],[87.63128741482872,26.680537169245387],[87.63132668518257,26.680823690033023],[87.63108735724317,26.681283016022356],[87.63043901557182,26.682195606649156],[87.63015667240303,26.682709324965398],[87.62998274160245,26.68307124637201],[87.62982351396344,26.683932063382034],[87.62945283277182,26.684732804385458],[87.62932185340063,26.68501782695715],[87.62921100819717,26.685420134666195],[87.62885890019078,26.686392362147487],[87.6284016278187,26.687326643630502],[87.62805451383792,26.687955771120507],[87.62790184078192,26.688299561695654],[87.62766338648251,26.688697932268834],[87.62740486110074,26.6889835203696],[87.62710232192475,26.68938439336047],[87.62701529317489,26.689554069530004],[87.62668981217391,26.69012661722734],[87.62664305016912,26.690413514705707],[87.62676822605432,26.6906635228849],[87.62733057458858,26.691586597039088],[87.62827755796,26.692302478924084],[87.62846725384806,26.69239869136003],[87.62903865291342,26.69257448349587],[87.62916632454674,26.692576169334306],[87.62961055086991,26.692693821826257],[87.62992741925503,26.69285042534566],[87.63011811466757,26.692908251440905],[87.63062455414244,26.69314306176072],[87.63094104834101,26.693335738097083],[87.6313828410932,26.693683645537053],[87.63171921850329,26.693955344543053],[87.63235407770378,26.69411275516563],[87.63400493858462,26.694624566314253],[87.63457377860725,26.694992226414932],[87.63495235914559,26.69528168030622],[87.6353318767051,26.69551474279223],[87.63558515889225,26.695631022086566],[87.63615618308066,26.695827070947107],[87.63717243361799,26.696102447149617],[87.63888494472891,26.696728978092263],[87.63951786980722,26.697096325236764],[87.64034042847588,26.697562135885427],[87.64084799149619,26.69775849769021],[87.64142020147277,26.697839448894747],[87.6420578082817,26.697807179179005],[87.6423771727828,26.697731214099868],[87.64295337821838,26.697507389305105],[87.64352777249584,26.697416728627232],[87.64403752083645,26.697439351363084],[87.64524577739414,26.69765945837424],[87.64567011993421,26.697702714591166]]]}},{"type":"Feature","properties":{"province":"Koshi Province","district":"Morang","municipality":"Urlabari Municipality","ward":"6","wardNumber":6,"sourceMunicipality":"Uralabari","sourceType":"Nagarpalika"},"geometry":{"type":"Polygon","coordinates":[[[87.64994628511548,26.684644567386457],[87.64933917527253,26.683931743718635],[87.64889763135875,26.68352519450751],[87.64845558953417,26.683236054338586],[87.6481622257265,26.682907776099693],[87.64784953961188,26.68239006618389],[87.64760231147416,26.681774952630704],[87.6473527742365,26.68131332145804],[87.64722916035016,26.681006858540712],[87.6471094174058,26.68039343139099],[87.6467657003315,26.678936760295198],[87.64674743859487,26.678706568170437],[87.64671746829123,26.677634441568262],[87.64691484137406,26.677100844623368],[87.64698142426882,26.676870275709128],[87.64692195892093,26.676563499433083],[87.6467133133924,26.676237157085723],[87.64648135075089,26.676082490344918],[87.64618549171787,26.675984466760273],[87.64535949900645,26.675787422493297],[87.64510578060005,26.67568921045651],[87.64472626251337,26.675456148749028],[87.64449567376099,26.67522470899258],[87.64428684291433,26.674954758283466],[87.64414941090807,26.674643857495244],[87.64414178315616,26.67462810280538],[87.6439992833005,26.674091510101807],[87.64394736739897,26.67301950969925],[87.64395722680943,26.67209842674811],[87.64400510853098,26.67156320665393],[87.64407018963257,26.67129656503574],[87.64300955479654,26.67136460285874],[87.64148068707132,26.671389572143838],[87.63975950107091,26.671510260635774],[87.6398995050087,26.67227942193196],[87.6398970087713,26.672507426234954],[87.6399949352405,26.673274461102018],[87.63997926966864,26.674644738326123],[87.63997777207251,26.674807285954646],[87.63990788318259,26.675342631807624],[87.63981829518161,26.675724495182877],[87.63972065614993,26.676794934856858],[87.63963106898868,26.67717686131226],[87.63957638184932,26.678172590873462],[87.63955081789216,26.678554203198132],[87.63943685124003,26.67916644709801],[87.63923691913647,26.679930361955932],[87.63909651528806,26.681000990176354],[87.63909339297355,26.68122899517604],[87.63893953455299,26.68168794465975],[87.63873261006226,26.682986827935984],[87.63870005417598,26.683905723149458],[87.6387331448809,26.684670821932638],[87.6388338157559,26.685130892172143],[87.63908079454421,26.685822778200436],[87.63938985982224,26.68659106101125],[87.63990875672408,26.687588782331467],[87.64028103388189,26.68843364874054],[87.64042684170198,26.68866546476618],[87.64075722746021,26.68943374658366],[87.6411106187389,26.69004842153564],[87.64131745337166,26.690510241037515],[87.64213183472907,26.69164430918968],[87.64297159504703,26.692493732019752],[87.64364135472886,26.69326494761774],[87.6439970560494,26.693726076635524],[87.6441214809814,26.693955766977698],[87.6444311715303,26.694724111692075],[87.64459755089736,26.69503263745254],[87.64508963437186,26.696490868482172],[87.64548323214706,26.697317542428863],[87.64567011993421,26.697702714591166],[87.64649617440149,26.697881753153027],[87.64757738440125,26.69808223154969],[87.64986878379511,26.69827262482781],[87.6513351298791,26.69824553010097],[87.65248030006455,26.698409622182385],[87.65307376648174,26.698470005273457],[87.65290788707073,26.698143474659865],[87.65280646739626,26.69776017659114],[87.65285410102982,26.69730166623232],[87.65324554030605,26.69653918629224],[87.65337864190616,26.696080362912202],[87.65353175228437,26.695698123301863],[87.65454952627269,26.6940410578346],[87.65457490208911,26.693659446275856],[87.65453606957772,26.69335260646637],[87.65431178473204,26.69258388499478],[87.65399741339387,26.69221740755016],[87.65378714535879,26.692044548091],[87.65336486189352,26.691811736778405],[87.65279739619517,26.691347109831796],[87.65202134592668,26.69045898743736],[87.65179250524884,26.690094384774973],[87.65148112934183,26.689479521669025],[87.65142010236119,26.689249580638307],[87.65155644884719,26.688483728857175],[87.65154062168659,26.688025532095775],[87.65148109343667,26.687718755609144],[87.65131477667066,26.687410293591196],[87.65100121595552,26.686967043900623],[87.65058754693787,26.686045717503614],[87.65037908984095,26.68573738052008],[87.65008828600868,26.68519922798789],[87.64998686556177,26.68481592951229],[87.64994628511548,26.684644567386457]]]}},{"type":"Feature","properties":{"province":"Koshi Province","district":"Morang","municipality":"Urlabari Municipality","ward":"7","wardNumber":7,"sourceMunicipality":"Uralabari","sourceType":"Nagarpalika"},"geometry":{"type":"Polygon","coordinates":[[[87.63328008832335,26.671805765724255],[87.63410801433238,26.671793123771984],[87.63500121085663,26.671664884320844],[87.63551070928122,26.671669377400374],[87.63672208553866,26.67160296252251],[87.63774189282258,26.67153292537044],[87.63818742988586,26.671555737253858],[87.63920742579695,26.671526211993136],[87.63975950107091,26.671510260635774],[87.64148068707132,26.671389572143838],[87.64300955479654,26.67136460285874],[87.64407018963257,26.67129656503574],[87.64422423909022,26.670991098122737],[87.64439798240174,26.670608858015903],[87.64442092450696,26.670455250184748],[87.64438159181071,26.670148410852764],[87.64395346583602,26.66853632117852],[87.64395596249274,26.66830606533503],[87.6441147512822,26.667388856539365],[87.64409829870107,26.666928409789715],[87.64397412250217,26.666622009465126],[87.64343327980968,26.665622163049942],[87.64332955058865,26.665390158948632],[87.6433098527578,26.665236739250386],[87.64333535449848,26.6648551268032],[87.64364400736659,26.66378368275055],[87.64364731483154,26.663476717731125],[87.64360685966425,26.663323361416456],[87.64329498325372,26.662708561287957],[87.64317242912252,26.662248616102524],[87.64315685045126,26.66171139666873],[87.64315928407444,26.661481141315722],[87.64324806006263,26.661175987991037],[87.6433995468071,26.660870583909368],[87.64351151415221,26.660335049637755],[87.64351725471867,26.6598000180714],[87.64340106797995,26.65880279018222],[87.643404437879,26.658495762071766],[87.64356066793061,26.657806557720523],[87.64366932800894,26.65757805175758],[87.64397086643072,26.65714104378345],[87.6444013867894,26.656626635514222],[87.64485341435415,26.65603539306619],[87.64517571247117,26.655713418206144],[87.64552064016556,26.655179067974935],[87.64567612144752,26.654568886773305],[87.64577070007424,26.6536496785707],[87.64577631744004,26.65318916885996],[87.64582332517979,26.65273072143748],[87.64591072750405,26.652520407820347],[87.64561311941374,26.65253754241898],[87.64510299891467,26.65262788976637],[87.64414471803079,26.65288960759772],[87.64363328650589,26.65307704541698],[87.6431214797538,26.65332087528699],[87.64222597457588,26.65367711991092],[87.64113989777124,26.653993543037302],[87.63999017365174,26.65427189288999],[87.63975627705443,26.65434748181274],[87.63918113364817,26.65449453364194],[87.63847750886835,26.65479569599216],[87.63770892482277,26.655173881806018],[87.636176625633,26.655562271241244],[87.63566669017106,26.655578096877427],[87.63528604918297,26.65546019319886],[87.63465418578642,26.65501382303653],[87.63423589699052,26.65445360283694],[87.63398486191286,26.654145454364794],[87.63379560265398,26.65399053644222],[87.6336893138244,26.653970720553335],[87.63241485234067,26.654075709012513],[87.63037879598046,26.65388618714213],[87.62993375830429,26.653824926176725],[87.62834760853937,26.653333120089744],[87.62764797761318,26.653230102121963],[87.6267567153688,26.653222801312328],[87.62633175232855,26.65339173325647],[87.62668439283698,26.654008657803743],[87.6269358025109,26.65427848331673],[87.62716302107572,26.654816949537146],[87.62751753729414,26.655433936937552],[87.62759982190106,26.65566381578589],[87.62776607611245,26.655972340899506],[87.62793326615127,26.656222224016574],[87.62826864516681,26.65657057089408],[87.62856381949867,26.656783690501456],[87.62887887785351,26.657073520088176],[87.62923482824625,26.657498577150246],[87.62942077981013,26.657960458983535],[87.62956315552023,26.65849711401403],[87.62955735178387,26.659034396471373],[87.62920749289685,26.659950170252642],[87.62899154608647,26.660312342982824],[87.62898761386009,26.660619370004138],[87.6292350930221,26.661311256894862],[87.62935702138275,26.661771202103584],[87.6294514519623,26.66284532719557],[87.62942264360605,26.663536218022678],[87.62952156686025,26.664149771278307],[87.62951900789352,26.66438002623779],[87.62959704836844,26.664993705147147],[87.62965807524371,26.665223645978084],[87.62975506564611,26.666067517016618],[87.62989669205076,26.666683132377003],[87.62997560584361,26.667220038108248],[87.63020014281297,26.668065532829647],[87.63036390081704,26.66860206191546],[87.6304988490171,26.669829481921788],[87.63058032309868,26.67013613295195],[87.63069869559828,26.670979878625158],[87.63066982358605,26.67166845619678],[87.63068858523077,26.67188057988775],[87.63257920864069,26.671838287299597],[87.63328008832335,26.671805765724255]]]}},{"type":"Feature","properties":{"province":"Koshi Province","district":"Morang","municipality":"Urlabari Municipality","ward":"3","wardNumber":3,"sourceMunicipality":"Uralabari","sourceType":"Nagarpalika"},"geometry":{"type":"Polygon","coordinates":[[[87.60948305186052,26.680766091395686],[87.60940758116038,26.680515832154683],[87.60941483045785,26.68034421896391],[87.60946571954364,26.680116026714877],[87.60992643186017,26.6792133170484],[87.6101653173879,26.678532863414233],[87.61018137747274,26.67813093295577],[87.61010471978348,26.67789880365912],[87.60974257730827,26.67736984219203],[87.60964516261143,26.677137775591884],[87.60940619220263,26.676727971838357],[87.60895695713329,26.67625359029876],[87.6087747612533,26.676017398992226],[87.60864351602388,26.675555140505185],[87.60873779640323,26.675329009846795],[87.60885064647084,26.67515920853198],[87.6089936276763,26.67476359050973],[87.60902751281365,26.67464374239124],[87.60904295478092,26.674591851464296],[87.60905620309259,26.674248563849204],[87.60890707593883,26.673727788605795],[87.60852698769864,26.673140247608938],[87.60839030707857,26.672831596875074],[87.60790680526665,26.6721654712298],[87.60742655285883,26.6714023184771],[87.60703176904279,26.670643227236113],[87.60681411928364,26.67023561122801],[87.60676234402803,26.669946902705277],[87.60676896818335,26.669775289816194],[87.60693114561184,26.66943600018395],[87.60722143145772,26.66910064735793],[87.60738360945152,26.668763608505436],[87.60763175498046,26.668408124920763],[87.60794011201384,26.66815173222849],[87.60850168607948,26.667921281063002],[87.60865442762018,26.667830376908736],[87.60913734587115,26.667444505262193],[87.60929789810508,26.66716392124823],[87.60933471601425,26.666764177766353],[87.60922084503568,26.66590011411964],[87.60906221833369,26.665607343390484],[87.60877141161745,26.664908705669696],[87.60855157449264,26.66455760678394],[87.607695494161,26.66363122444187],[87.60731484469078,26.66304368283724],[87.60699165582183,26.66263200541758],[87.60687304554465,26.662397750484644],[87.60666483178093,26.661759754799984],[87.60655334575917,26.661353950415652],[87.60641084282778,26.660661500009393],[87.6064150813739,26.660031690005805],[87.60660357876806,26.659579429408325],[87.60676350585443,26.659296531114872],[87.60696312600203,26.65855743686388],[87.60703076319312,26.657929689311125],[87.60715361245978,26.657531882607053],[87.60724107025563,26.65696265188252],[87.60733545399091,26.655704844982907],[87.60748693511238,26.655135362542037],[87.60766204960882,26.65451155240518],[87.60774219506767,26.654113934031844],[87.60779194983344,26.653427420075058],[87.60787709503055,26.652912392270277],[87.60800063232561,26.652516836996032],[87.60800725587589,26.65234522403084],[87.60795104441404,26.65217167438493],[87.60767274683342,26.651682973308784],[87.60766049783126,26.651987812166585],[87.60764768743238,26.652294839795417],[87.60735422324187,26.653201360506895],[87.60694652443786,26.653799042486714],[87.60665398805853,26.654170531259776],[87.60627554631317,26.65457853170214],[87.606054782767,26.654762276513303],[87.60563195023963,26.655206476385914],[87.60426785113891,26.656307258402183],[87.60365576153634,26.656725140248618],[87.60222094361627,26.657519084023075],[87.60208783573302,26.657648311169673],[87.6018391894504,26.658021862860227],[87.60146269602673,26.658926383575658],[87.60124056817982,26.65968354666219],[87.60114966321042,26.65983296700584],[87.60092846247055,26.660055097946625],[87.6005000679352,26.660652905616136],[87.60039966385096,26.661030267805586],[87.60049089255432,26.66141594186274],[87.60062694818237,26.661726843156657],[87.60061201338267,26.66210839254254],[87.60039932124084,26.66263755127532],[87.6000777159511,26.66323710677042],[87.59978299331394,26.6636876186191],[87.59958417456578,26.663871300698435],[87.59916865416747,26.664164206035625],[87.59864909519467,26.664394469615626],[87.59821881568652,26.664513636331115],[87.59728066313342,26.66457629503113],[87.5967403459595,26.664788553190025],[87.59647638018392,26.665008621543524],[87.59623154674941,26.66528726979013],[87.59501700185076,26.666412057037892],[87.59460579373186,26.666589865089172],[87.59426204502167,26.666672582705385],[87.59390472581313,26.666565807438936],[87.5939553756169,26.666892839933052],[87.5940550511521,26.667583165025835],[87.59411188696937,26.667756778230693],[87.59425350519432,26.66793451556319],[87.59452435629035,26.66807786577168],[87.59559919005238,26.66832385798356],[87.59584922026133,26.66844701456486],[87.59593181389432,26.668507593452034],[87.59597120494375,26.668586428443923],[87.5958095278727,26.668905399423387],[87.59552205397918,26.66918204821625],[87.59534293111092,26.669406241553475],[87.59495667710326,26.67002411648517],[87.59466996430356,26.67081766589593],[87.59457800723294,26.671502055915177],[87.59450623465239,26.671710055489932],[87.59370046237018,26.6727157382521],[87.59343368337345,26.67299226069256],[87.59301635020596,26.673321300977005],[87.5929052504573,26.6734527164604],[87.5929023755162,26.67350917071885],[87.59304736762043,26.673610135271066],[87.59424206068489,26.67405205825984],[87.59449427840441,26.67411869837606],[87.59508930854757,26.6741388198038],[87.59517246372822,26.674179080710168],[87.59527419145081,26.674298301288005],[87.59541193440994,26.67457087907782],[87.59543556890479,26.674643024531512],[87.59546877105133,26.674744428965003],[87.5955004134757,26.675031012302746],[87.59549017520092,26.6758345601379],[87.59563986568045,26.676355460435012],[87.59575860034931,26.676589714804443],[87.59575191429977,26.67676126498645],[87.59570702438741,26.676817970245846],[87.59538009658728,26.677017971292866],[87.59488135748626,26.677268428275095],[87.59449428133767,26.6773693385691],[87.59436398561037,26.677442112494457],[87.59425338534626,26.67755320902186],[87.5942275649846,26.67766611757098],[87.59425808226021,26.677973082401245],[87.59444828875944,26.67855468665966],[87.59448218040403,26.678784753427625],[87.59482594998833,26.67977203787629],[87.59495124736979,26.679832490863095],[87.59586039335963,26.679979894314116],[87.59621452517469,26.68016350474728],[87.59679317153685,26.68004821140543],[87.59706795975085,26.680096721070925],[87.59729560802562,26.680258265151693],[87.59737426512037,26.68041368454977],[87.59753795288306,26.680591359212134],[87.5977255858036,26.68067406710845],[87.59798017820418,26.680702321737165],[87.59848480308736,26.68085373258308],[87.59873320921879,26.681015213483295],[87.59923733348947,26.681184629987104],[87.59938676227931,26.68117043637825],[87.59964685402842,26.681045145022722],[87.59973607164326,26.68093417338726],[87.59980953090657,26.68068778765596],[87.60000616271762,26.68056055983275],[87.60019766997696,26.680548490619792],[87.6007658165489,26.680699525609004],[87.60106698746034,26.680614745793413],[87.6017753037255,26.68044693582182],[87.60227079333292,26.680293569982535],[87.60250950320815,26.680166153665823],[87.60270713387328,26.68000053971213],[87.60297384946286,26.679703698212187],[87.60330290204408,26.67944718010648],[87.60352697808496,26.679168594663608],[87.60368852981593,26.678829305156302],[87.60374060617873,26.678582982655776],[87.60378612104182,26.678508334689898],[87.60385189412875,26.678471885293913],[87.60404171465079,26.678498202259448],[87.6041041128991,26.678538588204166],[87.60422728449822,26.678657683690375],[87.60436671477744,26.67889187485928],[87.60459386362199,26.67907148630042],[87.60473935598434,26.67915213275057],[87.60525761415477,26.6794952878794],[87.60582076197353,26.679781800350465],[87.60594780889922,26.67980605472581],[87.60632319916105,26.67998960299917],[87.60644962088722,26.680013857467507],[87.6068306346251,26.68006417864666],[87.60715087621021,26.680037915567436],[87.60753239073061,26.68007016953436],[87.60771733634142,26.680229650857036],[87.6080203915448,26.680641453835058],[87.60834989185656,26.680919967662934],[87.60847687645996,26.680941971858168],[87.60886114063439,26.680899703340707],[87.60918363097683,26.68081479774688],[87.60948305186052,26.680766091395686]]]}},{"type":"Feature","properties":{"province":"Koshi Province","district":"Morang","municipality":"Urlabari Municipality","ward":"2","wardNumber":2,"sourceMunicipality":"Uralabari","sourceType":"Nagarpalika"},"geometry":{"type":"Polygon","coordinates":[[[87.61266538593507,26.6864408904072],[87.61234919521324,26.685816962762335],[87.61194097549725,26.68538309205706],[87.6119016476692,26.685306507928818],[87.61159184235197,26.68506631753328],[87.61089939821532,26.684811941503455],[87.6106711874215,26.68467071609195],[87.61046767046736,26.684434588049772],[87.61041077176174,26.68426097585137],[87.61041964511917,26.684030720195977],[87.61053686966109,26.683748010995615],[87.6105714379796,26.683404785041585],[87.61069091191384,26.683065620642147],[87.61064288600743,26.68266169061706],[87.61044593190782,26.682254011688322],[87.61014343866837,26.681842270994625],[87.60994648337542,26.68143227954954],[87.60966249758945,26.681079055305187],[87.60948305186052,26.680766091395686],[87.60918363097683,26.68081479774688],[87.60886114063439,26.680899703340707],[87.60847687645996,26.680941971858168],[87.60834989185656,26.680919967662934],[87.6080203915448,26.680641453835058],[87.60771733634142,26.680229650857036],[87.60753239073061,26.68007016953436],[87.60715087621021,26.680037915567436],[87.6068306346251,26.68006417864666],[87.60644962088722,26.680013857467507],[87.60632319916105,26.67998960299917],[87.60594780889922,26.67980605472581],[87.60582076197353,26.679781800350465],[87.60525761415477,26.6794952878794],[87.60473935598434,26.67915213275057],[87.60459386362199,26.67907148630042],[87.60436671477744,26.67889187485928],[87.60422728449822,26.678657683690375],[87.6041041128991,26.678538588204166],[87.60404171465079,26.678498202259448],[87.60385189412875,26.678471885293913],[87.60378612104182,26.678508334689898],[87.60374060617873,26.678582982655776],[87.60368852981593,26.678829305156302],[87.60352697808496,26.679168594663608],[87.60330290204408,26.67944718010648],[87.60297384946286,26.679703698212187],[87.60270713387328,26.68000053971213],[87.60250950320815,26.680166153665823],[87.60227079333292,26.680293569982535],[87.6017753037255,26.68044693582182],[87.60106698746034,26.680614745793413],[87.6007658165489,26.680699525609004],[87.60019766997696,26.680548490619792],[87.60000616271762,26.68056055983275],[87.59980953090657,26.68068778765596],[87.59973607164326,26.68093417338726],[87.59964685402842,26.681045145022722],[87.59938676227931,26.68117043637825],[87.59923733348947,26.681184629987104],[87.59873320921879,26.681015213483295],[87.59848480308736,26.68085373258308],[87.59798017820418,26.680702321737165],[87.5977255858036,26.68067406710845],[87.59753795288306,26.680591359212134],[87.59737426512037,26.68041368454977],[87.59729560802562,26.680258265151693],[87.59706795975085,26.680096721070925],[87.59679317153685,26.68004821140543],[87.59621452517469,26.68016350474728],[87.59586039335963,26.679979894314116],[87.59495124736979,26.679832490863095],[87.59482594998833,26.67977203787629],[87.59448218040403,26.678784753427625],[87.59444828875944,26.67855468665966],[87.59425808226021,26.677973082401245],[87.5942275649846,26.67766611757098],[87.59425338534626,26.67755320902186],[87.59436398561037,26.677442112494457],[87.59449428133767,26.6773693385691],[87.59488135748626,26.677268428275095],[87.59538009658728,26.677017971292866],[87.59570702438741,26.676817970245846],[87.59575191429977,26.67676126498645],[87.59575860034931,26.676589714804443],[87.59563986568045,26.676355460435012],[87.59549017520092,26.6758345601379],[87.5955004134757,26.675031012302746],[87.59546877105133,26.674744428965003],[87.59543556890479,26.674643024531512],[87.59541193440994,26.67457087907782],[87.59527419145081,26.674298301288005],[87.59517246372822,26.674179080710168],[87.59508930854757,26.6741388198038],[87.59449427840441,26.67411869837606],[87.59424206068489,26.67405205825984],[87.59304736762043,26.673610135271066],[87.5929023755162,26.67350917071885],[87.5929052504573,26.6734527164604],[87.59301635020596,26.673321300977005],[87.59343368337345,26.67299226069256],[87.59370046237018,26.6727157382521],[87.59450623465239,26.671710055489932],[87.59457800723294,26.671502055915177],[87.59466996430356,26.67081766589593],[87.59495667710326,26.67002411648517],[87.59534293111092,26.669406241553475],[87.59552205397918,26.66918204821625],[87.5958095278727,26.668905399423387],[87.59597120494375,26.668586428443923],[87.59593181389432,26.668507593452034],[87.59584922026133,26.66844701456486],[87.59559919005238,26.66832385798356],[87.59452435629035,26.66807786577168],[87.59425350519432,26.66793451556319],[87.59411188696937,26.667756778230693],[87.5940550511521,26.667583165025835],[87.5939553756169,26.666892839933052],[87.59390472581313,26.666565807438936],[87.59373778823499,26.66648297298124],[87.5934511165374,26.666206458902412],[87.59317006827615,26.665794530580484],[87.59308866182556,26.66571588412606],[87.59292178731077,26.665633049667996],[87.59275316225651,26.665588601578623],[87.59241278835238,26.665596797572533],[87.59172291744025,26.665820936463483],[87.59111639025544,26.66610796848845],[87.59032898914397,26.666652952580016],[87.58939653402305,26.667099223737488],[87.5887854446797,26.667481095983057],[87.58856586883874,26.667664840409866],[87.58795997629224,26.66844614136827],[87.58705403866252,26.669296467584367],[87.58669804221114,26.66968621301897],[87.58608632730325,26.670083777218373],[87.585742017151,26.670186812471357],[87.58498305039956,26.67002740343633],[87.58464255151861,26.67003559841967],[87.58429705285276,26.67015663915926],[87.5836870261607,26.670520318244332],[87.58350790271442,26.670742323927254],[87.58314459490668,26.67132393793642],[87.58304750347328,26.67162452743582],[87.5830139349133,26.67192949254361],[87.5830471386031,26.672161872322942],[87.58305816883859,26.673462065278283],[87.5830099669618,26.67361348552978],[87.58258425992034,26.674152587818515],[87.58243633489884,26.67434045859449],[87.58224720842037,26.67458053160712],[87.5821878762816,26.674643988884124],[87.58206977266929,26.674766401252995],[87.58195742291583,26.674918072634057],[87.5817267222562,26.675370521820923],[87.58162688148857,26.675750196670744],[87.58131233786783,26.6761623223615],[87.5809859726271,26.67634425632542],[87.57994822792085,26.676732261742057],[87.57951951020169,26.676797225114246],[87.57917894936519,26.676785102325262],[87.57883445047271,26.67687000778366],[87.5781844699202,26.67715710179196],[87.57779670544555,26.677258012710958],[87.57760507331167,26.677252014171067],[87.57695671740507,26.67750072292548],[87.5765004934319,26.677717043267034],[87.57603989545454,26.678066528112897],[87.57581631883279,26.678327045373834],[87.5754271913459,26.679023943257906],[87.57515872557411,26.679361358819282],[87.57506656995679,26.67953103569304],[87.57475327640081,26.679925093591514],[87.5744229124237,26.680201867414393],[87.57428867948843,26.68036941822056],[87.57417132952692,26.680654378986272],[87.5741393856863,26.680920832932596],[87.57413276189855,26.68109469635037],[87.57405149175429,26.681553269204024],[87.57393576635121,26.681779462744565],[87.57364598011024,26.682114752951104],[87.57329204541318,26.68244804372176],[87.57230683678358,26.68368454737002],[87.57195302714052,26.68401777542143],[87.57166086581462,26.68441177088189],[87.57147499439024,26.684807576992775],[87.57135327029243,26.68520757080031],[87.57134208429208,26.685494343368134],[87.57138998458132,26.685898210887654],[87.57136998819185,26.686415237324777],[87.5715203131211,26.687455289395807],[87.57156734921543,26.688432575543082],[87.57163881970986,26.68877992578425],[87.57173836031508,26.688955601276163],[87.57173611000734,26.68901205543556],[87.57142206626989,26.6894061128967],[87.57095746846467,26.689850438191563],[87.57015581926154,26.690745338094327],[87.56988229217744,26.691197913013575],[87.56978788686394,26.691424043551123],[87.5696300842323,26.6916503619073],[87.56944421187168,26.69204616833226],[87.56943752515778,26.69221778141923],[87.5694942991971,26.692391331852836],[87.56975965129503,26.69268828899464],[87.56981642613016,26.692861839217755],[87.56978616961433,26.693089969019105],[87.56971602236196,26.693261832960143],[87.56969315055359,26.693835250961744],[87.56988773004147,26.694299509014506],[87.57020991913494,26.69477001692469],[87.57050622672021,26.695353495555608],[87.57073450000145,26.695512851029175],[87.57146527283177,26.695880071871805],[87.5721464690595,26.696419156349965],[87.57239612605842,26.696578324250886],[87.57293070504701,26.69705476804584],[87.57336861914452,26.697299020208053],[87.57362258737616,26.6973250863595],[87.57396489849064,26.697296571928376],[87.57427394287586,26.697019924036073],[87.57444455636065,26.696468446901466],[87.57448093731655,26.69608683430589],[87.57455395963802,26.695858516645966],[87.57484380811673,26.695523225499507],[87.57538325038281,26.695347227869544],[87.57580921785956,26.695340969806214],[87.57649371562675,26.695265936644756],[87.57674887150975,26.695273934439697],[87.57725693197844,26.69534638539089],[87.57784652510742,26.695517738241204],[87.57826974279543,26.695588252403898],[87.5785248992419,26.695596250517504],[87.57877780417371,26.695660639954596],[87.57883851525045,26.69573941215617],[87.57887459441189,26.695913087832203],[87.57878025295551,26.696139218036464],[87.57874188296829,26.697114567207336],[87.57885830642408,26.69740533788181],[87.57908714265149,26.697546562859813],[87.57970805364283,26.697451462268784],[87.58091286074816,26.697141790181202],[87.58151139054426,26.697085138922027],[87.58202282631196,26.69708069171818],[87.58243691700697,26.697198720096047],[87.58278048103695,26.697296618107874],[87.58353426177071,26.69760725937092],[87.58411873024731,26.697896084237733],[87.5849578538696,26.69819059443345],[87.58554857082041,26.698325812475698],[87.586641100177,26.6986666443424],[87.5876527233196,26.698910762074433],[87.58837154991065,26.69902966009441],[87.5886693460767,26.699021653534423],[87.58943587463246,26.69900719928197],[87.59003540314349,26.698912224227872],[87.59055121339892,26.69877680117841],[87.59106371131894,26.698736281218064],[87.59174920812755,26.698604731468098],[87.59200436311308,26.698612604553038],[87.59234654938224,26.69856608533816],[87.59268654850403,26.69857820814704],[87.59302873434991,26.698531564656676],[87.59345413936644,26.69852536778458],[87.59396769980526,26.69844646207561],[87.59431375997605,26.698305039935722],[87.59451207849867,26.69813942512774],[87.59469726350427,26.697743556769943],[87.59473364423268,26.69736194403601],[87.59533063980412,26.69569575859361],[87.59546768542202,26.695469440113197],[87.59560073090805,26.695322144813428],[87.59579798727643,26.69517459837632],[87.59590577582885,26.69514027404822],[87.5961692430373,26.694938210490847],[87.59659988622218,26.694261442826107],[87.59688461004903,26.69404131098839],[87.59764412827066,26.693663375625288],[87.59807234615542,26.693600600036817],[87.59960296551654,26.69361207904901],[87.59994683919692,26.693529424411842],[87.60055249173776,26.69328084167973],[87.60148832168602,26.692737354810895],[87.60188364585377,26.692406063451788],[87.60197461360936,26.692256705407118],[87.60254412429792,26.691836635542785],[87.60330050820664,26.690982373310366],[87.60358635650567,26.690741797940102],[87.6040069391576,26.690317979389583],[87.60459783337448,26.689897846674995],[87.60562932792661,26.68962706366411],[87.6058001396747,26.689612744260085],[87.6064741894025,26.68923287137611],[87.60681962495092,26.689093700494208],[87.60733362257486,26.68899441259627],[87.60750668354697,26.68892370187528],[87.6080963905511,26.68852388716758],[87.6083559202045,26.688418915322835],[87.60921110458517,26.688313620056437],[87.6100378331433,26.687824775731283],[87.6107956013374,26.68748728964938],[87.61121124657468,26.687194384818493],[87.61138424586751,26.68712367399545],[87.61169035308201,26.68690566754255],[87.61173574263948,26.686831019497543],[87.6121316927579,26.68649966635384],[87.61249576118978,26.686434828808988],[87.61266538593507,26.6864408904072]]]}}]}