{"type":"FeatureCollection","features":[{"type":"Feature","properties":{"province":"Koshi Province","district":"Solukhumbu","municipality":"Sotang Rural Municipality","ward":"2","wardNumber":2,"sourceMunicipality":"Sotang","sourceType":"Gaunpalika"},"geometry":{"type":"Polygon","coordinates":[[[86.80902283805034,27.576107254233744],[86.80831191425781,27.573912369807044],[86.80765894402224,27.571392451597305],[86.80686612707157,27.569903900098037],[86.80370896328618,27.56617072064891],[86.80342460269863,27.56583400056389],[86.80024750119064,27.56256570806771],[86.79976244108956,27.562226427611133],[86.79947245653483,27.562025121711116],[86.79866301647232,27.56108266820864],[86.79822509432373,27.560393659269778],[86.79751575150595,27.559275340576832],[86.79706231792703,27.55827705363488],[86.79679195117089,27.557224873368554],[86.79650229857751,27.55443005730107],[86.79631282366987,27.552603711589352],[86.79599523759501,27.55070272082823],[86.7960581262194,27.55007759869508],[86.79702031855915,27.547738274885948],[86.79843461632787,27.545485408623392],[86.79910427580539,27.54396951798647],[86.79897583326536,27.542718902715713],[86.79830362373723,27.541230412024014],[86.79729366506979,27.539770872337968],[86.79621948032558,27.537419571166225],[86.79607822931456,27.53676931948968],[86.79601592515893,27.53483481576242],[86.79626849288982,27.533264226956355],[86.79646337542108,27.53312455848125],[86.79645410598734,27.532153961385273],[86.79647561091741,27.531991475559124],[86.79604057404698,27.5318982662207],[86.79519362982919,27.531502035996823],[86.79468924985396,27.531090546422305],[86.79202924616489,27.529721054112507],[86.786491696892,27.525518955907323],[86.78611961617794,27.525130158915886],[86.7858014928383,27.52479787748408],[86.7843066089539,27.523549593323857],[86.78380266228834,27.522923603823777],[86.78369393395734,27.52285345932837],[86.78028557771661,27.5206294133733],[86.77846731668504,27.518895303257935],[86.77758515650153,27.517519286033323],[86.7767195720598,27.51660377819567],[86.77530427947764,27.51534198869647],[86.77453473438311,27.51465460969493],[86.7732070456205,27.51392116138039],[86.7705357948382,27.512982357524297],[86.76897076598891,27.51212881465602],[86.76805654339206,27.511493077483745],[86.76732407705958,27.510981748941305],[86.7669289265705,27.510642529424786],[86.76597825589225,27.51018497026437],[86.76395991747107,27.508235923868437],[86.76201923845822,27.506693245893945],[86.76134923540643,27.506290386226958],[86.75986616893883,27.505086990278173],[86.75807830279778,27.503894412787346],[86.75806473527054,27.50388534813576],[86.75611129259629,27.505653891696213],[86.75569452584256,27.506391362941578],[86.75420037850752,27.508235048204774],[86.75383243485933,27.508475936121258],[86.75051616923673,27.513672877507826],[86.7487783820456,27.516261034302246],[86.75062965952311,27.518288980614365],[86.75210872218321,27.519338956743812],[86.75308679028126,27.52055505173493],[86.75378437139909,27.52126950220506],[86.75403152934257,27.521522760678796],[86.75465852685814,27.52255086676225],[86.75571149609692,27.52371513242081],[86.75626164078999,27.5239733889048],[86.75633192449394,27.52440020070608],[86.75624165446843,27.525291525999698],[86.7566051771,27.52609344421872],[86.75737053523956,27.5269367440274],[86.75830639269334,27.527662882889544],[86.75840405478198,27.527737528249993],[86.75933053962771,27.528869974065262],[86.76009466685835,27.530909499554106],[86.75980147244285,27.53333321464994],[86.75975923857072,27.53530816952649],[86.75995532191651,27.535969860887995],[86.75958527109498,27.537440859977373],[86.7595598916607,27.53777264487923],[86.75959140698014,27.537975828980382],[86.7601708862847,27.5389271012897],[86.75994114165516,27.540655610800805],[86.76004995355568,27.54201694659498],[86.76046494039136,27.543349394269224],[86.76053123361291,27.544482600769246],[86.76053948894648,27.54462257938448],[86.76017732339842,27.54653827124807],[86.76024805254305,27.54752474750188],[86.76048784409123,27.54845964357657],[86.76168645565417,27.55123575462559],[86.76464620646738,27.557190588831293],[86.76494732787303,27.55779595059417],[86.76543845872729,27.558530409670677],[86.76616232341829,27.56071203993172],[86.76633439205105,27.56107570729338],[86.7666180692756,27.561676629950153],[86.76773026261996,27.563687330619995],[86.76942599003364,27.56610526822302],[86.76972567499092,27.566814534888067],[86.76980514934101,27.56729992606004],[86.7698039383168,27.56975795975486],[86.77019855495352,27.57183293849992],[86.77121094779896,27.572999267673804],[86.7724726169908,27.573996731524336],[86.77317308118795,27.575054220445697],[86.77402437158787,27.577472981472955],[86.77418570497186,27.578951725957886],[86.7743729091639,27.57957046716317],[86.77446551046158,27.579821164438954],[86.77501153585027,27.580537555344872],[86.77586630387262,27.581428242736123],[86.77884468552645,27.583410223532198],[86.77958591303172,27.584415822121045],[86.7802982458744,27.584857066815307],[86.7828993465595,27.585791057159376],[86.78372509104031,27.5858668191451],[86.78398468958372,27.586054558055043],[86.7840627225482,27.586318822751235],[86.78395776080926,27.587237218351913],[86.78423887403981,27.587765869168113],[86.78494051408339,27.588152911913927],[86.78496023750913,27.589931557955058],[86.78539135470895,27.591171416306807],[86.78552060541269,27.59215120237173],[86.78619031551615,27.59366451228656],[86.78645762016185,27.594840916474777],[86.78603037528673,27.59716960487926],[86.78635974377366,27.600804166973152],[86.78745039710437,27.604679039214673],[86.78799249294808,27.6059235852646],[86.78817544204752,27.606343706168172],[86.78829442657486,27.60651087902137],[86.78831912355265,27.606569583151956],[86.78837752484439,27.606827033130305],[86.78957237531122,27.60892794618758],[86.78968792418507,27.609320872259023],[86.78964856290848,27.611036251187542],[86.78968001671693,27.611336463394096],[86.78966626559136,27.61157797238409],[86.79214509123565,27.609857185618697],[86.79346218508026,27.60878923051079],[86.79502205809894,27.607778100996658],[86.7960586823467,27.60727625234436],[86.79746213101203,27.6067815892837],[86.8020271180099,27.60607038425241],[86.80365188958535,27.60503437216705],[86.80627901549651,27.603081139628898],[86.80672091651486,27.602323286815697],[86.80692798084796,27.60159900940315],[86.80702593576811,27.600461548949216],[86.80682396117764,27.598933165558595],[86.80692122663915,27.597651225834632],[86.8068439972155,27.59685436836306],[86.80680654409386,27.59673014467522],[86.80748002008134,27.59534741761116],[86.80791202415269,27.593485866241974],[86.80765835325745,27.592613800953274],[86.80756256284194,27.592284581368062],[86.80700505997328,27.589403680407187],[86.80661771487206,27.588525053212944],[86.80664913924818,27.587015172084325],[86.80692788686088,27.584419782612827],[86.80733045978917,27.58357415361602],[86.80766013227672,27.58288144667529],[86.80857275541824,27.581215633337358],[86.80896626340947,27.580497355235494],[86.80930472179725,27.577947227995274],[86.80902283805034,27.576107254233744]]]}},{"type":"Feature","properties":{"province":"Koshi Province","district":"Solukhumbu","municipality":"Sotang Rural Municipality","ward":"1","wardNumber":1,"sourceMunicipality":"Sotang","sourceType":"Gaunpalika"},"geometry":{"type":"Polygon","coordinates":[[[86.75806473527054,27.50388534813576],[86.75703396917922,27.503222228989166],[86.75575430023362,27.5026445134375],[86.75383638712583,27.501489948595324],[86.75110127548899,27.499022572411228],[86.7488075967991,27.497725220532878],[86.74937757858567,27.495148457882735],[86.7493200315732,27.49356605642577],[86.74897338285463,27.492240546971875],[86.74896175319323,27.49219528420809],[86.74918393202063,27.490473463900404],[86.74900460437438,27.48973731255489],[86.75244339908767,27.487488484275445],[86.75577222190499,27.485564377374235],[86.75669017190125,27.484748876234068],[86.75705135773566,27.48411068487819],[86.75751637823971,27.48253146566848],[86.75815573088273,27.48196385294925],[86.75904617726538,27.48156803821093],[86.76171175804008,27.479872882330326],[86.76171344092285,27.479527531027816],[86.7613557881572,27.478244846667046],[86.76120666927794,27.478149820009484],[86.76120673157,27.478134002824632],[86.76121140523064,27.4771160167047],[86.7613425668301,27.476430063937595],[86.76192513445409,27.475038336239948],[86.76209399333233,27.47400934408715],[86.76244872886225,27.47276172365049],[86.76252118095994,27.47201925518785],[86.76236479473171,27.471016775111213],[86.76183909369001,27.470541892833527],[86.7601769651239,27.469541432934765],[86.7590629857379,27.469171588737062],[86.75905610785867,27.469171588971925],[86.7584752070923,27.469193165055785],[86.75672073608195,27.468512988143043],[86.75511538020915,27.46761636995699],[86.75382114674068,27.46722583410982],[86.75347670761684,27.467225276282626],[86.75225752179881,27.46808085535099],[86.75071540417662,27.468953943157345],[86.74936747688795,27.469378147740183],[86.74880883572013,27.469521633970988],[86.74765509504542,27.469393173500993],[86.74623568333625,27.468562197280193],[86.74529932538981,27.467725338637116],[86.74453860256749,27.46743957750968],[86.74348552723777,27.467446718153976],[86.74262851966405,27.467199093254035],[86.74087935831841,27.466175627419688],[86.73959675281328,27.465710570042116],[86.73785460515955,27.465377743952036],[86.73501355427717,27.46516252980502],[86.73310271849792,27.46475037056839],[86.73222807886583,27.4644530442483],[86.73123020217322,27.46387101114674],[86.73062609541505,27.463339424762832],[86.72970947777848,27.46145519647582],[86.7288517108563,27.460634153773082],[86.72819777703391,27.460301126908682],[86.72733582493049,27.45966520096956],[86.72721913205542,27.462107231212624],[86.72706947898986,27.463784037696378],[86.72735879518041,27.465159187759156],[86.7272358579063,27.468102365087198],[86.72607503331047,27.47064618793471],[86.72622778666867,27.47129881519127],[86.72584113637231,27.4747109459932],[86.72531352289519,27.475935562519552],[86.72527909131085,27.477109219592283],[86.72434245701463,27.47859941852305],[86.72439875327059,27.480188571005478],[86.72508190737791,27.48192119642196],[86.72812557993353,27.48510065332399],[86.72956150646395,27.486462284595344],[86.73037376536189,27.48787681412773],[86.73018199118448,27.490774667305626],[86.73097810899291,27.495489165230076],[86.7315595292072,27.49660310944394],[86.73146238893092,27.497925624018247],[86.73181478385298,27.498887839418153],[86.73264578863616,27.499516950550912],[86.73328203773895,27.50047741190949],[86.73443892963529,27.50219508900415],[86.73541736977556,27.50325557469067],[86.73582165330046,27.503811545599387],[86.73560934378436,27.505032281027557],[86.73584713293717,27.50589496892723],[86.7368794015672,27.506700442412566],[86.73813449725823,27.507199384992738],[86.73893868553904,27.508236929034982],[86.73974587362252,27.50921576917629],[86.74033653673688,27.509699903397816],[86.74080915245197,27.5099197117795],[86.744036750798,27.51193451210817],[86.74729525704998,27.515337469664576],[86.7487783820456,27.516261034302246],[86.75051616923673,27.513672877507826],[86.75383243485933,27.508475936121258],[86.75420037850752,27.508235048204774],[86.75569452584256,27.506391362941578],[86.75611129259629,27.505653891696213],[86.75806473527054,27.50388534813576]]]}},{"type":"Feature","properties":{"province":"Koshi Province","district":"Solukhumbu","municipality":"Sotang Rural Municipality","ward":"4","wardNumber":4,"sourceMunicipality":"Sotang","sourceType":"Gaunpalika"},"geometry":{"type":"Polygon","coordinates":[[[86.84722357794584,27.497265441084874],[86.84718230997812,27.49709382848895],[86.8458437907314,27.495559771292903],[86.84561845795513,27.49555727292495],[86.84533160861616,27.495938388951622],[86.84440451605481,27.495935212365996],[86.84254388689027,27.495569692392618],[86.83983725950421,27.495359041321883],[86.83932788053089,27.495103347843212],[86.83686815282958,27.4946423074133],[86.83542311258917,27.494205010394996],[86.8343206413766,27.49407054774706],[86.83353446452463,27.49336097501247],[86.8332521633866,27.492789498038128],[86.83319638298151,27.492166441450376],[86.83342095650178,27.49157082609526],[86.83415833698825,27.490589778612474],[86.83704967573915,27.488144085976344],[86.83715089664301,27.487945588775087],[86.83726543590885,27.48772227151457],[86.83802682867689,27.48695791285156],[86.83852161823509,27.48586377282271],[86.83889183956657,27.48344218220766],[86.83894565681189,27.482496529858935],[86.83793575152947,27.480524839557017],[86.83787753177921,27.479874711843532],[86.83796905458908,27.479159250803725],[86.83833461406256,27.478430595055578],[86.84070594116889,27.475532776098802],[86.84184376557306,27.473581563810296],[86.84232066826723,27.472137509363098],[86.84262971266806,27.47172713468538],[86.84263596476845,27.471717944781137],[86.84363526961826,27.46787061574863],[86.84371440131137,27.466480268865954],[86.84295614288204,27.463955851163668],[86.8427255971444,27.462576449496822],[86.84272659286279,27.46230111830147],[86.84320793346514,27.46077122565073],[86.84314359100055,27.460419061219334],[86.84239591723073,27.459018785105187],[86.84201556851912,27.4577565446285],[86.84225302153123,27.457124793883196],[86.84253211879043,27.456838455758326],[86.8441516953807,27.455603322453776],[86.84489426003282,27.45428592652114],[86.84516791175614,27.453559397525225],[86.84561010277149,27.451458399969006],[86.84622761451348,27.44972325834763],[86.8460892994108,27.448897017142794],[86.84611111979228,27.44889701731703],[86.84769911968564,27.447488020647313],[86.84860557111806,27.447005929878372],[86.8488995487917,27.44668120547162],[86.84890154053637,27.446139484033502],[86.84854713432435,27.444592910580376],[86.84876826238141,27.443640565220974],[86.84948694380664,27.442332172022983],[86.84947587655562,27.442336673486434],[86.84888228223147,27.44229992082519],[86.84665113205506,27.441344982296858],[86.84623684995915,27.441078221659524],[86.84622797174958,27.44107822192682],[86.84489760987091,27.44124378853265],[86.84421329349468,27.441188843436738],[86.84372898771896,27.441043931941152],[86.84083614279318,27.439252945120277],[86.83977293042993,27.4387958249906],[86.83847032173176,27.4385685875311],[86.83639637366923,27.43876711014245],[86.83533755349286,27.43920381494553],[86.83362242581802,27.439481668876258],[86.8321405149974,27.44010518377189],[86.83110570994064,27.44097976575949],[86.83071557443247,27.441500673663512],[86.830207909817,27.44284763814788],[86.82956587058622,27.443469891067007],[86.8295598689555,27.44347664373437],[86.82721783306518,27.44435186827348],[86.82652777272511,27.44476181015931],[86.82595063782802,27.44571590951726],[86.82493865919615,27.44689520658626],[86.82440791460199,27.447743212447996],[86.82424735853537,27.44788750702362],[86.82405497535969,27.447943713230977],[86.82370659871545,27.448026741663263],[86.82308149548788,27.448147848176056],[86.82218397271916,27.44787815597997],[86.82071354368409,27.447120139548588],[86.81964269467824,27.44609397793675],[86.81883024728576,27.444693514814237],[86.81765323392483,27.443633344765278],[86.81710501692982,27.442741026933152],[86.81687260814911,27.44211103249984],[86.81648245716163,27.441656780141653],[86.81578694212935,27.4411141920802],[86.81571910658157,27.441217911015848],[86.81523706044689,27.441628099645264],[86.81498040448106,27.441722568665828],[86.81339876324799,27.441946217113383],[86.81190445906485,27.441750116227762],[86.81139121024513,27.441902917898734],[86.81049107872138,27.442703038908842],[86.80961376198736,27.443092351951012],[86.80849797818371,27.44325560184629],[86.80732574210602,27.443746073670457],[86.80587833835972,27.44403305108798],[86.80478212761268,27.44442205502252],[86.80402065882966,27.4443442289135],[86.80287360178731,27.44380089766439],[86.80219941539919,27.443748015103523],[86.80057538212213,27.44392633825659],[86.79973895354418,27.444234376889284],[86.79527193306033,27.44426863210999],[86.7935087851431,27.44441732337877],[86.79258326350696,27.44482676845378],[86.79199199605361,27.44561594475962],[86.7915538381226,27.44583188874281],[86.79036840698156,27.4461823191661],[86.78967989993836,27.446025594601668],[86.78894700624187,27.446094437244334],[86.78761828369765,27.447144324234046],[86.78713324669901,27.4482180201875],[86.78636285164158,27.44902945631379],[86.78635747400594,27.44903395715463],[86.78520787629634,27.44982670479913],[86.784844760376,27.45098186113621],[86.78430713303811,27.45145957013663],[86.78092579767578,27.453700270951224],[86.78055536408603,27.454683877130297],[86.78069955797993,27.45568166804938],[86.78044484836305,27.456223080133654],[86.77918128561365,27.45795466677072],[86.77844364847586,27.45861030603057],[86.77789934105918,27.459697444411784],[86.77688460719966,27.460648360720796],[86.77564749155309,27.46242283533237],[86.7736033192125,27.463563945839883],[86.77244748583252,27.46544463741574],[86.77089311945615,27.466670016392282],[86.76917688770827,27.468272071239554],[86.76833534301483,27.46922323566423],[86.7683325294523,27.469225486907206],[86.76980809382293,27.470509969620508],[86.7718111227992,27.473043562597226],[86.77199451347646,27.473711943248066],[86.77198921834812,27.47489697867794],[86.77186181082575,27.475781614885786],[86.77147594308875,27.477293313475535],[86.7717701142447,27.47732538162764],[86.77562134021481,27.476916212090394],[86.77668023315971,27.477078183831733],[86.78033001962484,27.477239621819848],[86.78076011716593,27.477335081850367],[86.78138015589366,27.477182591190402],[86.78135970739804,27.47697265540225],[86.78222813887368,27.476123020176445],[86.78312120724513,27.47546300206177],[86.78524172342131,27.47449344041519],[86.78668417557223,27.473394099544706],[86.78756049004787,27.472876249267184],[86.78975097840193,27.472468725741383],[86.79037358310603,27.472469718399637],[86.79409566039786,27.47352698027191],[86.79581436837887,27.474238229430906],[86.79730318069154,27.4750777688859],[86.7989640152473,27.47722000129224],[86.79940187542076,27.477931641763384],[86.79965868706365,27.4797061593813],[86.79965482564653,27.48063837049798],[86.79905524934169,27.481901498329485],[86.7983223023417,27.482552823991682],[86.79783106908397,27.48320670922701],[86.79687803996083,27.483817025725724],[86.79551291893154,27.484277804133562],[86.7954086328302,27.484397277171563],[86.79551455088112,27.48462765592727],[86.7958770000557,27.484838150547844],[86.79690225485048,27.48491853603432],[86.79738949658798,27.484919280404416],[86.79844212905276,27.484559598178205],[86.79869834894215,27.48458028881784],[86.79911431867103,27.484790782367075],[86.79942181530969,27.485346504236098],[86.79942007224878,27.485791134822037],[86.79988100404066,27.48653897315105],[86.80118394800594,27.48810504114928],[86.80207990878509,27.488471948936876],[86.80242728573243,27.488368601927384],[86.8037608871294,27.487390860469336],[86.8043948690162,27.487272067075708],[86.80439042938227,27.487278882055563],[86.80406720471088,27.48846567204697],[86.80406234630186,27.4896055685109],[86.8038376477392,27.490201121258526],[86.80332847021721,27.490805367520096],[86.80124210484725,27.492599170749322],[86.80091793354524,27.493289502818243],[86.80177627403155,27.49470359415756],[86.8022685274276,27.495293448116175],[86.80269674962857,27.495422667695593],[86.80352729988942,27.495071741949285],[86.8037835819806,27.495074363749385],[86.80452067443693,27.49552454951881],[86.80530886075175,27.496805477430076],[86.8060805352367,27.497731988638407],[86.80762086634698,27.49849025408579],[86.8076284937156,27.49849475557252],[86.8087331509158,27.498444351217294],[86.80979498359602,27.49868728373601],[86.8102218312671,27.49887970920165],[86.81056239964312,27.499184919325884],[86.81141522259594,27.49969843398056],[86.81227735740913,27.499959124869616],[86.8134956746771,27.499547675395323],[86.81392139095941,27.499295470582602],[86.81468654754217,27.499255824128745],[86.81492113586586,27.49938936081983],[86.81531197571412,27.499918010910772],[86.81524759116613,27.500793705769045],[86.81563368022748,27.501315603631056],[86.81613374214528,27.501465203935712],[86.81730648638452,27.5014102974407],[86.8178713878624,27.5017496396575],[86.81820570964967,27.502445276439854],[86.81871854089367,27.503509082236437],[86.82047690748348,27.50535766449568],[86.82067974162113,27.50590869793648],[86.82068730749998,27.505929016232233],[86.8213724439665,27.5064941729443],[86.82237075758167,27.50694460469651],[86.82328885495427,27.507496442699786],[86.82402313781702,27.50823552454981],[86.82422627617638,27.508256090768448],[86.82452495151921,27.50846421022219],[86.82499031339697,27.50857529904203],[86.82597705071426,27.508524584361492],[86.82682823785711,27.50836089981736],[86.82748191769346,27.508429411796797],[86.82865291057986,27.508354061438887],[86.83004630906906,27.50892908712282],[86.8305856213894,27.50823450119321],[86.83100483276407,27.507882892487128],[86.83225096928162,27.507247815197264],[86.83307376887636,27.507007296137306],[86.83416659785291,27.506279506184875],[86.83765198935566,27.505127872405758],[86.83906037413637,27.504504233490852],[86.84029962441488,27.503374761499245],[86.84057696771266,27.502822095371545],[86.84094872371442,27.50242522427737],[86.84317358353226,27.501010155205176],[86.84483216979746,27.499472619789262],[86.84680456040016,27.498014353391852],[86.84718081672928,27.497513577002884],[86.84722357794584,27.497265441084874]]]}},{"type":"Feature","properties":{"province":"Koshi Province","district":"Solukhumbu","municipality":"Sotang Rural Municipality","ward":"5","wardNumber":5,"sourceMunicipality":"Sotang","sourceType":"Gaunpalika"},"geometry":{"type":"Polygon","coordinates":[[[86.80762086634698,27.49849025408579],[86.8060805352367,27.497731988638407],[86.80530886075175,27.496805477430076],[86.80452067443693,27.49552454951881],[86.8037835819806,27.495074363749385],[86.80352729988942,27.495071741949285],[86.80269674962857,27.495422667695593],[86.8022685274276,27.495293448116175],[86.80177627403155,27.49470359415756],[86.80091793354524,27.493289502818243],[86.80124210484725,27.492599170749322],[86.80332847021721,27.490805367520096],[86.8038376477392,27.490201121258526],[86.80406234630186,27.4896055685109],[86.80406720471088,27.48846567204697],[86.80439042938227,27.487278882055563],[86.8043948690162,27.487272067075708],[86.8037608871294,27.487390860469336],[86.80242728573243,27.488368601927384],[86.80207990878509,27.488471948936876],[86.80118394800594,27.48810504114928],[86.79988100404066,27.48653897315105],[86.79942007224878,27.485791134822037],[86.79942181530969,27.485346504236098],[86.79911431867103,27.484790782367075],[86.79869834894215,27.48458028881784],[86.79844212905276,27.484559598178205],[86.79738949658798,27.484919280404416],[86.79690225485048,27.48491853603432],[86.7958770000557,27.484838150547844],[86.79551455088112,27.48462765592727],[86.7954086328302,27.484397277171563],[86.79551291893154,27.484277804133562],[86.79687803996083,27.483817025725724],[86.79783106908397,27.48320670922701],[86.7983223023417,27.482552823991682],[86.79905524934169,27.481901498329485],[86.79965482564653,27.48063837049798],[86.79965868706365,27.4797061593813],[86.79940187542076,27.477931641763384],[86.7989640152473,27.47722000129224],[86.79730318069154,27.4750777688859],[86.79581436837887,27.474238229430906],[86.79409566039786,27.47352698027191],[86.79037358310603,27.472469718399637],[86.78975097840193,27.472468725741383],[86.78756049004787,27.472876249267184],[86.78668417557223,27.473394099544706],[86.78524172342131,27.47449344041519],[86.78312120724513,27.47546300206177],[86.78222813887368,27.476123020176445],[86.78135970739804,27.47697265540225],[86.78138015589366,27.477182591190402],[86.78160517777798,27.47728443062471],[86.78274778464221,27.477175634238318],[86.78422314280769,27.47725238815685],[86.78505989153494,27.477427491483855],[86.78646391662727,27.477921680751752],[86.7877098267066,27.478718085989847],[86.78926823614273,27.480052144841192],[86.79005773743918,27.48151375083501],[86.79045040331465,27.482816753030395],[86.79022057840132,27.48342580962243],[86.78989352540695,27.483716524273863],[86.78891006097183,27.48512582505298],[86.7889039565163,27.486531987528924],[86.78821341510707,27.488138155288787],[86.78828570919661,27.489235225700327],[86.7884030063121,27.48944753711811],[86.78829352880449,27.489492551313933],[86.78793258476453,27.48960033781119],[86.78751162608755,27.490159507345933],[86.78597826580233,27.491231590852244],[86.78582752578954,27.4914615981795],[86.7848729068433,27.494295191752055],[86.78487823480178,27.495134813132946],[86.7848785480918,27.495137126567457],[86.78501117523291,27.49610790884233],[86.78601238045462,27.497554007691388],[86.78616913243903,27.497980880934847],[86.78568585646343,27.499682073672517],[86.78537762859172,27.500338395893472],[86.78444498141965,27.50093739550074],[86.78387034573329,27.501771710517403],[86.78323021120913,27.504226500925686],[86.78322690906155,27.504939772773948],[86.78268904434094,27.506207464030542],[86.78094368061198,27.50808059893335],[86.78080919525956,27.508233770407003],[86.78027946201358,27.509709085027943],[86.77808455502287,27.51146856669297],[86.77624478829325,27.51377926817482],[86.77544676643632,27.515145866652038],[86.77530427947764,27.51534198869647],[86.7767195720598,27.51660377819567],[86.77758515650153,27.517519286033323],[86.77846731668504,27.518895303257935],[86.78028557771661,27.5206294133733],[86.78369393395734,27.52285345932837],[86.78380266228834,27.522923603823777],[86.7843066089539,27.523549593323857],[86.7858014928383,27.52479787748408],[86.78611961617794,27.525130158915886],[86.786491696892,27.525518955907323],[86.79202924616489,27.529721054112507],[86.79468924985396,27.531090546422305],[86.79519362982919,27.531502035996823],[86.79604057404698,27.5318982662207],[86.79647561091741,27.531991475559124],[86.79661333303692,27.530953356796758],[86.79640674917681,27.52668473237054],[86.79660674117622,27.52546393421301],[86.79795719969138,27.523016886063104],[86.79858854440978,27.5221712554041],[86.79870927176067,27.521932183117023],[86.79924407718076,27.520865300987744],[86.79995206013805,27.519112402671535],[86.80070510249892,27.516165653392942],[86.8007287343837,27.516073126370998],[86.80312376509373,27.513552980425334],[86.80372453024188,27.512411700817445],[86.80446181503316,27.509338414754644],[86.80452488792712,27.508566562070598],[86.80454445181036,27.50823477746551],[86.80430779315526,27.507670177040808],[86.80413821757234,27.50689570258172],[86.80421748746683,27.50627958256735],[86.80455247489374,27.505611945232275],[86.8045563980552,27.504648162261976],[86.80511078132936,27.50410718446774],[86.8057090450334,27.502886818486186],[86.80695748012243,27.50132209349408],[86.80714966377666,27.500561680570886],[86.80761538595955,27.49985352930682],[86.80781119689529,27.49914056758077],[86.80780675758591,27.499124750616232],[86.80762086634698,27.49849025408579]]]}},{"type":"Feature","properties":{"province":"Koshi Province","district":"Solukhumbu","municipality":"Sotang Rural Municipality","ward":"3","wardNumber":3,"sourceMunicipality":"Sotang","sourceType":"Gaunpalika"},"geometry":{"type":"Polygon","coordinates":[[[86.78138015589366,27.477182591190402],[86.78076011716593,27.477335081850367],[86.78033001962484,27.477239621819848],[86.77668023315971,27.477078183831733],[86.77562134021481,27.476916212090394],[86.7717701142447,27.47732538162764],[86.77147594308875,27.477293313475535],[86.77186181082575,27.475781614885786],[86.77198921834812,27.47489697867794],[86.77199451347646,27.473711943248066],[86.7718111227992,27.473043562597226],[86.76980809382293,27.470509969620508],[86.7683325294523,27.469225486907206],[86.76765265882781,27.469558405550337],[86.76708482536925,27.4695913599002],[86.76237017217076,27.471021339342865],[86.76236479473171,27.471016775111213],[86.76252118095994,27.47201925518785],[86.76244872886225,27.47276172365049],[86.76209399333233,27.47400934408715],[86.76192513445409,27.475038336239948],[86.7613425668301,27.476430063937595],[86.76121140523064,27.4771160167047],[86.76120673157,27.478134002824632],[86.76120666927794,27.478149820009484],[86.7613557881572,27.478244846667046],[86.76171344092285,27.479527531027816],[86.76171175804008,27.479872882330326],[86.75904617726538,27.48156803821093],[86.75815573088273,27.48196385294925],[86.75751637823971,27.48253146566848],[86.75705135773566,27.48411068487819],[86.75669017190125,27.484748876234068],[86.75577222190499,27.485564377374235],[86.75244339908767,27.487488484275445],[86.74900460437438,27.48973731255489],[86.74918393202063,27.490473463900404],[86.74896175319323,27.49219528420809],[86.74897338285463,27.492240546971875],[86.7493200315732,27.49356605642577],[86.74937757858567,27.495148457882735],[86.7488075967991,27.497725220532878],[86.75110127548899,27.499022572411228],[86.75383638712583,27.501489948595324],[86.75575430023362,27.5026445134375],[86.75703396917922,27.503222228989166],[86.75806473527054,27.50388534813576],[86.75807830279778,27.503894412787346],[86.75986616893883,27.505086990278173],[86.76134923540643,27.506290386226958],[86.76201923845822,27.506693245893945],[86.76395991747107,27.508235923868437],[86.76597825589225,27.51018497026437],[86.7669289265705,27.510642529424786],[86.76732407705958,27.510981748941305],[86.76805654339206,27.511493077483745],[86.76897076598891,27.51212881465602],[86.7705357948382,27.512982357524297],[86.7732070456205,27.51392116138039],[86.77453473438311,27.51465460969493],[86.77530427947764,27.51534198869647],[86.77544676643632,27.515145866652038],[86.77624478829325,27.51377926817482],[86.77808455502287,27.51146856669297],[86.78027946201358,27.509709085027943],[86.78080919525956,27.508233770407003],[86.78094368061198,27.50808059893335],[86.78268904434094,27.506207464030542],[86.78322690906155,27.504939772773948],[86.78323021120913,27.504226500925686],[86.78387034573329,27.501771710517403],[86.78444498141965,27.50093739550074],[86.78537762859172,27.500338395893472],[86.78568585646343,27.499682073672517],[86.78616913243903,27.497980880934847],[86.78601238045462,27.497554007691388],[86.78501117523291,27.49610790884233],[86.7848785480918,27.495137126567457],[86.78487823480178,27.495134813132946],[86.7848729068433,27.494295191752055],[86.78582752578954,27.4914615981795],[86.78597826580233,27.491231590852244],[86.78751162608755,27.490159507345933],[86.78793258476453,27.48960033781119],[86.78829352880449,27.489492551313933],[86.7884030063121,27.48944753711811],[86.78828570919661,27.489235225700327],[86.78821341510707,27.488138155288787],[86.7889039565163,27.486531987528924],[86.78891006097183,27.48512582505298],[86.78989352540695,27.483716524273863],[86.79022057840132,27.48342580962243],[86.79045040331465,27.482816753030395],[86.79005773743918,27.48151375083501],[86.78926823614273,27.480052144841192],[86.7877098267066,27.478718085989847],[86.78646391662727,27.477921680751752],[86.78505989153494,27.477427491483855],[86.78422314280769,27.47725238815685],[86.78274778464221,27.477175634238318],[86.78160517777798,27.47728443062471],[86.78138015589366,27.477182591190402]]]}}]}