{"type":"FeatureCollection","features":[{"type":"Feature","properties":{"province":"Koshi Province","district":"Pachthar","municipality":"Hilihang Rural Municipality","ward":"1","wardNumber":1,"sourceMunicipality":"Hilihang","sourceType":"Gaunpalika"},"geometry":{"type":"Polygon","coordinates":[[[87.76152508071608,27.288189890466246],[87.76223339695244,27.287865533666526],[87.76480882716014,27.2871832892012],[87.76682207355474,27.287504036340245],[87.76726442182793,27.287436133601553],[87.76778059519285,27.286726791881826],[87.76844011917537,27.285283107506416],[87.76851351762468,27.28512243461193],[87.76899843082302,27.284458419268322],[87.7696777364432,27.2841476908769],[87.77034772798748,27.28394086869961],[87.7722110315486,27.2836890132603],[87.77278599047489,27.283627172724483],[87.77404745613255,27.283744310134328],[87.77543577264724,27.283483772290396],[87.77748093393389,27.28223324589992],[87.77841950642676,27.281250629176018],[87.7796168800528,27.28105436330731],[87.77960312120811,27.280891940449447],[87.77936763995827,27.277117026723584],[87.7790314911663,27.275920369152605],[87.77724899961854,27.271910350555856],[87.7764660667626,27.270932828016782],[87.77602038327247,27.270048264207233],[87.77575207829155,27.269160446043617],[87.7743296358079,27.267030847213306],[87.77319568417917,27.265425521068067],[87.77240980373672,27.264014746722882],[87.77197951011344,27.263520484648655],[87.7711168876446,27.260967939269797],[87.77042610257575,27.25950689821624],[87.76991689939754,27.25873768171697],[87.76968186313997,27.258170207099443],[87.76881449317894,27.258657990083183],[87.76710619221392,27.25927007365995],[87.76514161957623,27.260355299835577],[87.76480975535375,27.260677650124624],[87.76177689416075,27.26077097970976],[87.76068592800921,27.260614390531106],[87.75680398074682,27.259536328948005],[87.75508189840329,27.25895875151412],[87.75441870751527,27.25847030793009],[87.75430065994253,27.25828813127822],[87.75393195830839,27.25810952292442],[87.75367192168991,27.257943916510897],[87.75309170556727,27.257761935767334],[87.75257501190772,27.257561635505358],[87.75218611535203,27.257378650789544],[87.75160157984747,27.257025119890116],[87.75102205145214,27.256865771278846],[87.75070105849721,27.256833642422198],[87.75024913903157,27.25666903930336],[87.74979384035571,27.256371272282962],[87.74940469313954,27.25616796968644],[87.7491594111926,27.25593903100165],[87.74917585276948,27.255853130957245],[87.74810768734507,27.254750639116804],[87.74785502980754,27.25464817529767],[87.7474271233305,27.254673065296846],[87.74725706002337,27.25464912403154],[87.74676419308726,27.254690143959717],[87.74659850426505,27.254553356653016],[87.74635553225964,27.254200257282626],[87.74613031934173,27.25394643705808],[87.7460488502037,27.25384753449701],[87.74527975452305,27.25384260896454],[87.7449408793372,27.253776720078477],[87.74440405856885,27.253856315415288],[87.74397346597291,27.25395803978896],[87.74337224722174,27.25403563522962],[87.74286280864911,27.253961622818828],[87.74252605686988,27.253837029068738],[87.7422708381424,27.253811276498055],[87.74184768042056,27.25370293956642],[87.74151305383593,27.25351964153942],[87.74105506649406,27.25320161869514],[87.7404662196697,27.252954118864157],[87.74021306277433,27.25286972363633],[87.73928002931507,27.25270762956975],[87.7388606841836,27.252504452088477],[87.738506798946,27.252262511625826],[87.73801123187063,27.251809199957673],[87.73772755719615,27.25139989763398],[87.73754842089349,27.25105098559504],[87.73741592558474,27.250586727266406],[87.73745024294222,27.250243438255136],[87.73759991045323,27.24967614531369],[87.73758277735614,27.249561111875593],[87.73750611866282,27.249329045154134],[87.7371479096872,27.24862890829255],[87.73699240658374,27.24822348015836],[87.7369114367723,27.24810650958062],[87.73658329692613,27.247180556346606],[87.73625885544021,27.246710549221962],[87.73609479141366,27.24653531315948],[87.73558754002198,27.24640484646249],[87.73510279627955,27.246235866904023],[87.73485182577062,27.246094955499895],[87.73454183089851,27.24581894235827],[87.73423677309627,27.245407514734495],[87.73379978185265,27.24453401607715],[87.73343201232663,27.244102583535017],[87.73316222098252,27.243885086412728],[87.73291937424959,27.243534238361253],[87.73279976321815,27.24330010929933],[87.73274286330258,27.243108554169357],[87.73242074662201,27.24317345312247],[87.7324308813711,27.243462288018247],[87.73251823692841,27.243981000753102],[87.73277396877144,27.244561979201787],[87.7328678229778,27.244909141927423],[87.7328377544393,27.245137271659836],[87.73253259573724,27.245872429426377],[87.7324773945976,27.246215781069868],[87.73248959220182,27.24644372246117],[87.73248103129303,27.246673977678533],[87.73258770780335,27.24724901914785],[87.73259846726587,27.247537854324218],[87.73276679265159,27.248173474928826],[87.73294374151925,27.24857884013864],[87.73304403234313,27.24875439046045],[87.73331051070973,27.249048659863195],[87.73361500693805,27.249460149908302],[87.7336729694134,27.24963363737157],[87.73403055226373,27.250331523321393],[87.73420106540884,27.25091068936702],[87.73423539504205,27.251140693613703],[87.73410717309638,27.251710175148567],[87.7340835526195,27.25234004772753],[87.73399828344168,27.252911591719553],[87.73413016634487,27.25394695539208],[87.73420463811152,27.254235475905336],[87.73418964040798,27.254637219078514],[87.73423622977269,27.25509754027219],[87.7344024313082,27.255789615120428],[87.73441531608802,27.256019745004618],[87.73435361639866,27.25653245867321],[87.7342362667922,27.25681741914805],[87.73387520743786,27.257322761108647],[87.73360224225569,27.25777108443828],[87.73342480397729,27.257866803143802],[87.73281436530294,27.25952454935695],[87.73083741444397,27.263586523297995],[87.73056132936472,27.264337310072303],[87.73056285160891,27.265334977125594],[87.73073206080029,27.266392721685712],[87.73120481873977,27.267424015633217],[87.73248374444506,27.26830212651348],[87.73457815343153,27.26901561157418],[87.73550743317608,27.269071674966224],[87.73613216968653,27.269382130424873],[87.73739263544049,27.26957178868379],[87.73978434086452,27.270258886575107],[87.74133167298189,27.270941310625506],[87.74286582390103,27.27210687562184],[87.74263592704075,27.272103566290696],[87.74117126955211,27.272361916709123],[87.74009388711042,27.272929664061614],[87.73926571308685,27.27318012660082],[87.73728355286985,27.273405038760668],[87.73592956255004,27.27369652248843],[87.73464752941626,27.27369654457249],[87.73396414053163,27.273104320034612],[87.73385173079743,27.27339153070656],[87.73359873410757,27.274963870866003],[87.73320292399077,27.27604038061699],[87.7330492779535,27.27765054289178],[87.73322110656518,27.278419389688658],[87.73381904833232,27.280030039077218],[87.7340332096787,27.28099044197204],[87.73370088291338,27.28307555823537],[87.73472131676239,27.285823907974944],[87.73474320663536,27.286169134350498],[87.73460378701354,27.286479102024582],[87.73601581040458,27.28672446252583],[87.73710746858343,27.2870504766333],[87.73847073225527,27.28766394538949],[87.7397482732379,27.288101864714825],[87.73974827068709,27.28800702439832],[87.740323044343,27.28800626438121],[87.74223479842352,27.287513024164056],[87.7427691755162,27.28723705966371],[87.74306677933808,27.28696916332791],[87.74324553269199,27.28696822200489],[87.74479983446325,27.28610444270699],[87.74602339918455,27.285659978510154],[87.74692404207299,27.285659713680385],[87.74740078282743,27.28582419095934],[87.74880430835698,27.286306432986564],[87.74970133165854,27.286608568225198],[87.7505518384595,27.286951591752135],[87.75235713260355,27.287246584536547],[87.75346916749046,27.287306020595828],[87.75398661442411,27.287610163479304],[87.75507159398752,27.28852297500231],[87.75581768951116,27.28891845290022],[87.7570230683945,27.288859976885956],[87.75870916809386,27.287979565087397],[87.7596899650115,27.28797192147512],[87.76045956551584,27.288195661318905],[87.76152508071608,27.288189890466246]]]}},{"type":"Feature","properties":{"province":"Koshi Province","district":"Pachthar","municipality":"Hilihang Rural Municipality","ward":"2","wardNumber":2,"sourceMunicipality":"Hilihang","sourceType":"Gaunpalika"},"geometry":{"type":"Polygon","coordinates":[[[87.7212610473362,27.293875559186247],[87.72339833125024,27.29383963709101],[87.72457389473787,27.294142706338306],[87.72589418816693,27.293971070335136],[87.72698637849865,27.292915805117378],[87.72751930126225,27.29183185414626],[87.72805492492502,27.291348265710873],[87.72893367525025,27.29088548997008],[87.73212777792841,27.287611664086885],[87.73263745059964,27.28693858320132],[87.73353064366815,27.286477994991394],[87.73458671797651,27.286476914600087],[87.73460378701354,27.286479102024582],[87.73474320663536,27.286169134350498],[87.73472131676239,27.285823907974944],[87.73370088291338,27.28307555823537],[87.7340332096787,27.28099044197204],[87.73381904833232,27.280030039077218],[87.73322110656518,27.278419389688658],[87.7330492779535,27.27765054289178],[87.73320292399077,27.27604038061699],[87.73359873410757,27.274963870866003],[87.73385173079743,27.27339153070656],[87.73396414053163,27.273104320034612],[87.73464752941626,27.27369654457249],[87.73592956255004,27.27369652248843],[87.73728355286985,27.273405038760668],[87.73926571308685,27.27318012660082],[87.74009388711042,27.272929664061614],[87.74117126955211,27.272361916709123],[87.74263592704075,27.272103566290696],[87.74286582390103,27.27210687562184],[87.74133167298189,27.270941310625506],[87.73978434086452,27.270258886575107],[87.73739263544049,27.26957178868379],[87.73613216968653,27.269382130424873],[87.73550743317608,27.269071674966224],[87.73457815343153,27.26901561157418],[87.73248374444506,27.26830212651348],[87.73120481873977,27.267424015633217],[87.73073206080029,27.266392721685712],[87.73056285160891,27.265334977125594],[87.73056132936472,27.264337310072303],[87.73083741444397,27.263586523297995],[87.73281436530294,27.25952454935695],[87.73342480397729,27.257866803143802],[87.73360224225569,27.25777108443828],[87.73387520743786,27.257322761108647],[87.7342362667922,27.25681741914805],[87.73435361639866,27.25653245867321],[87.73441531608802,27.256019745004618],[87.7344024313082,27.255789615120428],[87.73423622977269,27.25509754027219],[87.73418964040798,27.254637219078514],[87.73420463811152,27.254235475905336],[87.73413016634487,27.25394695539208],[87.73399828344168,27.252911591719553],[87.7340835526195,27.25234004772753],[87.73410717309638,27.251710175148567],[87.73423539504205,27.251140693613703],[87.73420106540884,27.25091068936702],[87.73403055226373,27.250331523321393],[87.7336729694134,27.24963363737157],[87.73361500693805,27.249460149908302],[87.73331051070973,27.249048659863195],[87.73304403234313,27.24875439046045],[87.73294374151925,27.24857884013864],[87.73276679265159,27.248173474928826],[87.73259846726587,27.247537854324218],[87.73258770780335,27.24724901914785],[87.73248103129303,27.246673977678533],[87.73248959220182,27.24644372246117],[87.7324773945976,27.246215781069868],[87.73253259573724,27.245872429426377],[87.7328377544393,27.245137271659836],[87.7328678229778,27.244909141927423],[87.73277396877144,27.244561979201787],[87.73251823692841,27.243981000753102],[87.7324308813711,27.243462288018247],[87.73242074662201,27.24317345312247],[87.73216383991128,27.243186086302856],[87.73126413682726,27.24327431526708],[87.73074719990207,27.243392108262675],[87.73004256662945,27.243389056963206],[87.72972138691809,27.243417821630423],[87.72946398064421,27.243448522489896],[87.7292687232148,27.243519483380734],[87.72909178631937,27.243685223117332],[87.72864238385321,27.244283468474748],[87.72807494498171,27.245182491636818],[87.72766518446902,27.24585950912446],[87.72747962490766,27.246255503666788],[87.72732082162928,27.246497826916546],[87.72723079166481,27.246629242179587],[87.72697652136378,27.24713845824868],[87.7266375957902,27.247643549623707],[87.72615262551913,27.24860308840893],[87.72588178477594,27.24899727127235],[87.72579219205676,27.24910830539702],[87.72532940568586,27.249496739378642],[87.72491219585542,27.249808087436325],[87.72435011862304,27.249982586073763],[87.72350381622137,27.250339079868496],[87.7224017945667,27.250687888639547],[87.7222709353853,27.250760786664458],[87.72156042854138,27.250929285384217],[87.72001542811768,27.251131371257603],[87.71905538761337,27.251102442092662],[87.71860341109256,27.251204104305565],[87.71795936521981,27.251297705089033],[87.71744067730194,27.251453884856033],[87.71691624237246,27.251781614111618],[87.71669247788473,27.252042319747066],[87.71653961172765,27.252133411159356],[87.71629558950966,27.252376174538306],[87.7155591503406,27.25323087483507],[87.71533276144659,27.253568352795266],[87.71508917730861,27.253790859221958],[87.71493749811097,27.253863883395596],[87.71458500017509,27.25413878188086],[87.71423750030868,27.254300835324432],[87.71377777546934,27.254592053498175],[87.71312885496563,27.254821131505754],[87.71235444852577,27.254969501247075],[87.7117719887913,27.255123805702556],[87.71131776311573,27.255281797877345],[87.71092624859897,27.255480174942626],[87.71040112483585,27.255807905134656],[87.71007013436342,27.256084929442395],[87.70960403659313,27.25656807887216],[87.7089763229926,27.257350005673732],[87.70883946434884,27.257576449012394],[87.70874987197784,27.257687483751983],[87.70865115571158,27.258049153328912],[87.70833504311658,27.258192950997387],[87.7058615143842,27.261354231609555],[87.70195512344625,27.263335440740946],[87.70041851927604,27.264406280133194],[87.69777007088105,27.26551208676298],[87.69100845098642,27.267814188364138],[87.68896372659523,27.269045458051696],[87.68771603454893,27.269796511725424],[87.68640027243708,27.27138074861556],[87.68455550968662,27.273215941915645],[87.68273501023224,27.275305897471455],[87.68211849499848,27.276417233303295],[87.68155446503842,27.278889279882062],[87.6817737033271,27.280438918015832],[87.6827952482964,27.28254889320201],[87.68317717293195,27.284165360850583],[87.68327912528555,27.286058725867882],[87.68367624176855,27.28766606531825],[87.6845203206049,27.288533180341137],[87.68727635864492,27.289797129070795],[87.68902653141305,27.291215014315803],[87.68925618416267,27.29443032746907],[87.68997166181893,27.29571788036545],[87.6905647693272,27.296430516909837],[87.691457418533,27.29685718867515],[87.69254876067686,27.297021031105903],[87.69561419797944,27.297019291397255],[87.69617028473941,27.297352817173362],[87.69693540447261,27.29859272950207],[87.69746842224237,27.29907079841307],[87.69795829292767,27.299219583815702],[87.69964547284219,27.29911408658221],[87.70065840222993,27.2988696853411],[87.70168133073967,27.29840859518796],[87.70323646189051,27.298294660163375],[87.70434204061058,27.297627758711837],[87.70475042857784,27.297075027277984],[87.7055532731483,27.296481777800718],[87.70652963503393,27.296646059213728],[87.70841632359216,27.296433339319304],[87.709299822547,27.295801327483133],[87.71011441643792,27.294977884080208],[87.71024233046502,27.29462959282858],[87.71027509290202,27.29461815107246],[87.71105581037757,27.29432292671857],[87.71257555574994,27.294322087644055],[87.7132858192286,27.294465117474324],[87.71419791521895,27.29495699595724],[87.71504160088215,27.29502037599556],[87.71545012303827,27.29489645758465],[87.71636900964442,27.29428451227937],[87.71723006386523,27.293709016530713],[87.71757699995092,27.29353796069667],[87.71827300327965,27.293432793122555],[87.72052539678594,27.293617495860225],[87.7212610473362,27.293875559186247]]]}},{"type":"Feature","properties":{"province":"Koshi Province","district":"Pachthar","municipality":"Hilihang Rural Municipality","ward":"7","wardNumber":7,"sourceMunicipality":"Hilihang","sourceType":"Gaunpalika"},"geometry":{"type":"Polygon","coordinates":[[[87.78551552661263,27.199508750611898],[87.78559173357758,27.199124636151925],[87.78560598263677,27.19881754654516],[87.78548554956984,27.198208807349882],[87.7853484289897,27.19782813552812],[87.78529896656804,27.197523672265103],[87.78525843338196,27.19668198957232],[87.78495798950598,27.19569276708851],[87.78492809511602,27.19531146803006],[87.78504181118797,27.19469691130451],[87.78492500886567,27.194241592977843],[87.78486947713175,27.193706936728262],[87.7849444945219,27.19324605084768],[87.78500520099534,27.19309225458318],[87.78502132623956,27.19286193691846],[87.78529521674875,27.191785991558845],[87.7853553603728,27.191632132894508],[87.78578775338003,27.190934483935113],[87.78611849036214,27.19048797262726],[87.78624115477953,27.19025483914873],[87.78709288271922,27.189245591411435],[87.78754697200847,27.188565885107526],[87.78792059923043,27.1881393784895],[87.78835480732805,27.187518501680124],[87.7888546669805,27.18699202630914],[87.78958729705154,27.18636489202355],[87.7900703419097,27.186050667133454],[87.7909983592995,27.185573698946442],[87.79160876203343,27.185159442041442],[87.7917967634854,27.184966507086106],[87.79196501065023,27.18484815677493],[87.7921341960966,27.18476819302602],[87.79349362451919,27.18443769793652],[87.79417136728753,27.18417654726056],[87.79493025981571,27.183702770270827],[87.79570728222447,27.18311595976591],[87.79531325355228,27.182720975979873],[87.79498356169026,27.182325553081895],[87.79484631558066,27.181926813403088],[87.79471282436481,27.181699624583487],[87.79442708729138,27.18136040505084],[87.79424976589699,27.181095080065074],[87.79394427339466,27.180814690687548],[87.79368436178494,27.180646833465115],[87.7930808238973,27.180429093168016],[87.79254362447794,27.180303440926306],[87.79234754891044,27.18015333737421],[87.79212789954484,27.17987244637918],[87.7919246277948,27.179415378485828],[87.79171659988367,27.178730369027647],[87.7915589714105,27.178390460236912],[87.79120407991945,27.177823674971656],[87.79111347833371,27.177593921447954],[87.79112847771347,27.177307212273178],[87.79122431564339,27.17684620047499],[87.79123493447115,27.176387941254184],[87.79109775080684,27.175989201652595],[87.79098670616986,27.17581827858156],[87.79072053678597,27.175384156615927],[87.79037096392331,27.175027245558404],[87.78958847616599,27.17438838435748],[87.7888975903966,27.174037855667994],[87.78795167516188,27.173749787800514],[87.78743729595577,27.173644328851726],[87.78649569934042,27.173525497189786],[87.78606666517982,27.173437603960757],[87.78546443920041,27.173219800909077],[87.78417151591343,27.172667286332647],[87.78299950598186,27.171809367287054],[87.78271783572512,27.17160331226252],[87.78226810657969,27.171535862224953],[87.78201307680243,27.171595946902855],[87.78184270245178,27.171599138924005],[87.78133314363171,27.1717238710682],[87.7806504558852,27.17171644379924],[87.78047851700111,27.17168124858281],[87.7792836420012,27.17170371373802],[87.7789432680116,27.171748544764757],[87.7781808695251,27.171992067039895],[87.77767400127941,27.172229582417327],[87.77738027335849,27.17246596971674],[87.77710542590295,27.172584884250128],[87.77665663506511,27.17255575834402],[87.77631081696617,27.17237033466541],[87.7760921699828,27.17214358504049],[87.77573602444129,27.171461641480423],[87.77551575053162,27.171178499206803],[87.77514735927991,27.170916366834778],[87.77488938885305,27.17084334921885],[87.77471926392117,27.170866859723468],[87.77396055793729,27.1712818690489],[87.77377249221635,27.17145892393897],[87.77344038049914,27.17188517946038],[87.77289594029895,27.172355452072335],[87.77230304076691,27.17257540133277],[87.77204682132597,27.17256102677629],[87.77180935635796,27.172431430413226],[87.77120012294189,27.171924667588286],[87.77081016131201,27.17164465487565],[87.77029522053813,27.171539195386284],[87.76969775138494,27.17154920782795],[87.76935731526379,27.17159397678322],[87.76918894355134,27.17169419687822],[87.76904032740025,27.171733398561777],[87.76887452117602,27.17194877684134],[87.7687931194658,27.17212076652984],[87.76865263968423,27.172525574542046],[87.76834766821015,27.173220158160536],[87.76818104783747,27.173397088140394],[87.76803324593581,27.17347473846254],[87.76675496700834,27.173574289915088],[87.76585838877772,27.1735724293964],[87.76521596273102,27.17346759692771],[87.76407722656376,27.173123953819513],[87.76351820451887,27.17294422277763],[87.7629993206491,27.172626513682424],[87.76264805768186,27.17219276769222],[87.7615835872204,27.171349914607728],[87.7611714298159,27.171051959399218],[87.76078246934891,27.17082840037641],[87.76039538732368,27.17068373943805],[87.75987669117501,27.17040441708483],[87.75936062333645,27.170222059700787],[87.75859108999903,27.17016086754501],[87.75827134782277,27.170185129988987],[87.75801700697794,27.170265533206674],[87.75789077504811,27.170345246173056],[87.7577457881364,27.170558185403028],[87.75748702444982,27.17138568289215],[87.75742900854009,27.17167495628667],[87.75736736389909,27.171790365672233],[87.7571604822711,27.172080454463067],[87.75697235438736,27.172255258530903],[87.75613212162068,27.172846696322026],[87.75549532936706,27.17301038035689],[87.75517571271847,27.17305502405323],[87.75421335828638,27.17293831895572],[87.75395457300144,27.17282685253868],[87.75369472464264,27.172658932811345],[87.75345169001415,27.17228107693313],[87.75292410673684,27.171599949025516],[87.75200643703319,27.170620802788342],[87.75169812745132,27.1701868059091],[87.75153855950968,27.169729486732667],[87.7510294796997,27.16889706401284],[87.75086991186274,27.168439683258047],[87.75062343439924,27.167908343855554],[87.75046036190555,27.1672997314703],[87.75012341010611,27.16653863892352],[87.74966535645332,27.16606932225333],[87.7490650093897,27.165928103617595],[87.74905931779209,27.165831075146173],[87.74854962936429,27.165754810906204],[87.74790533203813,27.165830469835385],[87.74751775369158,27.165893494860125],[87.7467399103295,27.166096316906355],[87.74629299566234,27.16606031400199],[87.74616651188337,27.166018116246224],[87.74591854162809,27.16582081282046],[87.7458172510473,27.165683649909138],[87.74562085799676,27.165276159107876],[87.74549931069576,27.16511880204784],[87.74520050221012,27.16459221565485],[87.74501736806731,27.16437646782334],[87.74435805110751,27.163799873258654],[87.74371574305006,27.16332030545146],[87.74340712441933,27.163023973992438],[87.74310625370349,27.16255609204106],[87.7429440023091,27.16235828742518],[87.742698157225,27.16210227883423],[87.74240835903812,27.16188265739433],[87.74219559235645,27.161856653412606],[87.74180207784006,27.162073286061958],[87.74134910165924,27.16217038422942],[87.74109244581373,27.162183080041576],[87.74071186601266,27.16207449254483],[87.74040012249652,27.161872938546317],[87.74002291790123,27.161687640940553],[87.73914046247452,27.161333427247353],[87.73876438262823,27.161129998751385],[87.73838499090661,27.161003343212563],[87.738128771482,27.160993407506442],[87.73773850685413,27.161133142082498],[87.73709752231427,27.161129776905838],[87.7362651536667,27.16110253310898],[87.73594522379648,27.161090660713054],[87.73530917642307,27.160974387186783],[87.7343076838647,27.160941269098593],[87.73330174340127,27.160506409019273],[87.7328014283912,27.1602223974121],[87.73229792734377,27.16001509518975],[87.73210773219937,27.15997096004925],[87.73179486342414,27.15978753674638],[87.73150181534074,27.15964456216566],[87.73114618185559,27.159479395485743],[87.73064211787809,27.159290160264746],[87.73045410893796,27.15918950930966],[87.7300725931565,27.159119370558454],[87.72955390715849,27.159291366629883],[87.72922747832914,27.15945329524052],[87.72903347065169,27.15950400101204],[87.72819916678688,27.159571534886087],[87.72775069000242,27.159576168366822],[87.72705318088283,27.159419509474166],[87.72680089875337,27.159335052113427],[87.7264243191535,27.15914962837358],[87.72617091280587,27.159083238393887],[87.72565978768091,27.159065616983792],[87.72489900549726,27.158888953462913],[87.72426851948283,27.15865752101292],[87.72351604824254,27.158288926427527],[87.72332635286608,27.15822447320681],[87.72319824275463,27.158220598706095],[87.72294002522742,27.158287435416675],[87.72235425291942,27.158536455601787],[87.72189434100851,27.15882561100523],[87.72145206163448,27.15921160638773],[87.72118290746769,27.159546959152234],[87.72109062800402,27.159716823412158],[87.72106781925915,27.160287928498295],[87.72099485932208,27.160514058692925],[87.7208359936543,27.160738313995097],[87.72065918231239,27.16090399049935],[87.72039546461747,27.161085860638565],[87.71998331750777,27.16126410792931],[87.71978930943176,27.16131481310689],[87.71921116201622,27.161371965252886],[87.71882152179231,27.16151163754589],[87.71816703965055,27.161871629043723],[87.71757201966612,27.162348716711584],[87.71683907885257,27.163068001940797],[87.71668090013642,27.16329225766238],[87.71651991030576,27.163572905560503],[87.71630315576685,27.164197092330404],[87.7161264188671,27.16487967022906],[87.71579074077056,27.165269602357945],[87.71565882002427,27.165360568981605],[87.71552971091391,27.165392830026427],[87.71544499208247,27.16537070032075],[87.71519270979425,27.165286242180056],[87.7150679746859,27.165205596135532],[87.71444936204291,27.164669324284247],[87.71388808613774,27.164306477204345],[87.7134569818686,27.163891112954765],[87.71327009828111,27.163770206166955],[87.7127660342618,27.16358090915988],[87.71238570558718,27.163492577136836],[87.71200250206684,27.16346063630782],[87.71178817453064,27.16349114867308],[87.7119943787898,27.16367063549642],[87.71221921583299,27.16390645090268],[87.71242210882538,27.16416277305693],[87.71276861882593,27.16457407458759],[87.71286815963389,27.16474962428761],[87.71313171193574,27.16561956282266],[87.71322200352454,27.166023116765935],[87.71322926343058,27.16636615451899],[87.71330304638393,27.166656988323872],[87.71346089453209,27.168552228176072],[87.7134451470631,27.16895184566643],[87.71336718836558,27.16929307171386],[87.71315462177574,27.16980197467409],[87.71309598366412,27.170201843159223],[87.71292574412456,27.17071280771163],[87.71290999741906,27.171112425215572],[87.71293863941284,27.171457650870213],[87.7130598237645,27.172149976776087],[87.71287877422155,27.172945399889894],[87.71283664523877,27.173460302312453],[87.71284715474812,27.173726566855752],[87.7128625380354,27.173861919496314],[87.71291268889534,27.17420701919782],[87.71300298050343,27.174610573446227],[87.71311540459985,27.17501631541389],[87.71317556533931,27.175647999418157],[87.71314557059168,27.176390780107813],[87.71297376909014,27.176958199041845],[87.71278628366377,27.17792523537809],[87.71270258735427,27.17895497649198],[87.71274842629582,27.179412922384895],[87.71286516294819,27.179703505460516],[87.71302917554374,27.18039789389087],[87.71324826354461,27.180805384160955],[87.71332417139877,27.181037513423547],[87.71335137805569,27.181441319005724],[87.71359698509212,27.18225267725618],[87.71360699516484,27.182539261454014],[87.71371941992123,27.182945002802622],[87.713803212385,27.183522420984513],[87.71392564681962,27.184214746090763],[87.71407383896242,27.1847941010212],[87.71426866961114,27.185260359937296],[87.7145916110115,27.18573042918893],[87.7150499214091,27.186547473347485],[87.71520742338608,27.186896510080665],[87.71537862217959,27.18741928606283],[87.71530941217709,27.187550575510578],[87.7152348909303,27.187835347736865],[87.71521914380413,27.188237215424877],[87.7152549737779,27.188410828194016],[87.7153523888681,27.188645082751194],[87.71551420349871,27.188879023448262],[87.71650821996896,27.190174010519705],[87.71667265910665,27.190331178773466],[87.71677388654012,27.19046828050971],[87.71769955697167,27.19133939445607],[87.71825720819336,27.191797018810394],[87.71856139017862,27.192188191547196],[87.71860103205381,27.192266963781393],[87.71878047895073,27.192597869889028],[87.71885432510213,27.19288639109307],[87.71891942263503,27.19340522937071],[87.71910787970839,27.19404303794847],[87.71924443751915,27.194374132518668],[87.71951586362628,27.195070206932225],[87.71973651474335,27.195423431138593],[87.71992189903729,27.19560079270682],[87.72030867551317,27.196072799505842],[87.72043241134492,27.196171513914834],[87.72096111941623,27.19683913790116],[87.72168595896704,27.19737715830779],[87.7218322642007,27.19745986730465],[87.72199932665978,27.197540262745978],[87.72224910913461,27.197701493195666],[87.72275167391199,27.197926863597516],[87.72339791847044,27.198311778251163],[87.72423535884273,27.198700252235213],[87.7247968851165,27.199062911979745],[87.72672223616473,27.20000321708488],[87.7274783320434,27.20029497714793],[87.72831583433748,27.200683326228706],[87.72908743924707,27.20112850611467],[87.72967740908163,27.201299233474252],[87.73027181609939,27.20137512088464],[87.73111794198074,27.201535465826872],[87.73170853759135,27.20170613052133],[87.73213131891004,27.201796462170535],[87.73247106938399,27.20182627814282],[87.73373854029464,27.202133408263126],[87.73424654116916,27.20222555204953],[87.734982816976,27.20247673833697],[87.73519508278777,27.202502679813904],[87.73561905178946,27.20257494373503],[87.736126053384,27.202705348390836],[87.7367204604055,27.20278354842598],[87.7376498689123,27.203024665273976],[87.73824046370068,27.203197643781028],[87.73851475304532,27.203263908129564],[87.73960922530131,27.20364406372397],[87.74019550884918,27.203929887484808],[87.74042384571956,27.204091180361317],[87.74054276938914,27.204323058636042],[87.74063481138725,27.2046882264219],[87.74067865069088,27.2052071283779],[87.74083559036109,27.20555616526916],[87.741018287615,27.20578991758172],[87.7412262414269,27.205931018169352],[87.74158318826734,27.20607586702061],[87.74192025127782,27.206182392411563],[87.74328762646361,27.206132229413704],[87.74456503455217,27.20621348157441],[87.74549606743878,27.20641614982738],[87.74591509983163,27.206603510241123],[87.74633269575124,27.206845073393904],[87.7466804567719,27.207220177782172],[87.7468737878252,27.207722446313802],[87.74705648489838,27.207958512452233],[87.74729645663064,27.208365752498697],[87.74747284235094,27.20877343126525],[87.74767423582189,27.20906570134195],[87.74816881347712,27.2100562330701],[87.74850632567455,27.210697727542364],[87.74891261127655,27.211228251103975],[87.7491443246879,27.21142780512963],[87.74938535659881,27.211695192503214],[87.74979914035752,27.212031533298113],[87.75003935851298,27.212276288389106],[87.75030552847045,27.212712724016605],[87.75067904995024,27.213164413124996],[87.7509607224148,27.21346762167363],[87.75119611839784,27.21336702622209],[87.7517023607411,27.21308893536596],[87.75241047918558,27.21232895076435],[87.75278948843119,27.212092187110215],[87.75373056506068,27.211251925284934],[87.754661648966,27.210892554378187],[87.75500127125306,27.210809461442448],[87.75559730146385,27.210740743457446],[87.75585183094188,27.210678471171388],[87.75627391829686,27.21045946238812],[87.75678128742734,27.210258082131382],[87.75729116000721,27.21015372992535],[87.75788819038989,27.21014146651185],[87.75874494551296,27.210276741375914],[87.75942869629134,27.21030242404775],[87.7599430747745,27.21038762779869],[87.76019766677929,27.210325292920267],[87.76091373254997,27.209910596188408],[87.76108222968256,27.209812627172546],[87.76179648109304,27.20932109621048],[87.76247497586328,27.209134655176967],[87.76290138120106,27.209107452217587],[87.7637520029915,27.208976399220706],[87.76549795159639,27.20880888245828],[87.76652395457316,27.208866443846798],[87.7671064030263,27.208204052463223],[87.76764327059998,27.207429253830067],[87.76772742543801,27.20737010970176],[87.76808060855795,27.206961859267206],[87.7689800463745,27.20613979088503],[87.76902049686989,27.206062829666877],[87.76941732150135,27.205672396370513],[87.76968985425631,27.205476771779203],[87.77084025336967,27.20444119851642],[87.77159827205742,27.203985551749657],[87.77220504607314,27.20347657947083],[87.77228650923729,27.203302339833115],[87.77245231550252,27.20308927436831],[87.77259467369112,27.202781494445237],[87.77259110679186,27.202628012316723],[87.77265187566181,27.202474216400727],[87.77268043491125,27.201860097848865],[87.7726078382282,27.201479050298747],[87.77247071698704,27.201100629049083],[87.77241587238129,27.200565973314085],[87.77234678041744,27.200338345302896],[87.77234139762248,27.200108153542626],[87.77210729285245,27.19919532725289],[87.77199524696444,27.198967887622253],[87.77181229297774,27.198433984314416],[87.77163478348932,27.198132524415957],[87.77121893383402,27.197681148967618],[87.77088723962697,27.197170567993687],[87.7712025379976,27.196954436593142],[87.77185489301965,27.19656031002174],[87.77329753923883,27.19618667541508],[87.77355388296453,27.196201050118976],[87.77415892467968,27.196554331147528],[87.77441708380316,27.196643227778278],[87.77536080972882,27.196854648685804],[87.77579184644205,27.197037319060794],[87.77630716368672,27.197181227797167],[87.77878232068704,27.197171932346254],[87.77912544748204,27.197242258989625],[87.77929826313112,27.197313526815226],[87.77964608393442,27.197593728162875],[87.77990343000204,27.197666745182918],[87.78033177531266,27.19773425776119],[87.78144111909916,27.197712357429197],[87.78238378019184,27.197867323714075],[87.78264206482832,27.197976476193567],[87.78298719496154,27.19814158070893],[87.7834209230778,27.198439348019548],[87.7837660537099,27.198604453095108],[87.78415682787784,27.19890472221098],[87.78448132549114,27.199087957815447],[87.78491148707002,27.199232241979836],[87.78551552661263,27.199508750611898]]]}},{"type":"Feature","properties":{"province":"Koshi Province","district":"Pachthar","municipality":"Hilihang Rural Municipality","ward":"3","wardNumber":3,"sourceMunicipality":"Hilihang","sourceType":"Gaunpalika"},"geometry":{"type":"Polygon","coordinates":[[[87.8185143471126,27.252743582077937],[87.81917565167214,27.252692304865324],[87.81985921365086,27.25265897105235],[87.82071139959675,27.25254561069232],[87.82156633734067,27.25254734583352],[87.82309951954547,27.252305810913665],[87.82566245880949,27.252234307784764],[87.82660618215368,27.252368580145845],[87.82771540003031,27.252271719745973],[87.82786326468437,27.25219188188499],[87.82809409510392,27.251996382627983],[87.82894083557767,27.25163694969498],[87.82932153454388,27.251476709221876],[87.82961451140258,27.251224442151482],[87.82988860827382,27.251064765887193],[87.83020202866608,27.250753731641844],[87.83043386062204,27.250596556618643],[87.83066681885272,27.250516216481177],[87.8307203913541,27.250075712013935],[87.8307973496772,27.249729921545075],[87.83112032490136,27.24892224173142],[87.83149101149044,27.248342190451606],[87.83180349283536,27.247992707848873],[87.8323463058712,27.247465856194506],[87.8325933245301,27.247060295518274],[87.83279463705924,27.246539952011613],[87.83283033099302,27.246253117930593],[87.83284464263727,27.24596634553046],[87.83280890955939,27.244474534348093],[87.83271198897701,27.244019277783547],[87.83274392842819,27.243558642049937],[87.8329292399245,27.24326861698879],[87.83378178053559,27.242277123808282],[87.83478318873085,27.2412825020707],[87.83501038943307,27.24093358336599],[87.83531667586436,27.24035390898682],[87.83541676940922,27.24006438499211],[87.83555568607412,27.239641445437048],[87.83519455485757,27.239724914161748],[87.83487650305638,27.239828387827508],[87.83404313546099,27.239826588967826],[87.83359609826623,27.239910496845404],[87.83321170682389,27.239919568508867],[87.83231744417148,27.240051310081373],[87.83154797515989,27.240064952828966],[87.83032677527886,27.239954816609167],[87.82916840972898,27.239803729875177],[87.82839418336903,27.239607436110735],[87.82774731687881,27.239390071444138],[87.82749109774556,27.239396077589564],[87.82697778392637,27.23938558356631],[87.8267232552727,27.239466173892936],[87.82633911490942,27.239513507177943],[87.82563942641539,27.239754652540928],[87.8251915133952,27.23980017375076],[87.82455177934874,27.239851387408823],[87.82371791187626,27.239867657091526],[87.82346069170278,27.239833089019704],[87.82287934998837,27.239671676337775],[87.82235946509923,27.239374536503593],[87.82177624640045,27.239138727464088],[87.82138634861869,27.23891529341274],[87.8211892723088,27.238729117800546],[87.82093111284199,27.238656163727807],[87.8207386051449,27.23865954268085],[87.82029238159775,27.238763705689173],[87.81965283620177,27.238853243144625],[87.81933215573783,27.23885737538254],[87.81849540950154,27.238740417814164],[87.8181110185379,27.238747176934847],[87.81778927443084,27.23869491741863],[87.81682892413552,27.238770518732988],[87.81612216309561,27.238724954790776],[87.81528166117045,27.238436447511774],[87.81463754779021,27.23833186551591],[87.81297106216992,27.23836415434294],[87.81144000793041,27.23870040445012],[87.81124724971316,27.23866539718278],[87.81085666380797,27.238426146706402],[87.81040336906463,27.23826173141529],[87.81007874509145,27.238076307821387],[87.80961994286463,27.23766588300542],[87.80859842781702,27.236958569253666],[87.80833695357019,27.23677270619981],[87.80807597790964,27.236566588455215],[87.8074945737089,27.236387108619496],[87.8068539638865,27.236420191999404],[87.8062079102871,27.2362207695338],[87.80536565619661,27.23585542689151],[87.80459149269859,27.235661320991063],[87.80375831291958,27.235677403238274],[87.80247158662728,27.235492933978794],[87.80221536765005,27.23549893987009],[87.80196165192137,27.235599661723402],[87.80183347985786,27.23560047607549],[87.80151104806042,27.235532274160562],[87.80079521321662,27.235105286825842],[87.8005343009286,27.23489916896416],[87.79962414365643,27.23440103865595],[87.7991661545084,27.234008618736],[87.7985863773543,27.23388553011426],[87.79826137953262,27.23372036243933],[87.79741543245628,27.233201538248256],[87.79698345741207,27.23299861071165],[87.79616271090333,27.232633143336937],[87.79545144473015,27.2323979618539],[87.79441912287677,27.232112645827286],[87.79358231292592,27.23197755869101],[87.79229671341018,27.231849355877156],[87.79081203537905,27.231419880713165],[87.78971675278486,27.23115294682553],[87.7892030622689,27.231088249359587],[87.78830128972841,27.230874327287278],[87.78733868478602,27.23079850918523],[87.78637307633007,27.230566958173203],[87.78579667680827,27.230558902970763],[87.78539259277711,27.23064468491792],[87.78469140139495,27.230754729562346],[87.78462687702677,27.23073478731196],[87.78443167760437,27.230625258867725],[87.78371196314538,27.229988272238252],[87.7832601688328,27.22984411275042],[87.78287721652683,27.229871064492727],[87.78230438476479,27.23001424131046],[87.78185622037347,27.23002350184833],[87.78121254417825,27.2298826595649],[87.7806255064991,27.229434537641282],[87.78011294349653,27.22944417495738],[87.77902028912034,27.22927420666527],[87.77869566611851,27.22907059005911],[87.77834440380234,27.228675292470466],[87.77804160158189,27.228507686031488],[87.77758442526266,27.228135584892673],[87.77732545307401,27.228024182417354],[87.77700633727682,27.22806882587471],[87.77656330414567,27.22826989225926],[87.77560789575134,27.228498662990038],[87.77503400028935,27.228585385607],[87.77464960943584,27.228594270279473],[87.77448893434912,27.228999203939132],[87.77450151271968,27.2295341105743],[87.774576612454,27.229991868524436],[87.7750623048447,27.230652803221655],[87.7753696753094,27.231009965254707],[87.77583936772837,27.231921536561842],[87.77606596228858,27.23245293849607],[87.77635545465141,27.232963645976827],[87.7764711297757,27.233344505446734],[87.77669766151097,27.23387596976793],[87.77680691123042,27.2348707586675],[87.77695116573744,27.235556144323578],[87.77713662199154,27.236164506791166],[87.77729525128144,27.23654511596822],[87.77769322254993,27.237129717852337],[87.77792876563733,27.238044794019952],[87.77804262674844,27.23834888094268],[87.77816343348724,27.238921547461175],[87.7776445499766,27.23866260477635],[87.77730129763727,27.238592277693442],[87.77695979754705,27.238600974358274],[87.77653564484659,27.238704886966826],[87.77628186622674,27.23880560832806],[87.77560768890356,27.23918179208553],[87.77501685396295,27.239460446922806],[87.77413379196888,27.240034129809757],[87.7739919969183,27.240341910162318],[87.77408259726177,27.240569474941196],[87.7740672849626,27.24082004870919],[87.77390129035489,27.241015046849],[87.77333534216855,27.241426739036328],[87.77296115088032,27.24181704790985],[87.7724235303176,27.242499444121474],[87.77221977680438,27.242886561081523],[87.77216138557021,27.243117067440497],[87.77216557777975,27.24327054928843],[87.772440445148,27.244031955126957],[87.77257744097687,27.244392308585496],[87.77267404861466,27.2448500038576],[87.77271407932038,27.2456149770143],[87.7726384353537,27.245999090660202],[87.77228850548468,27.246524687724573],[87.771715754106,27.247511987571556],[87.77152987835542,27.247745558720258],[87.77115474918062,27.24809741878488],[87.77078137094901,27.24852611261064],[87.77053453828174,27.248895349879756],[87.7703987505226,27.249433322884325],[87.77039401376818,27.250124024931285],[87.77046980068847,27.25058184538602],[87.76971036077438,27.251784586210288],[87.7696537217666,27.25209186448519],[87.7696651112581,27.25255224886285],[87.76963241940211,27.25293611192278],[87.76941498011685,27.25363025683044],[87.76937740877189,27.253860699656112],[87.76932414787521,27.254283074784507],[87.76908764110658,27.255054117091788],[87.7690947745864,27.255358768595833],[87.76916812283388,27.25574206679056],[87.76921059415079,27.256583750531995],[87.76935009211465,27.25703894350554],[87.76963614234731,27.25739848132754],[87.76983253102594,27.2575870337595],[87.77017165370023,27.257501627225288],[87.77042630849522,27.25743929250051],[87.77118539163367,27.257080736685836],[87.77177403754814,27.256743377389387],[87.77202781656331,27.256642656513915],[87.77254175641805,27.25672785988915],[87.77322876275171,27.25690696260128],[87.77390613163274,27.25669995344577],[87.77433203633885,27.256654807548003],[87.77492869245711,27.25664241847737],[87.77586935234947,27.256718487207724],[87.7760414789918,27.256773875237446],[87.7764531356271,27.257033444497765],[87.77713920289354,27.257174036620803],[87.77765057758762,27.257162211793347],[87.7785009496405,27.25705135193192],[87.77884251287425,27.257042655475978],[87.7799495419275,27.256964238742377],[87.78046260575492,27.257011056189306],[87.78114942361017,27.25716971516302],[87.78140770838964,27.257260800559028],[87.78175377657277,27.25744622370651],[87.78209571555476,27.25749623242313],[87.78329309465758,27.25760686900689],[87.7838938175718,27.25772764411266],[87.78449210148796,27.257773897379643],[87.78517460139636,27.25776106912602],[87.78602947853112,27.257839827644048],[87.7861990405595,27.25779818724615],[87.78653634790511,27.257638259876547],[87.78693473823138,27.257360608344793],[87.78732862247921,27.256893464994878],[87.78774420347754,27.25646451970571],[87.78835598394144,27.256183427198664],[87.7903081272933,27.25570512773775],[87.79081925138458,27.255657105182927],[87.79193040877284,27.25563501626047],[87.79303975119319,27.255536155639348],[87.79346384124511,27.25541179956292],[87.79405523932482,27.25511276452359],[87.79481319448287,27.25462091954218],[87.79504458819753,27.254481937192455],[87.79563523515792,27.25416258383569],[87.79589051558412,27.254100186194975],[87.79623113977016,27.25405535461452],[87.79734573798454,27.2541663050511],[87.79777589798086,27.254272203644124],[87.79820705991287,27.254436744087904],[87.79872769579123,27.25475207725887],[87.7991597954446,27.254952691389693],[87.79963735203913,27.255250207717015],[87.79989457213756,27.255282587667132],[87.80029965807081,27.255237379581605],[87.80081315919999,27.255263753950064],[87.8012422552327,27.255313198287016],[87.8019243160792,27.255241540519226],[87.80252028229604,27.25513431064822],[87.8034610649952,27.255135669545144],[87.8037838735948,27.25524438385293],[87.80455816196846,27.255438551621243],[87.80507078753644,27.255428852455484],[87.80600800257486,27.255274478752],[87.80634775028855,27.25519126087245],[87.80677058860458,27.254992383042154],[87.80830139310267,27.254674325676106],[87.80861844397164,27.25451446079768],[87.80929324540759,27.254135900685593],[87.80963280555736,27.254034614835454],[87.80988914921112,27.25402860853446],[87.81014380324389,27.25396614832257],[87.81056739270491,27.253785400373175],[87.81082204683614,27.25372300300943],[87.81099310951596,27.25371974914572],[87.8115074244267,27.25376637837334],[87.81185080220985,27.253836706147613],[87.81227745774619,27.253807064369134],[87.81253273815882,27.253744604469762],[87.81338035402663,27.253441750586965],[87.81389028882926,27.253316893191478],[87.8146358098547,27.253204158910474],[87.81523183920787,27.253117186211956],[87.8157435258773,27.25306678687637],[87.81616911801359,27.25298306813953],[87.81702224089442,27.252908093098913],[87.81795876936113,27.252755907536812],[87.8185143471126,27.252743582077937]]]}},{"type":"Feature","properties":{"province":"Koshi Province","district":"Pachthar","municipality":"Hilihang Rural Municipality","ward":"4","wardNumber":4,"sourceMunicipality":"Hilihang","sourceType":"Gaunpalika"},"geometry":{"type":"Polygon","coordinates":[[[87.76968186313997,27.258170207099443],[87.76943138715492,27.257747275031075],[87.76983253102594,27.2575870337595],[87.76963614234731,27.25739848132754],[87.76935009211465,27.25703894350554],[87.76921059415079,27.256583750531995],[87.76916812283388,27.25574206679056],[87.7690947745864,27.255358768595833],[87.76908764110658,27.255054117091788],[87.76932414787521,27.254283074784507],[87.76937740877189,27.253860699656112],[87.76941498011685,27.25363025683044],[87.76963241940211,27.25293611192278],[87.7696651112581,27.25255224886285],[87.7696537217666,27.25209186448519],[87.76971036077438,27.251784586210288],[87.77046980068847,27.25058184538602],[87.77039401376818,27.250124024931285],[87.7703987505226,27.249433322884325],[87.77053453828174,27.248895349879756],[87.77078137094901,27.24852611261064],[87.77115474918062,27.24809741878488],[87.77152987835542,27.247745558720258],[87.771715754106,27.247511987571556],[87.77228850548468,27.246524687724573],[87.7726384353537,27.245999090660202],[87.77271407932038,27.2456149770143],[87.77267404861466,27.2448500038576],[87.77257744097687,27.244392308585496],[87.772440445148,27.244031955126957],[87.77216557777975,27.24327054928843],[87.77216138557021,27.243117067440497],[87.77221977680438,27.242886561081523],[87.7724235303176,27.242499444121474],[87.77296115088032,27.24181704790985],[87.77333534216855,27.241426739036328],[87.77390129035489,27.241015046849],[87.7740672849626,27.24082004870919],[87.77408259726177,27.240569474941196],[87.7739919969183,27.240341910162318],[87.77413379196888,27.240034129809757],[87.77501685396295,27.239460446922806],[87.77560768890356,27.23918179208553],[87.77628186622674,27.23880560832806],[87.77653564484659,27.238704886966826],[87.77695979754705,27.238600974358274],[87.77730129763727,27.238592277693442],[87.7776445499766,27.23866260477635],[87.77816343348724,27.238921547461175],[87.77804262674844,27.23834888094268],[87.77792876563733,27.238044794019952],[87.77769322254993,27.237129717852337],[87.77729525128144,27.23654511596822],[87.77713662199154,27.236164506791166],[87.77695116573744,27.235556144323578],[87.77680691123042,27.2348707586675],[87.77669766151097,27.23387596976793],[87.7764711297757,27.233344505446734],[87.77635545465141,27.232963645976827],[87.77606596228858,27.23245293849607],[87.77583936772837,27.231921536561842],[87.7753696753094,27.231009965254707],[87.7750623048447,27.230652803221655],[87.774576612454,27.229991868524436],[87.77450151271968,27.2295341105743],[87.77448893434912,27.228999203939132],[87.77464960943584,27.228594270279473],[87.77417899797402,27.228545076799453],[87.77308534219983,27.22831859103735],[87.77225278693294,27.228334485585712],[87.77148100149253,27.228194270357477],[87.77090641719288,27.22826292504327],[87.77058448474905,27.228174404663456],[87.77028262121533,27.228065503396873],[87.76995987589548,27.227956664037706],[87.76951070965507,27.227907219699276],[87.76906260835521,27.227916480955027],[87.76861337984924,27.227867036257905],[87.76796651241598,27.227613285248193],[87.76738648382363,27.227451686203132],[87.76693569081732,27.227345787585595],[87.76672129895726,27.227290587986626],[87.76639692577619,27.22712529510304],[87.76606979956357,27.226824712610895],[87.76574542664241,27.22665941982497],[87.76438666585253,27.22605288982216],[87.76406404575117,27.22596437018486],[87.7631588308645,27.225599153728076],[87.7624489404354,27.22536378390569],[87.76122542291058,27.225061216529554],[87.76051922522457,27.224999648539306],[87.75974737554768,27.224841302739325],[87.7584011938061,27.224789935658958],[87.75718211886232,27.22467917393089],[87.75629048293652,27.224830733995397],[87.75545855324752,27.22482856051196],[87.75520202109075,27.22479599242499],[87.75494386127983,27.224704844834438],[87.75468313725328,27.224518920256617],[87.7542673500558,27.224085550156122],[87.75413392175788,27.223858298335657],[87.75385162569204,27.22365443131483],[87.7536794359804,27.22358085001124],[87.75329567056083,27.22358748355149],[87.75297655440919,27.223632064476284],[87.75259191292538,27.223602562789864],[87.75290441497346,27.22416966076063],[87.75304122223409,27.224512009168645],[87.75313601512936,27.22491318724467],[87.75310614033988,27.225430339281395],[87.75294702960873,27.22589391565051],[87.75259872744145,27.226475904550576],[87.75220809631834,27.227058081067508],[87.75114910786236,27.22822619164775],[87.75065281439159,27.22886995157861],[87.75015821093338,27.229567789618354],[87.74976326272014,27.22997847879248],[87.74912979710658,27.230780912497163],[87.74908015860613,27.231006854616165],[87.7488137551928,27.231285940521946],[87.74832958590079,27.231672249589355],[87.7478197218528,27.23217384259383],[87.74740151316294,27.232505634458377],[87.74700962386433,27.232722142137565],[87.74622253327266,27.23321392491928],[87.745505152377,27.233556287256683],[87.74511694945345,27.233657698768763],[87.74473205923191,27.233684588265795],[87.74447296540497,27.233753675103166],[87.74388644336412,27.234023139379342],[87.74277330008756,27.234676912758705],[87.74257929235017,27.234729869270044],[87.74218627840192,27.234964443922753],[87.74179595066305,27.235124497969437],[87.74140293635719,27.235361324196848],[87.74094602348697,27.235578207682302],[87.74072300969085,27.235838975256158],[87.74063610336849,27.235873299876758],[87.7403921446892,27.236116062459097],[87.74030373962185,27.236209090830606],[87.74010104623862,27.23648780135388],[87.73970859372126,27.23670655912485],[87.73957617286611,27.23681790676054],[87.73915458960843,27.237244476263257],[87.73881691314075,27.23771124380319],[87.73846085402316,27.238101364502914],[87.73735565756634,27.23910036346066],[87.73681566223847,27.23983002404097],[87.7363700717272,27.240331178648265],[87.7361395594261,27.240783814731568],[87.73575769241793,27.241860261401047],[87.73564234220406,27.242086580310886],[87.73542039078042,27.24230896151291],[87.73511422082076,27.242511463342247],[87.7346161042088,27.242705966553434],[87.73390390972918,27.24289478374807],[87.73325992511833,27.242990635242915],[87.73274286330258,27.243108554169357],[87.73279976321815,27.24330010929933],[87.73291937424959,27.243534238361253],[87.73316222098252,27.243885086412728],[87.73343201232663,27.244102583535017],[87.73379978185265,27.24453401607715],[87.73423677309627,27.245407514734495],[87.73454183089851,27.24581894235827],[87.73485182577062,27.246094955499895],[87.73510279627955,27.246235866904023],[87.73558754002198,27.24640484646249],[87.73609479141366,27.24653531315948],[87.73625885544021,27.246710549221962],[87.73658329692613,27.247180556346606],[87.7369114367723,27.24810650958062],[87.73699240658374,27.24822348015836],[87.7371479096872,27.24862890829255],[87.73750611866282,27.249329045154134],[87.73758277735614,27.249561111875593],[87.73759991045323,27.24967614531369],[87.73745024294222,27.250243438255136],[87.73741592558474,27.250586727266406],[87.73754842089349,27.25105098559504],[87.73772755719615,27.25139989763398],[87.73801123187063,27.251809199957673],[87.738506798946,27.252262511625826],[87.7388606841836,27.252504452088477],[87.73928002931507,27.25270762956975],[87.74021306277433,27.25286972363633],[87.7404662196697,27.252954118864157],[87.74105506649406,27.25320161869514],[87.74151305383593,27.25351964153942],[87.74184768042056,27.25370293956642],[87.7422708381424,27.253811276498055],[87.74252605686988,27.253837029068738],[87.74286280864911,27.253961622818828],[87.74337224722174,27.25403563522962],[87.74397346597291,27.25395803978896],[87.74440405856885,27.253856315415288],[87.7449408793372,27.253776720078477],[87.74527975452305,27.25384260896454],[87.7460488502037,27.25384753449701],[87.74613031934173,27.25394643705808],[87.74635553225964,27.254200257282626],[87.74659850426505,27.254553356653016],[87.74676419308726,27.254690143959717],[87.74725706002337,27.25464912403154],[87.7474271233305,27.254673065296846],[87.74785502980754,27.25464817529767],[87.74810768734507,27.254750639116804],[87.74917585276948,27.255853130957245],[87.7491594111926,27.25593903100165],[87.74940469313954,27.25616796968644],[87.74979384035571,27.256371272282962],[87.75024913903157,27.25666903930336],[87.75070105849721,27.256833642422198],[87.75102205145214,27.256865771278846],[87.75160157984747,27.257025119890116],[87.75218611535203,27.257378650789544],[87.75257501190772,27.257561635505358],[87.75309170556727,27.257761935767334],[87.75367192168991,27.257943916510897],[87.75393195830839,27.25810952292442],[87.75430065994253,27.25828813127822],[87.75441870751527,27.25847030793009],[87.75508189840329,27.25895875151412],[87.75680398074682,27.259536328948005],[87.76068592800921,27.260614390531106],[87.76177689416075,27.26077097970976],[87.76480975535375,27.260677650124624],[87.76514161957623,27.260355299835577],[87.76710619221392,27.25927007365995],[87.76881449317894,27.258657990083183],[87.76968186313997,27.258170207099443]]]}},{"type":"Feature","properties":{"province":"Koshi Province","district":"Pachthar","municipality":"Hilihang Rural Municipality","ward":"5","wardNumber":5,"sourceMunicipality":"Hilihang","sourceType":"Gaunpalika"},"geometry":{"type":"Polygon","coordinates":[[[87.83555568607412,27.239641445437048],[87.83584190380678,27.239082277196545],[87.83606948001577,27.23878968687416],[87.83659134782421,27.238262961654485],[87.83683943149761,27.237913792162004],[87.83734097958707,27.23744589652989],[87.8375262915234,27.237155870484738],[87.83756492735151,27.23700213757383],[87.83757704756927,27.236600206736888],[87.83756985107524,27.236313686136885],[87.8376204827567,27.235740079647325],[87.83760333618663,27.2350517535002],[87.83741637693511,27.234366680858777],[87.83707091578681,27.233341761710946],[87.83696855048362,27.232656187278174],[87.83695753649803,27.232198053606105],[87.83705593996645,27.23185213825912],[87.83717854245164,27.231621193325743],[87.83767727461957,27.231035825881015],[87.83788960107071,27.230975866981936],[87.83807660171185,27.230742294973826],[87.8381134228788,27.230511851555992],[87.83800200248191,27.230304855367425],[87.83776090867849,27.230060288608062],[87.83730479744129,27.22976502227872],[87.83693277801332,27.22940842461847],[87.83582304023354,27.228570885806413],[87.8353847448768,27.228122074992957],[87.83531202317208,27.22777941342904],[87.83538522633211,27.227262073072943],[87.83537145904253,27.226688842679778],[87.8352565342582,27.226346432504343],[87.83505476376914,27.22595044500188],[87.83487819386045,27.22572350629591],[87.83467742554868,27.22538390989808],[87.83455699422247,27.22481355762735],[87.83442337787724,27.224586368824568],[87.83424974919272,27.224494844848238],[87.83373724885358,27.22450473186423],[87.83337261421858,27.22445497401636],[87.8329351316692,27.224024230588803],[87.83273880654252,27.223858372281995],[87.83203473711167,27.223909962887557],[87.83169267357097,27.223914219453164],[87.83152054693883,27.223861082406614],[87.83093557637879,27.223546312674195],[87.83007638209095,27.223370838633418],[87.82960057736345,27.223132152400577],[87.82918573022857,27.222775742955353],[87.82868472548886,27.222383761751203],[87.82851191067104,27.22231255618743],[87.82834159864959,27.222333940300782],[87.82732805114706,27.222868052478134],[87.82673414982433,27.223052116382565],[87.82627111103658,27.223346023165576],[87.82559243069649,27.22358923166445],[87.82535484042951,27.22347789000777],[87.82474466839776,27.222991696089156],[87.82423546613971,27.22225655207918],[87.8238421268302,27.221900017495702],[87.82351619017999,27.22169652600376],[87.82308509122875,27.221532047909516],[87.82231218037965,27.221412463648708],[87.82153707784602,27.221159652747563],[87.82119057224442,27.220994735607768],[87.82079817092405,27.220676524677344],[87.82051393546057,27.220396072366647],[87.81989368830018,27.219490067430215],[87.8193802936784,27.218601504386907],[87.81913926241283,27.218356936261483],[87.81881319999331,27.218133126731104],[87.8185542277283,27.218024036776203],[87.81760900200354,27.217810616209132],[87.81726349745102,27.217683959375883],[87.8169175542579,27.21751897972894],[87.81657280045242,27.217410391269503],[87.81611769100073,27.21715119836621],[87.81594287253674,27.216982964548972],[87.81574022662988,27.216546277781116],[87.81536201161117,27.215923226970798],[87.81485585550413,27.21438228447036],[87.81456242022546,27.213700090062805],[87.81451302090497,27.213413756592015],[87.8143535789902,27.213015143007567],[87.81415456235713,27.212731876271363],[87.81384888131404,27.21244929872009],[87.81325377182569,27.211676270251136],[87.81270881115923,27.211207704850093],[87.81238262380113,27.210965827165083],[87.811581821942,27.210559721726263],[87.81080878497293,27.21040168925219],[87.81046828540862,27.210446521124737],[87.80956046410927,27.21094155688911],[87.80939109107553,27.211001264966704],[87.80837116049011,27.21126898539283],[87.80777394217056,27.211337954073418],[87.80725681085048,27.211135591430782],[87.80708487276165,27.211100396509014],[87.80631465225433,27.211077777644377],[87.80614271355917,27.211042645569712],[87.80573230897065,27.21085766091257],[87.80540455666434,27.210557079211362],[87.80514558452876,27.2104479889575],[87.80454448622847,27.21032508864193],[87.80411269889369,27.21014248032605],[87.80370135621071,27.20990104176739],[87.80335578918624,27.20977213427347],[87.80232471880143,27.20954333529702],[87.80111532601644,27.20901082543138],[87.8008126491636,27.208863537487137],[87.800139580107,27.20839791281035],[87.79910412934835,27.207995312828054],[87.797630444912,27.207123457971637],[87.79693511700965,27.20661957273282],[87.79641560723923,27.20634262549277],[87.7959848841248,27.20621640881913],[87.79529875627993,27.20611426576061],[87.79453035008547,27.20616604433779],[87.79384678732173,27.20615861598789],[87.79341681493443,27.206052717934654],[87.79281408931179,27.205873300668436],[87.79238687086301,27.205880247875818],[87.79136137046756,27.20589970830348],[87.79108201683027,27.20584701073462],[87.79079803163775,27.205584563224942],[87.79037836489694,27.204961700870683],[87.79033334581041,27.20484685555715],[87.79034502855181,27.20444504967043],[87.79027587303199,27.204217359537576],[87.78967600632207,27.203196007926227],[87.78925796553314,27.202629599228825],[87.78881891891754,27.2021219582171],[87.78823156776099,27.201617445948735],[87.78756018763454,27.201190082435467],[87.78727883032406,27.20102466363669],[87.78665215561196,27.200671571244875],[87.78608562493683,27.20016687096505],[87.78573342335325,27.19971518220654],[87.78551552661263,27.199508750611898],[87.78491148707002,27.199232241979836],[87.78448132549114,27.199087957815447],[87.78415682787784,27.19890472221098],[87.7837660537099,27.198604453095108],[87.7834209230778,27.198439348019548],[87.78298719496154,27.19814158070893],[87.78264206482832,27.197976476193567],[87.78238378019184,27.197867323714075],[87.78144111909916,27.197712357429197],[87.78033177531266,27.19773425776119],[87.77990343000204,27.197666745182918],[87.77964608393442,27.197593728162875],[87.77929826313112,27.197313526815226],[87.77912544748204,27.197242258989625],[87.77878232068704,27.197171932346254],[87.77630716368672,27.197181227797167],[87.77579184644205,27.197037319060794],[87.77536080972882,27.196854648685804],[87.77441708380316,27.196643227778278],[87.77415892467968,27.196554331147528],[87.77355388296453,27.196201050118976],[87.77329753923883,27.19618667541508],[87.77185489301965,27.19656031002174],[87.7712025379976,27.196954436593142],[87.77088723962697,27.197170567993687],[87.77121893383402,27.197681148967618],[87.77163478348932,27.198132524415957],[87.77181229297774,27.198433984314416],[87.77199524696444,27.198967887622253],[87.77210729285245,27.19919532725289],[87.77234139762248,27.200108153542626],[87.77234678041744,27.200338345302896],[87.77241587238129,27.200565973314085],[87.77247071698704,27.201100629049083],[87.7726078382282,27.201479050298747],[87.77268043491125,27.201860097848865],[87.77265187566181,27.202474216400727],[87.77259110679186,27.202628012316723],[87.77259467369112,27.202781494445237],[87.77245231550252,27.20308927436831],[87.77228650923729,27.203302339833115],[87.77220504607314,27.20347657947083],[87.77159827205742,27.203985551749657],[87.77084025336967,27.20444119851642],[87.76968985425631,27.205476771779203],[87.76941732150135,27.205672396370513],[87.76902049686989,27.206062829666877],[87.7689800463745,27.20613979088503],[87.76808060855795,27.206961859267206],[87.76772742543801,27.20737010970176],[87.76764327059998,27.207429253830067],[87.7671064030263,27.208204052463223],[87.76652395457316,27.208866443846798],[87.76549795159639,27.20880888245828],[87.7637520029915,27.208976399220706],[87.76290138120106,27.209107452217587],[87.76247497586328,27.209134655176967],[87.76179648109304,27.20932109621048],[87.76108222968256,27.209812627172546],[87.76091373254997,27.209910596188408],[87.76019766677929,27.210325292920267],[87.7599430747745,27.21038762779869],[87.75942869629134,27.21030242404775],[87.75874494551296,27.210276741375914],[87.75788819038989,27.21014146651185],[87.75729116000721,27.21015372992535],[87.75678128742734,27.210258082131382],[87.75627391829686,27.21045946238812],[87.75585183094188,27.210678471171388],[87.75559730146385,27.210740743457446],[87.75500127125306,27.210809461442448],[87.754661648966,27.210892554378187],[87.75373056506068,27.211251925284934],[87.75278948843119,27.212092187110215],[87.75241047918558,27.21232895076435],[87.7517023607411,27.21308893536596],[87.75119611839784,27.21336702622209],[87.7509607224148,27.21346762167363],[87.75111709616216,27.213636043785574],[87.75148736346836,27.213974823554583],[87.75313300905134,27.215952312148673],[87.75326718895249,27.21619763183563],[87.75338555547799,27.216711655828917],[87.75337274627773,27.21705706974438],[87.75325796618742,27.217633239715873],[87.75309991969003,27.218153270022558],[87.75288811292359,27.219133998231683],[87.75277126714043,27.219595073544056],[87.75265116892952,27.21994336493873],[87.75247924828147,27.220750103696624],[87.75241931104229,27.22178647100971],[87.75248047406959,27.222531000252207],[87.75247636238342,27.223221702725553],[87.75259191292538,27.223602562789864],[87.75297655440919,27.223632064476284],[87.75329567056083,27.22358748355149],[87.7536794359804,27.22358085001124],[87.75385162569204,27.22365443131483],[87.75413392175788,27.223858298335657],[87.7542673500558,27.224085550156122],[87.75468313725328,27.224518920256617],[87.75494386127983,27.224704844834438],[87.75520202109075,27.22479599242499],[87.75545855324752,27.22482856051196],[87.75629048293652,27.224830733995397],[87.75718211886232,27.22467917393089],[87.7584011938061,27.224789935658958],[87.75974737554768,27.224841302739325],[87.76051922522457,27.224999648539306],[87.76122542291058,27.225061216529554],[87.7624489404354,27.22536378390569],[87.7631588308645,27.225599153728076],[87.76406404575117,27.22596437018486],[87.76438666585253,27.22605288982216],[87.76574542664241,27.22665941982497],[87.76606979956357,27.226824712610895],[87.76639692577619,27.22712529510304],[87.76672129895726,27.227290587986626],[87.76693569081732,27.227345787585595],[87.76738648382363,27.227451686203132],[87.76796651241598,27.227613285248193],[87.76861337984924,27.227867036257905],[87.76906260835521,27.227916480955027],[87.76951070965507,27.227907219699276],[87.76995987589548,27.227956664037706],[87.77028262121533,27.228065503396873],[87.77058448474905,27.228174404663456],[87.77090641719288,27.22826292504327],[87.77148100149253,27.228194270357477],[87.77225278693294,27.228334485585712],[87.77308534219983,27.22831859103735],[87.77417899797402,27.228545076799453],[87.77464960943584,27.228594270279473],[87.77503400028935,27.228585385607],[87.77560789575134,27.228498662990038],[87.77656330414567,27.22826989225926],[87.77700633727682,27.22806882587471],[87.77732545307401,27.228024182417354],[87.77758442526266,27.228135584892673],[87.77804160158189,27.228507686031488],[87.77834440380234,27.228675292470466],[87.77869566611851,27.22907059005911],[87.77902028912034,27.22927420666527],[87.78011294349653,27.22944417495738],[87.7806255064991,27.229434537641282],[87.78121254417825,27.2298826595649],[87.78185622037347,27.23002350184833],[87.78230438476479,27.23001424131046],[87.78287721652683,27.229871064492727],[87.7832601688328,27.22984411275042],[87.78371196314538,27.229988272238252],[87.78443167760437,27.230625258867725],[87.78462687702677,27.23073478731196],[87.78469140139495,27.230754729562346],[87.78539259277711,27.23064468491792],[87.78579667680827,27.230558902970763],[87.78637307633007,27.230566958173203],[87.78733868478602,27.23079850918523],[87.78830128972841,27.230874327287278],[87.7892030622689,27.231088249359587],[87.78971675278486,27.23115294682553],[87.79081203537905,27.231419880713165],[87.79229671341018,27.231849355877156],[87.79358231292592,27.23197755869101],[87.79441912287677,27.232112645827286],[87.79545144473015,27.2323979618539],[87.79616271090333,27.232633143336937],[87.79698345741207,27.23299861071165],[87.79741543245628,27.233201538248256],[87.79826137953262,27.23372036243933],[87.7985863773543,27.23388553011426],[87.7991661545084,27.234008618736],[87.79962414365643,27.23440103865595],[87.8005343009286,27.23489916896416],[87.80079521321662,27.235105286825842],[87.80151104806042,27.235532274160562],[87.80183347985786,27.23560047607549],[87.80196165192137,27.235599661723402],[87.80221536765005,27.23549893987009],[87.80247158662728,27.235492933978794],[87.80375831291958,27.235677403238274],[87.80459149269859,27.235661320991063],[87.80536565619661,27.23585542689151],[87.8062079102871,27.2362207695338],[87.8068539638865,27.236420191999404],[87.8074945737089,27.236387108619496],[87.80807597790964,27.236566588455215],[87.80833695357019,27.23677270619981],[87.80859842781702,27.236958569253666],[87.80961994286463,27.23766588300542],[87.81007874509145,27.238076307821387],[87.81040336906463,27.23826173141529],[87.81085666380797,27.238426146706402],[87.81124724971316,27.23866539718278],[87.81144000793041,27.23870040445012],[87.81297106216992,27.23836415434294],[87.81463754779021,27.23833186551591],[87.81528166117045,27.238436447511774],[87.81612216309561,27.238724954790776],[87.81682892413552,27.238770518732988],[87.81778927443084,27.23869491741863],[87.8181110185379,27.238747176934847],[87.81849540950154,27.238740417814164],[87.81933215573783,27.23885737538254],[87.81965283620177,27.238853243144625],[87.82029238159775,27.238763705689173],[87.8207386051449,27.23865954268085],[87.82093111284199,27.238656163727807],[87.8211892723088,27.238729117800546],[87.82138634861869,27.23891529341274],[87.82177624640045,27.239138727464088],[87.82235946509923,27.239374536503593],[87.82287934998837,27.239671676337775],[87.82346069170278,27.239833089019704],[87.82371791187626,27.239867657091526],[87.82455177934874,27.239851387408823],[87.8251915133952,27.23980017375076],[87.82563942641539,27.239754652540928],[87.82633911490942,27.239513507177943],[87.8267232552727,27.239466173892936],[87.82697778392637,27.23938558356631],[87.82749109774556,27.239396077589564],[87.82774731687881,27.239390071444138],[87.82839418336903,27.239607436110735],[87.82916840972898,27.239803729875177],[87.83032677527886,27.239954816609167],[87.83154797515989,27.240064952828966],[87.83231744417148,27.240051310081373],[87.83321170682389,27.239919568508867],[87.83359609826623,27.239910496845404],[87.83404313546099,27.239826588967826],[87.83487650305638,27.239828387827508],[87.83519455485757,27.239724914161748],[87.83555568607412,27.239641445437048]]]}},{"type":"Feature","properties":{"province":"Koshi Province","district":"Pachthar","municipality":"Hilihang Rural Municipality","ward":"6","wardNumber":6,"sourceMunicipality":"Hilihang","sourceType":"Gaunpalika"},"geometry":{"type":"Polygon","coordinates":[[[87.83273880654252,27.223858372281995],[87.83306472363893,27.22320186228232],[87.83318914163159,27.223045376440048],[87.8337747815689,27.222518212274075],[87.83398153899259,27.222225810243426],[87.8340422446805,27.222071951805017],[87.8340367381971,27.221844009514175],[87.83385290857403,27.22131248245079],[87.83355866092279,27.220630287934085],[87.83331224806514,27.22017578351138],[87.83323933799768,27.219794798715974],[87.8332761590815,27.219566605714643],[87.83329889900092,27.218724546712703],[87.83335347346558,27.218340495380545],[87.83358591164402,27.21734369943285],[87.83386599958654,27.216651367188927],[87.83403118037813,27.216456244442366],[87.83411339431856,27.216302259946165],[87.83419016468007,27.215936152147588],[87.83438415567474,27.21511115670851],[87.83439633833997,27.214727356840736],[87.83445523007016,27.214496787607832],[87.83471825081085,27.2138812285387],[87.83496345510056,27.21341708824421],[87.83552420937498,27.212774952879943],[87.83579668018339,27.212577015106973],[87.83646591272758,27.212010899978633],[87.83713589601491,27.211462915115256],[87.83786971635665,27.210930370825114],[87.83835013385509,27.21052117992778],[87.8390193034276,27.20995287751679],[87.83939455865948,27.209582699569474],[87.84001608183483,27.20880477374648],[87.84041296942523,27.208452538249567],[87.8414020696369,27.207880041072194],[87.84199653543072,27.207792942397937],[87.84284365257801,27.207546292199993],[87.84343411287666,27.20724706961451],[87.84355940612873,27.20713115827172],[87.84364011912237,27.206956918407705],[87.84360828452866,27.2064989102249],[87.8437241277287,27.205960999954403],[87.84375781968618,27.205577074858304],[87.84369715604431,27.204814602611187],[87.84360893194015,27.204661559628974],[87.84341260638146,27.20449345142703],[87.84296231424267,27.204367547077005],[87.84244856144292,27.204282593221095],[87.84199745558338,27.204138622043487],[87.84126536680822,27.203808975939978],[87.84100338991502,27.203546466072886],[87.84067307158487,27.203092526207683],[87.84053820321415,27.202788627591435],[87.84050086142571,27.202100364030457],[87.84042488457747,27.20156814708936],[87.84021716890595,27.20088326185339],[87.84008173741485,27.20057936347404],[87.83946474133883,27.199691488980765],[87.83919813366367,27.199237172562537],[87.83906339067863,27.198935462225514],[87.83899411014812,27.198705708602308],[87.8389855364999,27.198324284008926],[87.83906337079743,27.198016817798713],[87.83941536459764,27.19757005598659],[87.83964275333416,27.19725946100523],[87.83984744506957,27.196872281879934],[87.83988601839822,27.19671854816572],[87.83988119879655,27.19649060655997],[87.8397475823097,27.19626341700599],[87.83867681017563,27.196035118888112],[87.83824627303481,27.195852636102977],[87.83798886505816,27.1957796816025],[87.83722158466354,27.195795574500888],[87.8370288880093,27.195760692605155],[87.83681268027843,27.195630971065388],[87.8363521873494,27.195064938597664],[87.83609221328919,27.194899456592903],[87.8359218386606,27.19490277326702],[87.83566724629489,27.194962982930203],[87.83440010555582,27.195467090810485],[87.83414438670314,27.19545284033559],[87.83362881855662,27.195288864121395],[87.83320034739218,27.19520340941614],[87.83234809841606,27.195255876960125],[87.83209087843359,27.195203240963746],[87.83191712434699,27.195093712385855],[87.8318265871348,27.19488427760574],[87.83188272465247,27.194538612966074],[87.83200701702805,27.194364059263254],[87.83227979930902,27.194129985602913],[87.83311258514374,27.193253777600845],[87.83325663307329,27.19302039389415],[87.8333154620869,27.19278982536546],[87.83328644402664,27.192446912696592],[87.83317414712626,27.192199279686516],[87.83306385309753,27.19204873795142],[87.83249763478605,27.191523906108184],[87.83234532623322,27.19141200121711],[87.83225941877872,27.191394434744584],[87.83185289466347,27.191383313866694],[87.83136622232016,27.19162095438361],[87.83078014390094,27.192148119192314],[87.8305510649055,27.192402259899655],[87.83023533014224,27.192636646576275],[87.82998205233729,27.192775879126454],[87.82947261908626,27.192918805461638],[87.82887546395347,27.19298777343171],[87.82870634088589,27.193067799751024],[87.82845118711793,27.193130260491298],[87.82828018668195,27.193133514412214],[87.82810843547357,27.193116449133953],[87.82778393759986,27.192931088360282],[87.82758779986453,27.19278098565536],[87.82708429242494,27.192273845309426],[87.82656446966898,27.191958700179107],[87.82553095932967,27.191653316187857],[87.82432932670602,27.191464031470083],[87.82407135634921,27.191393327572992],[87.8235592946835,27.1914414756716],[87.8230454179786,27.19141291376485],[87.82244813779442,27.191461563657093],[87.82219135665171,27.191465319027134],[87.82142201164628,27.191460831413647],[87.82086781023106,27.191529548515195],[87.8204409045928,27.191574944319072],[87.8193073006602,27.191538703297788],[87.81896630219461,27.191601665645603],[87.81836814532707,27.19161417949615],[87.81787752954321,27.191659951628637],[87.81729718914055,27.19151885818011],[87.81686834257964,27.19146947612936],[87.81591817388404,27.191064248689024],[87.81524610563366,27.190637010562533],[87.81466119612462,27.190304110211507],[87.81440166119313,27.190195020610616],[87.81388571875692,27.19005136217596],[87.8137139053682,27.1900342983371],[87.8134577499786,27.1900403044365],[87.8130324079446,27.19012402377275],[87.81277543879786,27.190109711061503],[87.8122578068053,27.189909599031257],[87.81087960469384,27.189475183793782],[87.81036478965446,27.18940817269631],[87.80985178938646,27.189417934515273],[87.80951072821635,27.189460577924134],[87.80908638825196,27.189602940058613],[87.80849461447663,27.189881781733483],[87.8079844932271,27.190024644780884],[87.80755840062574,27.190090296202836],[87.80721909186354,27.190211838167514],[87.80698531998259,27.190253854232314],[87.80662187427774,27.190260487939806],[87.80642567310781,27.190092316922605],[87.8058613335664,27.18972090562798],[87.80551482778944,27.189535481910234],[87.80525673133603,27.189444459579008],[87.80499807184341,27.189371505968143],[87.80465575868102,27.189339627635768],[87.80369603427737,27.189435484023274],[87.80354466425486,27.189359589689435],[87.80347926374675,27.189303511878972],[87.8034101086849,27.189075946531503],[87.80344480106284,27.188730406979957],[87.80335420050523,27.18850296723731],[87.803244220678,27.188390686396247],[87.80291890950457,27.188166876354742],[87.80250787877449,27.187963823711318],[87.8018575072895,27.187554528236102],[87.80096541570354,27.186882471184287],[87.80035812210139,27.186493180838333],[87.80003468772132,27.186346080198458],[87.79977596637808,27.186273001419877],[87.79934405268817,27.186052069096824],[87.79873519599886,27.185622141529294],[87.7984762863449,27.185513051019278],[87.79767448088081,27.185012043164328],[87.79754368102954,27.18489995052569],[87.79732334415985,27.184616808545755],[87.79723480900714,27.18450221437158],[87.79688173175266,27.184012139396284],[87.79675074280507,27.18387972813934],[87.79594668623977,27.18332226588139],[87.79570728222447,27.18311595976591],[87.79493025981571,27.183702770270827],[87.79417136728753,27.18417654726056],[87.79349362451919,27.18443769793652],[87.7921341960966,27.18476819302602],[87.79196501065023,27.18484815677493],[87.7917967634854,27.184966507086106],[87.79160876203343,27.185159442041442],[87.7909983592995,27.185573698946442],[87.7900703419097,27.186050667133454],[87.78958729705154,27.18636489202355],[87.7888546669805,27.18699202630914],[87.78835480732805,27.187518501680124],[87.78792059923043,27.1881393784895],[87.78754697200847,27.188565885107526],[87.78709288271922,27.189245591411435],[87.78624115477953,27.19025483914873],[87.78611849036214,27.19048797262726],[87.78578775338003,27.190934483935113],[87.7853553603728,27.191632132894508],[87.78529521674875,27.191785991558845],[87.78502132623956,27.19286193691846],[87.78500520099534,27.19309225458318],[87.7849444945219,27.19324605084768],[87.78486947713175,27.193706936728262],[87.78492500886567,27.194241592977843],[87.78504181118797,27.19469691130451],[87.78492809511602,27.19531146803006],[87.78495798950598,27.19569276708851],[87.78525843338196,27.19668198957232],[87.78529896656804,27.197523672265103],[87.7853484289897,27.19782813552812],[87.78548554956984,27.198208807349882],[87.78560598263677,27.19881754654516],[87.78559173357758,27.199124636151925],[87.78551552661263,27.199508750611898],[87.78573342335325,27.19971518220654],[87.78608562493683,27.20016687096505],[87.78665215561196,27.200671571244875],[87.78727883032406,27.20102466363669],[87.78756018763454,27.201190082435467],[87.78823156776099,27.201617445948735],[87.78881891891754,27.2021219582171],[87.78925796553314,27.202629599228825],[87.78967600632207,27.203196007926227],[87.79027587303199,27.204217359537576],[87.79034502855181,27.20444504967043],[87.79033334581041,27.20484685555715],[87.79037836489694,27.204961700870683],[87.79079803163775,27.205584563224942],[87.79108201683027,27.20584701073462],[87.79136137046756,27.20589970830348],[87.79238687086301,27.205880247875818],[87.79281408931179,27.205873300668436],[87.79341681493443,27.206052717934654],[87.79384678732173,27.20615861598789],[87.79453035008547,27.20616604433779],[87.79529875627993,27.20611426576061],[87.7959848841248,27.20621640881913],[87.79641560723923,27.20634262549277],[87.79693511700965,27.20661957273282],[87.797630444912,27.207123457971637],[87.79910412934835,27.207995312828054],[87.800139580107,27.20839791281035],[87.8008126491636,27.208863537487137],[87.80111532601644,27.20901082543138],[87.80232471880143,27.20954333529702],[87.80335578918624,27.20977213427347],[87.80370135621071,27.20990104176739],[87.80411269889369,27.21014248032605],[87.80454448622847,27.21032508864193],[87.80514558452876,27.2104479889575],[87.80540455666434,27.210557079211362],[87.80573230897065,27.21085766091257],[87.80614271355917,27.211042645569712],[87.80631465225433,27.211077777644377],[87.80708487276165,27.211100396509014],[87.80725681085048,27.211135591430782],[87.80777394217056,27.211337954073418],[87.80837116049011,27.21126898539283],[87.80939109107553,27.211001264966704],[87.80956046410927,27.21094155688911],[87.81046828540862,27.210446521124737],[87.81080878497293,27.21040168925219],[87.811581821942,27.210559721726263],[87.81238262380113,27.210965827165083],[87.81270881115923,27.211207704850093],[87.81325377182569,27.211676270251136],[87.81384888131404,27.21244929872009],[87.81415456235713,27.212731876271363],[87.8143535789902,27.213015143007567],[87.81451302090497,27.213413756592015],[87.81456242022546,27.213700090062805],[87.81485585550413,27.21438228447036],[87.81536201161117,27.215923226970798],[87.81574022662988,27.216546277781116],[87.81594287253674,27.216982964548972],[87.81611769100073,27.21715119836621],[87.81657280045242,27.217410391269503],[87.8169175542579,27.21751897972894],[87.81726349745102,27.217683959375883],[87.81760900200354,27.217810616209132],[87.8185542277283,27.218024036776203],[87.81881319999331,27.218133126731104],[87.81913926241283,27.218356936261483],[87.8193802936784,27.218601504386907],[87.81989368830018,27.219490067430215],[87.82051393546057,27.220396072366647],[87.82079817092405,27.220676524677344],[87.82119057224442,27.220994735607768],[87.82153707784602,27.221159652747563],[87.82231218037965,27.221412463648708],[87.82308509122875,27.221532047909516],[87.82351619017999,27.22169652600376],[87.8238421268302,27.221900017495702],[87.82423546613971,27.22225655207918],[87.82474466839776,27.222991696089156],[87.82535484042951,27.22347789000777],[87.82559243069649,27.22358923166445],[87.82627111103658,27.223346023165576],[87.82673414982433,27.223052116382565],[87.82732805114706,27.222868052478134],[87.82834159864959,27.222333940300782],[87.82851191067104,27.22231255618743],[87.82868472548886,27.222383761751203],[87.82918573022857,27.222775742955353],[87.82960057736345,27.223132152400577],[87.83007638209095,27.223370838633418],[87.83093557637879,27.223546312674195],[87.83152054693883,27.223861082406614],[87.83169267357097,27.223914219453164],[87.83203473711167,27.223909962887557],[87.83273880654252,27.223858372281995]]]}}]}