{"type":"FeatureCollection","features":[{"type":"Feature","properties":{"province":"Koshi Province","district":"Okhaldhunga","municipality":"Siddhicharan Municipality","ward":"5","wardNumber":5,"sourceMunicipality":"Siddhicharan","sourceType":"Nagarpalika"},"geometry":{"type":"Polygon","coordinates":[[[86.55234382449046,27.325421747225374],[86.55189201687702,27.324246532590326],[86.55160678113295,27.323846106253157],[86.55138826352116,27.323899624140005],[86.54783984303626,27.324610562196064],[86.54588605922282,27.32440333658929],[86.54534354937081,27.32456870421954],[86.54523813979486,27.324861728391085],[86.5454891767982,27.325354620578736],[86.54569263992053,27.326296519039957],[86.54570277943355,27.32699403601515],[86.545453826465,27.3279231243879],[86.54546065100081,27.328573315133152],[86.54573526413863,27.32942743804438],[86.5459441186225,27.331288043865527],[86.54577224995786,27.331763747821284],[86.54549727718938,27.332015637795564],[86.54490674760952,27.332018270253215],[86.54438079607726,27.331463550701404],[86.54399613782081,27.330324658820093],[86.5430510243371,27.32930136941024],[86.54294146859331,27.328246874225403],[86.54280591337007,27.327867201706233],[86.54259083188043,27.327697216963806],[86.54233417440685,27.327660271212114],[86.54047981152138,27.328162127262274],[86.5390855570368,27.32871055518734],[86.53881795175197,27.328242420165683],[86.53860979230747,27.326858079692876],[86.53864853937793,27.325725120975854],[86.53759343083647,27.323482475279047],[86.5376640677661,27.322505375056366],[86.53777302334849,27.32100468369943],[86.53758544569087,27.320369812446803],[86.53723049381222,27.31979527249134],[86.5368200788416,27.318816552847363],[86.53614207083875,27.31821844720707],[86.53538784819975,27.317728375248805],[86.53417688016131,27.316157865578074],[86.53405407586658,27.31553449656469],[86.53411107709606,27.314209670044807],[86.53383365427749,27.31361062224927],[86.53334572062357,27.313353927322265],[86.5328599887507,27.31401825269757],[86.53055492052191,27.316060129506813],[86.52837413154987,27.31699405380626],[86.52673534359225,27.31712848683165],[86.52589684448155,27.316926999703153],[86.52514687748146,27.316705505963537],[86.52413344125675,27.316636622332492],[86.52336466017303,27.316760418234317],[86.52311050711673,27.316953727896912],[86.52254104970403,27.317069143243973],[86.51996761364528,27.317839148741125],[86.51876537528447,27.319002003905634],[86.51593976660558,27.322849853511233],[86.51558978059941,27.324069777603036],[86.51546756144297,27.325017432418008],[86.5157567390553,27.32564817646695],[86.51576769665581,27.32669779730343],[86.51531974632368,27.328585543463717],[86.51526123595734,27.329341516653894],[86.51532713753056,27.32951325307616],[86.51508137401144,27.330528178937904],[86.5143081185564,27.332536652569477],[86.51395281368521,27.333458614833475],[86.5135483330271,27.336452497708184],[86.51274782357933,27.33889878738118],[86.51187821347445,27.34043518625827],[86.51206866754727,27.341038486051147],[86.5111262095373,27.342035227078313],[86.5112483855991,27.342428403389253],[86.51148447468212,27.342562377479968],[86.51335828667769,27.34238380293082],[86.51382220919292,27.342518587264955],[86.5147284933772,27.343444911682887],[86.5150015400795,27.344021389717934],[86.51526265543947,27.34537428394276],[86.51528113719586,27.347904776486292],[86.51546715679304,27.348866931571283],[86.51541210057594,27.35071091102122],[86.5151688339408,27.351416558272547],[86.5173533539211,27.35341268093094],[86.51887542799656,27.35430948961434],[86.52139726058682,27.35636081228284],[86.5225071279286,27.357825041532724],[86.52253095440358,27.35817045528826],[86.52163731928331,27.358616596036818],[86.5214565681581,27.358821408356736],[86.52111195233391,27.359578634868715],[86.52173046079778,27.361661863864466],[86.52222565239188,27.3623316174814],[86.52284926483124,27.36282362954882],[86.52421589818735,27.36316465122589],[86.52637119602154,27.36347202858685],[86.52715842607233,27.363702650186777],[86.52936951580095,27.36540306124864],[86.53036827412977,27.366507873771692],[86.5316351885452,27.367207314255808],[86.53358285928942,27.36829498549934],[86.53354197237792,27.36854543443143],[86.53205674075846,27.368721003601348],[86.53087400355732,27.36943928993945],[86.52953967289498,27.371917845416597],[86.5285369505778,27.37338616358048],[86.52781400670564,27.3740902536421],[86.52426935298637,27.375951715490928],[86.52334489733492,27.376607668788104],[86.52275988820305,27.37786748277677],[86.52276408571446,27.378440776001202],[86.52283961754134,27.378729985232972],[86.5237740370493,27.379599916718398],[86.5258868493508,27.38195002009023],[86.52798828672358,27.384627343512918],[86.52811753447136,27.385456148174953],[86.52790622819462,27.38691814183778],[86.52798057877064,27.387658732972852],[86.52836841772039,27.38825815471817],[86.52864745986103,27.388428388856422],[86.52883828048351,27.38844482930234],[86.53001239602321,27.388132785782535],[86.53078036520893,27.388013429535228],[86.53149819149915,27.3880091077073],[86.53273109061942,27.38852555755199],[86.53425973258871,27.38959604140392],[86.53681915261197,27.392358259613644],[86.53832691390835,27.39361373523504],[86.53887875320743,27.394344568274747],[86.53926921785379,27.394928234766514],[86.54021683827189,27.392098580646252],[86.5394243881327,27.389865935504336],[86.53942056692128,27.38933090351408],[86.54004740223584,27.387953804389177],[86.54009222353406,27.387430275280124],[86.53968360764117,27.385487772506806],[86.53888041907892,27.384270799544524],[86.53833661656756,27.381610024950348],[86.53858381258011,27.380222677800884],[86.53980898629399,27.37836668088385],[86.54032773229082,27.377799570679223],[86.54163407338606,27.37679044682918],[86.54200626519679,27.37628379458891],[86.54220845435269,27.375535072407892],[86.54268943674853,27.375098750585934],[86.54320049721323,27.374865551862793],[86.54371337234241,27.374810904692417],[86.54596804514888,27.37258353726654],[86.54679109463291,27.372331141003244],[86.54708107264442,27.372067997688706],[86.5472706945388,27.371366602587486],[86.54818044416214,27.369834642047092],[86.548443468372,27.369110926349755],[86.54860257433133,27.368061866959888],[86.54966505909609,27.365959299708855],[86.54950511043698,27.36493631403925],[86.54894231509304,27.36319868609915],[86.54885326910694,27.362313614557294],[86.54852219200211,27.36110263754401],[86.54851812041595,27.360549663434142],[86.5490456812934,27.359973488187386],[86.54953666858334,27.359600372709423],[86.55051013150683,27.358237898740743],[86.55162350668681,27.35583524374412],[86.55386947835858,27.352914797856478],[86.55398920509565,27.352583386703486],[86.55377036435391,27.3519123170095],[86.55335126719648,27.35153852444116],[86.55252663798262,27.35065333724056],[86.55293495641787,27.34935226326323],[86.55322668296363,27.348935575290398],[86.55301528028697,27.348068135194573],[86.55305635382581,27.347838067370052],[86.55331806080848,27.34686827971254],[86.55381097943545,27.345994079807188],[86.55383085836186,27.345763887356917],[86.5533226524176,27.344444068079213],[86.55278825332836,27.343435653320515],[86.55278430683956,27.342914187911386],[86.55261774046826,27.342620291674844],[86.55192498096416,27.342250127820243],[86.5518592654068,27.342019686669314],[86.55328489426824,27.340590875375337],[86.55451181906801,27.33875519700328],[86.55499579221168,27.337582972955378],[86.55456106270562,27.337105337649074],[86.5545589339109,27.336920221003105],[86.55503772412548,27.336170057770488],[86.55582781118764,27.33508010333519],[86.55583652905013,27.33263782401665],[86.55621602851117,27.331591700089675],[86.55606415131761,27.33100659251201],[86.55550462350942,27.330375039280234],[86.55461566159153,27.329724421306718],[86.55402643216199,27.328837730375184],[86.55386167744118,27.328408356234814],[86.55368340284343,27.32692254740872],[86.55353184355215,27.326732430840387],[86.55272097875263,27.32647473956758],[86.55239447956419,27.326187159010303],[86.55242891888241,27.325401677579055],[86.55234382449046,27.325421747225374]]]}},{"type":"Feature","properties":{"province":"Koshi Province","district":"Okhaldhunga","municipality":"Siddhicharan Municipality","ward":"7","wardNumber":7,"sourceMunicipality":"Siddhicharan","sourceType":"Nagarpalika"},"geometry":{"type":"Polygon","coordinates":[[[86.52276408571446,27.378440776001202],[86.52275988820305,27.37786748277677],[86.52334489733492,27.376607668788104],[86.52426935298637,27.375951715490928],[86.52781400670564,27.3740902536421],[86.5285369505778,27.37338616358048],[86.52953967289498,27.371917845416597],[86.53087400355732,27.36943928993945],[86.53205674075846,27.368721003601348],[86.53354197237792,27.36854543443143],[86.53358285928942,27.36829498549934],[86.5316351885452,27.367207314255808],[86.53036827412977,27.366507873771692],[86.52936951580095,27.36540306124864],[86.52715842607233,27.363702650186777],[86.52637119602154,27.36347202858685],[86.52421589818735,27.36316465122589],[86.52284926483124,27.36282362954882],[86.52222565239188,27.3623316174814],[86.52173046079778,27.361661863864466],[86.52111195233391,27.359578634868715],[86.5214565681581,27.358821408356736],[86.52163731928331,27.358616596036818],[86.52253095440358,27.35817045528826],[86.5225071279286,27.357825041532724],[86.52139726058682,27.35636081228284],[86.51887542799656,27.35430948961434],[86.5173533539211,27.35341268093094],[86.5151688339408,27.351416558272547],[86.51362949618657,27.35000953791741],[86.5126721999616,27.349538973889786],[86.51068557574702,27.348295131096997],[86.50870246187621,27.347714796789035],[86.5093541618892,27.349263243693702],[86.5095484961884,27.350146562653972],[86.50947753831828,27.350545868370045],[86.50924389466364,27.350865527107544],[86.50867149876899,27.35103958496417],[86.5071585049513,27.35110655994494],[86.50433564777498,27.350692595616337],[86.50317184392064,27.350699735905685],[86.50163590737311,27.35094032427911],[86.49871826694289,27.350690722011763],[86.49856558521134,27.3506269555196],[86.49735613420573,27.350238917664246],[86.49615231273259,27.3500021118728],[86.4944386792732,27.349858276735834],[86.49323460788499,27.3496237219112],[86.49306535848622,27.349665986607512],[86.4904984746513,27.34954385485317],[86.48785125061059,27.34957708174015],[86.48686081983291,27.349334209917945],[86.48570852074879,27.349366106878204],[86.48253599063553,27.350252841010963],[86.48061859850861,27.350381213239963],[86.4793076839917,27.350760027147345],[86.47980494161963,27.351549628129256],[86.47993680419918,27.351660721701617],[86.48034471340347,27.352339416465885],[86.4807220551529,27.353361024369296],[86.48083523230463,27.354160507267636],[86.48077969751903,27.35748967244699],[86.48102731974926,27.35970038123627],[86.4804739919167,27.359754715740983],[86.47958435499588,27.359968163663346],[86.47924692000167,27.36009326708472],[86.47886959618951,27.360292767362104],[86.47836535150685,27.36053696920814],[86.47799053002967,27.36081542998747],[86.47722506270937,27.360911905021393],[86.47644889885517,27.36070360297465],[86.47566748118075,27.360341817661926],[86.47489275573652,27.360171901831833],[86.4742594005762,27.360379407011063],[86.47304809059423,27.36117621771815],[86.47298538966976,27.361828284496102],[86.47290100094084,27.36309196928135],[86.4731340956604,27.363659382689484],[86.4733128514863,27.363883571529882],[86.47418743224924,27.36447142123751],[86.47472201334365,27.365107727487665],[86.47537121072197,27.366581777773646],[86.47556973277717,27.36737932168897],[86.4764044245551,27.368046070475387],[86.47662976207417,27.36838322970546],[86.4768631688575,27.368950643045626],[86.47713508847535,27.369403085722194],[86.47753499187165,27.36985152491099],[86.47762846688623,27.370077590171192],[86.47816417392367,27.37075221981899],[86.47842827464802,27.370974407014707],[86.47878559938806,27.371422659686203],[86.479104350334,27.371988134435465],[86.47926410951062,27.372900588066745],[86.47928806579809,27.37358910225887],[86.4794239316348,27.373815353928283],[86.48000121595751,27.374449471748],[86.48090692776586,27.37469209462623],[86.48134703229569,27.375063824081312],[86.4815696183074,27.375324334802617],[86.48203905805926,27.376535810358046],[86.48291901830541,27.3772772053736],[86.48318843490219,27.377652937219032],[86.48337507275122,27.378107318546622],[86.48348443571219,27.378791643561414],[86.48388296346621,27.37920163440948],[86.4843139359061,27.37930478488994],[86.48474603486093,27.379446320905505],[86.48513292839306,27.379513211215883],[86.48599449822082,27.37971951221774],[86.48651725730407,27.380010341368074],[86.48705477792254,27.380723294806224],[86.48771334109693,27.381240376324833],[86.48832419650904,27.381605976250125],[86.48885258472421,27.382050350947864],[86.49004873047936,27.383280261024726],[86.4905034087973,27.384071987624885],[86.49064346561522,27.384411085367578],[86.49082872784577,27.38482708104021],[86.49108208754593,27.385967849788187],[86.4908846465436,27.386432113908395],[86.49026817872613,27.38713645204534],[86.48990424049582,27.387719690097867],[86.48951567614283,27.38884008632178],[86.48949567831289,27.38949008929475],[86.48997443826057,27.39096801758278],[86.49015846638342,27.392568985261345],[86.49046228635636,27.393937946244755],[86.49118639931632,27.396326388551422],[86.4914623219108,27.396893989624147],[86.49155435833448,27.39708166847464],[86.49298856624661,27.396547370210616],[86.49469613290105,27.396501587524025],[86.49520156532826,27.396295771722905],[86.49545265634507,27.39613640880682],[86.49565015944721,27.395672145820566],[86.49610901139404,27.395353296663256],[86.49648921269484,27.39522825564785],[86.49742818283548,27.39520442516887],[86.49793399148695,27.39499867170927],[86.4987187733881,27.394518459581462],[86.49948655848212,27.394695002839068],[86.50063259831272,27.394173149049475],[86.5022459399653,27.393982511719422],[86.50478623510114,27.392853838280494],[86.5061572902529,27.392037083194886],[86.5064133215475,27.39197931291863],[86.50694189340722,27.392114346982094],[86.50892492975228,27.39166756738604],[86.50974697940384,27.391480878460207],[86.51064354677236,27.390529213841],[86.51254904833611,27.389660061673673],[86.51327450111356,27.389511322088197],[86.51366977196719,27.389548828593863],[86.51550656507159,27.388986329509798],[86.51785749053289,27.388755172410498],[86.51890099466618,27.38837279768654],[86.52000413805065,27.387498528417993],[86.52043784727806,27.386608387618804],[86.52086772806757,27.38469350842182],[86.52071809065954,27.38337706103233],[86.5209782281379,27.38191756755254],[86.52180808065769,27.38085949661122],[86.5219269874061,27.380020249288584],[86.52236895052631,27.37918656198902],[86.52276408571446,27.378440776001202]]]}},{"type":"Feature","properties":{"province":"Koshi Province","district":"Okhaldhunga","municipality":"Siddhicharan Municipality","ward":"10","wardNumber":10,"sourceMunicipality":"Siddhicharan","sourceType":"Nagarpalika"},"geometry":{"type":"Polygon","coordinates":[[[86.47655420454876,27.30487690440274],[86.47688375792897,27.304523734265896],[86.47696153339453,27.30429154060987],[86.47694595847281,27.303833344048343],[86.4767171804804,27.303380963666235],[86.47613558038418,27.302593301627866],[86.47591860577381,27.301220088318587],[86.47603389277145,27.30083453667739],[86.47619669977287,27.300600403250755],[86.47648880415117,27.300400591790616],[86.47681723215968,27.300009097915712],[86.47706813482363,27.2998497980448],[86.47748709729481,27.299609785995152],[86.47803792296006,27.299478678157918],[86.47828882628913,27.29931931665407],[86.47845163250392,27.299085183615926],[86.47793617350143,27.297722164299394],[86.47791284298171,27.297033649594713],[86.47806539088211,27.296494739546524],[86.47833729250941,27.295683248988],[86.47827913951772,27.295224739515962],[86.47821704594261,27.29465344809086],[86.47832839148717,27.29415273707137],[86.47902299097963,27.2919522708717],[86.47930621387835,27.29148606835574],[86.47946120116973,27.291021679982766],[86.47938812571252,27.287579170221168],[86.47958218875166,27.286999810497882],[86.48061380337342,27.285938237510045],[86.48085826281876,27.285586944458558],[86.48092409174305,27.285011649319667],[86.48107945451494,27.284549449374307],[86.4813664921949,27.284196154899217],[86.48168460009217,27.283499822577696],[86.48175042846563,27.28292221431417],[86.48168875475592,27.28108692702051],[86.48184762046972,27.28073988574907],[86.48196027997906,27.28027756116451],[86.48189043053979,27.27947376371522],[86.48128587457937,27.27799758715624],[86.4813365485231,27.27569991174165],[86.48145283626931,27.275352746446405],[86.48088824900927,27.275061667015986],[86.48002855535943,27.27489375260112],[86.47900499212949,27.274921584900405],[86.47675727866344,27.274100682246633],[86.47607621645321,27.27415683179813],[86.47384414085094,27.27379637585743],[86.47350414195368,27.273844769055337],[86.47279595095273,27.2743612406551],[86.47233190759312,27.27452648270906],[86.47182109567906,27.27457656511931],[86.47078583577378,27.274261172290302],[86.47010477345724,27.274317258596522],[86.46942865265177,27.274526890564765],[86.46840646527977,27.274592983370084],[86.46771871065567,27.27445726401838],[86.4659869386408,27.27373732279739],[86.46564306056922,27.273670681978075],[86.46547256103193,27.273674497392935],[86.46513643928606,27.273837986524526],[86.46462869229292,27.27396703040334],[86.46377150059433,27.27387345021861],[86.46338247999847,27.27373203760367],[86.46285396640303,27.273246963715398],[86.46186958561873,27.271895640594863],[86.46134107166375,27.271412817985336],[86.46103627023633,27.271228829329626],[86.46069239242973,27.271162063861848],[86.46035239306066,27.271210331970913],[86.45972422939744,27.271571445238127],[86.45938566852968,27.271655910694594],[86.45852484961979,27.271449423094502],[86.45750134826334,27.271477067298296],[86.45562972516936,27.271679772437043],[86.45374515495142,27.271500929359625],[86.4532734179116,27.2714359150832],[86.45310035404665,27.27136527158986],[86.45218544662568,27.270815432924017],[86.45156677307561,27.270181003755493],[86.45112998296023,27.269885859003],[86.45061942151924,27.26993806798616],[86.44909805596548,27.270399345540266],[86.44841311577188,27.270340210578212],[86.44819716071807,27.270269442352664],[86.44789348384674,27.270126028507008],[86.44749820888808,27.269790497495457],[86.44691310622933,27.268887488285138],[86.44660699018372,27.268667364588204],[86.44626173755594,27.268562150692965],[86.44592836803608,27.26880009908712],[86.4455897443458,27.268884564783445],[86.44507786875512,27.268898387197524],[86.44473155195854,27.268754723994476],[86.44407386514115,27.268237516803516],[86.44358699121638,27.267714181678752],[86.44292792901095,27.26715627501221],[86.44205603812061,27.26660662338544],[86.44119922239796,27.26651291857354],[86.44069116225062,27.266641836433475],[86.44026975877368,27.26680713949583],[86.43982079000398,27.26743064052491],[86.43974708059896,27.26777793102334],[86.43932567808696,27.26794104579064],[86.438811300153,27.2678780333997],[86.43819769352325,27.267397085831014],[86.43754388496257,27.266992662221586],[86.4373706320108,27.26692201880924],[86.4367723498404,27.26689926826551],[86.43678773656384,27.267357590236557],[86.4367150282674,27.26774320455482],[86.43634258346904,27.268096124847958],[86.43600258358337,27.268144455539037],[86.43548576657787,27.268004670267526],[86.43514476711533,27.26801461428922],[86.43429664514267,27.26818948758015],[86.43391538045184,27.268276017222608],[86.43396433922614,27.26846582186182],[86.43431935059162,27.26887806415774],[86.43446265948434,27.269332320868745],[86.43440289846386,27.270099546798086],[86.43448119217388,27.271169672174455],[86.43525074299494,27.27248880081956],[86.43543663053015,27.27294324513781],[86.43558481786813,27.27355104633512],[86.43599297894498,27.27426818975316],[86.43652630804952,27.274904620491668],[86.43675489865112,27.275356938864654],[86.43687583350884,27.276425126055415],[86.43701664078904,27.27680486107115],[86.43750101173666,27.27725148593626],[86.43802420896942,27.277583140685408],[86.4393305755639,27.27835128896621],[86.43999076366221,27.278945268029315],[86.44072991702538,27.27934775341334],[86.44116783266655,27.279681283246077],[86.44134746423391,27.279943858247726],[86.4415386684042,27.28055178504302],[86.44155899707219,27.281163589615804],[86.44174494641065,27.281618032877084],[86.4418582497239,27.282455902266495],[86.44201175492852,27.283217187241362],[86.44219351430102,27.28355647206598],[86.4424573643836,27.283778721443404],[86.44284882366651,27.283999219686994],[86.44349506326847,27.284173326297967],[86.44447886401797,27.284222392083805],[86.44465186580207,27.284295286366763],[86.44504857952383,27.284667015513985],[86.44514924750881,27.28512339885582],[86.44494986794152,27.285551464149357],[86.44488485234203,27.286165145202656],[86.44489536097487,27.28646992200238],[86.44512639104404,27.286999012043548],[86.4454790873823,27.287334481599682],[86.44574018607152,27.287482209325898],[86.44612783020989,27.28758529745319],[86.446909685532,27.287985656983118],[86.44717322339466,27.28820790634376],[86.44752979805165,27.288658472158453],[86.44780109161427,27.289110976427352],[86.4479070143254,27.289720841714114],[86.44848448620915,27.290393532778786],[86.44866524420085,27.29069443226612],[86.44881881150046,27.29145571595927],[86.44871121855405,27.292071522966808],[86.44903953838997,27.29294408788512],[86.44905880357737,27.29351744310408],[86.449584395379,27.295187615318408],[86.45012204129029,27.295939079705402],[86.45041898021947,27.297154620442342],[86.45078080915191,27.297756418306328],[86.45175762259196,27.29887979947343],[86.45203416952064,27.29948584943896],[86.45200172460862,27.299792627457673],[86.4517613304094,27.300256703912442],[86.45113698290292,27.300732850396685],[86.4508448780834,27.3009326001768],[86.45064043137586,27.301204869849716],[86.45044267723905,27.301671383325672],[86.44991142986804,27.302373532857096],[86.44977170375573,27.303296180985793],[86.44979734921937,27.304061467298933],[86.45003619707938,27.304818624736104],[86.45030892984175,27.305309452988762],[86.45070432999428,27.30564279651292],[86.45187295367275,27.30611010794057],[86.45276715724964,27.306048079710628],[86.45365535565459,27.30579424476485],[86.45419817452772,27.305435196132805],[86.45465214735805,27.304965177856452],[86.45527499513992,27.304450770256885],[86.45573140701505,27.304055211382828],[86.45684561366805,27.302915114063783],[86.45785397747399,27.302429209770608],[86.45900045911478,27.302246268490602],[86.45973073000586,27.302379986695538],[86.45990410707573,27.302450630786105],[86.46029950748452,27.302786224902537],[86.46052822261083,27.30323854283207],[86.46062651409477,27.303618152773296],[86.46080589680427,27.303882915896043],[86.46106955934972,27.30410510343272],[86.46146145590785,27.30432328802613],[86.46197846059124,27.304463010321662],[86.46274643061558,27.30444330871908],[86.46304103791263,27.304320332087688],[86.46392567022441,27.303951276046273],[86.46456177775552,27.303820542932016],[86.46508022083773,27.303998526735906],[86.46547180495092,27.304216711527623],[86.46611679490796,27.30435236863416],[86.46739682697209,27.304318844536567],[86.467903573841,27.304151477514004],[86.46841038309964,27.303986360943288],[86.46908537812092,27.30373834260555],[86.4697242368193,27.303682068799173],[86.47075830870551,27.303961326492086],[86.4710180310573,27.304068417984872],[86.47167609326556,27.304587812896052],[86.47232777508667,27.30491302545785],[86.47310594015329,27.305200350875754],[86.47388029040829,27.30537026711064],[86.475417605949,27.305366998712717],[86.47579649282962,27.3052036336518],[86.47655420454876,27.30487690440274]]]}},{"type":"Feature","properties":{"province":"Koshi Province","district":"Okhaldhunga","municipality":"Siddhicharan Municipality","ward":"6","wardNumber":6,"sourceMunicipality":"Siddhicharan","sourceType":"Nagarpalika"},"geometry":{"type":"Polygon","coordinates":[[[86.49916126457106,27.434539636477034],[86.4992968122098,27.43441822432983],[86.50097512382011,27.434765119219637],[86.50213285882327,27.434480272591255],[86.50371436236242,27.433336981066976],[86.50562178219909,27.431000774248147],[86.50626905742453,27.429215367856735],[86.5063159364913,27.428341985914724],[86.50599730151367,27.4270994371295],[86.50604437312903,27.42654214814075],[86.50637054319505,27.425642630664626],[86.50714612495099,27.42450547484183],[86.50769632064079,27.424006321902986],[86.50773539717892,27.423965810144885],[86.50783724429996,27.423819452996913],[86.50827489770019,27.423243153821293],[86.5100495620725,27.4196717729418],[86.51090192493987,27.41868384820348],[86.51186726982606,27.41794912167098],[86.5135066748123,27.41714899285203],[86.51694210554514,27.41560118611838],[86.51928820052538,27.414254888736828],[86.52150249500664,27.412754673198002],[86.52272056142232,27.41227808148226],[86.52371823070925,27.411489151307038],[86.52554445431689,27.4106556973437],[86.52654696035607,27.40723486945356],[86.52762409301806,27.406200241194277],[86.52822024544562,27.405929154995402],[86.5291819082421,27.405634431764085],[86.53201069414334,27.40521727634705],[86.53314560533101,27.40471092757806],[86.53336699485688,27.4043730753732],[86.5339064919707,27.40344042014262],[86.53455683311037,27.401826439777537],[86.53472769706859,27.401037018440057],[86.53586727430543,27.399016036668826],[86.536448155715,27.397598238839826],[86.53665803001653,27.396526672312234],[86.53722359599858,27.395361635721507],[86.53926921785379,27.394928234766514],[86.53887875320743,27.394344568274747],[86.53832691390835,27.39361373523504],[86.53681915261197,27.392358259613644],[86.53425973258871,27.38959604140392],[86.53273109061942,27.38852555755199],[86.53149819149915,27.3880091077073],[86.53078036520893,27.388013429535228],[86.53001239602321,27.388132785782535],[86.52883828048351,27.38844482930234],[86.52864745986103,27.388428388856422],[86.52836841772039,27.38825815471817],[86.52798057877064,27.387658732972852],[86.52790622819462,27.38691814183778],[86.52811753447136,27.385456148174953],[86.52798828672358,27.384627343512918],[86.5258868493508,27.38195002009023],[86.5237740370493,27.379599916718398],[86.52283961754134,27.378729985232972],[86.52276408571446,27.378440776001202],[86.52236895052631,27.37918656198902],[86.5219269874061,27.380020249288584],[86.52180808065769,27.38085949661122],[86.5209782281379,27.38191756755254],[86.52071809065954,27.38337706103233],[86.52086772806757,27.38469350842182],[86.52043784727806,27.386608387618804],[86.52000413805065,27.387498528417993],[86.51890099466618,27.38837279768654],[86.51785749053289,27.388755172410498],[86.51550656507159,27.388986329509798],[86.51366977196719,27.389548828593863],[86.51327450111356,27.389511322088197],[86.51254904833611,27.389660061673673],[86.51064354677236,27.390529213841],[86.50974697940384,27.391480878460207],[86.50892492975228,27.39166756738604],[86.50694189340722,27.392114346982094],[86.5064133215475,27.39197931291863],[86.5061572902529,27.392037083194886],[86.50478623510114,27.392853838280494],[86.5022459399653,27.393982511719422],[86.50063259831272,27.394173149049475],[86.49948655848212,27.394695002839068],[86.4987187733881,27.394518459581462],[86.49793399148695,27.39499867170927],[86.49742818283548,27.39520442516887],[86.49648921269484,27.39522825564785],[86.49610901139404,27.395353296663256],[86.49565015944721,27.395672145820566],[86.49545265634507,27.39613640880682],[86.49520156532826,27.396295771722905],[86.49469613290105,27.396501587524025],[86.49298856624661,27.396547370210616],[86.49155435833448,27.39708166847464],[86.49126375432193,27.3973198670136],[86.4906365920361,27.397719366286694],[86.490305787018,27.398034150619583],[86.49002150079714,27.39846196684758],[86.48973052192406,27.39869791409938],[86.48864313104842,27.399377875914013],[86.48778139065112,27.40039499723981],[86.48727558297583,27.400600813216794],[86.48701811266774,27.400568243750783],[86.48676483225825,27.40065308461342],[86.4863870711517,27.40085264709737],[86.48568651165608,27.401599437180238],[86.48526779805111,27.401839387120525],[86.48424448439647,27.40190560614381],[86.48310231826592,27.40224227977014],[86.48272737134944,27.40251849006331],[86.48244195958698,27.402910233882235],[86.48153044831767,27.403737486466664],[86.48097949714774,27.40386640581306],[86.48059391710235,27.403837839382284],[86.48008948516922,27.404081979630888],[86.47955717344945,27.4047459301076],[86.4789535910405,27.405833881359047],[86.47845585158004,27.406267639040255],[86.47757747327546,27.406828689016905],[86.47630963674361,27.40724832678744],[86.47515790105953,27.407318485053015],[86.47425587975,27.40719095839491],[86.47361383033541,27.4071705219402],[86.47296158475525,27.40684524674713],[86.47223031425918,27.40671159096233],[86.47154843794547,27.406769990737693],[86.47104112836331,27.40693735821613],[86.47016024817414,27.407421572779846],[86.46977610697219,27.407431391823202],[86.46911823309777,27.406952696649036],[86.4684856909442,27.407200839364123],[86.4678581529352,27.40760021363811],[86.46759955634836,27.407531509149642],[86.46672822875529,27.407058692256424],[86.46634408694747,27.40706851261316],[86.46583927972037,27.40731265237561],[86.4655817474502,27.407282333291917],[86.4651870346625,27.40698737664831],[86.46496307352974,27.406686352805117],[86.4647923224904,27.40669016906908],[86.46416221971708,27.407015083641085],[86.4636536593607,27.407144064929966],[86.4635241116755,27.407109681124354],[86.46299603570672,27.406665243847144],[86.46224320240805,27.40714539362787],[86.46185868541706,27.407157464273954],[86.4612802757309,27.40648264783588],[86.46131240794203,27.40617580721457],[86.46121643068379,27.405872969592078],[86.46072167628672,27.405160016102965],[86.46032308596796,27.404749962511016],[86.4598440936099,27.40449533050763],[86.4590546688855,27.403903165373567],[86.45860924729121,27.403380016933887],[86.4584692533393,27.40303866847059],[86.45801751381627,27.40232358897782],[86.45792410131456,27.402097586365894],[86.45754515196774,27.402260888725213],[86.45654247929001,27.402940911481334],[86.45552304413536,27.403122039035523],[86.45527051493174,27.403245202769362],[86.45506513037499,27.403479148481946],[86.45458384158147,27.404411740729962],[86.45373029490743,27.405699565960358],[86.45261283605683,27.40676507809945],[86.45216261591865,27.40735244381632],[86.4502387365172,27.40859314185946],[86.44999033601783,27.408829151683467],[86.44929584329732,27.409767684560936],[86.449004739163,27.410005757816677],[86.44862441313518,27.41013067334772],[86.4479823637076,27.410110112834467],[86.44719925726443,27.409712004322046],[86.446811300608,27.409606665425517],[86.4464281602369,27.409657059161194],[86.44631030818766,27.409965839095474],[86.44643380744462,27.411072287312436],[86.44616228069268,27.41188384138883],[86.44619349271821,27.412802610304944],[86.44608114604605,27.41326493511375],[86.44588314209354,27.413731323748465],[86.44547581197439,27.414316562480305],[86.44511475186205,27.415014896254025],[86.44499858927986,27.41536425053669],[86.44467247478715,27.41583245417462],[86.44446677783047,27.4160686503063],[86.44417454750906,27.416266149309557],[86.4436686144423,27.416471778008656],[86.44338238928465,27.41686345828645],[86.44330755361113,27.4171722997658],[86.44337784090034,27.417973909874775],[86.4433040058066,27.418321199962794],[86.44314895570857,27.418785588079402],[86.44265202919259,27.41925760713169],[86.44249291298291,27.419606836206988],[86.44253976176476,27.420983865263942],[86.44247011778552,27.421446313954434],[86.44235357954962,27.421793417051138],[86.44161250613809,27.42261885546081],[86.4413677952429,27.422970023293257],[86.44129014543294,27.423202217347363],[86.44125932640084,27.42354738147753],[86.44144590114276,27.42400182594154],[86.44197773017888,27.424561483908036],[86.44263798117828,27.42511713907683],[86.44282418160813,27.425571457832444],[86.44304920662603,27.42590874257019],[86.44305308521922,27.426023900569437],[86.44345305107774,27.42647240343309],[86.44378274798854,27.42738335405671],[86.44388741926316,27.427954770406952],[86.444260132588,27.428861345412017],[86.44452786051956,27.429198753436847],[86.4446675419661,27.429540165083996],[86.44477634234242,27.43022674002779],[86.44535594015068,27.430937879914126],[86.44540222760614,27.43231484554145],[86.44560769285593,27.433342645067345],[86.44620555586117,27.434591004795458],[86.44656281836437,27.435039320000374],[86.44739734071517,27.436967939141464],[86.44770670924821,27.437267148070834],[86.44793705120236,27.437757851999436],[86.44800289764368,27.438444240406852],[86.4478902381402,27.438908815072864],[86.4479056244352,27.439367074596245],[86.44779265182292,27.439829336422115],[86.4477692763497,27.440404818224422],[86.44710899819208,27.442374966326938],[86.44712063274714,27.442720317728394],[86.44692600638754,27.443299677448238],[86.44664885131398,27.443959874736127],[86.44649348783247,27.444422012130172],[86.4465012441832,27.444652266587894],[86.4459185543509,27.446392471690817],[86.44593788191824,27.446965889537736],[86.44641120040953,27.448331097477528],[86.44681898548957,27.449007541558103],[86.44712453865932,27.449191592280027],[86.4480293127525,27.44939607897152],[86.44829328813366,27.449618266919764],[86.44850019165408,27.45068451505987],[86.4490826677187,27.451472239215953],[86.44945907077441,27.452496222868565],[86.44986304050262,27.453059821567937],[86.45043394487661,27.453502256983455],[86.45065903244448,27.453841666588435],[86.45077152278648,27.45464114980046],[86.45105864199203,27.455551913828355],[86.45119469483701,27.45577816662217],[86.45150393812678,27.456075062707612],[86.45242065975852,27.456624901358616],[86.45264299523824,27.45688760073179],[86.45292273296627,27.457568047623724],[86.45288778557024,27.45779817754359],[86.452988641642,27.458254498432826],[86.45386240934286,27.458806400355364],[86.45465464902495,27.459473086853507],[86.45483596972491,27.45977398542044],[86.45493407429532,27.46015359636494],[86.45491069799786,27.460729077355786],[86.45551650560049,27.462205378688488],[86.45560966767994,27.4624313817603],[86.45611610150492,27.46222569103715],[86.45720361794676,27.46150765532687],[86.45800240627351,27.461102215062283],[86.4593478305322,27.46041218471242],[86.46052068975985,27.459689896721144],[86.46114610183649,27.459213812046166],[86.46194482771809,27.458808309180135],[86.46339753212554,27.45750478534745],[86.46479727586164,27.455894046866536],[86.4675172537866,27.45413474919171],[86.4676866908188,27.45409023410116],[86.4685216777807,27.453493049582367],[86.46862157717302,27.4526469873373],[86.46860606436981,27.452188728242906],[86.46845712576379,27.451580989375444],[86.46822278079357,27.450975188791542],[86.46781236948331,27.450219722396277],[86.46743446422292,27.449157414747482],[86.46716242030006,27.448707223032876],[86.46640018646661,27.44765473533072],[86.46507830797466,27.44650528829035],[86.46446607649507,27.446101176629597],[86.46424336552329,27.44584079039228],[86.46356134698452,27.444632880859835],[86.46289971990593,27.444038964179754],[86.46244666633768,27.443285560565368],[86.46231467927224,27.44317446724846],[86.46179454630003,27.442960285015438],[86.46166118304093,27.44281080465995],[86.46143077830483,27.44232010123091],[86.4615381220642,27.44170435634522],[86.46198877903936,27.441116928890025],[86.462899915902,27.440249163886545],[86.4637959148159,27.438920889338334],[86.46462946268474,27.43828531848854],[86.46503841774634,27.43773840326588],[86.4652314801816,27.437120656996754],[86.46571946220412,27.436379933888567],[86.4660120046296,27.436180059233706],[86.46639239304412,27.436052955160218],[86.46702293368794,27.43573029110162],[86.46739556597664,27.435375058057527],[86.46840793336766,27.434963613228145],[86.46951838711112,27.433667720231103],[86.46968525946372,27.43354868351378],[86.46996998309794,27.433118616092184],[86.47003493546316,27.43250493561876],[86.47019017363019,27.432040547384506],[86.47091880036982,27.43083349712377],[86.47116857706912,27.430635811184157],[86.47277359774061,27.430054997757097],[86.47311021945755,27.42989144556536],[86.47356819544154,27.42953427330784],[86.47454167549229,27.429237738072697],[86.47501660241772,27.42937714804462],[86.47576213510932,27.42993073978242],[86.47628364304958,27.430185495714063],[86.4771445882164,27.430351159448616],[86.47835491427303,27.43073944729945],[86.47886860416529,27.430763948796653],[86.47989110472038,27.430657155923395],[86.48125798318763,27.43061931675221],[86.48193616778609,27.43044575765385],[86.4822776687274,27.43043800174946],[86.48329378960685,27.43014152805082],[86.48500473233366,27.4301682040861],[86.48603786675534,27.430368313363978],[86.48673162599816,27.430655264468708],[86.4870808830116,27.430875512787566],[86.48730253122292,27.431099763367342],[86.48819718945181,27.432260968680488],[86.48827110504891,27.4331776748271],[86.48850407380323,27.433745025683805],[86.48886127481639,27.434195466700775],[86.48943712050149,27.43475287344176],[86.48978844078049,27.435011445817892],[86.49060805839719,27.43518148587962],[86.4912840537241,27.434931092070418],[86.49167457472453,27.435074754781404],[86.49245924441949,27.435474863766746],[86.49314474768161,27.43549311082226],[86.49365555919215,27.43540232863139],[86.4943329310485,27.435192696227674],[86.49568267094978,27.434617449793596],[86.49636154314969,27.434446079268444],[86.49704585809948,27.43442600244428],[86.4975521038065,27.434220123671793],[86.49823091454451,27.434048753490995],[86.4987194672087,27.433906081055827],[86.49916126457106,27.434539636477034]]]}},{"type":"Feature","properties":{"province":"Koshi Province","district":"Okhaldhunga","municipality":"Siddhicharan Municipality","ward":"9","wardNumber":9,"sourceMunicipality":"Siddhicharan","sourceType":"Nagarpalika"},"geometry":{"type":"Polygon","coordinates":[[[86.48216898741894,27.324514979222922],[86.4825052341601,27.324351427055934],[86.48327439281844,27.32437004882876],[86.4835654963621,27.32413191331684],[86.48440473646606,27.323688023791846],[86.4850797308225,27.323439943414506],[86.4854198552628,27.323393800437692],[86.48625909547019,27.322949973436128],[86.48655019949788,27.32271177528597],[86.48678408824195,27.32205576701642],[86.48698853434169,27.321781121948884],[86.48736492014,27.32154323527379],[86.4879066138205,27.321145674945914],[86.48823116368293,27.320639022379286],[86.48850406514906,27.319865792457538],[86.48924382459691,27.31900396828745],[86.48936148926353,27.318695126497456],[86.4899369412654,27.318029112083465],[86.49014520312403,27.317869625484448],[86.49039854540626,27.31778703562799],[86.49090153823491,27.31750444748367],[86.49186219565732,27.316866874291815],[86.49253468861359,27.316541958352364],[86.49353410723062,27.315789413791144],[86.49370360698263,27.315747149141867],[86.49404867282087,27.31585223900112],[86.49439805436258,27.31607242435462],[86.49559789078648,27.31745587951426],[86.49608132431979,27.31786393078532],[86.49681697419832,27.318150944106225],[86.49717273641313,27.318560810403138],[86.49734730197058,27.3186720282243],[86.49799767022044,27.318960980457263],[86.49867654874402,27.319171097091015],[86.49871781418003,27.319207357576314],[86.49913726854292,27.31837367078062],[86.49962563631686,27.318368663702802],[86.50009982516268,27.31936351248475],[86.5001703653242,27.320338860049496],[86.50038082542522,27.320888081297802],[86.50082755018468,27.32073171809239],[86.50097209642416,27.320271706565006],[86.5009523738842,27.318321446958183],[86.5002842036384,27.314924270117658],[86.49992624634292,27.314008817501943],[86.49992029861332,27.31343546263496],[86.50007359282426,27.312562454664317],[86.50283414440086,27.310705565053585],[86.50389558278411,27.309752210277416],[86.50385850295177,27.309490259372005],[86.50280684304087,27.30787492247527],[86.50195008909897,27.30775452183894],[86.50051386183691,27.306963868263363],[86.49984222258139,27.30578778081066],[86.49949720755262,27.304888146472404],[86.49938734089177,27.303946496365967],[86.49871745924901,27.30322185316743],[86.4984861851982,27.30310138301843],[86.49779855564942,27.302967977413164],[86.4971158672234,27.302985865084256],[86.4967797458878,27.303149479812223],[86.49636078260092,27.303389492413913],[86.49587355100962,27.30413034013349],[86.49562515115068,27.304366474954364],[86.49511696604092,27.304493330358284],[86.49340658500867,27.30442620520331],[86.49256115308565,27.304678226409067],[86.49221965202601,27.30468604464171],[86.49084795836161,27.30453207767898],[86.48998695134854,27.3043258398187],[86.48913363723243,27.3043497945602],[86.48817554454446,27.305064139403655],[86.48751237246067,27.30565532092051],[86.48700806526392,27.305899522869428],[86.48544368311991,27.30636105114775],[86.48481001589793,27.306570932400387],[86.48326907226931,27.30645916753414],[86.48275563304719,27.306434728856456],[86.48249835047169,27.30640209688668],[86.48181459889658,27.306381599018327],[86.48130635080939,27.30651064256135],[86.48079428748878,27.306524589507653],[86.48010665834384,27.30638887043705],[86.47945385013934,27.306025271426304],[86.47840276463036,27.305249430203666],[86.47788432152329,27.30507144676079],[86.47702856817597,27.30501862838843],[86.47672864561618,27.30498812271989],[86.47655420454876,27.30487690440274],[86.47579649282962,27.3052036336518],[86.475417605949,27.305366998712717],[86.47388029040829,27.30537026711064],[86.47310594015329,27.305200350875754],[86.47232777508667,27.30491302545785],[86.47167609326556,27.304587812896052],[86.4710180310573,27.304068417984872],[86.47075830870551,27.303961326492086],[86.4697242368193,27.303682068799173],[86.46908537812092,27.30373834260555],[86.46841038309964,27.303986360943288],[86.467903573841,27.304151477514004],[86.46739682697209,27.304318844536567],[86.46611679490796,27.30435236863416],[86.46547180495092,27.304216711527623],[86.46508022083773,27.303998526735906],[86.46456177775552,27.303820542932016],[86.46392567022441,27.303951276046273],[86.46304103791263,27.304320332087688],[86.46274643061558,27.30444330871908],[86.46197846059124,27.304463010321662],[86.46146145590785,27.30432328802613],[86.46106955934972,27.30410510343272],[86.46080589680427,27.303882915896043],[86.46062651409477,27.303618152773296],[86.46052822261083,27.30323854283207],[86.46029950748452,27.302786224902537],[86.45990410707573,27.302450630786105],[86.45973073000586,27.302379986695538],[86.45900045911478,27.302246268490602],[86.45785397747399,27.302429209770608],[86.45684561366805,27.302915114063783],[86.45573140701505,27.304055211382828],[86.45527499513992,27.304450770256885],[86.45465214735805,27.304965177856452],[86.45419817452772,27.305435196132805],[86.45365535565459,27.30579424476485],[86.45276715724964,27.306048079710628],[86.45187295367275,27.30611010794057],[86.45070432999428,27.30564279651292],[86.45030892984175,27.305309452988762],[86.45003619707938,27.304818624736104],[86.44979734921937,27.304061467298933],[86.44977170375573,27.303296180985793],[86.44991142986804,27.302373532857096],[86.45044267723905,27.301671383325672],[86.45064043137586,27.301204869849716],[86.4508448780834,27.3009326001768],[86.44999056305943,27.30091798008276],[86.44947881242364,27.300929488954832],[86.4483347706761,27.30119132891024],[86.44757843452767,27.301556319574182],[86.44695277331645,27.301991766862578],[86.44637638232486,27.30262152050676],[86.44564319009714,27.30367271281404],[86.44579425539173,27.30435722398246],[86.44581739818818,27.30504580059192],[86.44558075749373,27.30562722439556],[86.4456504194924,27.306428771557172],[86.4464992473371,27.307553967242942],[86.44683250944392,27.30858007689284],[86.44723948068128,27.30925652081194],[86.44759611799216,27.309707086396525],[86.44768909302012,27.309933214572204],[86.44770454280567,27.310393724174613],[86.4479835306615,27.311074233058743],[86.44838699865505,27.311637832293282],[86.44852655529861,27.311979242629025],[86.44841402069247,27.312441504956265],[86.44767300893099,27.313264754852558],[86.44742729876461,27.313577536689014],[86.44723717565861,27.31427199331073],[86.44733021277379,27.314498058101467],[86.44739599646579,27.31518450923291],[86.44748903479157,27.315412825358415],[86.44807050893564,27.31620067503271],[86.44826046260164,27.316770214656444],[86.44822545255693,27.31700028251852],[86.44798111810243,27.317351451082583],[86.44790352989924,27.317583644567172],[86.44800038276944,27.317924868968895],[86.44802352639182,27.318613382856892],[86.4479109906654,27.319075708037893],[86.4479264407541,27.319533967285146],[86.44820549084224,27.320216726982316],[86.44843032760814,27.32055394863841],[86.44865134999621,27.320778324286895],[86.44895515118625,27.320923988177082],[86.45074937476,27.320951163739274],[86.45178213270918,27.321192285130603],[86.45261082025695,27.321705614102978],[86.45382721376278,27.32232434484453],[86.45501397795887,27.323326625188084],[86.45536048248331,27.32347016403747],[86.45570279628521,27.323498543504225],[86.4560429206846,27.323452463507422],[86.45659249550003,27.32328309500748],[86.45761618420313,27.323257700731578],[86.45795493220943,27.323170921598862],[86.45830143755819,27.323314460182285],[86.45878086776004,27.323607540434434],[86.45900213957165,27.323831854180153],[86.45914032020829,27.324134816222397],[86.45936772245172,27.324548747603327],[86.45993662490487,27.324954985820952],[86.46045619379713,27.32517141848579],[86.4616585764995,27.325367899406775],[86.46205272595601,27.325665107819983],[86.46223767496018,27.326081102125627],[86.46241468018174,27.32626690524398],[86.46314513852192,27.326400623790295],[86.46382263503038,27.326229378246328],[86.46516217932196,27.325428690818985],[86.46557707700678,27.325073581906572],[86.46608119687617,27.324829504427896],[86.46693069444775,27.324692766679373],[86.46823891953255,27.32423724320025],[86.46908841787715,27.324098255548083],[86.46993128632744,27.32376964926611],[86.47060984613749,27.323636790401892],[86.47145409052229,27.323346507855472],[86.47188600172045,27.32348810756286],[86.47240444512023,27.323666091157232],[86.47359100280241,27.323404188329775],[86.47393362952731,27.32343256778454],[86.47462663788531,27.32372183208132],[86.47498483951762,27.324208470797576],[86.47512164390353,27.32447304718335],[86.47530390288439,27.324812332443273],[86.47552392383446,27.324998259147513],[86.47595571024536,27.32513979552105],[86.47612633549825,27.32513591792601],[86.47633315850827,27.324938045165204],[86.47649221211978,27.32458875301578],[86.47678437891933,27.32439119153712],[86.47733751959119,27.324336857140533],[86.47785214795857,27.324399681733176],[86.47837709636168,27.324769597023977],[86.48006028523092,27.325297232947904],[86.4804417367004,27.325210578365454],[86.4807389710529,27.325164310946473],[86.48124584207376,27.324999131523057],[86.48216898741894,27.324514979222922]]]}},{"type":"Feature","properties":{"province":"Koshi Province","district":"Okhaldhunga","municipality":"Siddhicharan Municipality","ward":"3","wardNumber":3,"sourceMunicipality":"Siddhicharan","sourceType":"Nagarpalika"},"geometry":{"type":"Polygon","coordinates":[[[86.53334572062357,27.313353927322265],[86.53339352545262,27.311586658572978],[86.53398679219251,27.310656440913434],[86.53547757464482,27.309555350166246],[86.53620751721014,27.308648075557386],[86.53623233761276,27.30852854042975],[86.5366140259134,27.307516301281094],[86.53660788980889,27.306938443934367],[86.5369326863118,27.30622173042451],[86.53882373238372,27.304555344280963],[86.5402569945206,27.303490077106385],[86.54067907366728,27.302568239399715],[86.54076121825221,27.30184164997234],[86.54034679802423,27.300610168895577],[86.53951998173957,27.299749737984623],[86.53941068735632,27.299521422617637],[86.53943012730043,27.299167067914723],[86.53995268635602,27.29859545702036],[86.54071864697612,27.29805172575071],[86.54219105723733,27.297600576500038],[86.54378869250054,27.296565128925877],[86.54467032640959,27.29638294066074],[86.54592960196624,27.29637342304124],[86.54664542594985,27.296260631008067],[86.54703437661611,27.295905272687037],[86.54708875852897,27.295027388917134],[86.5473009594328,27.294890346536803],[86.54783440647083,27.294887527173923],[86.54806773949663,27.29475060888091],[86.54914161459843,27.293404263911103],[86.54939714524863,27.29332605073756],[86.55031217741518,27.293861759703507],[86.55061497562562,27.293790422607717],[86.55063403075926,27.292826639247693],[86.55094644822984,27.29217313160022],[86.55021799048818,27.291972081218955],[86.55027125355164,27.29152982602653],[86.55110767686843,27.29095014560675],[86.55319777876828,27.288099160007],[86.55423051603948,27.286894794499915],[86.55433748399142,27.286285676264978],[86.55345053075064,27.286161025656355],[86.55246329674884,27.286406233487085],[86.55036433842879,27.286485281696162],[86.54902320973146,27.285765460846182],[86.54718038439373,27.284211088842856],[86.54465524722129,27.28279439056227],[86.54236727669351,27.28247094649163],[86.54175523514866,27.282247763591997],[86.54082532872823,27.28206872206243],[86.5396962685703,27.28069489467553],[86.53889333842444,27.280039898532],[86.53851487707429,27.27937733373638],[86.53856101747797,27.279291683518373],[86.53813953454767,27.278195553764107],[86.53742719223948,27.27694719599111],[86.53715432343992,27.275725152487322],[86.53582312522549,27.27424685963809],[86.5327788724958,27.27366566182543],[86.53110137382548,27.273233492066947],[86.52968248037025,27.273425127420982],[86.52832498663263,27.273783935495647],[86.52424437269298,27.27458065447159],[86.5223344857769,27.274811181188273],[86.51968321101377,27.275686968720784],[86.51850728829076,27.276342050034277],[86.51769323996703,27.276409266767537],[86.5167325782368,27.276706177367483],[86.5153557718025,27.27751405528991],[86.5117075915537,27.280036212537407],[86.51025782097246,27.280963501219023],[86.50747320879944,27.28346382902413],[86.50629480139521,27.285292442009546],[86.50800438612245,27.286573861250844],[86.50894412066039,27.287543197038286],[86.51171184383121,27.288787530938162],[86.51296043879955,27.289550302971463],[86.51271010298547,27.289964739676616],[86.51092372157542,27.291728214971492],[86.51035089752527,27.292513952767642],[86.51029677080975,27.29377107207629],[86.51054862879823,27.294898274453516],[86.51085762545799,27.295447870150515],[86.51152809263479,27.297707400361862],[86.51197508102977,27.29848993784069],[86.51243777146772,27.299881966121962],[86.51313238461057,27.30306933067484],[86.51319836120923,27.304031112561272],[86.5127916056917,27.305390766206482],[86.51290248138784,27.306923839449748],[86.51305211093077,27.30774145284511],[86.5136908661844,27.309185994571124],[86.5158271154451,27.31095849019839],[86.51646191868731,27.311484386965287],[86.51969887691456,27.312655692843347],[86.52146922698958,27.313433651350387],[86.52236543815233,27.313872331666005],[86.52333061625801,27.314579903085328],[86.52459728727123,27.31581206246293],[86.52494705039696,27.316456560404895],[86.52589684448155,27.316926999703153],[86.52673534359225,27.31712848683165],[86.52837413154987,27.31699405380626],[86.53055492052191,27.316060129506813],[86.5328599887507,27.31401825269757],[86.53334572062357,27.313353927322265]]]}},{"type":"Feature","properties":{"province":"Koshi Province","district":"Okhaldhunga","municipality":"Siddhicharan Municipality","ward":"11","wardNumber":11,"sourceMunicipality":"Siddhicharan","sourceType":"Nagarpalika"},"geometry":{"type":"Polygon","coordinates":[[[86.52589684448155,27.316926999703153],[86.52494705039696,27.316456560404895],[86.52459728727123,27.31581206246293],[86.52333061625801,27.314579903085328],[86.52236543815233,27.313872331666005],[86.52146922698958,27.313433651350387],[86.51969887691456,27.312655692843347],[86.51646191868731,27.311484386965287],[86.5158271154451,27.31095849019839],[86.5136908661844,27.309185994571124],[86.51305211093077,27.30774145284511],[86.51290248138784,27.306923839449748],[86.5127916056917,27.305390766206482],[86.51181044077167,27.305999080712933],[86.5098820580589,27.30693819070657],[86.50609399783264,27.30840566507815],[86.50552823129473,27.3087083859406],[86.50538055441442,27.308881687905114],[86.50510345262819,27.308903260346536],[86.50389558278411,27.309752210277416],[86.50283414440086,27.310705565053585],[86.50007359282426,27.312562454664317],[86.49992029861332,27.31343546263496],[86.49992624634292,27.314008817501943],[86.5002842036384,27.314924270117658],[86.5009523738842,27.318321446958183],[86.50097209642416,27.320271706565006],[86.50223463288815,27.320942075927743],[86.50361053664608,27.32248638878315],[86.50481094327264,27.32435954979169],[86.50493663029849,27.32545024283308],[86.50595284146955,27.327194118123252],[86.50612528251338,27.327345911037863],[86.50607977544466,27.32807712559083],[86.50532903201128,27.330313603307783],[86.50529639582334,27.330410569690642],[86.50525551287035,27.330868642413346],[86.50484694481652,27.3322350482048],[86.50368579421705,27.334108924133453],[86.50332029658158,27.334949549455477],[86.50326422356505,27.335626561195458],[86.503443301421,27.33642848251666],[86.50348325811177,27.33675589012189],[86.50151164415989,27.33584377043365],[86.49944487541539,27.335310512789544],[86.49871828565469,27.334583370025882],[86.49821891095644,27.33434005409178],[86.49770278176666,27.334238905862165],[86.4968378960885,27.33391757145586],[86.49614976602467,27.333784164715805],[86.4956300089803,27.33356785695965],[86.49357368684979,27.333393454402515],[86.49272162405104,27.333453606767154],[86.49103388702028,27.3340749963506],[86.49069370006727,27.33412113843685],[86.49002145746812,27.334445991717054],[86.48943843626215,27.334881813663557],[86.48842744528906,27.335291195734744],[86.48767267365568,27.335694697337793],[86.48789625990707,27.335995721227274],[86.4882957878559,27.33644409747122],[86.48871483163784,27.337465892839187],[86.48890885072753,27.338150528773518],[86.48909261180371,27.33852807514452],[86.48965888740793,27.33885747839696],[86.4900029521635,27.338924180925815],[86.49188033002883,27.338874582880866],[86.4930840261655,27.339109137910818],[86.49376690288148,27.3390913125889],[86.49478039565484,27.338756390043653],[86.49563364717838,27.338734623339942],[86.49735484853763,27.33910871348019],[86.49804804549197,27.33939560261849],[86.49861857408973,27.339840038536988],[86.49871829984815,27.33994194217346],[86.49960138607547,27.340726100211032],[86.50126601264385,27.34170036716002],[86.50152073736479,27.34210754629292],[86.50333811306069,27.343407343707153],[86.50432711509922,27.34433848066753],[86.50528861403943,27.345698493665747],[86.50642060629539,27.34660537232173],[86.50821552632027,27.347284238502347],[86.50870246187621,27.347714796789035],[86.51068557574702,27.348295131096997],[86.5126721999616,27.349538973889786],[86.51362949618657,27.35000953791741],[86.5151688339408,27.351416558272547],[86.51541210057594,27.35071091102122],[86.51546715679304,27.348866931571283],[86.51528113719586,27.347904776486292],[86.51526265543947,27.34537428394276],[86.5150015400795,27.344021389717934],[86.5147284933772,27.343444911682887],[86.51382220919292,27.342518587264955],[86.51335828667769,27.34238380293082],[86.51148447468212,27.342562377479968],[86.5112483855991,27.342428403389253],[86.5111262095373,27.342035227078313],[86.51206866754727,27.341038486051147],[86.51187821347445,27.34043518625827],[86.51274782357933,27.33889878738118],[86.5135483330271,27.336452497708184],[86.51395281368521,27.333458614833475],[86.5143081185564,27.332536652569477],[86.51508137401144,27.330528178937904],[86.51532713753056,27.32951325307616],[86.51526123595734,27.329341516653894],[86.51531974632368,27.328585543463717],[86.51576769665581,27.32669779730343],[86.5157567390553,27.32564817646695],[86.51546756144297,27.325017432418008],[86.51558978059941,27.324069777603036],[86.51593976660558,27.322849853511233],[86.51876537528447,27.319002003905634],[86.51996761364528,27.317839148741125],[86.52254104970403,27.317069143243973],[86.52311050711673,27.316953727896912],[86.52336466017303,27.316760418234317],[86.52413344125675,27.316636622332492],[86.52514687748146,27.316705505963537],[86.52589684448155,27.316926999703153]]]}},{"type":"Feature","properties":{"province":"Koshi Province","district":"Okhaldhunga","municipality":"Siddhicharan Municipality","ward":"12","wardNumber":12,"sourceMunicipality":"Siddhicharan","sourceType":"Nagarpalika"},"geometry":{"type":"Polygon","coordinates":[[[86.50097209642416,27.320271706565006],[86.50082755018468,27.32073171809239],[86.50038082542522,27.320888081297802],[86.5001703653242,27.320338860049496],[86.50009982516268,27.31936351248475],[86.49962563631686,27.318368663702802],[86.49913726854292,27.31837367078062],[86.49871781418003,27.319207357576314],[86.49867654874402,27.319171097091015],[86.49799767022044,27.318960980457263],[86.49734730197058,27.3186720282243],[86.49717273641313,27.318560810403138],[86.49681697419832,27.318150944106225],[86.49608132431979,27.31786393078532],[86.49559789078648,27.31745587951426],[86.49439805436258,27.31607242435462],[86.49404867282087,27.31585223900112],[86.49370360698263,27.315747149141867],[86.49353410723062,27.315789413791144],[86.49253468861359,27.316541958352364],[86.49186219565732,27.316866874291815],[86.49090153823491,27.31750444748367],[86.49039854540626,27.31778703562799],[86.49014520312403,27.317869625484448],[86.4899369412654,27.318029112083465],[86.48936148926353,27.318695126497456],[86.48924382459691,27.31900396828745],[86.48850406514906,27.319865792457538],[86.48823116368293,27.320639022379286],[86.4879066138205,27.321145674945914],[86.48736492014,27.32154323527379],[86.48698853434169,27.321781121948884],[86.48678408824195,27.32205576701642],[86.48655019949788,27.32271177528597],[86.48625909547019,27.322949973436128],[86.4854198552628,27.323393800437692],[86.4850797308225,27.323439943414506],[86.48440473646606,27.323688023791846],[86.4835654963621,27.32413191331684],[86.48327439281844,27.32437004882876],[86.4825052341601,27.324351427055934],[86.48216898741894,27.324514979222922],[86.48198017848571,27.325245633090884],[86.48233714754531,27.32695788188406],[86.48230614067847,27.327303108056025],[86.48218597448302,27.327537428260275],[86.48221706121772,27.32845394721115],[86.48231798081343,27.32891026771981],[86.48326828988102,27.330493846625657],[86.48345449001427,27.33094822752528],[86.48399363752178,27.331737953360353],[86.48436215940583,27.332531556974278],[86.48462869884197,27.33283045406233],[86.48515871410478,27.333351601258638],[86.48533215469527,27.333424432706693],[86.48586104366625,27.3339071933902],[86.48626832743851,27.334583574604093],[86.48767267365568,27.335694697337793],[86.48842744528906,27.335291195734744],[86.48943843626215,27.334881813663557],[86.49002145746812,27.334445991717054],[86.49069370006727,27.33412113843685],[86.49103388702028,27.3340749963506],[86.49272162405104,27.333453606767154],[86.49357368684979,27.333393454402515],[86.4956300089803,27.33356785695965],[86.49614976602467,27.333784164715805],[86.4968378960885,27.33391757145586],[86.49770278176666,27.334238905862165],[86.49821891095644,27.33434005409178],[86.49871828565469,27.334583370025882],[86.49944487541539,27.335310512789544],[86.50151164415989,27.33584377043365],[86.50348325811177,27.33675589012189],[86.503443301421,27.33642848251666],[86.50326422356505,27.335626561195458],[86.50332029658158,27.334949549455477],[86.50368579421705,27.334108924133453],[86.50484694481652,27.3322350482048],[86.50525551287035,27.330868642413346],[86.50529639582334,27.330410569690642],[86.50532903201128,27.330313603307783],[86.50607977544466,27.32807712559083],[86.50612528251338,27.327345911037863],[86.50595284146955,27.327194118123252],[86.50493663029849,27.32545024283308],[86.50481094327264,27.32435954979169],[86.50361053664608,27.32248638878315],[86.50223463288815,27.320942075927743],[86.50097209642416,27.320271706565006]]]}},{"type":"Feature","properties":{"province":"Koshi Province","district":"Okhaldhunga","municipality":"Siddhicharan Municipality","ward":"4","wardNumber":4,"sourceMunicipality":"Siddhicharan","sourceType":"Nagarpalika"},"geometry":{"type":"Polygon","coordinates":[[[86.55160678113295,27.323846106253157],[86.55186774135014,27.32312013981874],[86.5528629054088,27.322163973107642],[86.55261579652026,27.320908232070515],[86.55246292273647,27.320589453290328],[86.55245647435923,27.31999127772194],[86.55251580195987,27.319537768473452],[86.55397513322175,27.318298638346317],[86.55422972394115,27.318071505409],[86.5543420116891,27.317870945465035],[86.55572512527037,27.316487148611312],[86.55654498235018,27.31598861701278],[86.55773271279764,27.314712541387536],[86.55871344181953,27.31426414855611],[86.55957569379169,27.314056952027503],[86.55968966878332,27.31374129555803],[86.55968203011876,27.3130301499877],[86.55994780685208,27.31244191196195],[86.56022033080616,27.31149025437944],[86.56021507113206,27.3109823550259],[86.5603411777774,27.310811178770766],[86.56007963366842,27.31007677853067],[86.56044335907376,27.30785456002087],[86.56046102715409,27.30608722823726],[86.56086520466216,27.303777108119387],[86.55985486950301,27.301983968570315],[86.55990368211728,27.30083069191387],[86.55930150326054,27.29948124078602],[86.55915730417274,27.29799099290876],[86.55975031877068,27.296902666235706],[86.5597996450866,27.296640964236946],[86.5593202141736,27.29632568939373],[86.55812288887331,27.29567188652849],[86.55740306036424,27.29559512296165],[86.55714577734253,27.295483718293912],[86.5569512020856,27.295255091111],[86.55688310884223,27.294891484662106],[86.55760217874482,27.29435425629987],[86.55873477618213,27.293949249216446],[86.55963502783843,27.292787334942886],[86.56016328052183,27.292500119475562],[86.56188397298304,27.292331674552845],[86.56206466355003,27.292246460101286],[86.56362635395385,27.29161025505866],[86.56558870276568,27.29174946079222],[86.56729095739892,27.292009766906787],[86.56937727990322,27.291524099354927],[86.57120450970407,27.29123624344733],[86.57290257038595,27.29110587326767],[86.57503497593372,27.290855086339043],[86.57561769254593,27.29104194682781],[86.57606243097581,27.29185811864503],[86.57684452819117,27.291655050515935],[86.57771785138844,27.29180439616163],[86.57814806423688,27.291293303276795],[86.57805101560136,27.29039691711038],[86.57865598099048,27.289924708868604],[86.57939356077084,27.28964474259988],[86.57982584060449,27.289327769909416],[86.58021923669847,27.289441736079723],[86.5811839742464,27.289981882474972],[86.58206329964112,27.29012453917747],[86.58276130798339,27.29019648966566],[86.5831302541948,27.290091516629168],[86.58299951485894,27.289840569534142],[86.58250301595957,27.289588564199097],[86.58082142746684,27.28736243095211],[86.58001712675771,27.28705985195231],[86.579780349764,27.286871799603826],[86.5788242866725,27.28529109631204],[86.57843863962957,27.284885919965916],[86.57758106800969,27.28450863158396],[86.57633810824844,27.284317590483862],[86.57456820887963,27.284440897592283],[86.57176913201812,27.285450414089787],[86.56862678008774,27.28479982289914],[86.56615518191823,27.284735770957994],[86.56454215262092,27.28478274079114],[86.56166502694926,27.284428421007995],[86.56013871591175,27.284498146105364],[86.55899729063202,27.284117610652846],[86.5581328468799,27.284060728986336],[86.55671839804269,27.284602592667415],[86.5560508401823,27.28467493366817],[86.55493968401112,27.284793356482414],[86.55455817187323,27.28502686691712],[86.55433748399142,27.286285676264978],[86.55423051603948,27.286894794499915],[86.55319777876828,27.288099160007],[86.55110767686843,27.29095014560675],[86.55027125355164,27.29152982602653],[86.55021799048818,27.291972081218955],[86.55094644822984,27.29217313160022],[86.55063403075926,27.292826639247693],[86.55061497562562,27.293790422607717],[86.55031217741518,27.293861759703507],[86.54939714524863,27.29332605073756],[86.54914161459843,27.293404263911103],[86.54806773949663,27.29475060888091],[86.54783440647083,27.294887527173923],[86.5473009594328,27.294890346536803],[86.54708875852897,27.295027388917134],[86.54703437661611,27.295905272687037],[86.54664542594985,27.296260631008067],[86.54592960196624,27.29637342304124],[86.54467032640959,27.29638294066074],[86.54378869250054,27.296565128925877],[86.54219105723733,27.297600576500038],[86.54071864697612,27.29805172575071],[86.53995268635602,27.29859545702036],[86.53943012730043,27.299167067914723],[86.53941068735632,27.299521422617637],[86.53951998173957,27.299749737984623],[86.54034679802423,27.300610168895577],[86.54076121825221,27.30184164997234],[86.54067907366728,27.302568239399715],[86.5402569945206,27.303490077106385],[86.53882373238372,27.304555344280963],[86.5369326863118,27.30622173042451],[86.53660788980889,27.306938443934367],[86.5366140259134,27.307516301281094],[86.53623233761276,27.30852854042975],[86.53620751721014,27.308648075557386],[86.53547757464482,27.309555350166246],[86.53398679219251,27.310656440913434],[86.53339352545262,27.311586658572978],[86.53334572062357,27.313353927322265],[86.53383365427749,27.31361062224927],[86.53411107709606,27.314209670044807],[86.53405407586658,27.31553449656469],[86.53417688016131,27.316157865578074],[86.53538784819975,27.317728375248805],[86.53614207083875,27.31821844720707],[86.5368200788416,27.318816552847363],[86.53723049381222,27.31979527249134],[86.53758544569087,27.320369812446803],[86.53777302334849,27.32100468369943],[86.5376640677661,27.322505375056366],[86.53759343083647,27.323482475279047],[86.53864853937793,27.325725120975854],[86.53860979230747,27.326858079692876],[86.53881795175197,27.328242420165683],[86.5390855570368,27.32871055518734],[86.54047981152138,27.328162127262274],[86.54233417440685,27.327660271212114],[86.54259083188043,27.327697216963806],[86.54280591337007,27.327867201706233],[86.54294146859331,27.328246874225403],[86.5430510243371,27.32930136941024],[86.54399613782081,27.330324658820093],[86.54438079607726,27.331463550701404],[86.54490674760952,27.332018270253215],[86.54549727718938,27.332015637795564],[86.54577224995786,27.331763747821284],[86.5459441186225,27.331288043865527],[86.54573526413863,27.32942743804438],[86.54546065100081,27.328573315133152],[86.545453826465,27.3279231243879],[86.54570277943355,27.32699403601515],[86.54569263992053,27.326296519039957],[86.5454891767982,27.325354620578736],[86.54523813979486,27.324861728391085],[86.54534354937081,27.32456870421954],[86.54588605922282,27.32440333658929],[86.54783984303626,27.324610562196064],[86.55138826352116,27.323899624140005],[86.55160678113295,27.323846106253157]]]}},{"type":"Feature","properties":{"province":"Koshi Province","district":"Okhaldhunga","municipality":"Siddhicharan Municipality","ward":"8","wardNumber":8,"sourceMunicipality":"Siddhicharan","sourceType":"Nagarpalika"},"geometry":{"type":"Polygon","coordinates":[[[86.5127916056917,27.305390766206482],[86.51319836120923,27.304031112561272],[86.51313238461057,27.30306933067484],[86.51243777146772,27.299881966121962],[86.51197508102977,27.29848993784069],[86.51152809263479,27.297707400361862],[86.51085762545799,27.295447870150515],[86.51054862879823,27.294898274453516],[86.51029677080975,27.29377107207629],[86.51035089752527,27.292513952767642],[86.51092372157542,27.291728214971492],[86.51271010298547,27.289964739676616],[86.51296043879955,27.289550302971463],[86.51171184383121,27.288787530938162],[86.50894412066039,27.287543197038286],[86.50800438612245,27.286573861250844],[86.50629480139521,27.285292442009546],[86.50520358697804,27.285250317523843],[86.50398732966907,27.285415317102075],[86.5031677777905,27.285421453412056],[86.50231852204493,27.28500540327924],[86.50165545844925,27.284472629986904],[86.49998412721644,27.282426173531803],[86.49935920327071,27.28199730463551],[86.49871727146795,27.281412703233755],[86.49856102527967,27.28132411602811],[86.49731612748073,27.281127760084253],[86.49665837790745,27.28060855314262],[86.49608816185606,27.280164053628557],[86.49565787724947,27.28006096641203],[86.49485633599141,27.280351560832123],[86.49468971390874,27.2804705974377],[86.49367109264836,27.280651974964137],[86.49319535233607,27.280471989893694],[86.4927249293178,27.280447676134376],[86.49259062659583,27.28025987241172],[86.49264469563171,27.27933910148363],[86.49288515273886,27.27887271137178],[86.49286601246655,27.278299356397792],[86.49249367522178,27.27739059344504],[86.49192239549502,27.27691002127767],[86.49122963647703,27.27662081941916],[86.49072295253977,27.276788312366147],[86.49026397622946,27.27710716131656],[86.48992679096003,27.27723007614219],[86.48916288752095,27.277364999121435],[86.48774354892225,27.277059613174163],[86.4868905473967,27.27708362956709],[86.48536541113437,27.276166128126583],[86.48457705094606,27.275576401025244],[86.48405629255394,27.27532164541441],[86.48354429254464,27.275335592508473],[86.4825334884158,27.275744912095412],[86.48219211372052,27.27575498141232],[86.48184711046488,27.275647641231465],[86.48145283626931,27.275352746446405],[86.4813365485231,27.27569991174165],[86.48128587457937,27.27799758715624],[86.48189043053979,27.27947376371522],[86.48196027997906,27.28027756116451],[86.48184762046972,27.28073988574907],[86.48168875475592,27.28108692702051],[86.48175042846563,27.28292221431417],[86.48168460009217,27.283499822577696],[86.4813664921949,27.284196154899217],[86.48107945451494,27.284549449374307],[86.48092409174305,27.285011649319667],[86.48085826281876,27.285586944458558],[86.48061380337342,27.285938237510045],[86.47958218875166,27.286999810497882],[86.47938812571252,27.287579170221168],[86.47946120116973,27.291021679982766],[86.47930621387835,27.29148606835574],[86.47902299097963,27.2919522708717],[86.47832839148717,27.29415273707137],[86.47821704594261,27.29465344809086],[86.47827913951772,27.295224739515962],[86.47833729250941,27.295683248988],[86.47806539088211,27.296494739546524],[86.47791284298171,27.297033649594713],[86.47793617350143,27.297722164299394],[86.47845163250392,27.299085183615926],[86.47828882628913,27.29931931665407],[86.47803792296006,27.299478678157918],[86.47748709729481,27.299609785995152],[86.47706813482363,27.2998497980448],[86.47681723215968,27.300009097915712],[86.47648880415117,27.300400591790616],[86.47619669977287,27.300600403250755],[86.47603389277145,27.30083453667739],[86.47591860577381,27.301220088318587],[86.47613558038418,27.302593301627866],[86.4767171804804,27.303380963666235],[86.47694595847281,27.303833344048343],[86.47696153339453,27.30429154060987],[86.47688375792897,27.304523734265896],[86.47655420454876,27.30487690440274],[86.47672864561618,27.30498812271989],[86.47702856817597,27.30501862838843],[86.47788432152329,27.30507144676079],[86.47840276463036,27.305249430203666],[86.47945385013934,27.306025271426304],[86.48010665834384,27.30638887043705],[86.48079428748878,27.306524589507653],[86.48130635080939,27.30651064256135],[86.48181459889658,27.306381599018327],[86.48249835047169,27.30640209688668],[86.48275563304719,27.306434728856456],[86.48326907226931,27.30645916753414],[86.48481001589793,27.306570932400387],[86.48544368311991,27.30636105114775],[86.48700806526392,27.305899522869428],[86.48751237246067,27.30565532092051],[86.48817554454446,27.305064139403655],[86.48913363723243,27.3043497945602],[86.48998695134854,27.3043258398187],[86.49084795836161,27.30453207767898],[86.49221965202601,27.30468604464171],[86.49256115308565,27.304678226409067],[86.49340658500867,27.30442620520331],[86.49511696604092,27.304493330358284],[86.49562515115068,27.304366474954364],[86.49587355100962,27.30413034013349],[86.49636078260092,27.303389492413913],[86.4967797458878,27.303149479812223],[86.4971158672234,27.302985865084256],[86.49779855564942,27.302967977413164],[86.4984861851982,27.30310138301843],[86.49871745924901,27.30322185316743],[86.49938734089177,27.303946496365967],[86.49949720755262,27.304888146472404],[86.49984222258139,27.30578778081066],[86.50051386183691,27.306963868263363],[86.50195008909897,27.30775452183894],[86.50280684304087,27.30787492247527],[86.50385850295177,27.309490259372005],[86.50389558278411,27.309752210277416],[86.50510345262819,27.308903260346536],[86.50538055441442,27.308881687905114],[86.50552823129473,27.3087083859406],[86.50609399783264,27.30840566507815],[86.5098820580589,27.30693819070657],[86.51181044077167,27.305999080712933],[86.5127916056917,27.305390766206482]]]}},{"type":"Feature","properties":{"province":"Koshi Province","district":"Okhaldhunga","municipality":"Siddhicharan Municipality","ward":"1","wardNumber":1,"sourceMunicipality":"Siddhicharan","sourceType":"Nagarpalika"},"geometry":{"type":"Polygon","coordinates":[[[86.63335686818041,27.25816248467742],[86.63327939601108,27.25780338042145],[86.63316290840028,27.257324553623103],[86.63297989766885,27.256892929261962],[86.63270485302166,27.25652432480662],[86.63218621913062,27.25610764576018],[86.63176193589602,27.255986865704536],[86.63104792415497,27.256034701302266],[86.63018210922097,27.256260402732146],[86.62957038554433,27.256292669776727],[86.62868999387484,27.255947265970896],[86.6277803983676,27.255163860016467],[86.6272865248259,27.25491873136626],[86.62634611650147,27.254873354343328],[86.62575915119426,27.25489436776699],[86.62527616303237,27.255060172192017],[86.62498536886017,27.25506386381134],[86.62428598578954,27.254980785871567],[86.62373796899404,27.254767104322962],[86.62302707785705,27.254451458122883],[86.62232725059813,27.253941753848185],[86.62184818795464,27.253215859809682],[86.62108050113915,27.25119583858603],[86.62081087924821,27.249691775672634],[86.62091577014986,27.24817520399854],[86.62112089154896,27.247078754588706],[86.62178622717876,27.24485940820369],[86.62179316090823,27.244401211346023],[86.62170750053801,27.24415720331603],[86.6214184512869,27.243802039282087],[86.62112646528483,27.243532589429893],[86.62077733407943,27.24334435012919],[86.61990919495767,27.24287247286355],[86.61836087000775,27.24246199530775],[86.6178423693633,27.242591539564952],[86.61745741469016,27.242558847513735],[86.61661216951254,27.242757415819934],[86.61639621655415,27.242860698302],[86.61558667827757,27.24344312924441],[86.61442225647188,27.243855389122654],[86.61350286216688,27.24425232905123],[86.61298054689176,27.244381810845912],[86.61272101549305,27.244493972165444],[86.61174297142095,27.244685415058903],[86.61116963345285,27.244505493439924],[86.61065581211834,27.244002977486556],[86.6104402909207,27.243702142214246],[86.6101314089564,27.242464345170486],[86.60965797376237,27.241711379162115],[86.6091869202352,27.241348903639675],[86.60883772636898,27.24118767348023],[86.60851410689716,27.24111002939898],[86.60690889292795,27.241180068655677],[86.60619850563575,27.24112843714537],[86.60525990802431,27.240954209663506],[86.60496161169121,27.240944397935746],[86.60487726720076,27.240885444016467],[86.60456427642065,27.24083493332041],[86.602997261562,27.240731295840988],[86.60212806845847,27.240848403634693],[86.60169872646411,27.241034525769862],[86.60093332922237,27.241700480061617],[86.60059189870475,27.242187127257967],[86.60024952685629,27.24241188500367],[86.59958591065444,27.24259957279936],[86.59908003651918,27.242562067321785],[86.59864612464875,27.242425345632764],[86.59662142794107,27.24140832108361],[86.5960519616348,27.24088079757612],[86.59579867828933,27.240724317813747],[86.5950165020733,27.23982143663915],[86.59484155835901,27.239495906054582],[86.5946019043422,27.239235581748407],[86.59431591632944,27.238706617861883],[86.5938877420592,27.23759479672146],[86.59367796905062,27.23703663523143],[86.59306941597589,27.235879178020546],[86.592593418276,27.235173539222064],[86.59244341919276,27.234751041969027],[86.59196710811361,27.23403858799374],[86.59054381705118,27.232820122862993],[86.58993415095473,27.232504537237393],[86.58937769412532,27.232302046873155],[86.58883324249307,27.232212465002593],[86.58774658677288,27.231807483291075],[86.58722370836503,27.231862380697784],[86.58684769845352,27.232050878550524],[86.58642198487634,27.232446937022434],[86.58556936775148,27.233051624379513],[86.5851290214542,27.233224117989757],[86.58468817259975,27.23327019888661],[86.58378558925261,27.233123104471083],[86.5833026613119,27.233117170404476],[86.58232254729023,27.232861481822013],[86.58116237355767,27.233049863347087],[86.58052763992599,27.233036741826773],[86.58004277362723,27.23295853753289],[86.57933763632256,27.23276680180551],[86.57843123879388,27.232639962976336],[86.57822585061628,27.23261001935795],[86.57770784552588,27.232445914968984],[86.57640048934897,27.232408169340808],[86.5760227271474,27.23247925677222],[86.57568816961917,27.232710828498647],[86.57540626181914,27.233226795923265],[86.575271843108,27.233628165055276],[86.57498311862633,27.234096805807592],[86.57465513313234,27.234775259567524],[86.57438728705233,27.23490536259189],[86.57387153641744,27.235052787410986],[86.57325874953747,27.235066735756963],[86.57262507684806,27.234945208096562],[86.5726206384895,27.234942957093146],[86.57048352799593,27.234130619309482],[86.56936117097426,27.233594474878096],[86.56875531478708,27.23303281733019],[86.56849934337392,27.23285595594283],[86.56774699218477,27.23208167490487],[86.56700946382834,27.231535460995467],[86.56652984605829,27.23124050510058],[86.5660109660665,27.23113960649987],[86.56476907573978,27.23140888741751],[86.56240802074622,27.23142185623951],[86.56206145795363,27.231547272566953],[86.56149894615304,27.232037547573004],[86.56275091616267,27.23268253499136],[86.56350439572928,27.233729958548054],[86.56356398460638,27.234080060710465],[86.56344883027822,27.234962258142],[86.56321694466811,27.23574480272245],[86.5634225316499,27.236533219211093],[86.56335676627324,27.237135647287143],[86.5633960435233,27.23799352355844],[86.56332821347218,27.23854637377751],[86.56319473365389,27.238954495069724],[86.56278778311845,27.239772615416445],[86.56273477992978,27.24089432033333],[86.56247112765132,27.241322386158796],[86.56237591241917,27.24186379577292],[86.56218910010507,27.24225147471281],[86.56174906943654,27.24271961726307],[86.56148216391529,27.24300320394669],[86.56101775765859,27.243985872565055],[86.56061392760294,27.244409001411846],[86.55992561815442,27.24484026078127],[86.55735181434505,27.2460172612863],[86.55719919937806,27.246215384341596],[86.55700819683989,27.246609814426492],[86.55651971120963,27.247037132890963],[86.556229231542,27.247205498498637],[86.55601534671379,27.247575046581613],[86.55603566856472,27.24769927076734],[86.55610901422416,27.248155403082812],[86.55647196801553,27.24866217324334],[86.55649141411968,27.24877739400435],[86.55624270955595,27.2496365870276],[86.55622852018439,27.249864528604622],[86.55627985421508,27.249982062970613],[86.5565862853301,27.250416436286113],[86.55735695182013,27.250971903040597],[86.55761930294757,27.251304497201353],[86.55770358865936,27.251627590872648],[86.55769446821962,27.252182816801596],[86.55781683119828,27.252528542040825],[86.55791955868442,27.25267108235765],[86.55832890113189,27.253015490891386],[86.55872849353361,27.2535178219245],[86.55929290021783,27.254368314058127],[86.55967954763317,27.254717099511538],[86.55998485273695,27.255101834501023],[86.56106621496659,27.25689966115675],[86.56123609655783,27.257378800400026],[86.56125773476026,27.257751284639],[86.56088028643222,27.257948721942473],[86.55997495577704,27.258081333257266],[86.55906931107997,27.258161992661957],[86.55844633150848,27.258085602673695],[86.55763673858878,27.259236512496006],[86.55771360423863,27.26098833865313],[86.5571199710424,27.262503352172782],[86.55712648204214,27.263101527373674],[86.55842073025053,27.26462470920832],[86.55912006066953,27.265369482214812],[86.56178728283895,27.264779590509193],[86.5620223700152,27.26481653588725],[86.56369978138784,27.26364792334137],[86.56431212955412,27.263457985483598],[86.56505890348662,27.263453537855902],[86.56622596111785,27.263676089694105],[86.56683011748918,27.263490528079227],[86.5675982061425,27.26302119384239],[86.5698024460527,27.262531336690767],[86.57138364981536,27.26237133316811],[86.57248661812729,27.262361192778396],[86.57540882653889,27.262968148603154],[86.5773676663881,27.262626462650474],[86.57798858280127,27.262666655160295],[86.57959967317785,27.26253378456361],[86.58008191332624,27.262593921430337],[86.5809495461096,27.26270256758182],[86.58289844380437,27.262241096962843],[86.58426551160542,27.262434763031926],[86.58499234673053,27.262791295719673],[86.58562132676325,27.262691572056973],[86.58745618766561,27.262678859063538],[86.5886166196844,27.263016318807214],[86.59014838753545,27.264208088678636],[86.59132269809876,27.264448520086606],[86.59279787728802,27.265242860313062],[86.59353045866021,27.265235912507357],[86.59456301351538,27.264356329267205],[86.59570861990889,27.264244470907034],[86.59749645789024,27.263791378794906],[86.59892491931079,27.263698396872144],[86.59977497796015,27.263414115811074],[86.6007508271638,27.262829995069655],[86.60163839207145,27.262019934551805],[86.60208505362593,27.261883514307996],[86.60357003702613,27.261871868331582],[86.60594133843973,27.26131873986112],[86.60619586718262,27.261202077514408],[86.60664796426505,27.260769945357666],[86.60763169883661,27.260614638125492],[86.6090402669663,27.25978787875193],[86.60974270993543,27.259625072820334],[86.61060708135605,27.259033826041613],[86.61114277602319,27.258868271502386],[86.6115511769968,27.25892803398781],[86.61290912298719,27.25957283198094],[86.61303241799546,27.25952581689781],[86.6142386036044,27.259057352074226],[86.61552038392654,27.25879901149252],[86.61732961125291,27.258783672691326],[86.61915303850049,27.259244473078084],[86.62026813440619,27.259168500026604],[86.62114882729833,27.25877581195943],[86.62140454640362,27.25877424567902],[86.62159811959197,27.25888765142119],[86.62160424522787,27.258822195184276],[86.62193861884363,27.25882763023377],[86.62326586251922,27.259237484180577],[86.62388884168882,27.259232288157364],[86.6246245535291,27.259500670431294],[86.62542572458123,27.259638263641147],[86.6258628245709,27.25971390531656],[86.62776870578251,27.259319391491974],[86.63230942700325,27.258604440190542],[86.63335686818041,27.25816248467742]]]}},{"type":"Feature","properties":{"province":"Koshi Province","district":"Okhaldhunga","municipality":"Siddhicharan Municipality","ward":"2","wardNumber":2,"sourceMunicipality":"Siddhicharan","sourceType":"Nagarpalika"},"geometry":{"type":"Polygon","coordinates":[[[86.58499234673053,27.262791295719673],[86.58426551160542,27.262434763031926],[86.58289844380437,27.262241096962843],[86.5809495461096,27.26270256758182],[86.58008191332624,27.262593921430337],[86.57959967317785,27.26253378456361],[86.57798858280127,27.262666655160295],[86.5773676663881,27.262626462650474],[86.57540882653889,27.262968148603154],[86.57248661812729,27.262361192778396],[86.57138364981536,27.26237133316811],[86.5698024460527,27.262531336690767],[86.5675982061425,27.26302119384239],[86.56683011748918,27.263490528079227],[86.56622596111785,27.263676089694105],[86.56505890348662,27.263453537855902],[86.56431212955412,27.263457985483598],[86.56369978138784,27.26364792334137],[86.5620223700152,27.26481653588725],[86.56178728283895,27.264779590509193],[86.55912006066953,27.265369482214812],[86.55628746575253,27.265997137175805],[86.55452588255052,27.266079619347234],[86.55244880483997,27.266009873737527],[86.55110130911852,27.26596493857719],[86.5506922206409,27.26592749519556],[86.55025687267089,27.26591030736556],[86.54898059342392,27.26607324547164],[86.5472750907194,27.266013622120383],[86.54523614232849,27.265271241001642],[86.54366093666371,27.26516454048262],[86.54245649042153,27.264919107715752],[86.54183889028664,27.265045776532656],[86.53987143992866,27.266594566656288],[86.53848688188333,27.267501974331147],[86.53596402148891,27.26787292517415],[86.53474313362841,27.267765032589075],[86.53139102957041,27.267986448409495],[86.53048232883985,27.268579321068163],[86.52966842423068,27.269912846712284],[86.5282416020847,27.270939664180432],[86.52710981231,27.27102614069373],[86.52461201863998,27.27104029804188],[86.52174923351761,27.272233681482533],[86.51893660129615,27.274090821576188],[86.51699021800545,27.27547237443588],[86.51578266549228,27.27665098479414],[86.5153557718025,27.27751405528991],[86.5167325782368,27.276706177367483],[86.51769323996703,27.276409266767537],[86.51850728829076,27.276342050034277],[86.51968321101377,27.275686968720784],[86.5223344857769,27.274811181188273],[86.52424437269298,27.27458065447159],[86.52832498663263,27.273783935495647],[86.52968248037025,27.273425127420982],[86.53110137382548,27.273233492066947],[86.5327788724958,27.27366566182543],[86.53582312522549,27.27424685963809],[86.53715432343992,27.275725152487322],[86.53742719223948,27.27694719599111],[86.53813953454767,27.278195553764107],[86.53856101747797,27.279291683518373],[86.53851487707429,27.27937733373638],[86.53889333842444,27.280039898532],[86.5396962685703,27.28069489467553],[86.54082532872823,27.28206872206243],[86.54175523514866,27.282247763591997],[86.54236727669351,27.28247094649163],[86.54465524722129,27.28279439056227],[86.54718038439373,27.284211088842856],[86.54902320973146,27.285765460846182],[86.55036433842879,27.286485281696162],[86.55246329674884,27.286406233487085],[86.55345053075064,27.286161025656355],[86.55433748399142,27.286285676264978],[86.55455817187323,27.28502686691712],[86.55493968401112,27.284793356482414],[86.5560508401823,27.28467493366817],[86.55671839804269,27.284602592667415],[86.5581328468799,27.284060728986336],[86.55899729063202,27.284117610652846],[86.56013871591175,27.284498146105364],[86.56166502694926,27.284428421007995],[86.56454215262092,27.28478274079114],[86.56615518191823,27.284735770957994],[86.56862678008774,27.28479982289914],[86.57176913201812,27.285450414089787],[86.57456820887963,27.284440897592283],[86.57633810824844,27.284317590483862],[86.57758106800969,27.28450863158396],[86.57843863962957,27.284885919965916],[86.5788242866725,27.28529109631204],[86.579780349764,27.286871799603826],[86.58001712675771,27.28705985195231],[86.58082142746684,27.28736243095211],[86.58230477874551,27.286931224034028],[86.58265296236506,27.286453704807915],[86.58272841007825,27.28528017254022],[86.58297855378271,27.284585652836196],[86.58437435346444,27.282811115730247],[86.58478361880044,27.28213741331315],[86.58501012842726,27.2813458037019],[86.58517102243509,27.27863756958364],[86.58585250939267,27.277702849655608],[86.5870664703912,27.274505647077476],[86.58705058733074,27.274352101864167],[86.5869218967448,27.27310573799953],[86.58712338504598,27.271544339314477],[86.58705997721744,27.270930160380136],[86.5860285823157,27.26986173397855],[86.58569882354624,27.26900073461585],[86.58557069359468,27.267623456884614],[86.5849209336636,27.26622430413647],[86.58507088809131,27.263660550606687],[86.58499234673053,27.262791295719673]]]}}]}