{"type":"FeatureCollection","features":[{"type":"Feature","properties":{"province":"Koshi Province","district":"Khotang","municipality":"Aiselukharka Rural Municipality","ward":"7","wardNumber":7,"sourceMunicipality":"Ainselukhark","sourceType":"Gaunpalika"},"geometry":{"type":"Polygon","coordinates":[[[86.74651125722798,27.36438588118387],[86.74723290618158,27.3649085882278],[86.74895373178623,27.36520959157348],[86.74907771656497,27.365293302561703],[86.74964461992764,27.36573223669542],[86.75002788777176,27.365888652728316],[86.75077641544958,27.366014117419045],[86.75081055343263,27.366018680635886],[86.75108734547919,27.3661658457532],[86.75247085783185,27.366385017549785],[86.75310478565983,27.3668308274421],[86.75384399802775,27.36699911740829],[86.7555664585886,27.367866663291043],[86.75681179132246,27.367807880213963],[86.75776082371956,27.36752734789333],[86.75818404115869,27.36752803037792],[86.75869979417605,27.367531212089897],[86.7597218647973,27.36799339773865],[86.76030958258329,27.368055345341922],[86.76172072173948,27.367757552831133],[86.76279836232433,27.367357546966844],[86.76409171037515,27.367167849478612],[86.76411515599597,27.367152094471713],[86.76467373121353,27.366764786683316],[86.76562381348161,27.3657122157629],[86.7658017473012,27.365238512466878],[86.76603911458183,27.363245799569487],[86.76629938721854,27.36255546894196],[86.76686526896466,27.361698647989122],[86.76742608044275,27.36039494518433],[86.76804848303676,27.359538185748423],[86.76838947106059,27.358780334242745],[86.76839109167838,27.358434983478627],[86.76825372208444,27.358060062779355],[86.76731029644797,27.357056279921018],[86.76709989488145,27.35628624411177],[86.76701809699037,27.355189110896212],[86.76738553566669,27.354600558259495],[86.76790984774375,27.354287647425046],[86.7688389373974,27.35410633291493],[86.77058901866131,27.354111437170122],[86.77289190336462,27.352474177277468],[86.7737744845727,27.352931549650076],[86.77416162716345,27.35293217060439],[86.77492240074297,27.35253835794851],[86.77621825122317,27.35241624313851],[86.77725036991157,27.351751972342747],[86.77832476870628,27.35191619457669],[86.77879444053976,27.351876238707476],[86.77875621828359,27.350571544081156],[86.77797334253015,27.349033165165824],[86.77824342033477,27.34765219458305],[86.77882279097024,27.345802144612815],[86.77896100791368,27.344420924774482],[86.77885402177823,27.343890333149528],[86.77960222759688,27.343417434446206],[86.78030391885314,27.343145345448683],[86.77946304472641,27.34301769369732],[86.77890833899242,27.342933364304784],[86.77818212735075,27.342494307366003],[86.77636451977446,27.3423786084345],[86.77610917353975,27.342263077860355],[86.77587670679169,27.341878968079644],[86.77607151514262,27.341005709744323],[86.77607437577431,27.3400509294167],[86.77590406060897,27.339897136360058],[86.77557325101087,27.33989664016567],[86.77468086867928,27.340387296243517],[86.77411678692906,27.34044281906322],[86.77325827777204,27.34012092367335],[86.77271075701411,27.339673111087738],[86.77169823784082,27.338308098499404],[86.77132783683172,27.337431721834154],[86.77120434320149,27.33675883832351],[86.77203256984662,27.335769287106203],[86.77209721475556,27.33554140691561],[86.77203381315799,27.33531102743284],[86.77177877757985,27.335044265270646],[86.77092645781984,27.33466141400243],[86.77007320523347,27.334583276813706],[86.76996722511477,27.334355149126818],[86.77036642081278,27.333529651525513],[86.77018128223095,27.333028194454055],[86.76909576008313,27.333157370482745],[86.76699117115197,27.333013980638974],[86.7661744266836,27.33257473718162],[86.76599185135412,27.33208009435006],[86.76619196497674,27.330676430252687],[86.7657466698175,27.33027619271866],[86.7645860229243,27.328249488371004],[86.7629133798085,27.32647255101803],[86.76258775660168,27.326277872222775],[86.75991870307367,27.325720367734903],[86.75920174352433,27.32518421923678],[86.75900785421501,27.324833931635343],[86.75883733942345,27.323903660911913],[86.75896499287481,27.32273687959288],[86.75889783670111,27.322371147834215],[86.75854632900406,27.322160590944595],[86.75803133043702,27.322313205055284],[86.75666572713219,27.323888684187626],[86.75597973305878,27.324397654366855],[86.75555645411927,27.324523259231125],[86.7542644754747,27.324302085765982],[86.7534214076468,27.323795010318612],[86.75288045109203,27.3233087496651],[86.75226451266487,27.32177280651191],[86.75184458597141,27.32037258817277],[86.75096049364146,27.31931235127311],[86.7503642059155,27.318956941897582],[86.74917057406445,27.318598163925355],[86.74903902385648,27.318496385988052],[86.74887758756893,27.318374164995955],[86.74866188282718,27.318330905007837],[86.7481496310538,27.318257764410856],[86.74789222083078,27.318106098041618],[86.7477199041541,27.317898164287232],[86.74724358552363,27.31672351351209],[86.74660140026496,27.315995495540772],[86.74612265831351,27.315784752237725],[86.74537813208346,27.315623152062813],[86.74453495153706,27.31593312862244],[86.7438964208336,27.31694093217564],[86.74516315454868,27.318067308481933],[86.74536742216779,27.318426598941482],[86.74499099960607,27.3201933099207],[86.74415960481383,27.322494245791162],[86.74411571545411,27.322616031876265],[86.74403308553786,27.32424332254895],[86.74401252285185,27.324658632346065],[86.74401064658944,27.324663133802673],[86.74391505253828,27.324879698693838],[86.74309245922215,27.326234793885728],[86.74259360950082,27.327615267402987],[86.7416302818475,27.32930196199848],[86.7406583258235,27.33100441148092],[86.74051992140646,27.332374252335832],[86.74067054259169,27.332546175730418],[86.7410019337827,27.333806228571536],[86.74128469363444,27.335738917476807],[86.74102529240795,27.336165108128593],[86.74021913073648,27.33677754813017],[86.73992434114363,27.337181107828744],[86.73994413143346,27.339323236205765],[86.74079287282724,27.342697152734182],[86.74066045520891,27.34313021831441],[86.74074805430271,27.34336066031563],[86.7408168368165,27.34382123160884],[86.7411347166272,27.344652409205732],[86.7410630754322,27.345288909418898],[86.74039048022108,27.347016674803623],[86.73887864853282,27.349397517598256],[86.7374108192222,27.350891348824476],[86.73694778591661,27.35161956863984],[86.73729398264231,27.352073947694524],[86.737339072839,27.352809912735978],[86.73639993179233,27.353862170619646],[86.73110059572286,27.353166033536073],[86.72768783214703,27.352717068858695],[86.7262315993519,27.3521048449503],[86.72455734999572,27.351616285290216],[86.7219746425101,27.35113042517168],[86.72276720163282,27.352260622218452],[86.72318118701577,27.35355480932608],[86.72368394571602,27.35431421301851],[86.72470710553897,27.35642894564896],[86.72540587935924,27.357437045077933],[86.72650613907527,27.360177272416244],[86.72682648273424,27.362586287847833],[86.72580224333163,27.367385396409514],[86.7256040537465,27.367886108745225],[86.72574711557141,27.36848453244575],[86.72615814476838,27.368665893101397],[86.72690367120782,27.368809550735715],[86.72890721428593,27.368366520086823],[86.72920282288905,27.36831518894996],[86.73014334652984,27.367718814583085],[86.73206859074212,27.366004725400895],[86.73433596938908,27.36477427292765],[86.73526149147129,27.364423908554524],[86.73577405361996,27.36431880892912],[86.73930054080176,27.364395287384347],[86.74392361468844,27.364225429529988],[86.7454416634203,27.363614230532402],[86.74651125722798,27.36438588118387]]]}},{"type":"Feature","properties":{"province":"Koshi Province","district":"Khotang","municipality":"Aiselukharka Rural Municipality","ward":"1","wardNumber":1,"sourceMunicipality":"Ainselukhark","sourceType":"Gaunpalika"},"geometry":{"type":"Polygon","coordinates":[[[86.84622797174958,27.44107822192682],[86.84650319467708,27.44082795762938],[86.8467960988108,27.439837350963245],[86.84880705882597,27.437997597167772],[86.84965628444911,27.43649070639978],[86.8501289333315,27.43492692913867],[86.85099098204952,27.43377895645308],[86.85119298225882,27.43310200504788],[86.8513933547922,27.432233184499268],[86.8513543405126,27.428432007765124],[86.85154083507378,27.427775313248823],[86.85090979602111,27.42430761658533],[86.85091359433886,27.42334827255643],[86.85062603257686,27.422246452801506],[86.84884728110154,27.420199563240985],[86.84702705837812,27.41706910611568],[86.84652159420168,27.41534179411724],[86.84555189621531,27.41365006064848],[86.8455472076891,27.413645558647442],[86.8445426978886,27.412737056023165],[86.8437560875946,27.412262177105802],[86.84228433425608,27.410849844581854],[86.8389114495223,27.409740000154603],[86.83757025714353,27.40909289046191],[86.83660876390361,27.408225023014325],[86.83413086157319,27.405086885056523],[86.83297225634796,27.40178774529797],[86.83114610285166,27.395296052299035],[86.83092862257294,27.393787986923204],[86.83099732167516,27.39291679337501],[86.83206548504252,27.390342586668734],[86.83222228276861,27.38969720798593],[86.83238628434573,27.3860813329358],[86.83217194112726,27.385257156220753],[86.83195886024073,27.385062789294984],[86.83144704396969,27.384888369884294],[86.83127735216182,27.38465792953304],[86.83114908543004,27.3826827271698],[86.83059877947484,27.38016299501894],[86.8300281160125,27.379184965283272],[86.83001010875454,27.379169148197757],[86.82796001065263,27.377306691184387],[86.82706572201091,27.37595580611256],[86.8265270152591,27.37540890305213],[86.82545948530169,27.37470108411311],[86.82409797237497,27.37399739568863],[86.8224007188402,27.37376728742868],[86.82223821999455,27.37362037148106],[86.82252899368102,27.372390569645027],[86.82257976131058,27.37227097149124],[86.82365042639849,27.369755531795853],[86.82414722520325,27.369164726789013],[86.82431102815535,27.368729284954348],[86.82426293406839,27.36789629082922],[86.8244322148187,27.36594852988218],[86.82465773023866,27.36564631321347],[86.82542601366731,27.36564955478111],[86.82582040279202,27.365297883904784],[86.82614374410734,27.36359631747935],[86.82600528787901,27.361752028465887],[86.82666757850349,27.360800303372752],[86.82614956236081,27.359996074048592],[86.82602888602179,27.359555758977752],[86.8245052863267,27.357147696973666],[86.82437428833879,27.356425174346974],[86.8244726755268,27.35494230053072],[86.8238818287298,27.354675229721494],[86.82330185594806,27.35410344484372],[86.82208440371515,27.353840071113037],[86.82061018128981,27.354276155475826],[86.81893775052237,27.35414532653848],[86.81866833994341,27.35422616578198],[86.81822079887664,27.35409025687821],[86.81745257833707,27.35408926694109],[86.81612046741418,27.354351673159865],[86.81527596384966,27.35406385015524],[86.81447603648927,27.35352107579756],[86.81332467351702,27.353417997832416],[86.8121451201246,27.353761801987904],[86.8109646248196,27.35385959540093],[86.80834996302848,27.353120225064615],[86.80682778316155,27.353486039584233],[86.8061032633158,27.353266108876454],[86.80468860215817,27.352291341209924],[86.80380283878398,27.352287851965414],[86.80301155265158,27.352641153284008],[86.80241640960526,27.353437081975443],[86.80162437414151,27.353849088126278],[86.79945744338447,27.35334715589296],[86.7985584840722,27.353138230964756],[86.79714040194975,27.353242279850136],[86.79614515775607,27.35308962322686],[86.79545840064553,27.35283130617257],[86.79479877053443,27.352033518279217],[86.79365953307077,27.35168880594661],[86.79258751824725,27.351953585545818],[86.79048179289238,27.351187574960854],[86.78921363142834,27.350727456062014],[86.7879983709661,27.350662453119252],[86.78733067674477,27.350004517903653],[86.78670992575091,27.348581609229974],[86.78651410256177,27.348493272746925],[86.78618572395001,27.348045833487564],[86.78625461032648,27.347172388615057],[86.78611667887844,27.346795217001592],[86.78586145588771,27.34656459075498],[86.78419608112377,27.345810452619958],[86.78319976441641,27.34499178764808],[86.78298742806523,27.344508399366287],[86.78286987473446,27.343858084897537],[86.7825046097326,27.343525804241352],[86.7813522480968,27.34352400567111],[86.78030391885314,27.343145345448683],[86.77960222759688,27.343417434446206],[86.77885402177823,27.343890333149528],[86.77896100791368,27.344420924774482],[86.77882279097024,27.345802144612815],[86.77824342033477,27.34765219458305],[86.77797334253015,27.349033165165824],[86.77875621828359,27.350571544081156],[86.77879444053976,27.351876238707476],[86.77992805739092,27.35261844186969],[86.78031477537435,27.353460996916976],[86.78181240461578,27.354422634792],[86.78235811584216,27.35510063954147],[86.78323300708205,27.355496994453915],[86.7839329597849,27.355990129993167],[86.78452236446293,27.35599106072442],[86.7858595052421,27.357446720207705],[86.7860086307222,27.357954804692227],[86.78601650920317,27.3579819383428],[86.78639665694885,27.35849939718927],[86.78707634855985,27.35870582457848],[86.78795049769049,27.35967778605465],[86.78795206093628,27.359680036642363],[86.78818228910474,27.360793172621083],[86.78849134309306,27.360978722477796],[86.78905054714421,27.360896066349174],[86.79001664199073,27.360233859473407],[86.79068395161839,27.36032287785286],[86.79102083053216,27.360625836962917],[86.79114620994982,27.36187651507813],[86.79095307889678,27.362065822829823],[86.790014989944,27.36245044802909],[86.7895401376488,27.363054693190005],[86.78953764420044,27.363535459141467],[86.79039972641253,27.364435149922286],[86.79086041873921,27.365862375566266],[86.79131890872623,27.366395775860934],[86.7919131318894,27.366708109930297],[86.79208307346916,27.366938612428896],[86.79221351161064,27.367857505473193],[86.79278636462905,27.368966636543234],[86.79318127287685,27.369730229847928],[86.79319196478521,27.36975048627826],[86.79282942415048,27.371655049341868],[86.79296931418935,27.37329627863251],[86.7928292343801,27.375399772845466],[86.7930501977024,27.375851527331495],[86.79311336353918,27.37695541284668],[86.79388041023634,27.377839099777983],[86.79521785377895,27.378644631293184],[86.79535659825883,27.37902405333745],[86.79535354461626,27.3796379842124],[86.79496591383824,27.380402650544927],[86.79496779326891,27.38059902031677],[86.79497029403974,27.380603522097484],[86.7966672067132,27.3829715695646],[86.79752709346452,27.383426504429924],[86.80347254736496,27.384355826355055],[86.80502969623996,27.385177297154296],[86.80583268232215,27.385311575557438],[86.80599730538772,27.385338894736535],[86.8061706833532,27.38545655144287],[86.80633987596572,27.385743383378266],[86.8063837976856,27.38762824821119],[86.80678920410155,27.388068997195944],[86.80742981835488,27.388327190235866],[86.80798346790574,27.38882676725627],[86.80913798238811,27.39047617369353],[86.80915180098337,27.390496428690494],[86.81149432694859,27.392874158730265],[86.81226538814036,27.39455457935392],[86.81232223744546,27.39554330589556],[86.81289033438264,27.396313775196944],[86.81361210840886,27.396842920634143],[86.81384588696929,27.397129876407096],[86.81396025114235,27.397762060676257],[86.81462751684298,27.398972782722904],[86.81511546723902,27.400217141399903],[86.8152734666554,27.400449831974964],[86.81600394024943,27.401525200484144],[86.8169146146785,27.403138037535822],[86.81699396289171,27.403555720726168],[86.81699802753528,27.403578352796195],[86.81736798134482,27.40391513454225],[86.817938707407,27.404884223265867],[86.81840583740612,27.406157903786937],[86.8184636259495,27.407169199385926],[86.82119904653136,27.41335291567442],[86.82206040210438,27.415703781944803],[86.82350521625774,27.417685156450442],[86.82489736403063,27.418282751094043],[86.82510982099322,27.418492935469512],[86.82517010088657,27.418962572396],[86.82489194519181,27.41951742601701],[86.82489044967414,27.41987184236289],[86.82538158505183,27.420874630397467],[86.82571708930392,27.421236231712157],[86.82571609225904,27.421466424068754],[86.82485667151516,27.42270911308577],[86.82425390732543,27.42394529565313],[86.82358554831889,27.424705152610862],[86.82274638932087,27.426284188594213],[86.82239529035782,27.428130109621677],[86.82214095743306,27.428804685730096],[86.82206187922075,27.429619488888726],[86.82213460702386,27.430436665171527],[86.82241172121027,27.43118863209804],[86.82323873898393,27.432735887433502],[86.82342613504633,27.433634460992632],[86.82439183712147,27.435719060095877],[86.82246219866012,27.44010918525702],[86.82246014278527,27.44060576835971],[86.82326559203328,27.4422432384039],[86.82383876831791,27.443943667753306],[86.82367555762731,27.446225464166314],[86.82372928598325,27.447482769413433],[86.82370659871545,27.448026741663263],[86.82405497535969,27.447943713230977],[86.82424735853537,27.44788750702362],[86.82440791460199,27.447743212447996],[86.82493865919615,27.44689520658626],[86.82595063782802,27.44571590951726],[86.82652777272511,27.44476181015931],[86.82721783306518,27.44435186827348],[86.8295598689555,27.44347664373437],[86.82956587058622,27.443469891067007],[86.830207909817,27.44284763814788],[86.83071557443247,27.441500673663512],[86.83110570994064,27.44097976575949],[86.8321405149974,27.44010518377189],[86.83362242581802,27.439481668876258],[86.83533755349286,27.43920381494553],[86.83639637366923,27.43876711014245],[86.83847032173176,27.4385685875311],[86.83977293042993,27.4387958249906],[86.84083614279318,27.439252945120277],[86.84372898771896,27.441043931941152],[86.84421329349468,27.441188843436738],[86.84489760987091,27.44124378853265],[86.84622797174958,27.44107822192682]]]}},{"type":"Feature","properties":{"province":"Koshi Province","district":"Khotang","municipality":"Aiselukharka Rural Municipality","ward":"5","wardNumber":5,"sourceMunicipality":"Ainselukhark","sourceType":"Gaunpalika"},"geometry":{"type":"Polygon","coordinates":[[[86.73159410445602,27.37797161686366],[86.73189208632745,27.377744171740176],[86.73261028148241,27.377312160843385],[86.73510066181748,27.375032523767757],[86.73578146025923,27.374090301256718],[86.73716150469961,27.372431547215616],[86.7379975430477,27.371175855866294],[86.73969163841821,27.36939124837207],[86.74114609599708,27.36841656879094],[86.74129364881667,27.36829721980384],[86.7414845298789,27.3681846843867],[86.74212907376048,27.367856329145184],[86.74241580181354,27.367667207988653],[86.74326448197131,27.36723313228178],[86.74436393889702,27.366562484712947],[86.74516503319832,27.36575579999398],[86.74631231732415,27.364888843267366],[86.74648456331244,27.364588940733974],[86.74651125722798,27.36438588118387],[86.7454416634203,27.363614230532402],[86.74392361468844,27.364225429529988],[86.73930054080176,27.364395287384347],[86.73577405361996,27.36431880892912],[86.73526149147129,27.364423908554524],[86.73433596938908,27.36477427292765],[86.73206859074212,27.366004725400895],[86.73014334652984,27.367718814583085],[86.72920282288905,27.36831518894996],[86.72890721428593,27.368366520086823],[86.72690367120782,27.368809550735715],[86.72615814476838,27.368665893101397],[86.72574711557141,27.36848453244575],[86.7256040537465,27.367886108745225],[86.72580224333163,27.367385396409514],[86.72682648273424,27.362586287847833],[86.72650613907527,27.360177272416244],[86.72540587935924,27.357437045077933],[86.72470710553897,27.35642894564896],[86.72368394571602,27.35431421301851],[86.72318118701577,27.35355480932608],[86.72276720163282,27.352260622218452],[86.7219746425101,27.35113042517168],[86.72192506113691,27.351121298007232],[86.72137392830311,27.351623577052383],[86.72024589812831,27.352226268609957],[86.71845318632089,27.35288635971774],[86.71756723607652,27.352954515050783],[86.71711501468242,27.353450229334033],[86.71649329076054,27.35376726774702],[86.71565993381233,27.35453075175401],[86.71544261280938,27.3551352445841],[86.71586329986741,27.357208222390646],[86.71545097415648,27.358053850547655],[86.7145690404002,27.359031710783885],[86.71317816313781,27.359665413897783],[86.71193034150859,27.36047998122696],[86.7090740068639,27.36234768980036],[86.70821487720033,27.36228268175204],[86.70584856539918,27.362103970594422],[86.70144612002264,27.361343052578906],[86.69922185845196,27.36100198002161],[86.69702649458239,27.36143751020684],[86.69539251908598,27.361467788817382],[86.69354796589631,27.361551836241773],[86.69056136265928,27.361258662561333],[86.68797698693443,27.362128761787503],[86.68610217724905,27.362517336884796],[86.68426887604065,27.36241626727918],[86.68059581963647,27.361340309564728],[86.6797912747796,27.36142872020393],[86.68002994766309,27.362837693181085],[86.68057941254308,27.363669679951396],[86.68111731625112,27.364882967386105],[86.68118597341201,27.365312029668992],[86.68104925219724,27.36637259234999],[86.68039396430981,27.367427473031913],[86.68028180783712,27.36806828671369],[86.68066659686667,27.36946637999112],[86.68118411620259,27.370526184504836],[86.68113049775955,27.372259631434385],[86.68075287280782,27.373130016076697],[86.67997128413215,27.373900251909497],[86.68034217986423,27.374501486140893],[86.68125198077826,27.37634770414029],[86.68240311850417,27.378016117072573],[86.683483684994,27.380846809691842],[86.68357737480441,27.382826639459953],[86.68381608696262,27.382800128224737],[86.68418635229271,27.383017562755974],[86.68545638681567,27.383336453333364],[86.68731083754503,27.384484954199245],[86.6886292717766,27.385165075148652],[86.69043238135166,27.3856927077923],[86.69219254708307,27.386809326302007],[86.69386323487942,27.387463059490877],[86.69436604335873,27.387385155357496],[86.69491111339788,27.386995847509215],[86.69545306017264,27.386829979626903],[86.697627235718,27.386816636343198],[86.7009728334368,27.386227859401014],[86.70166752241272,27.385908757222875],[86.70245618693966,27.38590368285923],[86.70322896708394,27.38558933136969],[86.70446696547496,27.38429399842338],[86.70500670860926,27.383175538541536],[86.70530156212712,27.382837560396986],[86.70629554644049,27.38238147718127],[86.7072123847146,27.38244429649251],[86.70829953032963,27.3821486340375],[86.70874299998661,27.38176126482383],[86.7086804055692,27.38118553381212],[86.70898838751442,27.380761843309706],[86.70922147130234,27.38060885820634],[86.71036538477173,27.380134892343168],[86.71184986314692,27.3797970872847],[86.71347576867059,27.37942570837268],[86.71412900425446,27.37909972968998],[86.71429762660442,27.378926238456618],[86.71529817698038,27.378594253482238],[86.71674870853326,27.378448193250524],[86.7177420068562,27.37813640168026],[86.71888767575366,27.377933327414283],[86.72030200932765,27.377976822938805],[86.72121266478626,27.378459327673788],[86.72254515231623,27.378242997368545],[86.72350555739689,27.377522586460454],[86.72415578621204,27.37685119426488],[86.72476406757634,27.376527341557004],[86.72569059362095,27.37635309120153],[86.72637753504185,27.376451486702713],[86.72749433061668,27.377054087278605],[86.72804073630824,27.378131833784316],[86.7284967856345,27.378536759385103],[86.7293849897867,27.378662597380796],[86.73159410445602,27.37797161686366]]]}},{"type":"Feature","properties":{"province":"Koshi Province","district":"Khotang","municipality":"Aiselukharka Rural Municipality","ward":"3","wardNumber":3,"sourceMunicipality":"Ainselukhark","sourceType":"Gaunpalika"},"geometry":{"type":"Polygon","coordinates":[[[86.75298474331419,27.40237950876528],[86.75327796608427,27.40172768855044],[86.75513456818595,27.400487238738513],[86.75627977071125,27.39851414535182],[86.75716802662501,27.397985228632077],[86.75807973587636,27.397851365022365],[86.7582344147196,27.39764617817076],[86.75910766508245,27.397126264878004],[86.75977371384255,27.39658340966627],[86.76010958258841,27.396225112935376],[86.76005010954846,27.39536273549394],[86.76090696719083,27.394093351834346],[86.76100243701933,27.39395130909796],[86.76155982256377,27.39345340640331],[86.76198341622988,27.393456401408873],[86.7642521769558,27.392728783788044],[86.7662562718024,27.391562979299483],[86.76822885809774,27.39062717943362],[86.76870414972643,27.39008176356997],[86.77046423472986,27.390082366484823],[86.77047086201479,27.390082366422753],[86.77136474964803,27.38983103077485],[86.77351035388175,27.389890896249934],[86.77628580012382,27.389103005100015],[86.77686644973018,27.38893688652794],[86.77750693528046,27.38894019107059],[86.77849830541523,27.389239704421833],[86.77999154553736,27.38943611803325],[86.78103249611385,27.3897515093481],[86.78188387134759,27.3897031717102],[86.78261457454201,27.389442461380387],[86.78362788585513,27.3895207210468],[86.78471148034228,27.39003479563096],[86.7864264193274,27.389694298887278],[86.78645267839043,27.389671666236197],[86.78762665754667,27.388687112563126],[86.78844308120894,27.38856869222446],[86.78946270851577,27.38864920304936],[86.78969804309449,27.388572802871277],[86.78978494499006,27.38822757507405],[86.78967088895926,27.38736519874812],[86.79129364218696,27.38537671909871],[86.79273153224706,27.384521075293026],[86.79316686527149,27.3835827318946],[86.79394150787158,27.382477772611367],[86.794750154687,27.380862788471863],[86.79497029403974,27.380603522097484],[86.79496779326891,27.38059902031677],[86.79496591383824,27.380402650544927],[86.79535354461626,27.3796379842124],[86.79535659825883,27.37902405333745],[86.79521785377895,27.378644631293184],[86.79388041023634,27.377839099777983],[86.79311336353918,27.37695541284668],[86.7930501977024,27.375851527331495],[86.7928292343801,27.375399772845466],[86.79296931418935,27.37329627863251],[86.79282942415048,27.371655049341868],[86.79319196478521,27.36975048627826],[86.79318127287685,27.369730229847928],[86.79278636462905,27.368966636543234],[86.79221351161064,27.367857505473193],[86.79208307346916,27.366938612428896],[86.7919131318894,27.366708109930297],[86.79131890872623,27.366395775860934],[86.79086041873921,27.365862375566266],[86.79039972641253,27.364435149922286],[86.78953764420044,27.363535459141467],[86.7895401376488,27.363054693190005],[86.790014989944,27.36245044802909],[86.79095307889678,27.362065822829823],[86.79114620994982,27.36187651507813],[86.79102083053216,27.360625836962917],[86.79068395161839,27.36032287785286],[86.79001664199073,27.360233859473407],[86.78905054714421,27.360896066349174],[86.78849134309306,27.360978722477796],[86.78818228910474,27.360793172621083],[86.78795206093628,27.359680036642363],[86.78795049769049,27.35967778605465],[86.78707634855985,27.35870582457848],[86.78639665694885,27.35849939718927],[86.78601650920317,27.3579819383428],[86.7860086307222,27.357954804692227],[86.7858595052421,27.357446720207705],[86.78452236446293,27.35599106072442],[86.7839329597849,27.355990129993167],[86.78323300708205,27.355496994453915],[86.78235811584216,27.35510063954147],[86.78181240461578,27.354422634792],[86.78031477537435,27.353460996916976],[86.77992805739092,27.35261844186969],[86.77879444053976,27.351876238707476],[86.77832476870628,27.35191619457669],[86.77725036991157,27.351751972342747],[86.77621825122317,27.35241624313851],[86.77492240074297,27.35253835794851],[86.77416162716345,27.35293217060439],[86.7737744845727,27.352931549650076],[86.77289190336462,27.352474177277468],[86.77058901866131,27.354111437170122],[86.7688389373974,27.35410633291493],[86.76790984774375,27.354287647425046],[86.76738553566669,27.354600558259495],[86.76701809699037,27.355189110896212],[86.76709989488145,27.35628624411177],[86.76731029644797,27.357056279921018],[86.76825372208444,27.358060062779355],[86.76839109167838,27.358434983478627],[86.76838947106059,27.358780334242745],[86.76804848303676,27.359538185748423],[86.76742608044275,27.36039494518433],[86.76686526896466,27.361698647989122],[86.76629938721854,27.36255546894196],[86.76603911458183,27.363245799569487],[86.7658017473012,27.365238512466878],[86.76562381348161,27.3657122157629],[86.76467373121353,27.366764786683316],[86.76411515599597,27.367152094471713],[86.76409171037515,27.367167849478612],[86.76279836232433,27.367357546966844],[86.76172072173948,27.367757552831133],[86.76030958258329,27.368055345341922],[86.7597218647973,27.36799339773865],[86.75869979417605,27.367531212089897],[86.75818404115869,27.36752803037792],[86.75776082371956,27.36752734789333],[86.75681179132246,27.367807880213963],[86.7555664585886,27.367866663291043],[86.75384399802775,27.36699911740829],[86.75310478565983,27.3668308274421],[86.75247085783185,27.366385017549785],[86.75108734547919,27.3661658457532],[86.75081055343263,27.366018680635886],[86.75077641544958,27.366014117419045],[86.75002788777176,27.365888652728316],[86.74964461992764,27.36573223669542],[86.74907771656497,27.365293302561703],[86.74895373178623,27.36520959157348],[86.74723290618158,27.3649085882278],[86.74651125722798,27.36438588118387],[86.74648456331244,27.364588940733974],[86.74631231732415,27.364888843267366],[86.74516503319832,27.36575579999398],[86.74436393889702,27.366562484712947],[86.74326448197131,27.36723313228178],[86.74241580181354,27.367667207988653],[86.74212907376048,27.367856329145184],[86.7414845298789,27.3681846843867],[86.74129364881667,27.36829721980384],[86.74114609599708,27.36841656879094],[86.73969163841821,27.36939124837207],[86.7379975430477,27.371175855866294],[86.73716150469961,27.372431547215616],[86.73578146025923,27.374090301256718],[86.73510066181748,27.375032523767757],[86.73261028148241,27.377312160843385],[86.73189208632745,27.377744171740176],[86.73159410445602,27.37797161686366],[86.73230749968948,27.378404047589488],[86.73303146055659,27.378843354650563],[86.73823440202159,27.380487334095886],[86.73904727133221,27.38095608624295],[86.739394589465,27.38111469133055],[86.73982262749605,27.381494735147538],[86.74196237411086,27.382810093590038],[86.74282289001853,27.38357230700079],[86.74301303123092,27.384069199839256],[86.7429440811034,27.3849133235761],[86.74254694652808,27.38564398058799],[86.74254957570801,27.38587417262192],[86.74301332043692,27.386545426263957],[86.74425485820738,27.38771244029688],[86.74463688124332,27.38819382679979],[86.74409096569501,27.39042755189051],[86.74401006485125,27.390693756203394],[86.74387439343656,27.390865058219806],[86.7438401315572,27.390907883489344],[86.74203388035744,27.393394323510705],[86.74169957977455,27.394009882537052],[86.74172068072986,27.395964706128368],[86.74297143384813,27.398659793598725],[86.74528077259318,27.40188502281137],[86.74641665985989,27.403850835950337],[86.74673760195809,27.40454441034283],[86.74678124238376,27.404533218423186],[86.74786682663938,27.40430038704973],[86.74828053312555,27.40377291449325],[86.7487985303991,27.403430682645205],[86.74905893986578,27.403449309691325],[86.7501140754117,27.403268305193432],[86.75258784605062,27.40230205351485],[86.75298474331419,27.40237950876528]]]}},{"type":"Feature","properties":{"province":"Koshi Province","district":"Khotang","municipality":"Aiselukharka Rural Municipality","ward":"2","wardNumber":2,"sourceMunicipality":"Ainselukhark","sourceType":"Gaunpalika"},"geometry":{"type":"Polygon","coordinates":[[[86.82370659871545,27.448026741663263],[86.82372928598325,27.447482769413433],[86.82367555762731,27.446225464166314],[86.82383876831791,27.443943667753306],[86.82326559203328,27.4422432384039],[86.82246014278527,27.44060576835971],[86.82246219866012,27.44010918525702],[86.82439183712147,27.435719060095877],[86.82342613504633,27.433634460992632],[86.82323873898393,27.432735887433502],[86.82241172121027,27.43118863209804],[86.82213460702386,27.430436665171527],[86.82206187922075,27.429619488888726],[86.82214095743306,27.428804685730096],[86.82239529035782,27.428130109621677],[86.82274638932087,27.426284188594213],[86.82358554831889,27.424705152610862],[86.82425390732543,27.42394529565313],[86.82485667151516,27.42270911308577],[86.82571609225904,27.421466424068754],[86.82571708930392,27.421236231712157],[86.82538158505183,27.420874630397467],[86.82489044967414,27.41987184236289],[86.82489194519181,27.41951742601701],[86.82517010088657,27.418962572396],[86.82510982099322,27.418492935469512],[86.82489736403063,27.418282751094043],[86.82350521625774,27.417685156450442],[86.82206040210438,27.415703781944803],[86.82119904653136,27.41335291567442],[86.8184636259495,27.407169199385926],[86.81840583740612,27.406157903786937],[86.817938707407,27.404884223265867],[86.81736798134482,27.40391513454225],[86.81699802753528,27.403578352796195],[86.81699396289171,27.403555720726168],[86.8169146146785,27.403138037535822],[86.81600394024943,27.401525200484144],[86.8152734666554,27.400449831974964],[86.81511546723902,27.400217141399903],[86.81462751684298,27.398972782722904],[86.81396025114235,27.397762060676257],[86.81384588696929,27.397129876407096],[86.81361210840886,27.396842920634143],[86.81289033438264,27.396313775196944],[86.81232223744546,27.39554330589556],[86.81226538814036,27.39455457935392],[86.81149432694859,27.392874158730265],[86.80915180098337,27.390496428690494],[86.80913798238811,27.39047617369353],[86.80798346790574,27.38882676725627],[86.80742981835488,27.388327190235866],[86.80678920410155,27.388068997195944],[86.8063837976856,27.38762824821119],[86.80633987596572,27.385743383378266],[86.8061706833532,27.38545655144287],[86.80599730538772,27.385338894736535],[86.80583268232215,27.385311575557438],[86.80502969623996,27.385177297154296],[86.80347254736496,27.384355826355055],[86.79752709346452,27.383426504429924],[86.7966672067132,27.3829715695646],[86.79497029403974,27.380603522097484],[86.794750154687,27.380862788471863],[86.79394150787158,27.382477772611367],[86.79316686527149,27.3835827318946],[86.79273153224706,27.384521075293026],[86.79129364218696,27.38537671909871],[86.78967088895926,27.38736519874812],[86.78978494499006,27.38822757507405],[86.78969804309449,27.388572802871277],[86.78946270851577,27.38864920304936],[86.78844308120894,27.38856869222446],[86.78762665754667,27.388687112563126],[86.78645267839043,27.389671666236197],[86.7864264193274,27.389694298887278],[86.78471148034228,27.39003479563096],[86.78362788585513,27.3895207210468],[86.78261457454201,27.389442461380387],[86.78188387134759,27.3897031717102],[86.78103249611385,27.3897515093481],[86.77999154553736,27.38943611803325],[86.77849830541523,27.389239704421833],[86.77750693528046,27.38894019107059],[86.77686644973018,27.38893688652794],[86.77628580012382,27.389103005100015],[86.77351035388175,27.389890896249934],[86.77136474964803,27.38983103077485],[86.77047086201479,27.390082366422753],[86.77046423472986,27.390082366484823],[86.76870414972643,27.39008176356997],[86.76822885809774,27.39062717943362],[86.7662562718024,27.391562979299483],[86.7642521769558,27.392728783788044],[86.76198341622988,27.393456401408873],[86.76155982256377,27.39345340640331],[86.76100243701933,27.39395130909796],[86.76090696719083,27.394093351834346],[86.76005010954846,27.39536273549394],[86.76010958258841,27.396225112935376],[86.75977371384255,27.39658340966627],[86.75910766508245,27.397126264878004],[86.7582344147196,27.39764617817076],[86.75807973587636,27.397851365022365],[86.75716802662501,27.397985228632077],[86.75627977071125,27.39851414535182],[86.75513456818595,27.400487238738513],[86.75327796608427,27.40172768855044],[86.75298474331419,27.40237950876528],[86.75299743611167,27.40238182125531],[86.75470973870956,27.405355297440654],[86.75602248911039,27.406384582223072],[86.75785644765807,27.40846660729878],[86.75812066760454,27.40836326098881],[86.75838843966868,27.407469871223533],[86.7587740662002,27.40649764282849],[86.75950434065858,27.406817164754845],[86.76080158662992,27.407988616970663],[86.76137870224416,27.40970054941516],[86.761904711535,27.409911355242013],[86.76281017769176,27.410362038187362],[86.7634170516801,27.411965750498968],[86.76485642645541,27.414008644221152],[86.7650367474523,27.414243649008597],[86.76683507155988,27.416589626223296],[86.76756609386946,27.416751101609563],[86.76868025055961,27.416491073892654],[86.76941002644962,27.416939196475642],[86.77073335596778,27.418769716586468],[86.77181376387072,27.419403451066042],[86.7724566917478,27.419643763405855],[86.77386358181711,27.419411302233335],[86.77772919268429,27.419369990844682],[86.78088584968886,27.419007031678824],[86.78146712738908,27.419095924721965],[86.7830987233208,27.418753115835084],[86.78449385050449,27.418041951704172],[86.7852207313073,27.417286908728165],[86.7883793032555,27.41546783431593],[86.78914670846865,27.415295148890383],[86.78918909871582,27.415286271297898],[86.78986584914762,27.415363972617175],[86.79082796812403,27.416234402948277],[86.79115141332173,27.417117470146856],[86.79138137713527,27.417379607200942],[86.79139875970435,27.417399987329105],[86.79144740519048,27.417594169343637],[86.79154663249054,27.41778841258546],[86.79184868955491,27.41827642620067],[86.79256058637641,27.41887340462007],[86.79605527271836,27.420361421221436],[86.79845240840903,27.420529689687353],[86.79979046753252,27.420741485217192],[86.80503687901928,27.42327916145737],[86.80504919639165,27.423285850715253],[86.80713969549902,27.425859766949532],[86.80736892053943,27.426808104016946],[86.80883942785951,27.428586481780666],[86.8094731276634,27.43030960422984],[86.80946770891727,27.43160973614162],[86.80989734002536,27.433768238176768],[86.81090767706098,27.435476038707478],[86.81125458333607,27.437187410974065],[86.81206646853028,27.438653455540877],[86.81227930032975,27.438865953251945],[86.81341378588505,27.4391698400526],[86.81427536534827,27.439882037481304],[86.81439816886481,27.440385558931098],[86.81548088768444,27.440874500895088],[86.81578694212935,27.4411141920802],[86.81648245716163,27.441656780141653],[86.81687260814911,27.44211103249984],[86.81710501692982,27.442741026933152],[86.81765323392483,27.443633344765278],[86.81883024728576,27.444693514814237],[86.81964269467824,27.44609397793675],[86.82071354368409,27.447120139548588],[86.82218397271916,27.44787815597997],[86.82308149548788,27.448147848176056],[86.82370659871545,27.448026741663263]]]}},{"type":"Feature","properties":{"province":"Koshi Province","district":"Khotang","municipality":"Aiselukharka Rural Municipality","ward":"4","wardNumber":4,"sourceMunicipality":"Ainselukhark","sourceType":"Gaunpalika"},"geometry":{"type":"Polygon","coordinates":[[[86.745735485953,27.404770614094186],[86.74673760195809,27.40454441034283],[86.74641665985989,27.403850835950337],[86.74528077259318,27.40188502281137],[86.74297143384813,27.398659793598725],[86.74172068072986,27.395964706128368],[86.74169957977455,27.394009882537052],[86.74203388035744,27.393394323510705],[86.7438401315572,27.390907883489344],[86.74387439343656,27.390865058219806],[86.74401006485125,27.390693756203394],[86.74409096569501,27.39042755189051],[86.74463688124332,27.38819382679979],[86.74425485820738,27.38771244029688],[86.74301332043692,27.386545426263957],[86.74254957570801,27.38587417262192],[86.74254694652808,27.38564398058799],[86.7429440811034,27.3849133235761],[86.74301303123092,27.384069199839256],[86.74282289001853,27.38357230700079],[86.74196237411086,27.382810093590038],[86.73982262749605,27.381494735147538],[86.739394589465,27.38111469133055],[86.73904727133221,27.38095608624295],[86.73823440202159,27.380487334095886],[86.73303146055659,27.378843354650563],[86.73230749968948,27.378404047589488],[86.73159410445602,27.37797161686366],[86.7293849897867,27.378662597380796],[86.7284967856345,27.378536759385103],[86.72804073630824,27.378131833784316],[86.72749433061668,27.377054087278605],[86.72637753504185,27.376451486702713],[86.72569059362095,27.37635309120153],[86.72476406757634,27.376527341557004],[86.72415578621204,27.37685119426488],[86.72350555739689,27.377522586460454],[86.72254515231623,27.378242997368545],[86.72121266478626,27.378459327673788],[86.72030200932765,27.377976822938805],[86.71888767575366,27.377933327414283],[86.7177420068562,27.37813640168026],[86.71674870853326,27.378448193250524],[86.71529817698038,27.378594253482238],[86.71429762660442,27.378926238456618],[86.71412900425446,27.37909972968998],[86.71347576867059,27.37942570837268],[86.71184986314692,27.3797970872847],[86.71036538477173,27.380134892343168],[86.70922147130234,27.38060885820634],[86.70898838751442,27.380761843309706],[86.7086804055692,27.38118553381212],[86.70874299998661,27.38176126482383],[86.70829953032963,27.3821486340375],[86.7072123847146,27.38244429649251],[86.70629554644049,27.38238147718127],[86.70530156212712,27.382837560396986],[86.70500670860926,27.383175538541536],[86.70446696547496,27.38429399842338],[86.70322896708394,27.38558933136969],[86.70245618693966,27.38590368285923],[86.70166752241272,27.385908757222875],[86.7009728334368,27.386227859401014],[86.697627235718,27.386816636343198],[86.69545306017264,27.386829979626903],[86.69491111339788,27.386995847509215],[86.69436604335873,27.387385155357496],[86.69386323487942,27.387463059490877],[86.69219254708307,27.386809326302007],[86.69043238135166,27.3856927077923],[86.6886292717766,27.385165075148652],[86.68731083754503,27.384484954199245],[86.68545638681567,27.383336453333364],[86.68418635229271,27.383017562755974],[86.68381608696262,27.382800128224737],[86.68357737480441,27.382826639459953],[86.68333868322016,27.384193918069933],[86.68356961802961,27.38658936791036],[86.68433904497782,27.387809966745007],[86.68470575975438,27.38892585207574],[86.68460023833941,27.39003167777432],[86.68423836496817,27.39069675242608],[86.68333129551583,27.391622410783338],[86.68318462013974,27.391854543169462],[86.68308070913177,27.392030408108663],[86.68254671650938,27.3930765340499],[86.68227444973199,27.39443924950577],[86.68229818363932,27.39688165416466],[86.68212301348399,27.398120456883916],[86.68239774620494,27.3985747742381],[86.68331565350974,27.398960563301653],[86.68550811029633,27.400513867612133],[86.68699266419593,27.400973171286285],[86.68917303580142,27.401352693597364],[86.69161231081334,27.401493454720768],[86.69557226793098,27.401389250060312],[86.69752954929058,27.40126031297987],[86.7008645354714,27.401727845385473],[86.70300076491124,27.402066418907605],[86.70570545785364,27.402638678255972],[86.70819138083888,27.403090841787524],[86.70957814469367,27.403296760199932],[86.71098160222965,27.40350505366952],[86.7136937868276,27.40340905469445],[86.71621602488162,27.403156823758913],[86.71891952822936,27.40360917304487],[86.71965961307565,27.403606100497328],[86.72096402872944,27.403480046873767],[86.7222628721192,27.402805457921886],[86.72295881540697,27.40276168642477],[86.72441373224054,27.403143717621433],[86.72572077796372,27.40325235766481],[86.72789269651493,27.402848024267573],[86.73041493389839,27.40259554348104],[86.73176424308346,27.402586836410006],[86.73285527461678,27.402852963857157],[86.73446392644439,27.402686707023012],[86.7353758844726,27.402485323797272],[86.73539414096479,27.402489824972957],[86.7363150475985,27.402771458801375],[86.73727834820616,27.403314981262504],[86.73855527800343,27.40467623900366],[86.73960485847577,27.4051002260381],[86.7423941410588,27.405432663045787],[86.74391588628845,27.405266157287762],[86.745735485953,27.404770614094186]]]}},{"type":"Feature","properties":{"province":"Koshi Province","district":"Khotang","municipality":"Aiselukharka Rural Municipality","ward":"6","wardNumber":6,"sourceMunicipality":"Ainselukhark","sourceType":"Gaunpalika"},"geometry":{"type":"Polygon","coordinates":[[[86.7219746425101,27.35113042517168],[86.72196801473761,27.351121360076373],[86.72155409741201,27.350213161831796],[86.72022364323742,27.348467978678748],[86.71998610412729,27.34754652393186],[86.71962470839624,27.346755796003105],[86.71645204144666,27.34279029740151],[86.7145282294349,27.340113848881398],[86.71361430082372,27.3381888576247],[86.71268901174375,27.337507544031148],[86.71239045840889,27.337111931432915],[86.71230203136382,27.33586575441896],[86.71264726812709,27.33491165822822],[86.71308413091245,27.331844940453262],[86.70902021672104,27.328999280961522],[86.70680888878651,27.32807828797709],[86.7056450189379,27.327795969698098],[86.70373750609885,27.327889020946756],[86.70187099860603,27.327399775811614],[86.70012791888905,27.327330651388426],[86.69883206679977,27.327278214968857],[86.69432003273211,27.32735885657945],[86.69325701237665,27.327087915332918],[86.69235254764186,27.326620977208183],[86.6906791152255,27.326382552920418],[86.688654794183,27.32550907126391],[86.68673769171058,27.324055668533262],[86.68559699829522,27.322545302619684],[86.68518408313605,27.321666299691582],[86.68433365022628,27.3219894674867],[86.68381796481607,27.32225017485639],[86.68375457804119,27.3230016460165],[86.68455946097212,27.324603856678323],[86.6851735507882,27.32790981888287],[86.6847633516709,27.328850162159693],[86.68186575559898,27.330920305276653],[86.68139922020649,27.331650588003672],[86.68117252462001,27.332492024768737],[86.6813566724736,27.333636858631305],[86.68135792239964,27.333643611047798],[86.68211177279042,27.33431117257023],[86.68378266679316,27.336154567928187],[86.68404990240577,27.336954236150085],[86.6841006783072,27.33745319446492],[86.68400384314943,27.338294943160644],[86.68307866431945,27.340665212115823],[86.6828904330398,27.342310259797355],[86.68186913389027,27.343244734302754],[86.68058272971301,27.343695507233413],[86.6805529070324,27.343745146836554],[86.67993100674798,27.34475945265473],[86.67993770604924,27.34539826513752],[86.68021000555818,27.346112158447998],[86.68069825871216,27.346851369131848],[86.68083500761867,27.347549197087513],[86.68052734818718,27.348625204113983],[86.67953969719815,27.35023231329382],[86.67947199767781,27.351053805248903],[86.67974710577946,27.351539756962772],[86.68144693482975,27.352523211369494],[86.68191161524788,27.35313832411907],[86.68165928656587,27.354083417053275],[86.6809918798003,27.355750038742794],[86.68072441157588,27.356117337455743],[86.68050165383119,27.35689781940244],[86.68023003000403,27.359393679563727],[86.67986061006647,27.361264108104745],[86.6797912747796,27.36142872020393],[86.68059581963647,27.361340309564728],[86.68426887604065,27.36241626727918],[86.68610217724905,27.362517336884796],[86.68797698693443,27.362128761787503],[86.69056136265928,27.361258662561333],[86.69354796589631,27.361551836241773],[86.69539251908598,27.361467788817382],[86.69702649458239,27.36143751020684],[86.69922185845196,27.36100198002161],[86.70144612002264,27.361343052578906],[86.70584856539918,27.362103970594422],[86.70821487720033,27.36228268175204],[86.7090740068639,27.36234768980036],[86.71193034150859,27.36047998122696],[86.71317816313781,27.359665413897783],[86.7145690404002,27.359031710783885],[86.71545097415648,27.358053850547655],[86.71586329986741,27.357208222390646],[86.71544261280938,27.3551352445841],[86.71565993381233,27.35453075175401],[86.71649329076054,27.35376726774702],[86.71711501468242,27.353450229334033],[86.71756723607652,27.352954515050783],[86.71845318632089,27.35288635971774],[86.72024589812831,27.352226268609957],[86.72137392830311,27.351623577052383],[86.72192506113691,27.351121298007232],[86.7219746425101,27.35113042517168]]]}}]}