{"type":"FeatureCollection","features":[{"type":"Feature","properties":{"province":"Lumbini Province","district":"Pyuthan","municipality":"Sarumarani Rural Municipality","ward":"1","wardNumber":1,"sourceMunicipality":"Sarumarani","sourceType":"Gaunpalika"},"geometry":{"type":"Polygon","coordinates":[[[82.89868157282798,27.9194228054313],[82.89852232499712,27.919658498378425],[82.89816387658533,27.92005054975428],[82.89754495594613,27.92051055625997],[82.896971114017,27.920914421934746],[82.89624133970142,27.921465954985823],[82.89551425327062,27.921943154072967],[82.89498811863105,27.92221423143271],[82.89466180929878,27.92232001085545],[82.89446704847971,27.922352331207932],[82.89420926495728,27.922345703680755],[82.8929247889051,27.922193277295502],[82.89273359322844,27.922130757929157],[82.89248006152889,27.922009158284713],[82.8913447689695,27.92130719631311],[82.89090579606948,27.92096965665824],[82.89033702403837,27.920646871675686],[82.89002478460043,27.920371289487395],[82.8896192634043,27.91970903024015],[82.8893782393149,27.919242204376495],[82.8892606973609,27.918934300445756],[82.88918448734049,27.918089551932443],[82.88897904085181,27.91724386513603],[82.88889420069918,27.916629371560617],[82.88863185676833,27.916162358338262],[82.88832580803607,27.91571535007716],[82.8881009767845,27.915402069219265],[82.8877900501853,27.915088100656764],[82.88743279369587,27.914866346288996],[82.88696524568586,27.914720363202935],[82.88625792053519,27.914660529612213],[82.88548044358366,27.91475355267734],[82.88463938049253,27.914823506522474],[82.88412237572514,27.914848636026033],[82.88373385569096,27.914892896926464],[82.8826907159729,27.915189103368455],[82.88217458684579,27.915193977214777],[82.88172423113906,27.91516096555582],[82.88114457809681,27.915145020380788],[82.88031533389731,27.91489000325641],[82.88000096914196,27.914670812090574],[82.87981415047072,27.91449325907142],[82.87930678000865,27.913676704086306],[82.87927233100157,27.913446198441427],[82.87932479329,27.912607140062057],[82.87931197791241,27.912376822663003],[82.87923726455469,27.91206929442996],[82.8790367556513,27.91167949119064],[82.87883236834101,27.911386716446582],[82.8786689973963,27.911152959043193],[82.8784441649343,27.910841929735653],[82.8779885614363,27.91036878795383],[82.87769751778576,27.910014369591547],[82.87718901898306,27.90964913506713],[82.87680550241522,27.909483521803686],[82.87635689884524,27.909353481397616],[82.87538785079667,27.909422308896588],[82.87512806597489,27.909512771474056],[82.87467126980499,27.909770782398972],[82.87429981697639,27.910070180782046],[82.87401889948889,27.9101401376873],[82.87343011631457,27.91039033252272],[82.87303202885225,27.91068504239343],[82.87276311385747,27.91098294083657],[82.87237809229497,27.91157786382061],[82.87221578041527,27.911827061365603],[82.87199063149123,27.912107329798385],[82.8716708849326,27.912614726677674],[82.87150544548629,27.91301059237966],[82.87127585748614,27.913405957688724],[82.87106571349577,27.913857776420713],[82.8710163188383,27.91402888929542],[82.8702715360258,27.91498197795292],[82.86986800824701,27.915430044264834],[82.86928209788401,27.91615875558845],[82.86914879777294,27.91626816152879],[82.86882029921833,27.916432520736006],[82.86853331580619,27.916633266141442],[82.86799686282117,27.91719080161461],[82.86777127690381,27.917471070627226],[82.86744140311761,27.91767369061124],[82.86733329968618,27.91768863188175],[82.86713810176236,27.917738958172112],[82.86679434834082,27.917808352395483],[82.86612009795346,27.91780953664169],[82.86360973276274,27.91699453387112],[82.86269920857885,27.91662141874398],[82.8619811953827,27.91606937835926],[82.86213632659903,27.914475035154325],[82.86209306219989,27.91417682309577],[82.86162914553063,27.913256737247423],[82.86074663866435,27.911976606532264],[82.86006438687666,27.911776857056566],[82.8595303759522,27.91175891164386],[82.85869919137514,27.911826551884285],[82.85738438742162,27.912068428336724],[82.85724696155567,27.912094372413225],[82.85659346751235,27.912298928810596],[82.85570244541684,27.91280150955417],[82.85519344151683,27.912973307281295],[82.85445085332293,27.913037072340497],[82.85394722814709,27.913005810182867],[82.85302182421522,27.912700277886824],[82.85069121385636,27.91169465729974],[82.85041805068798,27.911491534312727],[82.84921711266071,27.910238034162656],[82.84864402870345,27.909748011954296],[82.84804649588638,27.9094406062037],[82.8476692927563,27.909394590480932],[82.84702474088488,27.909472735583307],[82.84652611722905,27.909475295355723],[82.84570130849626,27.909761813287165],[82.84529165460852,27.909993065785898],[82.84462771799257,27.910368985826317],[82.84309020012526,27.911574706290313],[82.84254168139205,27.9118815437581],[82.84180846956042,27.912146242201583],[82.83951936524127,27.91261674347112],[82.83812640939072,27.912620799548613],[82.83800536448705,27.91265593361741],[82.83690864013992,27.91326054298325],[82.83493702302557,27.914602488760423],[82.83437456194163,27.914814360726105],[82.83347910322102,27.914888065503153],[82.83346447286351,27.914980466861067],[82.83319374536738,27.915199342625154],[82.83312178061232,27.915214471320233],[82.83247410113681,27.915349007511587],[82.83189794836434,27.915558503757563],[82.83191945576426,27.915653469349426],[82.8328004640469,27.916574931750134],[82.83336573468932,27.916904656993555],[82.83396589066149,27.917625184207072],[82.83414007744248,27.918087008513595],[82.83418946744479,27.91851394641579],[82.83416601981948,27.918777836665313],[82.83399989186613,27.91922552992085],[82.83353546725816,27.919589446569674],[82.8336814551252,27.920039767097144],[82.83398550253773,27.920595244567004],[82.83426572906878,27.92100386557231],[82.83563097608555,27.922529696671564],[82.83676457543483,27.924015202161332],[82.8367654472563,27.924378558794086],[82.83652160625455,27.92448934008077],[82.835896436588,27.9244050617542],[82.83562208391272,27.92458104909581],[82.83549347041544,27.924995232749502],[82.83548984422578,27.925038057751532],[82.83544707393888,27.925529702112126],[82.83545057247396,27.926064546470123],[82.8356928422398,27.92708215947457],[82.83549833008769,27.927448390603946],[82.83480881576367,27.9286589924472],[82.8333376207916,27.931853423469164],[82.83315217173825,27.93259207691138],[82.83305043458125,27.93434702946181],[82.83314840111505,27.93542884749529],[82.83354885050673,27.93709777763364],[82.83399988509383,27.93835408671726],[82.83437413525552,27.94044701574704],[82.83469287410118,27.941088393360094],[82.8372349876396,27.94398725850947],[82.83795424787347,27.945049512400505],[82.83843116054929,27.94709586600653],[82.8388059183397,27.948060463893604],[82.83979959350607,27.94916785702755],[82.84085628995663,27.95053307657286],[82.84174698480629,27.952151931968583],[82.8420385880314,27.953018688092506],[82.84326434432498,27.954775773353724],[82.8441138429518,27.955525372683766],[82.84526976501085,27.956627328236774],[82.8471723296066,27.95928368093937],[82.84782094839723,27.95893476955292],[82.84883970555943,27.958530344076344],[82.85035708579845,27.958084845710005],[82.85045668598603,27.958040521342074],[82.85059586280818,27.957978504084352],[82.85106903931676,27.957910236605173],[82.85186877611024,27.957686674632733],[82.85270327439811,27.95761915907159],[82.8550951650534,27.95760748169289],[82.85609128659225,27.957511895822375],[82.8568717661588,27.957308528066918],[82.85727447820523,27.957262203892064],[82.85935244457035,27.956552694656455],[82.85997711466067,27.95643147451732],[82.86167018191783,27.956490625991496],[82.86186750521097,27.956548581658264],[82.86196660407428,27.956583341745432],[82.86207108069138,27.95662029099869],[82.8627250099951,27.956792720219706],[82.86496971839003,27.95705943546001],[82.86550516822608,27.957079632134878],[82.86660051533843,27.95669821263728],[82.8674863465573,27.956538483075914],[82.86840049930304,27.956442210233007],[82.86896927484513,27.956311424335034],[82.86916190969741,27.95618213784179],[82.87045408116688,27.955745891000763],[82.87087511443268,27.955528142002315],[82.87120367592246,27.955271317927462],[82.87130108996759,27.95482299945243],[82.87153561719364,27.954396124950048],[82.87186561756808,27.954044523498304],[82.87201667503007,27.95383133689789],[82.87201623766728,27.953756877857128],[82.8720883285046,27.953671728021284],[82.87237762347874,27.953563510546992],[82.87422787990438,27.952863189206855],[82.87484048412968,27.952671886489075],[82.87549203854883,27.952643318862346],[82.87609601607507,27.95226908674621],[82.87648197482793,27.951875035977903],[82.87704293772272,27.951301870229056],[82.87762390597624,27.950909445256293],[82.87891845052796,27.95091545423125],[82.87946359159612,27.95085894071784],[82.88007857278825,27.95049608742768],[82.88018211254607,27.950223757209777],[82.88015022907157,27.94976993642864],[82.87981179406178,27.949313613574425],[82.87990296055479,27.948055056423556],[82.88072765307095,27.946572249906723],[82.88130893418754,27.94608948620816],[82.8829445436004,27.946005720690444],[82.88335369643384,27.945916508947644],[82.88504895715191,27.945189929438982],[82.88592940979426,27.945215128441443],[82.88703963548497,27.945246643513148],[82.88837181859098,27.94523252114221],[82.88979728998794,27.944731756704066],[82.89057139798015,27.94351702893958],[82.89119269309005,27.94337536581847],[82.89163529635263,27.943117104510243],[82.89207308873416,27.942522620130486],[82.89238026628999,27.942364825148235],[82.89314042518012,27.9422422926265],[82.89319069344863,27.942235916482208],[82.89354038817484,27.94196114989617],[82.89373277329658,27.941725706605727],[82.89389902383266,27.94152389846547],[82.89413267637495,27.941072204405142],[82.89435538666146,27.94072866712664],[82.89455358640477,27.940574560529623],[82.89535413723712,27.9401634433119],[82.89630805520838,27.940105618763305],[82.89736613919396,27.93961079155294],[82.89801288189763,27.939300016509158],[82.89856046207916,27.93914641122809],[82.89870708008485,27.939005432932227],[82.89896524219914,27.938450021773743],[82.89964831004838,27.938123741757337],[82.8999152231437,27.9379949549952],[82.90021946373128,27.93762059668966],[82.90048875298197,27.937439857702564],[82.90093723390315,27.93713877142196],[82.90134895357009,27.936503336598893],[82.9015555348187,27.935798630515947],[82.90175730379299,27.934911058955667],[82.90173398666364,27.93419997432486],[82.9015684320554,27.933262073604723],[82.9015119749706,27.932941165671384],[82.90145345666934,27.93244414434269],[82.90142819827413,27.932301790669946],[82.90130496629655,27.932011954591513],[82.90096390730328,27.931284802008047],[82.90079778732084,27.93059059709678],[82.90055376325247,27.92990939526272],[82.89981524927872,27.92824471557158],[82.89957954248423,27.92742584817167],[82.89966714003968,27.926966213866077],[82.89979394053887,27.92651583262628],[82.90003409670376,27.925757172935302],[82.8998854206904,27.92516699895358],[82.89991086840169,27.925038524153706],[82.89997339391059,27.924725369455796],[82.90024893694134,27.92427167566586],[82.90025463222352,27.92338929093448],[82.90014840937543,27.92268433303567],[82.8990840244867,27.921084795232755],[82.89883331178076,27.92024998615507],[82.89871971006131,27.91973452239289],[82.89868157282798,27.9194228054313]]]}},{"type":"Feature","properties":{"province":"Lumbini Province","district":"Pyuthan","municipality":"Sarumarani Rural Municipality","ward":"2","wardNumber":2,"sourceMunicipality":"Sarumarani","sourceType":"Gaunpalika"},"geometry":{"type":"Polygon","coordinates":[[[82.84294718110952,27.961295186464092],[82.84347131655723,27.960945274088033],[82.84389022556564,27.960425249073282],[82.84397525732547,27.96037629739729],[82.84516057566228,27.96017405729188],[82.84653321488925,27.959628091001015],[82.8471723296066,27.95928368093937],[82.84526976501085,27.956627328236774],[82.8441138429518,27.955525372683766],[82.84326434432498,27.954775773353724],[82.8420385880314,27.953018688092506],[82.84174698480629,27.952151931968583],[82.84085628995663,27.95053307657286],[82.83979959350607,27.94916785702755],[82.8388059183397,27.948060463893604],[82.83843116054929,27.94709586600653],[82.83795424787347,27.945049512400505],[82.8372349876396,27.94398725850947],[82.83469287410118,27.941088393360094],[82.83437413525552,27.94044701574704],[82.83399988509383,27.93835408671726],[82.83354885050673,27.93709777763364],[82.83314840111505,27.93542884749529],[82.83305043458125,27.93434702946181],[82.83315217173825,27.93259207691138],[82.8333376207916,27.931853423469164],[82.83480881576367,27.9286589924472],[82.83549833008769,27.927448390603946],[82.8356928422398,27.92708215947457],[82.83545057247396,27.926064546470123],[82.83544707393888,27.925529702112126],[82.83548984422578,27.925038057751532],[82.83549347041544,27.924995232749502],[82.83562208391272,27.92458104909581],[82.835896436588,27.9244050617542],[82.83652160625455,27.92448934008077],[82.8367654472563,27.924378558794086],[82.83676457543483,27.924015202161332],[82.83563097608555,27.922529696671564],[82.83426572906878,27.92100386557231],[82.83398550253773,27.920595244567004],[82.8336814551252,27.920039767097144],[82.83353546725816,27.919589446569674],[82.83399989186613,27.91922552992085],[82.83416601981948,27.918777836665313],[82.83418946744479,27.91851394641579],[82.83414007744248,27.918087008513595],[82.83396589066149,27.917625184207072],[82.83336573468932,27.916904656993555],[82.8328004640469,27.916574931750134],[82.83191945576426,27.915653469349426],[82.83189794836434,27.915558503757563],[82.83247410113681,27.915349007511587],[82.83312178061232,27.915214471320233],[82.83319374536738,27.915199342625154],[82.83346447286351,27.914980466861067],[82.83347910322102,27.914888065503153],[82.83331923119623,27.914900255007858],[82.8324205236838,27.91471438313172],[82.83201843755874,27.914510133656282],[82.83096398520821,27.914189721192376],[82.83069582313124,27.914169401633053],[82.8304153436814,27.91414664275214],[82.82980024013294,27.914197967282696],[82.82823577971367,27.914676662035525],[82.827812934505,27.914720422714307],[82.82624635545987,27.914325735743663],[82.8253525228775,27.914221075176073],[82.82486309228297,27.914077029441696],[82.82441367545947,27.91407996552468],[82.82403015827482,27.914013506501735],[82.82359724825083,27.913865335818016],[82.82294432043605,27.913485158174485],[82.82265527803904,27.91307647326245],[82.82265490348344,27.912990698458366],[82.82294957614535,27.912909739251834],[82.823274638147,27.91242278528956],[82.82316978948249,27.91201341388919],[82.82310032825504,27.911742021978693],[82.82276758298353,27.911265254589615],[82.82256788746396,27.910701588468864],[82.82211341013422,27.91008840521644],[82.82145854594634,27.90950954445499],[82.8202415359906,27.908659662707052],[82.8199279215773,27.908383892236664],[82.81985877375766,27.908022223483304],[82.81977625219875,27.906730656579477],[82.81999571281814,27.90605095798132],[82.81999384147473,27.905552186371853],[82.81986410830511,27.905097489208014],[82.81850104639162,27.904052174469964],[82.81811084146345,27.903696818247447],[82.81780379283398,27.9032224899578],[82.81761116272936,27.902688268977908],[82.81698506344803,27.901446150854408],[82.8157999453137,27.899960082347004],[82.81487185807218,27.89895234398808],[82.81428414228013,27.898489079963635],[82.8139241364537,27.898125032987853],[82.81332229656424,27.896826648717436],[82.81285431484996,27.896206526268998],[82.8125849057817,27.895669367197236],[82.81250769564842,27.89483368380005],[82.81256403251308,27.89431284381768],[82.81253602355825,27.89411853595583],[82.81222791419844,27.89328535209543],[82.81142324606841,27.892450227094177],[82.81030327278003,27.891698062906052],[82.80751538120624,27.888947801748436],[82.80614093640757,27.888331113051382],[82.80546643719927,27.888171812456967],[82.8050953639798,27.887814330393006],[82.80469159365147,27.887226280521386],[82.80455835920117,27.88683922868965],[82.80447132935316,27.886378092665115],[82.80451209766795,27.885933900113198],[82.80434428416487,27.886128706105158],[82.80375356210895,27.88657277071585],[82.80255630132612,27.8869731319788],[82.80196670724337,27.88694318226741],[82.79976539230279,27.886513293669555],[82.79919761839253,27.886546737166924],[82.79881716301745,27.88676011017814],[82.79856225360581,27.887040004037896],[82.7982263075308,27.88828505500005],[82.7974835879577,27.88912486060224],[82.79697007712426,27.89014721978128],[82.79662213406392,27.890279632390307],[82.7949635862817,27.889459507010127],[82.79450460512192,27.889135033994823],[82.79366029370188,27.88876429526017],[82.79140651941196,27.888685947261088],[82.790877509203,27.888805417076284],[82.79063560663383,27.888916135365175],[82.79042583956792,27.889079056966715],[82.79034987360518,27.88913932473016],[82.79004331815182,27.88961283670427],[82.789991544845,27.89024652293078],[82.79003136933284,27.890659831602576],[82.79029408689014,27.89136403979138],[82.79037855326963,27.891680758223426],[82.79034935321253,27.891991912294724],[82.79031696453546,27.892163087186752],[82.79009637528593,27.893215082843376],[82.78975849301162,27.89407877220801],[82.78927292530751,27.895742257989514],[82.7892301555695,27.896387322331275],[82.78947449157639,27.89703263826114],[82.78987876154949,27.897771919743423],[82.79021494494681,27.898293887555432],[82.79022357349866,27.89834590342307],[82.79026108574108,27.898574157942818],[82.79027321169995,27.89899403171887],[82.79012027751186,27.89927023680592],[82.78989981969917,27.899419528855653],[82.78973044411714,27.899463166266585],[82.78936887339506,27.899335876943173],[82.78924720356778,27.899226469217727],[82.78912547259351,27.8990110301031],[82.78905519812339,27.898705752049317],[82.78904288278225,27.89855670827752],[82.78902550285589,27.898348896853953],[82.78922545523577,27.897928649699185],[82.7891930069497,27.8976733868609],[82.78901400658543,27.897179803622077],[82.78858672594768,27.896799189278415],[82.78826610804961,27.89662257307819],[82.78802951958788,27.896622759647272],[82.78766675888548,27.89674823214722],[82.78742072828192,27.896998741644044],[82.78715012418853,27.897407172775658],[82.78694917184633,27.897831921560943],[82.78688901976204,27.898555821012664],[82.78678628496328,27.89979624690844],[82.78654375286918,27.90036272523741],[82.78634674106033,27.900541525819403],[82.78601711763903,27.900579285867487],[82.7857387025929,27.90054071000566],[82.7842549042825,27.90004699413183],[82.78222415263835,27.899625108210248],[82.78174953729209,27.89976083301693],[82.78149906826962,27.899950450419038],[82.78128229784811,27.90022615480679],[82.78116143722997,27.90066965915833],[82.78114124034268,27.900944802977435],[82.78124151871123,27.902114772045955],[82.78118355821732,27.90232633403693],[82.7807718411397,27.902597973596375],[82.78045596987909,27.90309849396749],[82.78041751553063,27.903384765535513],[82.78054337168686,27.90380107603821],[82.78039912748815,27.904262460371577],[82.77982434646418,27.905029182437584],[82.77939180656642,27.9054586806663],[82.77840187448905,27.905777144111553],[82.77804524163396,27.90577851737847],[82.7776074540292,27.905684362268047],[82.77729058931297,27.905338508478998],[82.77710902374164,27.90499165545715],[82.77710140147435,27.904253626882923],[82.77701637432725,27.90359837068361],[82.77659122708626,27.902120934416818],[82.77641916602933,27.901805716229138],[82.77602508452439,27.901382464859523],[82.77502909161439,27.90105992678319],[82.77413369457393,27.90124610104992],[82.77358279772531,27.901868593481147],[82.77351589693305,27.902111726873173],[82.77343942868984,27.90238862046724],[82.77343798696309,27.90282643668313],[82.77359428848246,27.90375083401244],[82.77361485776731,27.903872869760285],[82.77377678798425,27.90457613972025],[82.77381917551742,27.905070785205606],[82.77388844110644,27.906393861820376],[82.77379508343944,27.90794569230943],[82.7713995446369,27.911000388628068],[82.77087984439328,27.91194134892865],[82.77050657286068,27.91313413516345],[82.77003551407356,27.91429666093123],[82.76982298604504,27.91588350102819],[82.76988487718378,27.91683865733478],[82.77028895020587,27.918767288414376],[82.77047413043155,27.920678163324432],[82.77043416737274,27.922104082266],[82.77051656739572,27.922984966183083],[82.7708701257867,27.924308294942897],[82.77090157305726,27.92467415181607],[82.77087012125145,27.92503950973994],[82.77077770375259,27.92610838493593],[82.77020654645851,27.927186511407356],[82.76912481998218,27.92869569813902],[82.76884977877509,27.928973090519904],[82.76863019416237,27.929370581115418],[82.76860174322334,27.92964109785891],[82.76885277104816,27.930083416558695],[82.7691022368305,27.930351934952405],[82.76956628183798,27.930692349971274],[82.77237512981276,27.932069145074937],[82.77337468442204,27.932691896477724],[82.77389362363448,27.933150096450248],[82.77442031710531,27.933482010009477],[82.77492756684241,27.93370995410813],[82.77496976868342,27.933940522278466],[82.77497383134883,27.934118824542438],[82.77481389487968,27.934383651552842],[82.77472229732803,27.93447542842706],[82.77433396284316,27.93485791375194],[82.7736395732672,27.935765738710003],[82.77233720329141,27.937173644487487],[82.7703188716808,27.93964717218539],[82.76959571874546,27.940868338965867],[82.76919431362796,27.94175391000661],[82.76898916819596,27.942537451384112],[82.76867773825967,27.94285504231207],[82.76837318556646,27.943014900573072],[82.76733742287463,27.943368998306003],[82.76684086116443,27.943707532816486],[82.76660989775715,27.94398536290801],[82.76626120013903,27.944733705524847],[82.7660379893179,27.945088308276773],[82.76546883625728,27.945667662462846],[82.76484972771321,27.94605258514689],[82.76449984506593,27.94645563866589],[82.76405598457325,27.947525950840696],[82.76414820576106,27.94754476908916],[82.76459418432873,27.947492318372223],[82.76510831498547,27.947260003016996],[82.76626337202273,27.94703338146606],[82.76753391011432,27.946600073193814],[82.76816020657607,27.94644778283507],[82.77144849585473,27.94607994332387],[82.77279218707365,27.945523162623463],[82.7731266865313,27.945469710842016],[82.77370390345177,27.94524464811263],[82.7743493332408,27.94488704668966],[82.77514932265154,27.944343454230868],[82.77551189792862,27.94390670325561],[82.77604203855387,27.943096718736456],[82.77647957941741,27.942746242687047],[82.77757280118541,27.942311370960297],[82.77807255019162,27.942218784901815],[82.77856279481647,27.9422704896177],[82.77912731611521,27.94248987035304],[82.78020934200838,27.942711628618284],[82.78195792275217,27.94363428478809],[82.7826131648255,27.94387479695739],[82.7831840023409,27.943985895198463],[82.7837306428248,27.94391168879068],[82.78405370163983,27.943765585597653],[82.78553394723103,27.942864642136268],[82.78611041257392,27.942705035456445],[82.78643859753835,27.942671777369124],[82.78834968162657,27.94287366060236],[82.78891339005295,27.943027521243504],[82.78901342760555,27.94303289872868],[82.78935499228147,27.943051718180342],[82.789781776765,27.942897488278494],[82.79089088352649,27.94196840874831],[82.79153443848573,27.941633251694466],[82.79191658104719,27.94148989861479],[82.79262465805759,27.94134492324948],[82.793404137716,27.941065157288108],[82.79764047706468,27.93922676649257],[82.79818336874705,27.93885234740213],[82.79872175911582,27.9385658910557],[82.79932754736916,27.93844936019825],[82.79953406143382,27.938475931575724],[82.80050579876549,27.938441489258626],[82.80189100297862,27.938279762558796],[82.80262977916576,27.93808533443133],[82.80422956279114,27.93787803252091],[82.80507644119352,27.93781770679189],[82.80571555469146,27.937703614471722],[82.80766283914717,27.93804091145947],[82.81187714992254,27.939090556278845],[82.81220014414679,27.939124942796592],[82.81273690674925,27.93907318047394],[82.81351382248714,27.938876752472243],[82.81533400714487,27.937768437133894],[82.8158538889016,27.93763077427362],[82.81682650043984,27.937754253658166],[82.81793034695056,27.938020963080437],[82.81913810332514,27.93868804069346],[82.8196802415852,27.93889804235866],[82.82114115745163,27.93919488793182],[82.82346320777158,27.93940652495188],[82.82404798622312,27.939583017970804],[82.82637184936516,27.93989393462672],[82.82652484283695,27.93993363498497],[82.82663744699803,27.940058734089142],[82.82670115573227,27.940307495233895],[82.8253693273791,27.94327060832424],[82.8252823546582,27.94364671878672],[82.8250666379966,27.945384915810617],[82.82484880160531,27.94605554849859],[82.82442432421718,27.947090037988243],[82.82417591831695,27.94728878205958],[82.82383060069691,27.947407690203637],[82.82284723535166,27.9473609838297],[82.82234354669694,27.94758010772501],[82.82228070988563,27.947753345937457],[82.82250622677289,27.94834427045863],[82.82279670702674,27.948773273624205],[82.82286560466709,27.94912819064933],[82.8227571815735,27.950312037591004],[82.82276567780607,27.951343465599223],[82.8228968449634,27.952229226519485],[82.82316475060783,27.95321776800459],[82.82353682016377,27.954064956512813],[82.82452136497427,27.955391351542264],[82.82520648733787,27.95652331318247],[82.82558631086926,27.957300605890612],[82.8265811086794,27.958712776638134],[82.82682350788016,27.95918429088819],[82.82723859319832,27.96017402185717],[82.8273546306623,27.96101895826152],[82.82731698120168,27.962417931715727],[82.82745884513741,27.962667380292675],[82.82766310829668,27.96275709561324],[82.82813153281877,27.962720462337018],[82.8286874287358,27.962467953295427],[82.82958269843743,27.962534228262015],[82.82999053848995,27.962458708128644],[82.83069549424278,27.961611588262016],[82.83079715812735,27.96149061593333],[82.83117523885124,27.961078558796896],[82.83142645789978,27.961001787640964],[82.83244521137522,27.96116371623526],[82.8328344186099,27.961137772771725],[82.83421455646595,27.961318708935543],[82.83455824603946,27.961414176024817],[82.83478770641385,27.96146794291296],[82.83493132223285,27.96147144496604],[82.83839304666837,27.961577370336204],[82.83910349906235,27.96151341737816],[82.84090491903585,27.961582697578667],[82.84225979945401,27.96148348799973],[82.84288190648901,27.961337511265132],[82.84294718110952,27.961295186464092]]]}},{"type":"Feature","properties":{"province":"Lumbini Province","district":"Pyuthan","municipality":"Sarumarani Rural Municipality","ward":"4","wardNumber":4,"sourceMunicipality":"Sarumarani","sourceType":"Gaunpalika"},"geometry":{"type":"Polygon","coordinates":[[[82.86685706267242,27.99168517988801],[82.86680917016139,27.991646355640533],[82.86673664343631,27.991589338564307],[82.86651606293624,27.991438605103617],[82.86605182866926,27.991186528857426],[82.86543503751446,27.991088934870707],[82.8651088552745,27.99088762344039],[82.86479861673799,27.99052632816567],[82.86473653189,27.990417421408228],[82.86449382548705,27.98910197106431],[82.86431188627238,27.988511421508655],[82.86379520334637,27.9871621471431],[82.86293120460687,27.985606872943062],[82.86256569649244,27.985179558023443],[82.86201849562717,27.984818449083715],[82.8614926754918,27.984622326875886],[82.86113548231567,27.984260593293122],[82.86113017275889,27.983615029057635],[82.86129504941071,27.983194405826975],[82.8615730924675,27.982892006069587],[82.8622924875321,27.982507521884695],[82.86266919321129,27.982194681913636],[82.86271771217503,27.982016817756385],[82.86216876159989,27.981454837434708],[82.86198650784362,27.98113736787452],[82.86186846743597,27.980727934394704],[82.86190542089807,27.980294932686206],[82.86229494569817,27.979634678350138],[82.86229369603812,27.979451874500278],[82.8619342534967,27.979031373950786],[82.86165933904933,27.97888014021215],[82.86097589711021,27.978842938360305],[82.86048152646521,27.978707959010993],[82.86011414268958,27.978328032950447],[82.85962652538483,27.978064452399842],[82.85902030731056,27.97693105406701],[82.85864516917505,27.976736119323768],[82.85824370770455,27.976626709907592],[82.85548724680419,27.976184065221723],[82.85485075985733,27.97624420453013],[82.85345254968668,27.976521466178088],[82.8530251408594,27.97649308089997],[82.85230793742078,27.97633821880882],[82.85183063548283,27.976311645881886],[82.85107103898686,27.976501635515415],[82.85057823027677,27.976560712038676],[82.85019089706148,27.97673807456686],[82.84940522530931,27.977288919957456],[82.84883250739286,27.977956675153173],[82.84817876122912,27.978504082446648],[82.84773184088556,27.979019419157044],[82.84738189610935,27.97927155349543],[82.84706684043452,27.979377208532483],[82.84680987988709,27.97798942446803],[82.84686352660792,27.97766039038093],[82.84688122459148,27.977103101527568],[82.84657175290162,27.97440587030561],[82.84686819027382,27.97231181872958],[82.84686075662108,27.97137066773576],[82.84672133451394,27.970701532956358],[82.84652802764947,27.968436429344834],[82.84654366105364,27.968016680817797],[82.8465467271346,27.96772334428528],[82.84652509761706,27.967249267325435],[82.84646082715618,27.966718361551088],[82.84640062045125,27.966221339702344],[82.84616966393436,27.965562707605017],[82.84589362664558,27.965104509230557],[82.8450774547773,27.964052820635168],[82.84344923610296,27.96239169922672],[82.84294718110952,27.961295186464092],[82.84288190648901,27.961337511265132],[82.84225979945401,27.96148348799973],[82.84090491903585,27.961582697578667],[82.83910349906235,27.96151341737816],[82.83839304666837,27.961577370336204],[82.83493132223285,27.96147144496604],[82.83478770641385,27.96146794291296],[82.83455824603946,27.961414176024817],[82.83421455646595,27.961318708935543],[82.8328344186099,27.961137772771725],[82.83244521137522,27.96116371623526],[82.83142645789978,27.961001787640964],[82.83117523885124,27.961078558796896],[82.83079715812735,27.96149061593333],[82.83069549424278,27.961611588262016],[82.82999053848995,27.962458708128644],[82.82958269843743,27.962534228262015],[82.8286874287358,27.962467953295427],[82.82813153281877,27.962720462337018],[82.82766310829668,27.96275709561324],[82.82745884513741,27.962667380292675],[82.82731698120168,27.962417931715727],[82.8273546306623,27.96101895826152],[82.82723859319832,27.96017402185717],[82.82682350788016,27.95918429088819],[82.8265811086794,27.958712776638134],[82.82558631086926,27.957300605890612],[82.82520648733787,27.95652331318247],[82.82452136497427,27.955391351542264],[82.82353682016377,27.954064956512813],[82.82316475060783,27.95321776800459],[82.8228968449634,27.952229226519485],[82.82276567780607,27.951343465599223],[82.8227571815735,27.950312037591004],[82.82286560466709,27.94912819064933],[82.82279670702674,27.948773273624205],[82.82250622677289,27.94834427045863],[82.82228257998509,27.94843035714755],[82.82190950318977,27.94852875919092],[82.8216457165437,27.948677676413297],[82.82126625978472,27.949107738053435],[82.821095819871,27.949417703168407],[82.82090655548123,27.950287270421306],[82.82063257306743,27.951002541674843],[82.8202290913656,27.95375684778119],[82.82019501103633,27.95446736884957],[82.8200839047295,27.954929128800146],[82.82006851386352,27.956344044918566],[82.81993790058365,27.956640818944976],[82.81950248616292,27.9570364951774],[82.8179963573608,27.95781346524761],[82.81713797138433,27.95833192518092],[82.816798467958,27.958638200178417],[82.81626458052796,27.9588818942997],[82.81549191753489,27.958967789768053],[82.81460477328139,27.95915646579406],[82.81312615689073,27.959586145800536],[82.81246640954765,27.95991667691306],[82.81201223981502,27.960021080276086],[82.81188806761855,27.960123797398428],[82.8120390592039,27.960414008602623],[82.81245733441327,27.96124581747612],[82.81276900563482,27.96223248394856],[82.81312818149233,27.965189667397695],[82.8133057453131,27.965423674107342],[82.81370951918306,27.965661809265935],[82.81399937555754,27.965948644698052],[82.8140517056967,27.9660709939304],[82.81388933214855,27.966277240597442],[82.81307590129575,27.966717053554248],[82.81278410316042,27.967019202930686],[82.81244709842682,27.96753535260403],[82.81166817841456,27.968271126988526],[82.81118437230292,27.968490376350644],[82.81062660080465,27.968589402320646],[82.80956589423054,27.96859377214755],[82.80749424842237,27.968478789302072],[82.80689402581207,27.96836306432807],[82.80668744919915,27.968363501313682],[82.80589177586687,27.96865902113444],[82.80518569718784,27.969095270279805],[82.80463711646573,27.96931389409715],[82.80195835793883,27.970904220999643],[82.80152025502508,27.97125019533233],[82.80004420111766,27.971948267371648],[82.79922864301409,27.97251661730934],[82.79795910230801,27.97327508228446],[82.79666830201084,27.974308753634837],[82.79570768757718,27.9753452409571],[82.79537024602,27.97585907710119],[82.79485178636706,27.97819476051156],[82.79464145504224,27.978479530152914],[82.79445719574132,27.979015061934167],[82.79441586587751,27.979244878818438],[82.79551046190124,27.979114534228355],[82.79698282468087,27.978788884411003],[82.7974124857166,27.978641405520342],[82.79820540761652,27.97849486758782],[82.7986885248064,27.97845623395782],[82.79930431584256,27.97852025559061],[82.79974272809474,27.978616599152538],[82.80084438432392,27.979192649334866],[82.80182618212855,27.979898549981666],[82.80224139861177,27.98005559854161],[82.80356407841991,27.979985835233485],[82.80422645071248,27.979887810391418],[82.8056086531094,27.9799607144468],[82.80706643995087,27.980670681532473],[82.80752023271147,27.980902501635224],[82.808546735109,27.981529754657434],[82.8092051646993,27.98196426088618],[82.80984477363876,27.982583571275875],[82.81164192772785,27.98466856861358],[82.81232149048405,27.98512126790894],[82.8134020138907,27.985701507026683],[82.81358433047451,27.98579791072365],[82.81368768163642,27.98587774762036],[82.81521236792294,27.986789086709617],[82.81563433459786,27.987115434570658],[82.81636954010978,27.987920612847752],[82.81668208876826,27.988724475258305],[82.81680344145886,27.98945669121756],[82.8170958600982,27.989858685613843],[82.81754546242827,27.99015815145096],[82.81794460847821,27.99045499120148],[82.81842922447497,27.990865364106213],[82.81878285475003,27.991019598825396],[82.82158883167565,27.991777024412333],[82.82213684824326,27.991797533369184],[82.82390287800958,27.99215789873047],[82.82541087338794,27.992723697974853],[82.82614864525415,27.993086559037017],[82.82643587558921,27.993303374671424],[82.82719653202334,27.99352644416603],[82.82827705247288,27.994501611139274],[82.82986613688551,27.99565702193708],[82.83047185854029,27.996192495465024],[82.83069512713452,27.996472015770753],[82.83103381327783,27.99689689242034],[82.83149473197072,27.997302577281904],[82.83069511483514,27.998241286180583],[82.83034879553415,27.99864909137453],[82.82971268162625,27.99898218573479],[82.82940150216267,27.99904276366947],[82.8288564252026,27.999011001461234],[82.8284267657171,27.998887775282917],[82.82819849563755,27.99859918991406],[82.82798229450721,27.997843591261915],[82.82808527456062,27.997339006557],[82.82819487906862,27.99710743862873],[82.8284291562852,27.99684317512187],[82.82853613483094,27.99658453763375],[82.82852050520289,27.996444495942008],[82.82837470300659,27.99611377327261],[82.82807228020317,27.99574785129827],[82.82761023577864,27.99544375984539],[82.82666457244784,27.995167173210916],[82.8263466426638,27.995141851272418],[82.8254299881488,27.995242376258638],[82.82411211812287,27.995813411763383],[82.82326035930005,27.9963364352376],[82.82263799893187,27.996958552420878],[82.82238471248445,27.997484455042276],[82.82148197574973,28.001148464325446],[82.82143877018545,28.001556584135344],[82.82147459345525,28.001918002536527],[82.82132396919604,28.002641089416255],[82.82150741072265,28.002965372564162],[82.82214339340192,28.003462834880008],[82.8222274238192,28.00365989363403],[82.82222917248201,28.00393972550958],[82.82207486334298,28.004125717197624],[82.8210265336649,28.004455245589142],[82.81936835203035,28.004655420267117],[82.81921623134139,28.00487529592431],[82.81897038471782,28.005590818085768],[82.81887903337017,28.006332535112936],[82.81863599950248,28.007052620232226],[82.81863749798177,28.007352770444815],[82.81876791974248,28.007694621997477],[82.81926253998593,28.00792231708985],[82.81959809892528,28.00839683303941],[82.81964130097978,28.008577761291438],[82.81977734956888,28.00892648911323],[82.81971726121424,28.00930735123521],[82.81961290886728,28.009577305032472],[82.81948698467997,28.009788303274423],[82.81944409400926,28.00978799066041],[82.81929578836807,28.009922091386283],[82.81897691801673,28.01009764200167],[82.81855132066525,28.01027225278684],[82.81718599758098,28.010569707602688],[82.81650286742703,28.01063384750205],[82.81530554654107,28.010623526094115],[82.81513504593678,28.01066266096119],[82.81419482021376,28.010690726556557],[82.81359697137589,28.010771309557224],[82.81282781024765,28.010796250106964],[82.81248649456504,28.01087683426747],[82.81197405390424,28.010937849380603],[82.81171827069421,28.011016871209083],[82.81154839366354,28.011112461058058],[82.81120657835483,28.01115465929683],[82.81084450603242,28.01127112849704],[82.81041984554768,28.011560836128314],[82.80959453229963,28.012409018512212],[82.80910972127552,28.01308183830699],[82.80894165735535,28.01338730231536],[82.80917936855757,28.013633125584434],[82.80978190249294,28.014049063360247],[82.8101681704,28.014217114898187],[82.81053280558271,28.014328587631717],[82.81078940143468,28.014326338302656],[82.81241025707344,28.01397018065491],[82.81266679023942,28.013949801000376],[82.81394639363138,28.013671975769537],[82.81462827484819,28.013436410590117],[82.81633328781702,28.012945525936786],[82.81829533532274,28.01247039697877],[82.81863683709746,28.01243044965209],[82.81957537631104,28.012210578190004],[82.82043006918259,28.012186325516545],[82.82077163457635,28.0121441274625],[82.82188442352086,28.012268732573826],[82.82291093013782,28.012318128052907],[82.82479556734079,28.01264567232482],[82.82548150930951,28.012850110599437],[82.8262554196946,28.013244856107278],[82.82703157927664,28.013811088894393],[82.82759316040737,28.014321429439853],[82.8278312471973,28.014587509250248],[82.82876427342799,28.015818626267926],[82.82945921291895,28.016788164993894],[82.8297429398539,28.017300629305023],[82.83022098803373,28.017983957925328],[82.83050440313531,28.018496422589084],[82.83057042670838,28.01865046755605],[82.8306949109089,28.018637965267498],[82.83080532692317,28.018627587527483],[82.83151121499182,28.01864259612564],[82.83170409880026,28.018678106916937],[82.83240986140392,28.01867279717166],[82.83337209516849,28.01864485620131],[82.83420565625578,28.018581967619838],[82.83542448587718,28.01855165300462],[82.83625735941175,28.018432309849295],[82.83709104498166,28.0183874263589],[82.83786214416702,28.018513592329075],[82.83844192103331,28.018719280770075],[82.8397267111431,28.018861017598596],[82.84043247364586,28.018855707270163],[82.8408828913877,28.0189474866182],[82.84139670737457,28.019001505178775],[82.84248630134067,28.018895542731904],[82.84332117451967,28.01894768688606],[82.84415504741956,28.018938876726743],[82.8456300974431,28.018851984138355],[82.8465282445359,28.018843736315617],[82.84723488247703,28.018933141147752],[82.84755568883811,28.018931267948325],[82.8481962417304,28.018810298326624],[82.84915528771198,28.018515904019452],[82.85030884356428,28.01837430640066],[82.85056550213132,28.018389999738513],[82.85108025503952,28.01850028555664],[82.85146539820703,28.018517104316587],[82.85172280689959,28.01859150309277],[82.85236554477525,28.018680345071587],[82.85300722206466,28.018694727933426],[82.85345507650383,28.018576570522697],[82.8540301047807,28.0183421296734],[82.85492294126028,28.01783954937008],[82.85504973885143,28.01772326600103],[82.8554960943815,28.01745162602222],[82.85575037875604,28.017241627896116],[82.85600541235448,28.017085770986764],[82.85619685938357,28.01698805611964],[82.85670861304727,28.016870461947068],[82.85715796776256,28.01688540558713],[82.85773705710069,28.017014384610626],[82.85838167111216,28.01729503256515],[82.85885615790622,28.017635260259773],[82.85920115996838,28.017899902168658],[82.85917640249458,28.01759499993267],[82.85891218357952,28.01690904750952],[82.85867259689482,28.016530184968605],[82.85849934582642,28.01632112195346],[82.8580890711813,28.015979206749684],[82.85750473198985,28.01535595835392],[82.85722256754437,28.014974469803686],[82.8564207127026,28.014026749746066],[82.85607283630564,28.013495779606767],[82.8557017657697,28.01281113894548],[82.85548012475618,28.012125498756777],[82.85529906374164,28.011210041444947],[82.85522747920608,28.01052333885233],[82.85513926090461,28.010296959565547],[82.85513807368422,28.01019993091527],[82.85500496404869,28.009742921346025],[82.85487304255228,28.009439394005355],[82.85448071379363,28.008754628426964],[82.85432865786137,28.00852768515141],[82.85411039084144,28.008394958276842],[82.85382716113004,28.008157886898864],[82.85239219621722,28.00714620685936],[82.85162028728814,28.006683879048328],[82.85185225220954,28.00617804482483],[82.85257715165925,28.005468714888416],[82.85295467250423,28.00473387640489],[82.85397987699834,28.00329808472343],[82.85502433594353,28.002124182991075],[82.8560839908482,28.00055779152226],[82.8564164299745,28.000258142445933],[82.8572388045332,27.999314870057145],[82.85843438148474,27.998297952179982],[82.85945570633469,27.997286348391277],[82.86026095139474,27.996151081872164],[82.86073557204132,27.995171045848075],[82.86114472788496,27.994770431122596],[82.86362009349986,27.993750519471043],[82.86532929957866,27.99271972568135],[82.86567705701383,27.992352432077286],[82.86620006606134,27.99199795578011],[82.86659496462433,27.991861229897495],[82.86685706267242,27.99168517988801]]]}},{"type":"Feature","properties":{"province":"Lumbini Province","district":"Pyuthan","municipality":"Sarumarani Rural Municipality","ward":"5","wardNumber":5,"sourceMunicipality":"Sarumarani","sourceType":"Gaunpalika"},"geometry":{"type":"Polygon","coordinates":[[[82.79441586587751,27.979244878818438],[82.79445719574132,27.979015061934167],[82.79464145504224,27.978479530152914],[82.79485178636706,27.97819476051156],[82.79537024602,27.97585907710119],[82.79570768757718,27.9753452409571],[82.79666830201084,27.974308753634837],[82.79795910230801,27.97327508228446],[82.79922864301409,27.97251661730934],[82.80004420111766,27.971948267371648],[82.80152025502508,27.97125019533233],[82.80195835793883,27.970904220999643],[82.80463711646573,27.96931389409715],[82.80518569718784,27.969095270279805],[82.80589177586687,27.96865902113444],[82.80668744919915,27.968363501313682],[82.80689402581207,27.96836306432807],[82.80749424842237,27.968478789302072],[82.80956589423054,27.96859377214755],[82.81062660080465,27.968589402320646],[82.81118437230292,27.968490376350644],[82.81166817841456,27.968271126988526],[82.81244709842682,27.96753535260403],[82.81278410316042,27.967019202930686],[82.81307590129575,27.966717053554248],[82.81388933214855,27.966277240597442],[82.8140517056967,27.9660709939304],[82.81399937555754,27.965948644698052],[82.81370951918306,27.965661809265935],[82.8133057453131,27.965423674107342],[82.81312818149233,27.965189667397695],[82.81276900563482,27.96223248394856],[82.81245733441327,27.96124581747612],[82.8120390592039,27.960414008602623],[82.81188806761855,27.960123797398428],[82.81201223981502,27.960021080276086],[82.81246640954765,27.95991667691306],[82.81312615689073,27.959586145800536],[82.81460477328139,27.95915646579406],[82.81549191753489,27.958967789768053],[82.81626458052796,27.9588818942997],[82.816798467958,27.958638200178417],[82.81713797138433,27.95833192518092],[82.8179963573608,27.95781346524761],[82.81950248616292,27.9570364951774],[82.81993790058365,27.956640818944976],[82.82006851386352,27.956344044918566],[82.8200839047295,27.954929128800146],[82.82019501103633,27.95446736884957],[82.8202290913656,27.95375684778119],[82.82063257306743,27.951002541674843],[82.82090655548123,27.950287270421306],[82.821095819871,27.949417703168407],[82.82126625978472,27.949107738053435],[82.8216457165437,27.948677676413297],[82.82190950318977,27.94852875919092],[82.82228257998509,27.94843035714755],[82.82250622677289,27.94834427045863],[82.82228070988563,27.947753345937457],[82.82234354669694,27.94758010772501],[82.82284723535166,27.9473609838297],[82.82383060069691,27.947407690203637],[82.82417591831695,27.94728878205958],[82.82442432421718,27.947090037988243],[82.82484880160531,27.94605554849859],[82.8250666379966,27.945384915810617],[82.8252823546582,27.94364671878672],[82.8253693273791,27.94327060832424],[82.82670115573227,27.940307495233895],[82.82663744699803,27.940058734089142],[82.82652484283695,27.93993363498497],[82.82637184936516,27.93989393462672],[82.82404798622312,27.939583017970804],[82.82346320777158,27.93940652495188],[82.82114115745163,27.93919488793182],[82.8196802415852,27.93889804235866],[82.81913810332514,27.93868804069346],[82.81793034695056,27.938020963080437],[82.81682650043984,27.937754253658166],[82.8158538889016,27.93763077427362],[82.81533400714487,27.937768437133894],[82.81351382248714,27.938876752472243],[82.81273690674925,27.93907318047394],[82.81220014414679,27.939124942796592],[82.81187714992254,27.939090556278845],[82.80766283914717,27.93804091145947],[82.80571555469146,27.937703614471722],[82.80507644119352,27.93781770679189],[82.80422956279114,27.93787803252091],[82.80262977916576,27.93808533443133],[82.80189100297862,27.938279762558796],[82.80050579876549,27.938441489258626],[82.79953406143382,27.938475931575724],[82.79932754736916,27.93844936019825],[82.79872175911582,27.9385658910557],[82.79818336874705,27.93885234740213],[82.79764047706468,27.93922676649257],[82.793404137716,27.941065157288108],[82.79262465805759,27.94134492324948],[82.79191658104719,27.94148989861479],[82.79153443848573,27.941633251694466],[82.79089088352649,27.94196840874831],[82.789781776765,27.942897488278494],[82.78935499228147,27.943051718180342],[82.78901342760555,27.94303289872868],[82.78891339005295,27.943027521243504],[82.78834968162657,27.94287366060236],[82.78643859753835,27.942671777369124],[82.78611041257392,27.942705035456445],[82.78553394723103,27.942864642136268],[82.78405370163983,27.943765585597653],[82.7837306428248,27.94391168879068],[82.7831840023409,27.943985895198463],[82.7826131648255,27.94387479695739],[82.78195792275217,27.94363428478809],[82.78020934200838,27.942711628618284],[82.77912731611521,27.94248987035304],[82.77856279481647,27.9422704896177],[82.77807255019162,27.942218784901815],[82.77757280118541,27.942311370960297],[82.77647957941741,27.942746242687047],[82.77604203855387,27.943096718736456],[82.77551189792862,27.94390670325561],[82.77514932265154,27.944343454230868],[82.7743493332408,27.94488704668966],[82.77370390345177,27.94524464811263],[82.7731266865313,27.945469710842016],[82.77279218707365,27.945523162623463],[82.77144849585473,27.94607994332387],[82.76816020657607,27.94644778283507],[82.76753391011432,27.946600073193814],[82.76626337202273,27.94703338146606],[82.76510831498547,27.947260003016996],[82.76459418432873,27.947492318372223],[82.76414820576106,27.94754476908916],[82.76405598457325,27.947525950840696],[82.76398895840587,27.94769456234512],[82.76389466931333,27.94819020734754],[82.76385377715603,27.948404207028773],[82.76385083273267,27.949225635886474],[82.76369652347276,27.949497340306532],[82.76284551505198,27.950044870625867],[82.76190828791775,27.950496810694304],[82.76155421742797,27.950735128733807],[82.76020089856716,27.951093038253617],[82.75975204335995,27.951256021060132],[82.75769996323866,27.951740776832807],[82.75709148709427,27.951778222092045],[82.75685358516175,27.95188662739205],[82.75664813157428,27.952072055211303],[82.75648262818932,27.95267992077115],[82.7563280681666,27.95299895063344],[82.75596205410031,27.953419947050957],[82.75570389449668,27.953548483590296],[82.75524303645427,27.95351046986458],[82.75467144980918,27.953290964444495],[82.75436321274132,27.9529948129538],[82.75393036789744,27.952449275453503],[82.75374605211488,27.952124866866566],[82.75349640207398,27.951316939854326],[82.7532342452402,27.95095802082839],[82.75299340668906,27.950743706060123],[82.75274712763886,27.95074601824712],[82.75227363809407,27.95087030225397],[82.7517157415258,27.951122560636378],[82.750899121315,27.951634205986508],[82.75073243107514,27.951986995826655],[82.75073386783943,27.952217251027108],[82.75090811676435,27.95262274646658],[82.75090961605996,27.952877758714795],[82.75078788010799,27.9533235139049],[82.75088166205124,27.953597407131895],[82.75247411716902,27.95535180725583],[82.75320494398996,27.956396493008263],[82.75434935446363,27.958498867587984],[82.75542149507368,27.959623391047113],[82.75566814591491,27.96005664508327],[82.75596118696762,27.960853630742807],[82.75628830345828,27.961474940439665],[82.75716143189798,27.96269017738104],[82.75749067674005,27.963076793017603],[82.75799229810917,27.963467223286365],[82.75918154912985,27.963997010135603],[82.75958782412725,27.96425790224481],[82.76053360652128,27.965182679323163],[82.76107761598108,27.96584875322199],[82.76137928592259,27.966557838486686],[82.76141173501898,27.966612291975395],[82.76145568774645,27.966716509872015],[82.76177123740804,27.967464106270114],[82.76212874046011,27.968155624002605],[82.76244335462349,27.96862557661955],[82.76275015399003,27.968948797902495],[82.76293122031903,27.9690338866348],[82.76381548391794,27.969454828363542],[82.76439319599363,27.96980981064358],[82.76487086975678,27.97044143691973],[82.76520861859755,27.9706633784864],[82.76533222606271,27.970840494016915],[82.76546446140576,27.97103130032176],[82.76586060811252,27.971122829683573],[82.7662349335491,27.971286380285317],[82.76666215253063,27.971694189668337],[82.76710112611093,27.971984715073578],[82.76772948269475,27.9722205382337],[82.76806260532787,27.9724356659049],[82.7681509507425,27.97249287064337],[82.76822591543467,27.972549950320445],[82.76845712486596,27.972755136477993],[82.76930106029222,27.973290737033356],[82.76990753135009,27.97388972844996],[82.77017031285797,27.974458459602634],[82.7702725313239,27.975386920283157],[82.77049910774883,27.976510438832047],[82.77103742244837,27.97796643282968],[82.77250070270148,27.97999697460262],[82.77323503293972,27.98073469568824],[82.77380073896559,27.981405458747542],[82.77442015443806,27.981679542257446],[82.77469012830777,27.981860222698767],[82.77479791648149,27.98219069518962],[82.77484267849528,27.982874896688536],[82.77482760633634,27.9833350939716],[82.77493313795287,27.984432854684773],[82.77533177408057,27.986167303405875],[82.77536271910947,27.986747537023227],[82.7752787449752,27.987428361337198],[82.77533476148412,27.987988525975315],[82.77547224871243,27.98827179795782],[82.77549844552584,27.988324000946896],[82.7757464110921,27.98854281613883],[82.77624147031416,27.988601336631667],[82.776789799891,27.98853863373032],[82.77687889495267,27.988528068793087],[82.77746417799237,27.988224107402523],[82.77843298076631,27.987560168390296],[82.77872352798838,27.987359610733407],[82.77915569010902,27.98716486870985],[82.77992329253567,27.98655781925512],[82.78048538112942,27.985998595761025],[82.78062399676307,27.985798975546626],[82.78086008926726,27.985124091447993],[82.78142086550613,27.984431703883565],[82.78235740652435,27.98388479854337],[82.78305110588441,27.983378653677466],[82.78395551182729,27.9823823658936],[82.78481027138572,27.981855028404688],[82.78502497771731,27.981662910504085],[82.78532753377559,27.980837295469765],[82.78564065354561,27.98040004344664],[82.78608770233424,27.97932748112717],[82.78661902967457,27.978756691026746],[82.78766229451648,27.9785537625455],[82.78824632345719,27.978615221562155],[82.78901335782837,27.97879127764647],[82.78998678091769,27.97901422373697],[82.79061157681186,27.979010725642024],[82.7908095875644,27.9790372352227],[82.79186297883713,27.9790961329261],[82.79304148118078,27.97905006347846],[82.79414607786286,27.979276386829813],[82.79441586587751,27.979244878818438]]]}},{"type":"Feature","properties":{"province":"Lumbini Province","district":"Pyuthan","municipality":"Sarumarani Rural Municipality","ward":"3","wardNumber":3,"sourceMunicipality":"Sarumarani","sourceType":"Gaunpalika"},"geometry":{"type":"Polygon","coordinates":[[[82.85902030731056,27.97693105406701],[82.85922431976991,27.977025270175833],[82.85945334187062,27.977126426300654],[82.86091144533727,27.977440901439852],[82.8632907040843,27.97773806365606],[82.86402672978116,27.97758170898983],[82.86523518450612,27.97675891169869],[82.86824350285359,27.975147454064174],[82.86926457482869,27.97453071605235],[82.86964646903452,27.974165985610536],[82.87039575125416,27.973680159646204],[82.8707740802988,27.973536557060736],[82.87127983183336,27.97345722320354],[82.8715341766315,27.973540561981807],[82.87237736295683,27.97392205310877],[82.87239443186608,27.973928992913805],[82.87261676335146,27.974000764908908],[82.87296851894308,27.97412324068992],[82.87390392510962,27.97483951837366],[82.8748013155912,27.97566157690603],[82.87510373948803,27.975803933231855],[82.87548644424542,27.975847698157644],[82.87609979872417,27.975656332430358],[82.87683088814435,27.97508229237832],[82.87703727922813,27.974790645537414],[82.87717339510715,27.97431556944456],[82.87728963206767,27.97343406090242],[82.87716490344114,27.972656706850184],[82.87695382765081,27.972196882868502],[82.87664296516414,27.971776820839388],[82.87645846099542,27.97139395729457],[82.8765766940506,27.97111731407687],[82.87686073945818,27.97083754608559],[82.87777758463172,27.970339466696966],[82.87842764007173,27.970159730232254],[82.87898353434562,27.970116845461543],[82.88004361523814,27.97032403656395],[82.88109169122309,27.97052891498562],[82.88181902502608,27.97049872214212],[82.88211263500888,27.970435580347623],[82.88376387509946,27.97029779819481],[82.8844910222298,27.97012762738044],[82.88653834835495,27.969873375906545],[82.88772123061507,27.96926457800731],[82.88894838032336,27.968394329055403],[82.88937585329343,27.96823078257236],[82.88974198969383,27.968190772921858],[82.89041292530399,27.968397086899127],[82.89185014646417,27.968634351506395],[82.89286346112078,27.968635669986234],[82.89456203490296,27.967931659275337],[82.89550738654548,27.967988868552947],[82.89706065105544,27.968193123847193],[82.89748799801616,27.968194314038982],[82.89776028693954,27.96807459295093],[82.89867856673804,27.96801433011395],[82.89944729295172,27.96771799684981],[82.8997972998178,27.96735745505126],[82.90002107452415,27.966883004330164],[82.90007490796452,27.96671645615392],[82.90013811984052,27.96652289925389],[82.90007728718285,27.96613197159269],[82.89995518094314,27.965857890141393],[82.89988834484451,27.96577386577606],[82.89898095176149,27.964635964259397],[82.8985662395383,27.9638879294704],[82.89850471982767,27.963436046438556],[82.89859050415639,27.96306218715168],[82.89876325776302,27.962697893461453],[82.8990553065133,27.962440694333058],[82.89944295227421,27.962125604007742],[82.90029302252064,27.961574946888632],[82.90128189534865,27.960874183102298],[82.90191507193282,27.9602856384234],[82.90251842543842,27.959723976559083],[82.90365391869767,27.958496309073006],[82.9043302355998,27.958034551968804],[82.90493377488659,27.957761725358758],[82.90626133301957,27.957460831330078],[82.90708257601763,27.957503472948087],[82.90926032041848,27.95802845028721],[82.90980552356193,27.958062150603272],[82.91116846829483,27.958007454650666],[82.91375398818276,27.958806514960266],[82.91405972593414,27.9588630332371],[82.91421540919423,27.95889129216536],[82.91472534955662,27.95883215239728],[82.91530475411737,27.958590708856462],[82.91577855689557,27.958296562801966],[82.91596581760588,27.957776661203766],[82.91569040644198,27.957189987333756],[82.91521786119104,27.956373807540437],[82.91518891681767,27.95567622748683],[82.91532784644282,27.95522146903212],[82.91579064702326,27.95469025281698],[82.91706775367514,27.953806562565596],[82.91770761897503,27.953421139988258],[82.91817904529846,27.953237526054277],[82.91940475492098,27.952757390988243],[82.92042657486392,27.95233664820097],[82.92080340602725,27.951881453330788],[82.92145634364948,27.950789698841024],[82.92199698523746,27.950283927536123],[82.92248104178333,27.950003347347863],[82.9239427119229,27.949856749577418],[82.9251347794915,27.949969851595615],[82.92608113048843,27.950135216838447],[82.92679439587516,27.95013853402153],[82.92762539179712,27.950336783942983],[82.92952278063014,27.951071509289548],[82.92992980681592,27.95116266302777],[82.93043999703762,27.951071826182947],[82.93091698863128,27.950892713881597],[82.9314640703752,27.950346306265796],[82.93155904654577,27.94973769053089],[82.93139486627162,27.948851741515263],[82.9309508335808,27.947704089424246],[82.93087594100753,27.946121499768957],[82.93111603303376,27.945579404215376],[82.93133330263994,27.945387036376943],[82.93230954424291,27.944834878501158],[82.93243384162525,27.944732036234253],[82.93264298278659,27.94455986242778],[82.93325102432837,27.944203510697417],[82.93459533983943,27.943758011272312],[82.93536425100754,27.943678178599928],[82.93682023260213,27.94335765444845],[82.93801030258112,27.94302149906542],[82.93896328449267,27.942600067724452],[82.93987812866419,27.942051911487816],[82.94039626092153,27.941636103690893],[82.94104250636386,27.940934713484978],[82.94193122168079,27.93934593898345],[82.94209747242971,27.939139566932226],[82.9419377262472,27.939002963513094],[82.94185807259176,27.93882853666153],[82.94187758395105,27.938293817304967],[82.94170364740788,27.937755345727684],[82.94100189527872,27.93635749426631],[82.94067296212756,27.935946496636674],[82.939981208715,27.935449222150485],[82.9396038198138,27.935191269451927],[82.93863771430213,27.93455195149856],[82.93762559132489,27.934007036242242],[82.93711627789921,27.93382029158966],[82.93643521275945,27.933627732119923],[82.9359445939656,27.93352013543713],[82.93434668892343,27.933110631753],[82.93338433189466,27.93296777298964],[82.93306465151608,27.93288180874375],[82.93242460160545,27.93275045418704],[82.93159304384808,27.932554455255506],[82.93056972693829,27.932314066610736],[82.93018558449182,27.93222760158404],[82.92986765395258,27.932103313528668],[82.92935915427859,27.931898375770444],[82.92853616262542,27.931472309465548],[82.92791243458437,27.930880632062564],[82.92767066047452,27.93043418749821],[82.92739512428176,27.929739231327627],[82.92731772194122,27.9295061624867],[82.927203623425,27.928509994623887],[82.92693340332048,27.927661618748722],[82.9267300797756,27.92734858851163],[82.92617162618765,27.92674165756757],[82.925962299371,27.92658204682218],[82.92527661046277,27.925931227870585],[82.92507291178356,27.925620447376815],[82.92493367477903,27.925310231019832],[82.92487784273087,27.925079600128015],[82.92486965202501,27.925038900705555],[82.92482301200899,27.924810583781362],[82.92483132910937,27.92458045348538],[82.92490704653903,27.924276364618702],[82.9252272941018,27.923750774417744],[82.92547013921177,27.922992115257685],[82.92547845583475,27.92276423534449],[82.9253971147807,27.92251084849447],[82.92530464449642,27.92222351341441],[82.92510394760274,27.9218360230823],[82.92467497909271,27.92121202554947],[82.92402999336092,27.920620223480245],[82.92354725308155,27.920300502040668],[82.92310946737818,27.919924701635935],[82.9224120232154,27.919598790121178],[82.92146511201382,27.919036245335835],[82.92090109305477,27.918580483337387],[82.92033926157521,27.918068267547806],[82.91932407838408,27.917024455579195],[82.91877000202444,27.916302428751656],[82.91862320183071,27.91560841142981],[82.9183803682344,27.914608991671006],[82.91822550051309,27.914145167181985],[82.917960092074,27.913754926349643],[82.91752537121855,27.913302415825076],[82.91708333295306,27.913041649370886],[82.91625752828573,27.91269435579259],[82.91606639486317,27.912629585384295],[82.91510904083535,27.912353625101762],[82.91406002570587,27.91229116386351],[82.91390771900967,27.912281034992336],[82.913129742062,27.912394439526377],[82.91247912383966,27.912547293046913],[82.91183325837197,27.91256704596447],[82.91144255018624,27.912670011496367],[82.91124653923248,27.912740718659975],[82.91074416339347,27.912955654701303],[82.91028680491752,27.913114511739597],[82.91002333121435,27.913261428528617],[82.90949275631695,27.913665731666395],[82.90926810794697,27.913927995059318],[82.90906859545404,27.91409335527582],[82.90843035605184,27.91449459515448],[82.90770739700211,27.914856760339262],[82.90704621029533,27.915296073343384],[82.90638583767901,27.91571744409809],[82.90600969566093,27.916012403631917],[82.9048835249184,27.916229086147663],[82.90436170544483,27.91638519175146],[82.90364174763018,27.916670584275423],[82.90337908672569,27.916797120655374],[82.90277017220902,27.916990861697315],[82.90238215269784,27.9170171796436],[82.90148063034333,27.91697159958527],[82.90077624406786,27.91683736934188],[82.90032939119415,27.91670970378438],[82.90000664587463,27.91672064338839],[82.89981113573674,27.91677103192269],[82.89965526424753,27.916920950661666],[82.89960718256378,27.917051488441526],[82.89944674190562,27.917907801488493],[82.89926448530193,27.918188445729363],[82.89905840588679,27.918527606884012],[82.89874959870944,27.919321775817323],[82.89868157282798,27.9194228054313],[82.89871971006131,27.91973452239289],[82.89883331178076,27.92024998615507],[82.8990840244867,27.921084795232755],[82.90014840937543,27.92268433303567],[82.90025463222352,27.92338929093448],[82.90024893694134,27.92427167566586],[82.89997339391059,27.924725369455796],[82.89991086840169,27.925038524153706],[82.8998854206904,27.92516699895358],[82.90003409670376,27.925757172935302],[82.89979394053887,27.92651583262628],[82.89966714003968,27.926966213866077],[82.89957954248423,27.92742584817167],[82.89981524927872,27.92824471557158],[82.90055376325247,27.92990939526272],[82.90079778732084,27.93059059709678],[82.90096390730328,27.931284802008047],[82.90130496629655,27.932011954591513],[82.90142819827413,27.932301790669946],[82.90145345666934,27.93244414434269],[82.9015119749706,27.932941165671384],[82.9015684320554,27.933262073604723],[82.90173398666364,27.93419997432486],[82.90175730379299,27.934911058955667],[82.9015555348187,27.935798630515947],[82.90134895357009,27.936503336598893],[82.90093723390315,27.93713877142196],[82.90048875298197,27.937439857702564],[82.90021946373128,27.93762059668966],[82.8999152231437,27.9379949549952],[82.89964831004838,27.938123741757337],[82.89896524219914,27.938450021773743],[82.89870708008485,27.939005432932227],[82.89856046207916,27.93914641122809],[82.89801288189763,27.939300016509158],[82.89736613919396,27.93961079155294],[82.89630805520838,27.940105618763305],[82.89535413723712,27.9401634433119],[82.89455358640477,27.940574560529623],[82.89435538666146,27.94072866712664],[82.89413267637495,27.941072204405142],[82.89389902383266,27.94152389846547],[82.89373277329658,27.941725706605727],[82.89354038817484,27.94196114989617],[82.89319069344863,27.942235916482208],[82.89314042518012,27.9422422926265],[82.89238026628999,27.942364825148235],[82.89207308873416,27.942522620130486],[82.89163529635263,27.943117104510243],[82.89119269309005,27.94337536581847],[82.89057139798015,27.94351702893958],[82.88979728998794,27.944731756704066],[82.88837181859098,27.94523252114221],[82.88703963548497,27.945246643513148],[82.88592940979426,27.945215128441443],[82.88504895715191,27.945189929438982],[82.88335369643384,27.945916508947644],[82.8829445436004,27.946005720690444],[82.88130893418754,27.94608948620816],[82.88072765307095,27.946572249906723],[82.87990296055479,27.948055056423556],[82.87981179406178,27.949313613574425],[82.88015022907157,27.94976993642864],[82.88018211254607,27.950223757209777],[82.88007857278825,27.95049608742768],[82.87946359159612,27.95085894071784],[82.87891845052796,27.95091545423125],[82.87762390597624,27.950909445256293],[82.87704293772272,27.951301870229056],[82.87648197482793,27.951875035977903],[82.87609601607507,27.95226908674621],[82.87549203854883,27.952643318862346],[82.87484048412968,27.952671886489075],[82.87422787990438,27.952863189206855],[82.87237762347874,27.953563510546992],[82.8720883285046,27.953671728021284],[82.87201623766728,27.953756877857128],[82.87201667503007,27.95383133689789],[82.87186561756808,27.954044523498304],[82.87153561719364,27.954396124950048],[82.87130108996759,27.95482299945243],[82.87120367592246,27.955271317927462],[82.87087511443268,27.955528142002315],[82.87045408116688,27.955745891000763],[82.86916190969741,27.95618213784179],[82.86896927484513,27.956311424335034],[82.86840049930304,27.956442210233007],[82.8674863465573,27.956538483075914],[82.86660051533843,27.95669821263728],[82.86550516822608,27.957079632134878],[82.86496971839003,27.95705943546001],[82.8627250099951,27.956792720219706],[82.86207108069138,27.95662029099869],[82.86196660407428,27.956583341745432],[82.86186750521097,27.956548581658264],[82.86167018191783,27.956490625991496],[82.85997711466067,27.95643147451732],[82.85935244457035,27.956552694656455],[82.85727447820523,27.957262203892064],[82.8568717661588,27.957308528066918],[82.85609128659225,27.957511895822375],[82.8550951650534,27.95760748169289],[82.85270327439811,27.95761915907159],[82.85186877611024,27.957686674632733],[82.85106903931676,27.957910236605173],[82.85059586280818,27.957978504084352],[82.85045668598603,27.958040521342074],[82.85035708579845,27.958084845710005],[82.84883970555943,27.958530344076344],[82.84782094839723,27.95893476955292],[82.8471723296066,27.95928368093937],[82.84653321488925,27.959628091001015],[82.84516057566228,27.96017405729188],[82.84397525732547,27.96037629739729],[82.84389022556564,27.960425249073282],[82.84347131655723,27.960945274088033],[82.84294718110952,27.961295186464092],[82.84344923610296,27.96239169922672],[82.8450774547773,27.964052820635168],[82.84589362664558,27.965104509230557],[82.84616966393436,27.965562707605017],[82.84640062045125,27.966221339702344],[82.84646082715618,27.966718361551088],[82.84652509761706,27.967249267325435],[82.8465467271346,27.96772334428528],[82.84654366105364,27.968016680817797],[82.84652802764947,27.968436429344834],[82.84672133451394,27.970701532956358],[82.84686075662108,27.97137066773576],[82.84686819027382,27.97231181872958],[82.84657175290162,27.97440587030561],[82.84688122459148,27.977103101527568],[82.84686352660792,27.97766039038093],[82.84680987988709,27.97798942446803],[82.84706684043452,27.979377208532483],[82.84738189610935,27.97927155349543],[82.84773184088556,27.979019419157044],[82.84817876122912,27.978504082446648],[82.84883250739286,27.977956675153173],[82.84940522530931,27.977288919957456],[82.85019089706148,27.97673807456686],[82.85057823027677,27.976560712038676],[82.85107103898686,27.976501635515415],[82.85183063548283,27.976311645881886],[82.85230793742078,27.97633821880882],[82.8530251408594,27.97649308089997],[82.85345254968668,27.976521466178088],[82.85485075985733,27.97624420453013],[82.85548724680419,27.976184065221723],[82.85824370770455,27.976626709907592],[82.85864516917505,27.976736119323768],[82.85902030731056,27.97693105406701]]]}},{"type":"Feature","properties":{"province":"Lumbini Province","district":"Pyuthan","municipality":"Sarumarani Rural Municipality","ward":"6","wardNumber":6,"sourceMunicipality":"Sarumarani","sourceType":"Gaunpalika"},"geometry":{"type":"Polygon","coordinates":[[[82.80894165735535,28.01338730231536],[82.80910972127552,28.01308183830699],[82.80959453229963,28.012409018512212],[82.81041984554768,28.011560836128314],[82.81084450603242,28.01127112849704],[82.81120657835483,28.01115465929683],[82.81154839366354,28.011112461058058],[82.81171827069421,28.011016871209083],[82.81197405390424,28.010937849380603],[82.81248649456504,28.01087683426747],[82.81282781024765,28.010796250106964],[82.81359697137589,28.010771309557224],[82.81419482021376,28.010690726556557],[82.81513504593678,28.01066266096119],[82.81530554654107,28.010623526094115],[82.81650286742703,28.01063384750205],[82.81718599758098,28.010569707602688],[82.81855132066525,28.01027225278684],[82.81897691801673,28.01009764200167],[82.81929578836807,28.009922091386283],[82.81944409400926,28.00978799066041],[82.81948698467997,28.009788303274423],[82.81961290886728,28.009577305032472],[82.81971726121424,28.00930735123521],[82.81977734956888,28.00892648911323],[82.81964130097978,28.008577761291438],[82.81959809892528,28.00839683303941],[82.81926253998593,28.00792231708985],[82.81876791974248,28.007694621997477],[82.81863749798177,28.007352770444815],[82.81863599950248,28.007052620232226],[82.81887903337017,28.006332535112936],[82.81897038471782,28.005590818085768],[82.81921623134139,28.00487529592431],[82.81936835203035,28.004655420267117],[82.8210265336649,28.004455245589142],[82.82207486334298,28.004125717197624],[82.82222917248201,28.00393972550958],[82.8222274238192,28.00365989363403],[82.82214339340192,28.003462834880008],[82.82150741072265,28.002965372564162],[82.82132396919604,28.002641089416255],[82.82147459345525,28.001918002536527],[82.82143877018545,28.001556584135344],[82.82148197574973,28.001148464325446],[82.82238471248445,27.997484455042276],[82.82263799893187,27.996958552420878],[82.82326035930005,27.9963364352376],[82.82411211812287,27.995813411763383],[82.8254299881488,27.995242376258638],[82.8263466426638,27.995141851272418],[82.82666457244784,27.995167173210916],[82.82761023577864,27.99544375984539],[82.82807228020317,27.99574785129827],[82.82837470300659,27.99611377327261],[82.82852050520289,27.996444495942008],[82.82853613483094,27.99658453763375],[82.8284291562852,27.99684317512187],[82.82819487906862,27.99710743862873],[82.82808527456062,27.997339006557],[82.82798229450721,27.997843591261915],[82.82819849563755,27.99859918991406],[82.8284267657171,27.998887775282917],[82.8288564252026,27.999011001461234],[82.82940150216267,27.99904276366947],[82.82971268162625,27.99898218573479],[82.83034879553415,27.99864909137453],[82.83069511483514,27.998241286180583],[82.83149473197072,27.997302577281904],[82.83103381327783,27.99689689242034],[82.83069512713452,27.996472015770753],[82.83047185854029,27.996192495465024],[82.82986613688551,27.99565702193708],[82.82827705247288,27.994501611139274],[82.82719653202334,27.99352644416603],[82.82643587558921,27.993303374671424],[82.82614864525415,27.993086559037017],[82.82541087338794,27.992723697974853],[82.82390287800958,27.99215789873047],[82.82213684824326,27.991797533369184],[82.82158883167565,27.991777024412333],[82.81878285475003,27.991019598825396],[82.81842922447497,27.990865364106213],[82.81794460847821,27.99045499120148],[82.81754546242827,27.99015815145096],[82.8170958600982,27.989858685613843],[82.81680344145886,27.98945669121756],[82.81668208876826,27.988724475258305],[82.81636954010978,27.987920612847752],[82.81563433459786,27.987115434570658],[82.81521236792294,27.986789086709617],[82.81368768163642,27.98587774762036],[82.81358433047451,27.98579791072365],[82.8134020138907,27.985701507026683],[82.81232149048405,27.98512126790894],[82.81164192772785,27.98466856861358],[82.80984477363876,27.982583571275875],[82.8092051646993,27.98196426088618],[82.808546735109,27.981529754657434],[82.80752023271147,27.980902501635224],[82.80706643995087,27.980670681532473],[82.8056086531094,27.9799607144468],[82.80422645071248,27.979887810391418],[82.80356407841991,27.979985835233485],[82.80224139861177,27.98005559854161],[82.80182618212855,27.979898549981666],[82.80084438432392,27.979192649334866],[82.79974272809474,27.978616599152538],[82.79930431584256,27.97852025559061],[82.7986885248064,27.97845623395782],[82.79820540761652,27.97849486758782],[82.7974124857166,27.978641405520342],[82.79698282468087,27.978788884411003],[82.79551046190124,27.979114534228355],[82.79441586587751,27.979244878818438],[82.79414607786286,27.979276386829813],[82.79304148118078,27.97905006347846],[82.79186297883713,27.9790961329261],[82.7908095875644,27.9790372352227],[82.79061157681186,27.979010725642024],[82.78998678091769,27.97901422373697],[82.78901335782837,27.97879127764647],[82.78824632345719,27.978615221562155],[82.78766229451648,27.9785537625455],[82.78661902967457,27.978756691026746],[82.78608770233424,27.97932748112717],[82.78564065354561,27.98040004344664],[82.78532753377559,27.980837295469765],[82.78502497771731,27.981662910504085],[82.78481027138572,27.981855028404688],[82.78395551182729,27.9823823658936],[82.78305110588441,27.983378653677466],[82.78235740652435,27.98388479854337],[82.78142086550613,27.984431703883565],[82.78086008926726,27.985124091447993],[82.78062399676307,27.985798975546626],[82.78048538112942,27.985998595761025],[82.77992329253567,27.98655781925512],[82.77915569010902,27.98716486870985],[82.77872352798838,27.987359610733407],[82.77843298076631,27.987560168390296],[82.77746417799237,27.988224107402523],[82.77687889495267,27.988528068793087],[82.776789799891,27.98853863373032],[82.77624147031416,27.988601336631667],[82.7757464110921,27.98854281613883],[82.77549844552584,27.988324000946896],[82.77547224871243,27.98827179795782],[82.77533476148412,27.987988525975315],[82.7752787449752,27.987428361337198],[82.77536271910947,27.986747537023227],[82.77533177408057,27.986167303405875],[82.77493313795287,27.984432854684773],[82.77482760633634,27.9833350939716],[82.77484267849528,27.982874896688536],[82.77479791648149,27.98219069518962],[82.77469012830777,27.981860222698767],[82.77442015443806,27.981679542257446],[82.77380073896559,27.981405458747542],[82.77323503293972,27.98073469568824],[82.77250070270148,27.97999697460262],[82.77103742244837,27.97796643282968],[82.77049910774883,27.976510438832047],[82.7702725313239,27.975386920283157],[82.77017031285797,27.974458459602634],[82.76990753135009,27.97388972844996],[82.76930106029222,27.973290737033356],[82.76845712486596,27.972755136477993],[82.76822591543467,27.972549950320445],[82.7681509507425,27.97249287064337],[82.76806260532787,27.9724356659049],[82.76772948269475,27.9722205382337],[82.76710112611093,27.971984715073578],[82.76666215253063,27.971694189668337],[82.7662349335491,27.971286380285317],[82.76586060811252,27.971122829683573],[82.76546446140576,27.97103130032176],[82.76543175888722,27.97145298738108],[82.76533546526422,27.972456405717466],[82.76537578536251,27.97351740588529],[82.76534458240137,27.973972976328408],[82.7655895402385,27.975123878462714],[82.76552594830429,27.975881538202536],[82.76532443314858,27.976306286576243],[82.76491859134211,27.976675018135605],[82.76428097899381,27.97671433857317],[82.76210498025732,27.976879936815248],[82.76033900657409,27.977344750596725],[82.75901294985697,27.977475031363504],[82.75884401013953,27.977687904799275],[82.75902762595693,27.979697996635476],[82.7593042200134,27.980966558587873],[82.75938068469138,27.981143235817513],[82.75968841953205,27.981852383147178],[82.76040417656337,27.983070683076342],[82.76057911453186,27.983331823489234],[82.76092786586898,27.98385172759724],[82.76128980961761,27.984240907269047],[82.76181769407722,27.984293050044553],[82.761934924164,27.984350504862775],[82.76199519549253,27.98450223813162],[82.76205896707503,27.984787134273784],[82.76196311664978,27.985113541927934],[82.76132906559828,27.98542375417436],[82.7607267786031,27.985569544127298],[82.76034676160415,27.985622557447144],[82.75985695343222,27.985683572351693],[82.7596067359328,27.98563849508846],[82.75936895986955,27.985559595271848],[82.75793192668844,27.985339022368116],[82.7576384416834,27.985406353200485],[82.7572919359216,27.985667240415665],[82.75689584987398,27.985871297932835],[82.75628562220734,27.98593575041438],[82.75560862224694,27.98566785581786],[82.75478225427447,27.98533994191069],[82.75353804301567,27.9850714186285],[82.75308750056159,27.98500645870003],[82.75268041127738,27.98500951966776],[82.75207149691767,27.985096479490135],[82.75030102775845,27.98482320099499],[82.74934110787734,27.984730981593806],[82.74813453651257,27.984395063038377],[82.74743565475103,27.983962182111863],[82.7473309905639,27.98388678361464],[82.74691252527354,27.983587318244396],[82.74635544549737,27.98316925477683],[82.74575953854759,27.982870475955075],[82.74535044627495,27.983153369080373],[82.74466874930525,27.983957288859504],[82.74451969225687,27.98420642346067],[82.74437132138077,27.98458872306246],[82.74424427079106,27.985047981781033],[82.74422619379253,27.986115233091645],[82.74427245149315,27.98733652928051],[82.74431665292113,27.987718329669256],[82.74429645396587,27.98817627641341],[82.74440810965343,27.989702850452094],[82.74436609177778,27.99000937741265],[82.74421822019447,27.99054284571724],[82.74404859123543,27.99100166680282],[82.74364431010446,27.991690867593576],[82.74345254962287,27.991919245360418],[82.7431116079924,27.992245651697644],[82.74306909141868,27.992321986225875],[82.7422799176664,27.99301205978237],[82.74195998288424,27.993356659033687],[82.74174733897216,27.993661685077626],[82.74125827497606,27.99461858821295],[82.74119456265724,27.99471280296948],[82.74110921755666,27.994865472326783],[82.74096122103869,27.9954011909248],[82.74087743522735,27.9959939270925],[82.74088261222327,27.99771136958234],[82.7407983281085,27.99807391302844],[82.74071323158417,27.998283036722864],[82.7406280116462,27.998399632551994],[82.74015833543451,27.998666082855355],[82.73979538623503,27.99880268389282],[82.7398595975772,27.99885970037631],[82.7400312222747,27.999048569737603],[82.74039529406339,27.99920086633598],[82.74069540412806,27.999408991706897],[82.74090992034247,27.99965694059522],[82.74123228539662,28.000228547888142],[82.74136120738805,28.00039897426044],[82.74155409096664,28.000570025601323],[82.74185413889356,28.000760083335404],[82.74211098317124,28.00083685718327],[82.7424535477454,28.001006971567687],[82.74290352542317,28.00129093261171],[82.74331092447683,28.00165347919929],[82.74352562749645,28.001937564188893],[82.74367624333323,28.00224359178942],[82.74391338906783,28.002873090550242],[82.7443008403321,28.003614560749043],[82.74440819182006,28.00378704984636],[82.74453686426543,28.00390108363115],[82.74487936502243,28.00407119885007],[82.7452216801539,28.004128467096013],[82.74564965169316,28.00412559393267],[82.7459065595609,28.004220498339553],[82.74618522397408,28.004448692184248],[82.74661469168859,28.005019050058447],[82.74674342663242,28.005133021031316],[82.74710768580586,28.005380096388876],[82.74730932273457,28.00542023373277],[82.74733058091759,28.00542723610637],[82.74773591838454,28.00555496322251],[82.74823534991407,28.00609668810937],[82.74871690121644,28.006484742574024],[82.74949556450943,28.006767079715228],[82.74971527063407,28.006787149280715],[82.7500555837282,28.00696176538123],[82.75026396912024,28.007665473855994],[82.75067861822892,28.00839594073868],[82.75057845390094,28.008643262057152],[82.75120524830785,28.008786620917423],[82.75159245351998,28.009031570253416],[82.75210783097756,28.009237070783456],[82.75262152236265,28.00929140208399],[82.75287786764545,28.00925082903345],[82.7533054022334,28.00924795561106],[82.75398922011675,28.009184190986375],[82.75475806988038,28.0090827914171],[82.75518672836975,28.009174695910296],[82.75527282259597,28.009231900554255],[82.75535966602877,28.009365815455485],[82.75544825901801,28.009707415805014],[82.75550058376588,28.010739219558634],[82.75539866751187,28.011255057798916],[82.75537822166487,28.011351898801838],[82.75563556654002,28.011444489406774],[82.7560849211935,28.011480190792057],[82.75668508157646,28.011589413718845],[82.75702658327072,28.01154959110934],[82.7571124285641,28.01154809124397],[82.75734770365334,28.011545716663697],[82.75786089473273,28.011561662445875],[82.75828905334552,28.011615180462087],[82.7589749955082,28.01178154556178],[82.75983037655486,28.0117554178153],[82.76111198024293,28.011593190336583],[82.76162410928409,28.011475908457843],[82.76205189331341,28.01145271681555],[82.76284056383089,28.011198021495304],[82.76328817020355,28.011003404797485],[82.76365074326635,28.010925446371886],[82.76416412154649,28.01092101089512],[82.7645068110807,28.010976091232322],[82.76536506657428,28.01125449096205],[82.76613654027634,28.011421669545],[82.76759201865838,28.011563344452075],[82.76810645894126,28.011692072853258],[82.76840594643289,28.01169019873972],[82.76920067687368,28.012047120549493],[82.76947953049513,28.012121832017865],[82.77016440985928,28.012191106095173],[82.77057181119253,28.01228501103683],[82.77106380647304,28.012318773156206],[82.77166209252938,28.012256383417988],[82.77189717973314,28.012215623161143],[82.7721319553352,28.012195181183476],[82.7730719931525,28.012074901386598],[82.77512438394398,28.01200064053061],[82.77563657548244,28.011881108608158],[82.77597851516516,28.011859292038718],[82.77717714889847,28.011946699030915],[82.77803271713692,28.01195876994721],[82.77880206694054,28.01189563098066],[82.77933601570442,28.011814610208926],[82.77952877486683,28.0118321169554],[82.77961449467799,28.011869002611096],[82.78006441142709,28.01194296465731],[82.78014994282124,28.01194146476532],[82.7804933205762,28.012073130631787],[82.7808361975452,28.012146091582814],[82.7813500757116,28.012179979076915],[82.78228973978997,28.012059699458142],[82.78280193127105,28.011940104539246],[82.78365612521637,28.011819011183796],[82.78502500983137,28.011808516318254],[82.7854523572276,28.01176713163619],[82.78570901446162,28.01178295012003],[82.78596542328799,28.01176263276336],[82.78656302159224,28.01162347048648],[82.78750430995795,28.011615973984092],[82.78853206735391,28.01172207356033],[82.78901280737783,28.01182560626113],[82.78904638301374,28.011832670870266],[82.7898163565731,28.01188231461045],[82.79041495414869,28.011878567057206],[82.79092902007852,28.011989102825858],[82.79135655470729,28.011983853555577],[82.7921251539872,28.011902583756587],[82.79272375150545,28.011896585644955],[82.79298059699907,28.011953040747297],[82.79334535725268,28.01208251886415],[82.79368742221361,28.01208102052142],[82.79411564385177,28.012134413425258],[82.79488767900219,28.01239618206725],[82.79557274635475,28.012503780179333],[82.79608768626441,28.012709093295413],[82.79640980595718,28.012840508710827],[82.796839214062,28.013047384133845],[82.79761137460652,28.01332722079514],[82.79778356321486,28.01342124916441],[82.79804034611178,28.013457324071375],[82.79821084759561,28.013418189013098],[82.79846644374425,28.013300843492264],[82.79872110231122,28.01312704349393],[82.79882683017486,28.012992567204247],[82.79903884723376,28.01282064232229],[82.7992090990438,28.012743121019213],[82.79946513210736,28.012702485200826],[82.7996362578604,28.012719741823627],[82.80032288668687,28.012980822398212],[82.8007316002873,28.013246089854107],[82.80107653844532,28.01352892435605],[82.80124785179855,28.013584567054423],[82.80200094170849,28.014074027925215],[82.80228004496573,28.014187125197594],[82.8025372656211,28.014241266731567],[82.8027077668841,28.014202131501506],[82.80311048187977,28.013855782103544],[82.80345067251217,28.013680482472658],[82.80362148588637,28.013641346985338],[82.80387833124006,28.013697740391553],[82.80465117880587,28.01403396813691],[82.80533693335924,28.014200146230163],[82.80602106352215,28.014194772934747],[82.80704769506058,28.014262361241055],[82.8077994101897,28.014618657716856],[82.80792920766363,28.014750696623235],[82.80808013818817,28.014903180378386],[82.80824826447277,28.014615721606333],[82.80877290493538,28.01361830621686],[82.80887875723022,28.013501897801664],[82.80894165735535,28.01338730231536]]]}}]}