{"type":"FeatureCollection","features":[{"type":"Feature","properties":{"province":"Lumbini Province","district":"Rupandehi","municipality":"Rohini Rural Municipality","ward":"1","wardNumber":1,"sourceMunicipality":"Rohini","sourceType":"Gaunpalika"},"geometry":{"type":"Polygon","coordinates":[[[83.50501343869816,27.508138892673788],[83.50537313522658,27.50794152232591],[83.50592452675386,27.507914140772282],[83.50668887146252,27.50801617236299],[83.50747359830045,27.50825143130378],[83.50796471684461,27.508397600373335],[83.50886317370504,27.508520388404595],[83.50986204104517,27.508975336453084],[83.51093262360718,27.50926129768558],[83.51107086245759,27.509270738630427],[83.5111540802974,27.50927555305844],[83.51153228309036,27.509265550919526],[83.51206585575531,27.509030420162386],[83.51231544898282,27.508760466598158],[83.51243599410122,27.5082665717653],[83.5124338066365,27.508253005018517],[83.51233952353628,27.507602688991234],[83.51216120901547,27.50714155329251],[83.51201746896311,27.506931115405955],[83.51161582178935,27.5062390362253],[83.51060626490445,27.505192664372707],[83.51009695241176,27.504716960975482],[83.50866430110186,27.503827070841016],[83.50773033195746,27.503295600018664],[83.50657915857572,27.502661786658376],[83.50627535870964,27.502446285106313],[83.50568795675535,27.50174901560216],[83.50545974882769,27.50121329572152],[83.50539141290714,27.500705208942858],[83.50558842524201,27.499739799929188],[83.50578274910484,27.49915594151401],[83.50574204742543,27.498776579972567],[83.5056266927219,27.498541447843316],[83.50548464194554,27.49825198737727],[83.50437254524476,27.497306832411653],[83.50398415294733,27.49705263186728],[83.50380840110732,27.496939098459],[83.50319273633387,27.496580366626798],[83.50245346415966,27.49625045473115],[83.50170225135325,27.49563383432643],[83.50119794121213,27.49506322862133],[83.50098467734291,27.494500437204927],[83.50109071718313,27.493995226667867],[83.50126822201561,27.493632433292007],[83.50134487588706,27.493201618828145],[83.50125540712408,27.492555741247894],[83.5010689648188,27.492216516581262],[83.50038921508329,27.491744563584724],[83.49960036254451,27.49127454889921],[83.499491321797,27.491177082280284],[83.4992835586024,27.49108830595945],[83.49808855589517,27.49052201197568],[83.49761169276,27.490387095874237],[83.49721385864365,27.49027281102275],[83.49596639769204,27.48998847436979],[83.49544852063296,27.4895487189229],[83.4950265545557,27.488829382106875],[83.49480522491982,27.488113108454755],[83.49480847699193,27.48774743891053],[83.49494552882352,27.487118191807962],[83.49534098940906,27.48647181488385],[83.49555475867297,27.48572997207394],[83.49555675969498,27.485499779998584],[83.49547016568484,27.485343733364857],[83.49515867578425,27.48516655596674],[83.49481429906018,27.48507046401476],[83.49442346714049,27.485089406262865],[83.49403194711668,27.485261768672945],[83.49254776995996,27.48659259380771],[83.49185607616678,27.486894806243487],[83.49142660513684,27.486924876263775],[83.49086770986925,27.487026592227956],[83.49008154472381,27.487019275899417],[83.489176648878,27.48688504712926],[83.48856292273601,27.48660521313575],[83.48825887354612,27.48639640152943],[83.48806223925106,27.48615645482177],[83.48802822799122,27.485578472822755],[83.48810794576448,27.485305642779593],[83.48834272125477,27.484954415306756],[83.48868935059507,27.48455842469145],[83.48918997422207,27.484194568850487],[83.4899910847978,27.483491051455037],[83.49036115975647,27.48310187553424],[83.49030989114358,27.48310393857353],[83.49012375909912,27.483121318005903],[83.48966277678335,27.483133257591184],[83.48339758629574,27.483419389751823],[83.48322771108282,27.483425578525097],[83.47973223081988,27.483593182274507],[83.47998100784886,27.484526269132402],[83.47995962225632,27.485311687777177],[83.47990159711449,27.486613882296588],[83.47986301768917,27.487478198839078],[83.479795242397,27.487710455055307],[83.4795075734538,27.48779516654489],[83.47892085673259,27.48776584351858],[83.47882569557937,27.487812919476898],[83.47818001944827,27.488131011539295],[83.47772041150107,27.488178962151807],[83.476877974374,27.488435348263515],[83.47623998805817,27.48853225003338],[83.47561269182565,27.489313165536764],[83.47544400289358,27.489723347889353],[83.47544243950637,27.48986326409191],[83.47534190248531,27.4900389411587],[83.47466615226033,27.490235059550155],[83.47462838594792,27.490720201352307],[83.4746857167815,27.491727122882487],[83.47488522638938,27.492206389331624],[83.47494312316343,27.492344241918612],[83.47492611606697,27.49240288447465],[83.47494080836597,27.492563119073324],[83.47477343338531,27.49270928655337],[83.474286065662,27.492874459205762],[83.47425811755124,27.492883398895067],[83.47350652691009,27.493241689670015],[83.47319997528334,27.49344368624813],[83.4731230704798,27.493709764248237],[83.47326824900045,27.494001413110794],[83.47345006444556,27.494616093748746],[83.47324504720322,27.49588384125459],[83.47311974951423,27.49621068673675],[83.47267245944896,27.496263138544183],[83.47164176638792,27.496155417169916],[83.47136816464229,27.496127283272443],[83.47135047100272,27.496124970036615],[83.47129820146709,27.496206055510047],[83.47115477262122,27.496424431878015],[83.47106305085207,27.496485012167767],[83.47105167174468,27.49648044849961],[83.47022468030859,27.49612746742012],[83.47012476781155,27.4961248414185],[83.4698811778071,27.49630902018276],[83.46959244698407,27.49608220256752],[83.46951585575943,27.496215054173295],[83.46931209279639,27.496214303111916],[83.46908000823439,27.495789053234656],[83.46861102265865,27.495604497525683],[83.46849185335596,27.495707840239806],[83.46850942105343,27.496064570245224],[83.4683369820423,27.49613834121739],[83.46799666873122,27.496173163023798],[83.46753768737423,27.49588476465069],[83.46690157782545,27.495972663877367],[83.46689838814854,27.49625024546129],[83.46681604516995,27.49632220399023],[83.46627053080043,27.4963991006428],[83.46606764362181,27.496341833037036],[83.46598617572761,27.49631901355717],[83.46596610532612,27.49634377079918],[83.46570100626775,27.496658737871517],[83.46529035212892,27.497566816352066],[83.46499686807232,27.497800446194898],[83.46452587892853,27.498620186050225],[83.46433005420269,27.499474936549365],[83.46415723968796,27.499677371134943],[83.4636709330511,27.50001859469533],[83.46359428000859,27.500151508537126],[83.46374252184665,27.500307805534312],[83.46415636133418,27.50045609984613],[83.46469662372905,27.5005506915946],[83.46495840760855,27.50067141549825],[83.46516266937286,27.50089560619604],[83.46497491133228,27.50137337147263],[83.46461996630839,27.501683523818297],[83.46365717194108,27.502185419024396],[83.46335086918019,27.502719200362925],[83.4633036634212,27.503132071276003],[83.46353724799386,27.50343766180164],[83.46372781840898,27.503553509116955],[83.46393445673917,27.503617528080422],[83.46433754349628,27.50356038762531],[83.4648162836668,27.503302625426382],[83.46505468569408,27.502888254256053],[83.46523850398385,27.50274896400768],[83.46557950601057,27.502578727263018],[83.46577207744274,27.502482449259876],[83.4664320093504,27.502306649016408],[83.46691106138623,27.502310713930232],[83.46763451449007,27.50294096347357],[83.46838866738219,27.503061187915417],[83.46890967279542,27.50309251110234],[83.46968164458364,27.50324662083889],[83.4698643375682,27.503357966202113],[83.47001576727293,27.503579782528217],[83.46989522184091,27.503789155907477],[83.46893511573779,27.5043204973998],[83.46873472768974,27.504737306733876],[83.46872972432428,27.50518193723302],[83.46885952192027,27.50537205634744],[83.46998218498959,27.50585032463684],[83.47026747817883,27.506072577979868],[83.47037476707229,27.506337093135887],[83.47025303284742,27.506643621086443],[83.46988039400304,27.507086812878814],[83.4700408911135,27.50713257622768],[83.47047573985792,27.506926579355387],[83.47097623701654,27.506951025075676],[83.47161841245145,27.506858687063442],[83.4719952396121,27.50672696228673],[83.47255432149647,27.50661618107612],[83.47362215335866,27.50650283796056],[83.47412771513893,27.50659280255331],[83.475171476625,27.50649515147115],[83.47538311780579,27.506383056935313],[83.47550291307896,27.505936613365215],[83.47533053994907,27.505048914778264],[83.47540481764722,27.504733197106205],[83.47584348148469,27.504310511367972],[83.47668148018619,27.503950219747004],[83.47735785506346,27.503720278651926],[83.47753448333407,27.503698335299752],[83.47759438052927,27.50383174937686],[83.47775431414766,27.503920400899958],[83.47804667176987,27.503923715205666],[83.47839330082938,27.50370158805654],[83.47850796806703,27.503677144186025],[83.47993049362465,27.503637322945025],[83.48015895347275,27.50376911239055],[83.4802074708218,27.50394985316213],[83.48017158052801,27.50444399785484],[83.4800224614235,27.505149955416524],[83.47990779100176,27.506115613663315],[83.47985539283272,27.50731390382869],[83.48001013492727,27.508251241607162],[83.48018569610647,27.509220151765454],[83.48034100364005,27.509299738334853],[83.48318142594387,27.510122861627693],[83.48347878618262,27.510126238260483],[83.48365091264155,27.510075036162725],[83.48386411602887,27.509951563076566],[83.48397922210987,27.509620216062473],[83.48397485016412,27.508252376904665],[83.48397484948202,27.50825012608373],[83.48397378812946,27.507870889502023],[83.48407382576202,27.507715531709614],[83.48458639077649,27.50759781036793],[83.48601704412258,27.507803936772156],[83.48643363479832,27.50796798617818],[83.48720160563272,27.50811528167773],[83.48725437491007,27.508203494724448],[83.48723818140905,27.5082508216769],[83.48716546635119,27.50846951083822],[83.48715777387065,27.509180469600174],[83.48725793415123,27.509553266878655],[83.48733483537693,27.51044065234151],[83.48746206853814,27.510793193885576],[83.48753353215037,27.510858901292675],[83.48810674419028,27.510906166089175],[83.48846425187337,27.510654656063785],[83.48894124130938,27.51062489822727],[83.48930981526982,27.51036657289105],[83.48961349058756,27.510254853543945],[83.49008754150516,27.51018889727747],[83.49060323236779,27.51000790848934],[83.49085076156946,27.509920821076808],[83.49132762493878,27.509861616946147],[83.49188033030207,27.509613044841995],[83.49253557248926,27.509617673277756],[83.49440957817909,27.50942587077803],[83.49449767340055,27.50939680063569],[83.49461721810214,27.509413055606448],[83.49510377271476,27.50944644156664],[83.49573719411342,27.50932459426315],[83.49608957474602,27.509359730693816],[83.49628339529178,27.50953421939795],[83.49641581754786,27.510268248346584],[83.4965449897811,27.510345458388148],[83.4976116967014,27.51041023051092],[83.49806292525267,27.51054727150221],[83.4981388906907,27.510687500609436],[83.49820191242917,27.51110306063685],[83.49849877169142,27.511372702615702],[83.49875999333706,27.511344319655258],[83.49896969576761,27.511223159970513],[83.5008471413108,27.510954522433263],[83.50106197089211,27.51089894420665],[83.50121065112663,27.51060823429013],[83.50130544061575,27.508972128874866],[83.50124948518497,27.508251917220147],[83.50121297251955,27.50778002799229],[83.50126011571551,27.507577030895945],[83.50141767457947,27.50750763615491],[83.50327529767713,27.507758026251707],[83.50348993839872,27.508020603980263],[83.50360416786934,27.508251234683986],[83.50368375939078,27.508414032524346],[83.50376922818165,27.508473049730057],[83.50398343253258,27.508485116663685],[83.50433856429602,27.508251611324994],[83.50453001049245,27.50812363670409],[83.50484450197655,27.508124763088862],[83.50490195973973,27.508154333889514],[83.50501343869816,27.508138892673788]]]}},{"type":"Feature","properties":{"province":"Lumbini Province","district":"Rupandehi","municipality":"Rohini Rural Municipality","ward":"4","wardNumber":4,"sourceMunicipality":"Rohini","sourceType":"Gaunpalika"},"geometry":{"type":"Polygon","coordinates":[[[83.55093270004012,27.54113543962569],[83.55105462116204,27.540797215235774],[83.55146371061619,27.540462243262624],[83.55244351213202,27.540031993673768],[83.55296895749659,27.53972221571528],[83.55384321863565,27.53956473432295],[83.55607473318267,27.538781883399444],[83.55742679712642,27.538113502683807],[83.55797581330535,27.53792113445247],[83.55886758081179,27.53789687875741],[83.55939515143406,27.537665999833557],[83.56014386525166,27.537636805688678],[83.56085056502185,27.53735691177416],[83.56114136038804,27.537129908050733],[83.56159359098463,27.537074830429823],[83.56161609887995,27.53707264209607],[83.56188157138301,27.537249507547095],[83.56203206421293,27.537615678138184],[83.56196528789495,27.538014982338147],[83.56225151852082,27.538079064909024],[83.56298566570347,27.538131019164606],[83.56327183354277,27.53821773227625],[83.56366741724378,27.538221171973746],[83.56393864296348,27.537912706872614],[83.56406231494894,27.537610742900497],[83.56425951318359,27.53734947959342],[83.56445921215155,27.53729146246793],[83.56627826007055,27.537213568016682],[83.56740523921738,27.537341233182865],[83.56835002698938,27.537028142702177],[83.56879681810435,27.53667066397593],[83.56897832238141,27.536630589878897],[83.56912843995248,27.536847716172016],[83.56917026765326,27.537084848979074],[83.56941923302946,27.537523478068188],[83.56947400379524,27.537530355052002],[83.5694997010005,27.53750340987211],[83.5701659474215,27.537358743584928],[83.57153489161259,27.537204950898417],[83.57203201344953,27.537080102905367],[83.57233137452491,27.53684628521921],[83.57236701334104,27.536548447427172],[83.5725692135999,27.536413595715292],[83.57266224805025,27.536416159040723],[83.5733463756795,27.536707183821054],[83.57378097345294,27.53671074810744],[83.57386944453302,27.536503374906857],[83.57384587457949,27.53595708901983],[83.57434011964834,27.535850245870808],[83.5750817077709,27.535522963655204],[83.57534530514772,27.535198743831252],[83.57568249286767,27.535012377800424],[83.57590026327365,27.534349433045797],[83.57570631751422,27.533996766479316],[83.57567649420892,27.533773201213954],[83.57574858298895,27.533705681255736],[83.57586687754137,27.533721873712423],[83.57587988192476,27.533728688227406],[83.577696925003,27.535420251134443],[83.5781542791335,27.53625230931974],[83.57872774062547,27.536441365944746],[83.57880476903995,27.53663798612888],[83.57923874021274,27.53732768964635],[83.57939129532414,27.537817959589713],[83.57960431027261,27.53815718421146],[83.58040523051497,27.53880737676124],[83.58053996709836,27.539177923422454],[83.58077911715546,27.539460819484656],[83.58074041426468,27.53990307424281],[83.5808493283085,27.540321009974953],[83.58083907416305,27.54069111865125],[83.58087608707832,27.540695745756143],[83.58097593641051,27.540729942987664],[83.5812102108412,27.540811905178156],[83.58200169090273,27.540940632437575],[83.58472651025083,27.541020973362997],[83.58572550496257,27.540845674112177],[83.58582716762587,27.540906879554505],[83.58590869847036,27.540873307278353],[83.58657419450324,27.540918134335563],[83.5874350752249,27.540855242605485],[83.58770261202386,27.540754463171947],[83.58754167789714,27.540370224588727],[83.5874946614638,27.54006313459023],[83.58742232275728,27.539862013304795],[83.58715866294634,27.53986126185066],[83.5867703309207,27.540347654414514],[83.58653486796601,27.540335650642874],[83.58634342329664,27.540163537384732],[83.58641426250104,27.539924529169994],[83.58688299996638,27.53907721903889],[83.58680741098577,27.53863233755359],[83.58716110618778,27.537931382683492],[83.58751504855526,27.537991150502716],[83.58778646285721,27.537689500600866],[83.58792914046637,27.537809535695057],[83.58797578148601,27.538191148339674],[83.58812990072211,27.53847148076743],[83.58834929340316,27.53861433551178],[83.58860488795688,27.53857670026764],[83.5892311214997,27.537691503607913],[83.58926813534126,27.537617106621273],[83.58942575715947,27.5375249552878],[83.5898529787632,27.537031935528773],[83.59012007844015,27.536378181991733],[83.59026769596963,27.53616868276422],[83.59059550513139,27.536201255957508],[83.59147601635091,27.53673422679358],[83.59201734167891,27.53681706421723],[83.59240179710675,27.536648952849667],[83.59279850742914,27.536203135698393],[83.59347525800005,27.535839467040404],[83.59355103712538,27.535641096150155],[83.5932713719654,27.535331004500268],[83.59262069434642,27.534970272720965],[83.59238667049803,27.53500346946008],[83.5916469577912,27.53543009317009],[83.59130558169232,27.535481045178614],[83.59110000618175,27.53543303122663],[83.59088905316128,27.535290238886187],[83.5906450887933,27.535018657744658],[83.59020530131333,27.534712629670256],[83.59001910868881,27.534486312814114],[83.58999197427114,27.534113891154142],[83.59018610872657,27.53391808388599],[83.59058169350146,27.533673200148925],[83.59073199971134,27.533344103623012],[83.5911778528558,27.53311966339823],[83.59124919146144,27.532993501394046],[83.5911308360193,27.532814824183717],[83.59094745555353,27.532757868910878],[83.58994570951155,27.532926479380677],[83.58966035435479,27.53288277880167],[83.58952511674893,27.532821323165333],[83.58940532386418,27.532602133473148],[83.58940795042624,27.532238713865876],[83.58948216530294,27.532022275209517],[83.5898191655356,27.53179977312918],[83.58993264560075,27.53166467070561],[83.59002768205823,27.531123262242257],[83.59059201696611,27.53053352719973],[83.59068892889687,27.530249444273117],[83.59069787254599,27.52911861161535],[83.5908459902386,27.52885722283426],[83.59121200087772,27.528655164288924],[83.59163428201153,27.528541256506777],[83.59188162310971,27.528598460771295],[83.59215166021028,27.528748192761448],[83.5922540724185,27.529294729347463],[83.59241200480282,27.529396696653567],[83.59252992393354,27.52934293102945],[83.59263446373865,27.528964007122152],[83.5928665493043,27.52886310318659],[83.59306987481833,27.528915619527396],[83.59311789112397,27.529457465713286],[83.5932671964272,27.529570749584767],[83.59356236799749,27.52950616861828],[83.59420473210945,27.528939253000484],[83.59479520061245,27.528715251179694],[83.59513170073978,27.528517568596452],[83.59555192046207,27.527595611265696],[83.59597251485954,27.527091213289808],[83.5961652115513,27.52675323946569],[83.59649927353163,27.526530737591198],[83.59668015223599,27.52649278850945],[83.59695669184408,27.52660876116471],[83.59719865481344,27.527437880445046],[83.59748788615359,27.527700520477573],[83.59779831340049,27.527836811297913],[83.59784320542902,27.527559354864156],[83.59797756751529,27.527419750803915],[83.59800714134899,27.52721900429039],[83.59767702170693,27.52634224606013],[83.59685715923523,27.5248117955812],[83.59685215798281,27.524789225878624],[83.59678219493692,27.52445494014385],[83.59677406806681,27.524254068854077],[83.59682896295358,27.524042005924024],[83.59687904542433,27.523841260003955],[83.59693268975799,27.523794058643862],[83.59701540830433,27.523778491547233],[83.59714126716808,27.523796872591195],[83.59746576175004,27.523854264769245],[83.59763995089412,27.523915783256957],[83.5979339972779,27.52389840382902],[83.59811362626104,27.5238470760517],[83.59814194896964,27.523806564784937],[83.5981829651464,27.52375023573478],[83.59815951910923,27.52358762527773],[83.59806942385926,27.523305229308583],[83.59797395197242,27.523074724239972],[83.59773361367303,27.522778386522788],[83.59738129619295,27.52252456141595],[83.59696064097355,27.522367577163724],[83.59655311589984,27.52233931801947],[83.5964493270956,27.522257793501996],[83.59642719433793,27.52197108457087],[83.5964638967327,27.521637111759603],[83.59646296029912,27.521111206480832],[83.59650328781282,27.520901394811336],[83.59655374492178,27.520680330182653],[83.5965561834583,27.520357547816428],[83.59663446271544,27.5202403889158],[83.59673693865444,27.520177495838972],[83.59704286410525,27.520126481125534],[83.59733697315347,27.520100223405077],[83.59756005554033,27.520107664069673],[83.59771980199558,27.52012841999852],[83.59789392909873,27.52019431505312],[83.59812457648515,27.520210820533965],[83.59830426757091,27.52015042787916],[83.5985087183612,27.520060714297106],[83.59862569954238,27.51999106922538],[83.59867940744114,27.519930301823813],[83.5986904116454,27.519783633644913],[83.59860419286987,27.519636652154546],[83.59830558238609,27.519349129745745],[83.59812370428092,27.519043914718242],[83.59801791516752,27.51889687120681],[83.59787336179005,27.51878358794442],[83.59774243810756,27.518760643503345],[83.59764509018612,27.5188258498855],[83.59760488752556,27.51899052283047],[83.59759482070493,27.519073985146512],[83.5975790019698,27.51924322268157],[83.59753467247755,27.519340125720227],[83.59748309100036,27.519425776266104],[83.59741006431669,27.519477478838574],[83.59729308261525,27.5195606279014],[83.5971105783055,27.519591761130037],[83.5969581466759,27.519571004821408],[83.59679127247728,27.519505048254512],[83.59664065466457,27.519233718283928],[83.59640950781213,27.519097677194093],[83.5957557029809,27.51909348753308],[83.59524107624019,27.518760200867014],[83.59510633953528,27.518730504853625],[83.59491245508234,27.518788584293315],[83.59484186542775,27.51921727178455],[83.59456251160069,27.519363189915772],[83.59428478345805,27.51932849104826],[83.59412041148897,27.51918132250358],[83.59401355920477,27.51898463987217],[83.59404313394893,27.51860552819129],[83.59451674813434,27.51785524597794],[83.59451787380426,27.517724332420308],[83.59394285197199,27.51625327474849],[83.5939184056501,27.51619000611619],[83.59380674093009,27.515557694444016],[83.59376378835101,27.515446912166315],[83.5938955240833,27.51536157516859],[83.59455464311017,27.51527092414233],[83.59472214319854,27.515253356860466],[83.59487576176998,27.51513644783338],[83.59506008162006,27.514825482272506],[83.59514098767248,27.514259127749384],[83.59512329427096,27.51371515592754],[83.59514611581443,27.513618127223335],[83.59546798550957,27.513359489051577],[83.5957687222109,27.513060214385078],[83.59576684684086,27.51297662733824],[83.59576328321104,27.512825395632436],[83.59582280597384,27.512651781877967],[83.59603576043695,27.51237026231369],[83.5960587685726,27.512239410918532],[83.59591502876327,27.511992963780106],[83.59572008218639,27.51182766499591],[83.59537583002658,27.51163929573922],[83.59531099442103,27.5115397670604],[83.59528979850211,27.51144267594889],[83.59531999840733,27.5113253911261],[83.5953723304391,27.511111078227046],[83.59540302985297,27.510941903669984],[83.59538933687504,27.51079967395654],[83.59515131210318,27.510550663592646],[83.59517006927918,27.510451383971787],[83.59518645163094,27.510196371632485],[83.59513743364992,27.50992991852922],[83.5950584676149,27.509798754927125],[83.59486989808228,27.50970116286332],[83.59473922483832,27.509694035446707],[83.59452745887917,27.509804005363858],[83.59424229017046,27.509976993172405],[83.5938322626059,27.510300837530806],[83.5935332141978,27.510390175724453],[83.59323472936592,27.510414181934213],[83.59310380631288,27.510393488538597],[83.59275117698317,27.509895841602116],[83.59275905510889,27.50982594591869],[83.59290886073543,27.509706786020725],[83.59301127359385,27.509641579507235],[83.59314250982858,27.50958556303255],[83.59336934411148,27.509455275855416],[83.59365444983541,27.50925296644927],[83.59385264851419,27.509045906077766],[83.59396262693076,27.508924308111478],[83.59402308653625,27.508840971445586],[83.59404278178904,27.508809461794414],[83.59405328569852,27.50871018273075],[83.59401177060343,27.50864009937077],[83.5938289533363,27.508436414487917],[83.59375573983186,27.50830074981648],[83.59374804890325,27.50825336056144],[83.59372479053076,27.508106566884166],[83.59379175410172,27.507815544569524],[83.59385484011108,27.50760129406885],[83.59388166289312,27.507443372643237],[83.59395706608808,27.507337529446556],[83.59377193494694,27.507327963332624],[83.59359937113295,27.507352282736868],[83.59309005796072,27.50757653518402],[83.59241718351409,27.507513640233828],[83.59225162286667,27.50736190827414],[83.59216127812985,27.50715622272179],[83.59185422974006,27.505972623935207],[83.59141756928449,27.505612454688087],[83.59118279536392,27.505532680649395],[83.59019042984022,27.50476470313486],[83.59011352727305,27.50432432370492],[83.58998491809233,27.50428099850387],[83.58981291615619,27.50432344801254],[83.58947623004894,27.503995163311103],[83.58896010182121,27.503991349065416],[83.58839245416128,27.504064181609593],[83.58806602160416,27.50395264796064],[83.58591541434893,27.503819855201325],[83.5848547105307,27.503825792350494],[83.58481738411668,27.50382566712453],[83.58367883701071,27.504086367136132],[83.58097602488888,27.50453649341046],[83.58052073107564,27.504611890164654],[83.57859708161087,27.50511622181156],[83.57734686915448,27.50536973199541],[83.57630198278359,27.505526838656866],[83.57582399299254,27.50549832924896],[83.57487176686104,27.505265196440245],[83.57343654842481,27.505389479930855],[83.57145506522055,27.505717447171012],[83.57137034606772,27.50594070011214],[83.57197862965073,27.507549611561817],[83.57211424015607,27.50825425616647],[83.57231681228976,27.509302190168007],[83.57229242785672,27.509640726679468],[83.57231787468035,27.50969724329645],[83.57244304541277,27.509799211537654],[83.57263999344927,27.5097862706185],[83.57283443988469,27.509734942930287],[83.57291190636214,27.50975319885103],[83.57300806672559,27.509848289369028],[83.57317087655284,27.510144501604888],[83.57304082688125,27.510638397018955],[83.5729806794412,27.51089103359153],[83.57297936573433,27.51106483405577],[83.57309421984829,27.51122319363918],[83.57323902323719,27.511345479504573],[83.57337432369441,27.51138874306112],[83.57356895782904,27.511303656051815],[83.57424245816522,27.510786504932163],[83.5743585006779,27.51080494791637],[83.57445453627733,27.510927109367675],[83.57451143226014,27.511110100254548],[83.57452900047996,27.511326852253582],[83.574308292785,27.511691834126545],[83.57430654126536,27.511892705573217],[83.57430566545143,27.512034934305795],[83.57430504028193,27.51211620800225],[83.57423626441503,27.512228866246453],[83.5740999015977,27.512298386653875],[83.57397229193398,27.512487629555356],[83.57392277292217,27.512618354775867],[83.57415729569392,27.51332781450057],[83.57417017514065,27.51353550010668],[83.57416642244279,27.51400276276749],[83.57426545817903,27.51435517843198],[83.57445290122179,27.51457918279057],[83.57493220362241,27.51469803064917],[83.57539462332053,27.515117029684358],[83.57536354917168,27.51536747841547],[83.57524469157369,27.515653749666665],[83.57525544466424,27.516161648953116],[83.57514921684876,27.51637121073923],[83.57512245692898,27.516425351653925],[83.57466722538297,27.51695438132613],[83.57410989234228,27.517537300821207],[83.57383135088232,27.517809568415327],[83.57368579785273,27.51780906781283],[83.5735408690353,27.517716102472967],[83.57345396171687,27.51767746578694],[83.57339756731811,27.517456026020845],[83.57325376448327,27.517232209488014],[83.5729847270979,27.51714337090086],[83.57267817649706,27.517298165195385],[83.57256038268092,27.51748059381738],[83.5725579433974,27.51777855659152],[83.57246878448278,27.518013062987034],[83.57217311199828,27.51819267742569],[83.57157839200256,27.518461755146618],[83.57104256867666,27.51847588338626],[83.57081235801607,27.51857678751728],[83.57067680792281,27.518781722448594],[83.5706376683233,27.518919325493393],[83.57065548626541,27.51905480295944],[83.57080754243738,27.51917490064457],[83.57111296748081,27.519245796961645],[83.57130322528337,27.519402156407402],[83.57134105128306,27.519436103471637],[83.57135912048805,27.519589648755755],[83.57124301476405,27.519742818731963],[83.57074464238286,27.519894737791915],[83.57047523003874,27.520081229477636],[83.57041677064232,27.52021651862907],[83.57051099225481,27.520415389522718],[83.5705533198582,27.5205036034989],[83.57090094793767,27.52072585721606],[83.57119680718435,27.521074334571782],[83.57163115416958,27.521351042099184],[83.57164447167924,27.521506838026916],[83.57162796400729,27.52176635162142],[83.57168398487256,27.522017050705347],[83.57185448426004,27.522539017116962],[83.5717517575004,27.522669617180203],[83.57163408868126,27.522811409277605],[83.57163277603807,27.5229672045856],[83.571763073807,27.5230984932031],[83.57206787379516,27.523178454792667],[83.57241293768612,27.523714425387414],[83.5722218034305,27.523959872686046],[83.57179820903974,27.524166244434536],[83.57159475892375,27.524152052921078],[83.57113571431088,27.524177746539035],[83.57094514258696,27.52435998725811],[83.57088080464746,27.525113709248192],[83.5706767295223,27.52517853996213],[83.57050085187855,27.52532014410525],[83.57041138015282,27.525617856180173],[83.57032215891681,27.52586586653306],[83.57039268428711,27.52612563013457],[83.5706299588359,27.526550693195748],[83.5711341431579,27.527218140459144],[83.57122855235392,27.527595376595954],[83.57121773575435,27.527606630061374],[83.57096139016765,27.527860891313935],[83.57060413307578,27.52801781182676],[83.57028220084912,27.528016810751666],[83.57002166797723,27.52785801369971],[83.5698434142998,27.527884521234853],[83.56970436293555,27.527820876845805],[83.56954886892143,27.52760825234001],[83.56936824098037,27.52701182599292],[83.5683116009355,27.52664515410346],[83.56791282761723,27.526885411553824],[83.56743108691306,27.526976499826006],[83.56717493087744,27.526831206053014],[83.56703875637187,27.526456095933373],[83.56681317347487,27.526114620007338],[83.56654788854941,27.525964762634313],[83.56649443078629,27.52595332194585],[83.5663967077475,27.52593500408565],[83.56644278760713,27.525880988104266],[83.5662163920428,27.525343016704273],[83.5661312363072,27.52526605722105],[83.56582687333066,27.52516127521999],[83.56540490495577,27.525275057695364],[83.565049399404,27.52503473664685],[83.56482712997912,27.524982096118972],[83.56405002945387,27.525009039208463],[83.56389084607535,27.525078497079363],[83.56351614401841,27.525409156226228],[83.56281332124352,27.525373144032095],[83.56236427976914,27.525689923480176],[83.56209199152374,27.525648473611433],[83.5618806638533,27.525528187960326],[83.56150652701984,27.525034916830947],[83.56133571347058,27.524957644157467],[83.56062695349546,27.52426024993218],[83.55984929153661,27.524034306795322],[83.55890738119706,27.5239704116981],[83.55856569217585,27.52409576032769],[83.55806782036717,27.524186722855408],[83.55784717596663,27.524283063412632],[83.55728640491736,27.52465373384583],[83.5571429765035,27.52490612055159],[83.55721400088962,27.525671470487993],[83.55720530812587,27.526274084831922],[83.55736167749302,27.52673278268277],[83.55708820021142,27.527221737782128],[83.5570089820208,27.527885057848255],[83.55687768290348,27.52802909984352],[83.55662446400645,27.528028286805576],[83.55624207264754,27.527882618522355],[83.5557070012008,27.527305385159142],[83.55529309947676,27.52711670395859],[83.55488113501247,27.527009296690867],[83.55437407325331,27.526702955279283],[83.5537465285067,27.526603924510393],[83.55348061824898,27.526632432521783],[83.55326735084266,27.526767158942043],[83.55317988116289,27.52695871501961],[83.55340314997672,27.527399595523473],[83.55340121056913,27.527641103884687],[83.55318144154937,27.52775101055529],[83.55270345288899,27.527686240794992],[83.55247543120845,27.527480116890043],[83.5521464354348,27.527366208407],[83.55196799424559,27.527428850961808],[83.55145292726775,27.527849285757313],[83.55124410015019,27.52791861842525],[83.55108147748874,27.52797450939195],[83.55110254737411,27.52801295846826],[83.55089021832195,27.528314734561583],[83.55015369543973,27.52863964072606],[83.54987796737846,27.52888252355277],[83.54952020863647,27.52961492632551],[83.5486607014587,27.53027349238445],[83.54849920282575,27.530613717183094],[83.54850176577473,27.53083503206607],[83.54858729681351,27.531070038681637],[83.54880387688124,27.531267097923976],[83.54890572664367,27.531280976842368],[83.54907422671813,27.531173195874146],[83.54947131219286,27.530655293959075],[83.54976523441626,27.530306379490654],[83.54986720940323,27.530281935411608],[83.55007916294116,27.530316445374417],[83.55018507740276,27.530420601429913],[83.5503486993681,27.530570145576327],[83.55038633793112,27.530735006588507],[83.55053070319603,27.530882175438112],[83.5506564995171,27.53092775177912],[83.55122345942274,27.530830224219542],[83.55150437582392,27.530944008595334],[83.55194591300823,27.53148941929723],[83.55198924078849,27.531816827822386],[83.55178134952398,27.532346545661824],[83.55177228229694,27.53278442498875],[83.55181442270758,27.532852195010445],[83.55195516213296,27.53297010448887],[83.5523142333149,27.532772609591245],[83.5524899233841,27.532768671623433],[83.55261090474264,27.53313921792503],[83.55255031769455,27.533721389487],[83.55237931688434,27.53390137894461],[83.5521205333013,27.533938951824734],[83.5516352918729,27.533790657835787],[83.55139951750007,27.533789844196377],[83.55125308798232,27.53391813137212],[83.5511695562814,27.53430155660606],[83.55101105882264,27.534510930066215],[83.55086118934797,27.53509510160841],[83.55029035183696,27.535910340160743],[83.5500331929506,27.536426366142532],[83.54989520362739,27.536577160111207],[83.54979891746719,27.53680260108695],[83.54974989852472,27.537287681646067],[83.54946154064717,27.537668229750366],[83.5495415067654,27.537851346753914],[83.5502036258601,27.53842226608668],[83.55020218724111,27.53859831757564],[83.5499432155752,27.538787059960505],[83.54994121405704,27.53903763319771],[83.54996847374457,27.539188927794623],[83.55034661267014,27.53945419384677],[83.55043758422538,27.53957866819288],[83.55040332105149,27.539752344246885],[83.55021356245662,27.53986456430762],[83.54988950566585,27.53993352177968],[83.5497718368804,27.540073062773338],[83.54983154558674,27.54040734812394],[83.54992645496425,27.540493498396092],[83.5499809750337,27.540543263409532],[83.55028296129022,27.540709000804622],[83.55049503882336,27.54086767235183],[83.55063008870948,27.540980955726095],[83.55072612361622,27.54109411440829],[83.55079364876627,27.541146254810826],[83.55093270004012,27.54113543962569]]]}},{"type":"Feature","properties":{"province":"Lumbini Province","district":"Rupandehi","municipality":"Rohini Rural Municipality","ward":"3","wardNumber":3,"sourceMunicipality":"Rohini","sourceType":"Gaunpalika"},"geometry":{"type":"Polygon","coordinates":[[[83.54850176577473,27.53083503206607],[83.54849920282575,27.530613717183094],[83.5486607014587,27.53027349238445],[83.54952020863647,27.52961492632551],[83.54987796737846,27.52888252355277],[83.55015369543973,27.52863964072606],[83.55089021832195,27.528314734561583],[83.55110254737411,27.52801295846826],[83.55108147748874,27.52797450939195],[83.55124410015019,27.52791861842525],[83.55145292726775,27.527849285757313],[83.55196799424559,27.527428850961808],[83.5521464354348,27.527366208407],[83.55247543120845,27.527480116890043],[83.55270345288899,27.527686240794992],[83.55318144154937,27.52775101055529],[83.55340121056913,27.527641103884687],[83.55340314997672,27.527399595523473],[83.55317988116289,27.52695871501961],[83.55326735084266,27.526767158942043],[83.55348061824898,27.526632432521783],[83.5537465285067,27.526603924510393],[83.55437407325331,27.526702955279283],[83.55488113501247,27.527009296690867],[83.55529309947676,27.52711670395859],[83.5557070012008,27.527305385159142],[83.55624207264754,27.527882618522355],[83.55662446400645,27.528028286805576],[83.55687768290348,27.52802909984352],[83.5570089820208,27.527885057848255],[83.55708820021142,27.527221737782128],[83.55736167749302,27.52673278268277],[83.55720530812587,27.526274084831922],[83.55721400088962,27.525671470487993],[83.5571429765035,27.52490612055159],[83.55728640491736,27.52465373384583],[83.55784717596663,27.524283063412632],[83.55806782036717,27.524186722855408],[83.55856569217585,27.52409576032769],[83.55890738119706,27.5239704116981],[83.55984929153661,27.524034306795322],[83.56062695349546,27.52426024993218],[83.56133571347058,27.524957644157467],[83.56150652701984,27.525034916830947],[83.5618806638533,27.525528187960326],[83.56209199152374,27.525648473611433],[83.56236427976914,27.525689923480176],[83.56281332124352,27.525373144032095],[83.56351614401841,27.525409156226228],[83.56389084607535,27.525078497079363],[83.56405002945387,27.525009039208463],[83.56482712997912,27.524982096118972],[83.565049399404,27.52503473664685],[83.56540490495577,27.525275057695364],[83.56582687333066,27.52516127521999],[83.5661312363072,27.52526605722105],[83.5662163920428,27.525343016704273],[83.56644278760713,27.525880988104266],[83.5663967077475,27.52593500408565],[83.56649443078629,27.52595332194585],[83.56654788854941,27.525964762634313],[83.56681317347487,27.526114620007338],[83.56703875637187,27.526456095933373],[83.56717493087744,27.526831206053014],[83.56743108691306,27.526976499826006],[83.56791282761723,27.526885411553824],[83.5683116009355,27.52664515410346],[83.56936824098037,27.52701182599292],[83.56954886892143,27.52760825234001],[83.56970436293555,27.527820876845805],[83.5698434142998,27.527884521234853],[83.57002166797723,27.52785801369971],[83.57028220084912,27.528016810751666],[83.57060413307578,27.52801781182676],[83.57096139016765,27.527860891313935],[83.57121773575435,27.527606630061374],[83.57122855235392,27.527595376595954],[83.5711341431579,27.527218140459144],[83.5706299588359,27.526550693195748],[83.57039268428711,27.52612563013457],[83.57032215891681,27.52586586653306],[83.57041138015282,27.525617856180173],[83.57050085187855,27.52532014410525],[83.5706767295223,27.52517853996213],[83.57088080464746,27.525113709248192],[83.57094514258696,27.52435998725811],[83.57113571431088,27.524177746539035],[83.57159475892375,27.524152052921078],[83.57179820903974,27.524166244434536],[83.5722218034305,27.523959872686046],[83.57241293768612,27.523714425387414],[83.57206787379516,27.523178454792667],[83.571763073807,27.5230984932031],[83.57163277603807,27.5229672045856],[83.57163408868126,27.522811409277605],[83.5717517575004,27.522669617180203],[83.57185448426004,27.522539017116962],[83.57168398487256,27.522017050705347],[83.57162796400729,27.52176635162142],[83.57164447167924,27.521506838026916],[83.57163115416958,27.521351042099184],[83.57119680718435,27.521074334571782],[83.57090094793767,27.52072585721606],[83.5705533198582,27.5205036034989],[83.57051099225481,27.520415389522718],[83.57041677064232,27.52021651862907],[83.57047523003874,27.520081229477636],[83.57074464238286,27.519894737791915],[83.57124301476405,27.519742818731963],[83.57135912048805,27.519589648755755],[83.57134105128306,27.519436103471637],[83.57130322528337,27.519402156407402],[83.57111296748081,27.519245796961645],[83.57080754243738,27.51917490064457],[83.57065548626541,27.51905480295944],[83.5706376683233,27.518919325493393],[83.57067680792281,27.518781722448594],[83.57081235801607,27.51857678751728],[83.57104256867666,27.51847588338626],[83.57157839200256,27.518461755146618],[83.57217311199828,27.51819267742569],[83.57246878448278,27.518013062987034],[83.5725579433974,27.51777855659152],[83.57256038268092,27.51748059381738],[83.57267817649706,27.517298165195385],[83.5729847270979,27.51714337090086],[83.57325376448327,27.517232209488014],[83.57339756731811,27.517456026020845],[83.57345396171687,27.51767746578694],[83.5735408690353,27.517716102472967],[83.57368579785273,27.51780906781283],[83.57383135088232,27.517809568415327],[83.57410989234228,27.517537300821207],[83.57466722538297,27.51695438132613],[83.57512245692898,27.516425351653925],[83.57514921684876,27.51637121073923],[83.57525544466424,27.516161648953116],[83.57524469157369,27.515653749666665],[83.57536354917168,27.51536747841547],[83.57539462332053,27.515117029684358],[83.57493220362241,27.51469803064917],[83.57445290122179,27.51457918279057],[83.57426545817903,27.51435517843198],[83.57416642244279,27.51400276276749],[83.57417017514065,27.51353550010668],[83.57415729569392,27.51332781450057],[83.57392277292217,27.512618354775867],[83.57397229193398,27.512487629555356],[83.5740999015977,27.512298386653875],[83.57423626441503,27.512228866246453],[83.57430504028193,27.51211620800225],[83.57430566545143,27.512034934305795],[83.57430654126536,27.511892705573217],[83.574308292785,27.511691834126545],[83.57452900047996,27.511326852253582],[83.57451143226014,27.511110100254548],[83.57445453627733,27.510927109367675],[83.5743585006779,27.51080494791637],[83.57424245816522,27.510786504932163],[83.57356895782904,27.511303656051815],[83.57337432369441,27.51138874306112],[83.57323902323719,27.511345479504573],[83.57309421984829,27.51122319363918],[83.57297936573433,27.51106483405577],[83.5729806794412,27.51089103359153],[83.57304082688125,27.510638397018955],[83.57317087655284,27.510144501604888],[83.57300806672559,27.509848289369028],[83.57291190636214,27.50975319885103],[83.57283443988469,27.509734942930287],[83.57263999344927,27.5097862706185],[83.57244304541277,27.509799211537654],[83.57200031791406,27.510384757061328],[83.5718038693425,27.510779060112117],[83.57156646908699,27.510954424385137],[83.56973278895872,27.511567163170543],[83.56891948949021,27.511411240466384],[83.56858936737414,27.511407988683185],[83.56826655957477,27.511522084616725],[83.56810443710178,27.511704450377312],[83.56801815495423,27.51175158857665],[83.56796476062993,27.511731019852963],[83.56792624564564,27.511798665093522],[83.5677026011944,27.511764154477195],[83.56746832770395,27.511551216090435],[83.56731614671794,27.511297954066865],[83.56714714756424,27.51114397079895],[83.56686791813824,27.511267256784304],[83.56664621045458,27.5116186721546],[83.56652872997695,27.511722139745963],[83.56614583855227,27.511560653766786],[83.56579414606624,27.511588911400235],[83.5655863197565,27.511409983321503],[83.5656300854869,27.511294949423004],[83.56602979668295,27.5110501915791],[83.56599828581184,27.510856009326584],[83.56543001337154,27.51091515047434],[83.56469217689595,27.511371095309645],[83.56435098797695,27.511460307959027],[83.5642035580441,27.51136059161162],[83.56396791033869,27.51085869326465],[83.56366667463794,27.51053047095778],[83.56379253453974,27.510147171162277],[83.56370987923499,27.509997939396605],[83.563299227916,27.509811571860343],[83.56261847649762,27.509667215519418],[83.56261997823646,27.509450526328273],[83.5631584284788,27.509000770824034],[83.56330454566259,27.50861753286439],[83.56327340966085,27.508254051106242],[83.56322139238843,27.507642183817538],[83.56343053305606,27.507153103199897],[83.56333943758709,27.506902216928612],[83.56304926865184,27.506750046032035],[83.5625190719018,27.50686576663528],[83.56242653850265,27.506822566818034],[83.56242803974085,27.506601439075784],[83.562765477191,27.506169125536704],[83.56291178253738,27.505661663673873],[83.56326635318639,27.50503529251945],[83.56326716579316,27.504920196437105],[83.5632142722726,27.504861366897103],[83.5628290049092,27.50473376600765],[83.56265875444248,27.504579720100512],[83.562545338195,27.504299512529144],[83.56268826732247,27.5040787602195],[83.56317332145802,27.5040012387438],[83.56337001922294,27.50387095067359],[83.5632927416458,27.503730784746484],[83.56305252761959,27.503585553948188],[83.56251651665,27.503581613816785],[83.56203702775889,27.503440196521172],[83.5617800583439,27.503130167667464],[83.56138547578074,27.502889658737036],[83.56079319404948,27.502939671997787],[83.56076030718637,27.503011818420795],[83.56036978675516,27.50327014330181],[83.56008586845877,27.50376810142062],[83.55896970483057,27.504283751031352],[83.5583575403923,27.50431113223617],[83.55798352703104,27.50447474259567],[83.55808643897025,27.505025842203878],[83.55786748224108,27.505250845553213],[83.55714865257453,27.505630018036396],[83.55707068606361,27.505966116686576],[83.55698052754126,27.506123787535603],[83.55462271622203,27.506843119437168],[83.55251831256376,27.50726073777799],[83.55016381537068,27.50784227819789],[83.54995586337658,27.507859720361903],[83.54987014449169,27.507848155050095],[83.5491056737729,27.50799013224637],[83.54693355773294,27.508231385936288],[83.54684958928112,27.508253705167295],[83.54578782121652,27.508516592561648],[83.54450059540416,27.508674886841753],[83.54379527234047,27.50865225369518],[83.54303967979119,27.50870401715612],[83.54293564197009,27.508611114057647],[83.54290744372209,27.508638122104262],[83.54269805358385,27.508840556402806],[83.54232816646375,27.509049304193937],[83.54261520847658,27.50950612638426],[83.54267591685229,27.509966762663232],[83.54262846053855,27.51050610845759],[83.5423764283765,27.511074086943566],[83.54228895910335,27.51111216036593],[83.54175738713937,27.511087840144665],[83.54171449606154,27.5113676094311],[83.54198309406766,27.511689016564613],[83.5418414162092,27.51181492821912],[83.54154805802186,27.511748533498622],[83.54147246731984,27.511806987676845],[83.54125588610155,27.5122960692135],[83.54119229912834,27.512828537521262],[83.54090788079301,27.51289980804853],[83.54027971163448,27.512816532251044],[83.53929409759142,27.51247693071725],[83.53927921725587,27.512472366474363],[83.53916711352385,27.51241334901678],[83.53908470857915,27.512367898252414],[83.53903362703696,27.512327135458033],[83.5379622949572,27.511829236988316],[83.53685019692465,27.51145993843713],[83.53575591810011,27.511305078604824],[83.53527055190536,27.511068695336093],[83.53515244639449,27.510853881741845],[83.53515494800686,27.510558232629183],[83.53530606816547,27.509831894713088],[83.53534270938601,27.508942633407337],[83.53530225714805,27.50893363015179],[83.53509630532336,27.508993835084045],[83.53408436889285,27.509053663359495],[83.5335773062637,27.509239279513157],[83.53104324358748,27.5095941908457],[83.52975783118731,27.50953341935089],[83.52843577961313,27.509585432015882],[83.52802975397253,27.50974435332526],[83.52781229784112,27.509973857751625],[83.52764848649467,27.510404358713302],[83.52693253275007,27.511033979761795],[83.52578435322819,27.512752294406912],[83.52512154423485,27.51353102234523],[83.5244315371447,27.514230601082712],[83.52212224421096,27.5146899813654],[83.52208529311203,27.514743996662407],[83.52201482971971,27.51484758970501],[83.52199169662529,27.514716613397788],[83.52146281315862,27.51481414116783],[83.52099882864863,27.514812514572903],[83.51848245938359,27.515379425536345],[83.51809863048013,27.515434566216157],[83.51789749355234,27.515341350362085],[83.5178057721622,27.51517398907987],[83.51780952541135,27.514751927142736],[83.5176706004072,27.51424133970686],[83.51748109348148,27.514069101092606],[83.51705481064033,27.514017959675908],[83.51646721786521,27.514072412333302],[83.51565197916258,27.514299789697606],[83.51461778374224,27.51444064130442],[83.51406895636548,27.5143123519877],[83.51351687816141,27.513913171347742],[83.51299055887662,27.513861654758255],[83.51188808961781,27.513557625433375],[83.51156622143743,27.513412081600123],[83.51103877718262,27.512963323783435],[83.51078380812972,27.512874359519017],[83.51053146542564,27.512902805176935],[83.5097983171758,27.513385570432646],[83.5095255909614,27.513506480139558],[83.50917571266751,27.513426267929507],[83.50825699886198,27.5129219299218],[83.50792149946089,27.513011018296417],[83.50744057156099,27.51312442547543],[83.50709306852208,27.512915551231522],[83.50686073366388,27.512860596218022],[83.50636755179583,27.51267604086355],[83.50558438817819,27.512384329076085],[83.50484674010944,27.5122192156415],[83.50399580148269,27.512234218759332],[83.50351374679096,27.51246503567486],[83.50307508426363,27.512695914928276],[83.50239770781323,27.513221692390804],[83.50232342913894,27.51341556179053],[83.50231917682949,27.513936965016946],[83.50237281951745,27.51447431028547],[83.50261659590592,27.51486567614371],[83.5030627595407,27.515442846996862],[83.50314810225986,27.51568916971761],[83.50314153573204,27.516447517320675],[83.50296240529012,27.517006681480893],[83.5029738463428,27.517358847652517],[83.50301385965294,27.517812668649185],[83.50327220332238,27.518219850748675],[83.50372124434942,27.518442667813044],[83.50424525031983,27.518528006192767],[83.5057006635775,27.518472243618533],[83.50654472523031,27.518452676625547],[83.50744637122617,27.51852357505742],[83.50817470287494,27.51842454690264],[83.50897531174073,27.51836415657852],[83.50945448854577,27.51851032560563],[83.50968576134619,27.518669122757196],[83.5098513840791,27.518920259067396],[83.50997842991231,27.519390147394617],[83.51171688427388,27.51938046166726],[83.51276064603387,27.519375086768452],[83.5131554784762,27.51948480762464],[83.51332366544254,27.519598216270406],[83.51336317939084,27.519745072548524],[83.51305462555403,27.52060401134224],[83.51298703714008,27.52100550427195],[83.51305031024111,27.521238197591842],[83.5131911738188,27.521367360797967],[83.51344257944118,27.52133216382976],[83.51444814011865,27.52081651434377],[83.51538767425305,27.52111991814278],[83.51595913554837,27.521078970055388],[83.51613763996902,27.521000759963904],[83.51808129679377,27.520680107068827],[83.5186580720617,27.52078138865486],[83.51870677714315,27.520790578676483],[83.52058333550926,27.524500985653045],[83.52110146316953,27.525220573849623],[83.52125320552713,27.52555285920189],[83.5214295204379,27.525713719311327],[83.5215367478516,27.525714094693306],[83.5216189650449,27.52580018277088],[83.52166429393328,27.525847696383963],[83.52169680595776,27.525809435406927],[83.52191069718194,27.525895961396493],[83.52285873559893,27.525937600788843],[83.52392387977797,27.525896090621675],[83.52442625282806,27.52595423367086],[83.52465308606544,27.526189741002455],[83.52575367520814,27.52793825709463],[83.52636033369579,27.52914111183701],[83.52662861966482,27.529532477452978],[83.52710617020684,27.530001304640415],[83.52759403774279,27.53004137983394],[83.52820420057834,27.529907966368782],[83.52892540575125,27.52986751888382],[83.53188587527634,27.529886530680034],[83.53305605721538,27.529806885350773],[83.53364783932112,27.52981563874695],[83.53418122345411,27.529939301011318],[83.53443018983968,27.530131983342347],[83.53450358972763,27.531050941189022],[83.53443149910136,27.531479504459902],[83.53429419732431,27.531840235399656],[83.53427881515306,27.532341257578814],[83.53425936866222,27.53297544376429],[83.53425686736031,27.53327565673658],[83.5342842514513,27.533469839503212],[83.53436221775486,27.533515227745358],[83.53448726367415,27.533587873857474],[83.53511237027423,27.53365770842714],[83.53570902771345,27.53366189829545],[83.53672746699084,27.533681093640368],[83.5372396566834,27.533739236807026],[83.53885512883213,27.533825828298212],[83.53924477283364,27.53382714185849],[83.53929385291458,27.53382051513653],[83.53961528479188,27.53377869084512],[83.53967418115809,27.53377212703266],[83.54191300964605,27.533666600567123],[83.54243889316443,27.533246228408444],[83.54249072502179,27.533124505272436],[83.54245746321827,27.532733952363962],[83.54268648645935,27.53246381173973],[83.54333241326128,27.53218154256872],[83.54496939504266,27.531660955527858],[83.54567828465173,27.530884540792062],[83.54605429778493,27.531197320828635],[83.5463147680819,27.53135611804339],[83.54666433550135,27.531318858613357],[83.54711656510395,27.53117813048736],[83.54756929535611,27.530999015714727],[83.54787547129018,27.530896173622622],[83.54806235309864,27.53086291470905],[83.54850176577473,27.53083503206607]]]}},{"type":"Feature","properties":{"province":"Lumbini Province","district":"Rupandehi","municipality":"Rohini Rural Municipality","ward":"7","wardNumber":7,"sourceMunicipality":"Rohini","sourceType":"Gaunpalika"},"geometry":{"type":"Polygon","coordinates":[[[83.5565482085481,27.49502627501664],[83.55668332187525,27.494548197895647],[83.55666850489592,27.49438108613529],[83.55629749285518,27.494106817215094],[83.5562462255212,27.493711638614307],[83.55648431406446,27.493441559323085],[83.55648737858712,27.493069137245985],[83.5565527156356,27.49295422849044],[83.55669883195846,27.49288920971569],[83.55715306197864,27.492834194336165],[83.55758147196148,27.492515039098752],[83.55768157175258,27.492323546042957],[83.55704071074679,27.492048401125675],[83.55684032429971,27.49183102422586],[83.55684220118667,27.491612022697183],[83.55691253958717,27.491427218190463],[83.55726323224822,27.491153013151216],[83.55789065190076,27.491062425198244],[83.5580874130634,27.49092538557987],[83.55817757166272,27.490611919089947],[83.55807347321952,27.489735785800924],[83.55788890573214,27.48943500957477],[83.55696831818514,27.488531492687123],[83.55611581626471,27.48809317398891],[83.55591024133261,27.48784422597121],[83.5556472075032,27.48724298562412],[83.55532796551344,27.486844680597425],[83.55566921887603,27.48631083719835],[83.55562964229361,27.486087270805765],[83.55532909385019,27.485923785016933],[83.55516178164737,27.48592328470512],[83.55446158402148,27.486480821939313],[83.55422699751755,27.486443935706454],[83.5540966372263,27.48628776456285],[83.55397753210565,27.485696028226318],[83.55358338763625,27.485283968119532],[83.55354656258491,27.485076219966597],[83.55374951353723,27.48447641892204],[83.55407413367196,27.484400709694977],[83.55425157393819,27.484491612098722],[83.5547320629571,27.485073283605384],[83.55522074358169,27.485180816254022],[83.55554398789208,27.484958376658973],[83.55554724015603,27.484543130140217],[83.55578708000489,27.484065365001005],[83.55572518286776,27.48395226893741],[83.55520292789899,27.483621108427354],[83.55493007635509,27.483893312768107],[83.55461864960478,27.483580845396176],[83.55437462206041,27.483469499102647],[83.55422144187023,27.483247808553322],[83.5542939683405,27.48306744337066],[83.55424076200494,27.482999485931554],[83.5538747521769,27.48291264743591],[83.55375958438354,27.482844564449014],[83.55376014748457,27.482776856868906],[83.55356013625921,27.482640753974415],[83.55337350605085,27.482242886443625],[83.55244347659271,27.481583128726104],[83.55192828543262,27.481694285327833],[83.55147624433383,27.481449087080026],[83.55110429594735,27.48102577457682],[83.55089178094772,27.480616590852325],[83.55085776876331,27.48050137012068],[83.54701741171796,27.480651467982913],[83.54277565598474,27.480874712357302],[83.54218650078877,27.4808862770386],[83.54097442846546,27.480979364772224],[83.5392939322443,27.481057384170136],[83.53706917268468,27.48116059682408],[83.53542875358336,27.481240991795097],[83.5226217696679,27.48186821129414],[83.52033004843841,27.481928098513624],[83.51709529040647,27.48211108290886],[83.51472160035203,27.48218409875815],[83.51400077146249,27.482150025297592],[83.5072504641745,27.482349881215676],[83.50727040936164,27.482410835892658],[83.50737550905438,27.482901043197216],[83.50763766704421,27.483574616460665],[83.50817555016715,27.484413864439905],[83.50917422620921,27.48631342510869],[83.50960294414709,27.487522468607636],[83.50980776869353,27.4878550041286],[83.5102169167716,27.488775087998153],[83.51061481316428,27.489164703762608],[83.51096525467926,27.48932393850058],[83.51223197222549,27.489438975242084],[83.51308122403091,27.489272616471805],[83.51346280309212,27.489206285306896],[83.51368926172951,27.489283808094495],[83.51453651194109,27.48928899945717],[83.51499962053586,27.489459863048065],[83.51635149432269,27.489687995367728],[83.51651630437513,27.48976308019528],[83.5170643806652,27.49026154014452],[83.51874180962109,27.491375621625444],[83.51900684438691,27.491766987233778],[83.5191345157722,27.492157915205816],[83.51935046967148,27.492413741005667],[83.51969853563082,27.49255259435771],[83.51993837377327,27.49257372604902],[83.52011187538157,27.492671380910803],[83.52039691420275,27.493929625941266],[83.52058760845985,27.494614265005957],[83.52081469004102,27.495140858257262],[83.52085414205636,27.49530578165069],[83.52102514036525,27.49601736609607],[83.52162742047898,27.497816146110136],[83.52130411128296,27.498616317413695],[83.52132987053223,27.499031690280862],[83.52151587414241,27.499779472987594],[83.52190739247419,27.50019384534694],[83.52367629708462,27.500012545558615],[83.52506618517111,27.500048809214412],[83.52535404211645,27.499923460489676],[83.52572955639137,27.49986832059045],[83.52581958910591,27.49996791256122],[83.52584841227595,27.499819056525794],[83.52626606813638,27.499603743602407],[83.52645913924962,27.49943288141126],[83.52690411848162,27.49874824416585],[83.52714733454934,27.498182515998693],[83.52728532379169,27.498099429237968],[83.52721354777044,27.497934442574767],[83.52742362590975,27.497639481473374],[83.52811219419563,27.497111328013737],[83.52887854244162,27.496285649934205],[83.52889855017641,27.496116349765995],[83.52895550908777,27.496116537150055],[83.53072322708009,27.495314430822535],[83.53208260484129,27.494905938414757],[83.53336307867382,27.49460997909423],[83.53459690990803,27.49464117863927],[83.53466380982435,27.494524019414595],[83.53443153746697,27.494098893467402],[83.53443285089901,27.49393415819546],[83.53457703079236,27.493352299928727],[83.53477498050975,27.49299632030634],[83.5347836079576,27.4929805660904],[83.53491171847958,27.493057713757583],[83.53520901539808,27.49309478775314],[83.5356130383645,27.493405317560132],[83.53586719530836,27.49337912244386],[83.53610271929878,27.4934318265923],[83.53629053817637,27.493604002187165],[83.53671238002397,27.494426995064863],[83.5368953200748,27.495172464191793],[83.53738431178618,27.495668361285684],[83.53744545827624,27.496259972763834],[83.53757087935465,27.49645002902538],[83.53805549449397,27.49679019284121],[83.53816797304633,27.49699369003702],[83.5382937665985,27.498316829166626],[83.53839842969238,27.498475125703315],[83.53929382343676,27.498265941597456],[83.5393793549594,27.498245872890955],[83.54029263162677,27.4978358167302],[83.54066702058903,27.497433012196357],[83.54077787523843,27.49717837490057],[83.54082964464484,27.49705890225538],[83.54102734316929,27.496915110644782],[83.54105447806474,27.496928739913105],[83.54119021489997,27.49700363707367],[83.54131945015749,27.497209447512052],[83.54141310830776,27.497737978120238],[83.54179787441815,27.498129718727597],[83.54212624515864,27.49829551862638],[83.54236820910607,27.49832340195178],[83.54243573426578,27.498368790355062],[83.54252176524307,27.498533839474597],[83.54250113239473,27.49869857571935],[83.54243060601114,27.499000788963926],[83.54245811521884,27.499235608397214],[83.54247355675825,27.500021151563043],[83.54258628441814,27.500463906850097],[83.54265411998064,27.50103745078082],[83.542708514607,27.501518404747923],[83.54274677886285,27.501516279052797],[83.54305789333503,27.501508277432485],[83.5432472137854,27.501484082671624],[83.54358114903809,27.501550603422544],[83.54417680612886,27.501645069861105],[83.54496947471111,27.501719905792037],[83.54576983298651,27.50168639811965],[83.54624957225522,27.501753418551722],[83.54678802139844,27.501705467715954],[83.54734053829485,27.501772739218055],[83.54766034388832,27.50180087259569],[83.547738247918,27.501787556389704],[83.54777588650306,27.501780930137063],[83.54772980744859,27.501681462778272],[83.5476404005035,27.500943058432583],[83.54768110395423,27.50066785265394],[83.54823480993444,27.50035588658103],[83.54845526782937,27.49975164723166],[83.54857249878081,27.499648241808227],[83.54892694244413,27.49977803067355],[83.54927175683288,27.499657246268544],[83.54971048159237,27.499683504595072],[83.54977525577223,27.499636303896924],[83.54976569008356,27.499489572554122],[83.5495489861646,27.49917285420315],[83.54940968630385,27.498405003804276],[83.54944257407088,27.498330606529215],[83.54973211792421,27.49832247977243],[83.549807646138,27.498275340753633],[83.54985441473315,27.497984256115423],[83.55020942171389,27.497671727048537],[83.5503806109929,27.497193774320404],[83.55055861412042,27.49715595138193],[83.55097564237552,27.497389770671028],[83.55115220781553,27.497390333851428],[83.55088273507933,27.496960644551923],[83.55110869373921,27.496645364715725],[83.55105036046763,27.496430738725447],[83.55109487787009,27.49598848465749],[83.55144513284641,27.49599186109308],[83.55151021885975,27.49593565719692],[83.55150840716216,27.49559705733599],[83.55159987908613,27.495437073645846],[83.55167540660737,27.495378618899238],[83.55213713987145,27.495285341949355],[83.55241080382534,27.495044709587095],[83.55279038089934,27.495312226639847],[83.55305998117042,27.49539437583039],[83.55332576655803,27.495307163344325],[83.5537568634959,27.49550265937076],[83.55409361235041,27.495404506115992],[83.55471652968707,27.49558474822003],[83.55524372473036,27.495498348721828],[83.55557297217379,27.495208264609946],[83.55594429778856,27.49516431442953],[83.5565482085481,27.49502627501664]]]}},{"type":"Feature","properties":{"province":"Lumbini Province","district":"Rupandehi","municipality":"Rohini Rural Municipality","ward":"2","wardNumber":2,"sourceMunicipality":"Rohini","sourceType":"Gaunpalika"},"geometry":{"type":"Polygon","coordinates":[[[83.56079319404948,27.502939671997787],[83.56069778459782,27.502591819266456],[83.56070522780806,27.501664109584148],[83.56077481634622,27.501422851390647],[83.56126968907196,27.500553096735512],[83.56139742460687,27.500181112771863],[83.56100271723227,27.499723977720336],[83.56100390617482,27.499588499746825],[83.56131833500427,27.49920126185491],[83.56127281868521,27.499034087742878],[83.56102522897791,27.498674418563283],[83.56090237173645,27.498220348158082],[83.56064421472156,27.498043545179662],[83.56030533882625,27.49804241886118],[83.56050366282929,27.497736017500618],[83.56029496037598,27.498028853228835],[83.56012952317954,27.498260795717034],[83.55968260785092,27.498523496538695],[83.55968416972696,27.498855281680505],[83.55959157282989,27.49915068112814],[83.55937680540977,27.499197381462142],[83.55872575309687,27.499084722767495],[83.55854849983179,27.498869784183672],[83.5584096375449,27.498291488705185],[83.55822019349286,27.498119312292555],[83.55796059675393,27.49814563209454],[83.55737656806477,27.498522992524105],[83.55699273935953,27.498377260618067],[83.55662341571579,27.4979088726505],[83.55626522235472,27.497605282336057],[83.55623020952736,27.49734107953474],[83.55637032425136,27.49718578482044],[83.55755213653696,27.496941277416028],[83.55810784470368,27.49613722950833],[83.55802956563855,27.49599475062946],[83.55783724449037,27.495906099233526],[83.55739408182777,27.495554869930537],[83.557004375755,27.495449775384152],[83.5565482085481,27.49502627501664],[83.55594429778856,27.49516431442953],[83.55557297217379,27.495208264609946],[83.55524372473036,27.495498348721828],[83.55471652968707,27.49558474822003],[83.55409361235041,27.495404506115992],[83.5537568634959,27.49550265937076],[83.55332576655803,27.495307163344325],[83.55305998117042,27.49539437583039],[83.55279038089934,27.495312226639847],[83.55241080382534,27.495044709587095],[83.55213713987145,27.495285341949355],[83.55167540660737,27.495378618899238],[83.55159987908613,27.495437073645846],[83.55150840716216,27.49559705733599],[83.55151021885975,27.49593565719692],[83.55144513284641,27.49599186109308],[83.55109487787009,27.49598848465749],[83.55105036046763,27.496430738725447],[83.55110869373921,27.496645364715725],[83.55088273507933,27.496960644551923],[83.55115220781553,27.497390333851428],[83.55097564237552,27.497389770671028],[83.55055861412042,27.49715595138193],[83.5503806109929,27.497193774320404],[83.55020942171389,27.497671727048537],[83.54985441473315,27.497984256115423],[83.549807646138,27.498275340753633],[83.54973211792421,27.49832247977243],[83.54944257407088,27.498330606529215],[83.54940968630385,27.498405003804276],[83.5495489861646,27.49917285420315],[83.54976569008356,27.499489572554122],[83.54977525577223,27.499636303896924],[83.54971048159237,27.499683504595072],[83.54927175683288,27.499657246268544],[83.54892694244413,27.49977803067355],[83.54857249878081,27.499648241808227],[83.54845526782937,27.49975164723166],[83.54823480993444,27.50035588658103],[83.54768110395423,27.50066785265394],[83.5476404005035,27.500943058432583],[83.54772980744859,27.501681462778272],[83.54777588650306,27.501780930137063],[83.547738247918,27.501787556389704],[83.54766034388832,27.50180087259569],[83.54734053829485,27.501772739218055],[83.54678802139844,27.501705467715954],[83.54624957225522,27.501753418551722],[83.54576983298651,27.50168639811965],[83.54496947471111,27.501719905792037],[83.54417680612886,27.501645069861105],[83.54358114903809,27.501550603422544],[83.5432472137854,27.501484082671624],[83.54305789333503,27.501508277432485],[83.54274677886285,27.501516279052797],[83.542708514607,27.501518404747923],[83.54265411998064,27.50103745078082],[83.54258628441814,27.500463906850097],[83.54247355675825,27.500021151563043],[83.54245811521884,27.499235608397214],[83.54243060601114,27.499000788963926],[83.54250113239473,27.49869857571935],[83.54252176524307,27.498533839474597],[83.54243573426578,27.498368790355062],[83.54236820910607,27.49832340195178],[83.54212624515864,27.49829551862638],[83.54179787441815,27.498129718727597],[83.54141310830776,27.497737978120238],[83.54131945015749,27.497209447512052],[83.54119021489997,27.49700363707367],[83.54105447806474,27.496928739913105],[83.54102734316929,27.496915110644782],[83.54082964464484,27.49705890225538],[83.54077787523843,27.49717837490057],[83.54066702058903,27.497433012196357],[83.54029263162677,27.4978358167302],[83.5393793549594,27.498245872890955],[83.53929382343676,27.498265941597456],[83.53839842969238,27.498475125703315],[83.5382937665985,27.498316829166626],[83.53816797304633,27.49699369003702],[83.53805549449397,27.49679019284121],[83.53757087935465,27.49645002902538],[83.53744545827624,27.496259972763834],[83.53738431178618,27.495668361285684],[83.5368953200748,27.495172464191793],[83.53671238002397,27.494426995064863],[83.53629053817637,27.493604002187165],[83.53610271929878,27.4934318265923],[83.53586719530836,27.49337912244386],[83.5356130383645,27.493405317560132],[83.53520901539808,27.49309478775314],[83.53491171847958,27.493057713757583],[83.5347836079576,27.4929805660904],[83.53477498050975,27.49299632030634],[83.53457703079236,27.493352299928727],[83.53443285089901,27.49393415819546],[83.53443153746697,27.494098893467402],[83.53466380982435,27.494524019414595],[83.53459690990803,27.49464117863927],[83.53336307867382,27.49460997909423],[83.53208260484129,27.494905938414757],[83.53072322708009,27.495314430822535],[83.52895550908777,27.496116537150055],[83.52889855017641,27.496116349765995],[83.52887854244162,27.496285649934205],[83.52811219419563,27.497111328013737],[83.52742362590975,27.497639481473374],[83.52721354777044,27.497934442574767],[83.52728532379169,27.498099429237968],[83.52714733454934,27.498182515998693],[83.52690411848162,27.49874824416585],[83.52645913924962,27.49943288141126],[83.52626606813638,27.499603743602407],[83.52584841227595,27.499819056525794],[83.52581958910591,27.49996791256122],[83.52572955639137,27.49986832059045],[83.52535404211645,27.499923460489676],[83.52506618517111,27.500048809214412],[83.52367629708462,27.500012545558615],[83.52190739247419,27.50019384534694],[83.52151587414241,27.499779472987594],[83.52132987053223,27.499031690280862],[83.52130411128296,27.498616317413695],[83.52162742047898,27.497816146110136],[83.52102514036525,27.49601736609607],[83.52085414205636,27.49530578165069],[83.52081469004102,27.495140858257262],[83.52058760845985,27.494614265005957],[83.52039691420275,27.493929625941266],[83.52011187538157,27.492671380910803],[83.51993837377327,27.49257372604902],[83.51969853563082,27.49255259435771],[83.51935046967148,27.492413741005667],[83.5191345157722,27.492157915205816],[83.51900684438691,27.491766987233778],[83.51874180962109,27.491375621625444],[83.5170643806652,27.49026154014452],[83.51651630437513,27.48976308019528],[83.51635149432269,27.489687995367728],[83.51499962053586,27.489459863048065],[83.51453651194109,27.48928899945717],[83.51368926172951,27.489283808094495],[83.51346280309212,27.489206285306896],[83.51308122403091,27.489272616471805],[83.51223197222549,27.489438975242084],[83.51096525467926,27.48932393850058],[83.51061481316428,27.489164703762608],[83.5102169167716,27.488775087998153],[83.50980776869353,27.4878550041286],[83.50960294414709,27.487522468607636],[83.50917422620921,27.48631342510869],[83.50817555016715,27.484413864439905],[83.50763766704421,27.483574616460665],[83.50737550905438,27.482901043197216],[83.50727040936164,27.482410835892658],[83.5072504641745,27.482349881215676],[83.50371303200342,27.482517921981962],[83.49761183949802,27.482800866108654],[83.4914299294976,27.48308543565359],[83.49049214566682,27.483095623912583],[83.49036115975647,27.48310187553424],[83.4899910847978,27.483491051455037],[83.48918997422207,27.484194568850487],[83.48868935059507,27.48455842469145],[83.48834272125477,27.484954415306756],[83.48810794576448,27.485305642779593],[83.48802822799122,27.485578472822755],[83.48806223925106,27.48615645482177],[83.48825887354612,27.48639640152943],[83.48856292273601,27.48660521313575],[83.489176648878,27.48688504712926],[83.49008154472381,27.487019275899417],[83.49086770986925,27.487026592227956],[83.49142660513684,27.486924876263775],[83.49185607616678,27.486894806243487],[83.49254776995996,27.48659259380771],[83.49403194711668,27.485261768672945],[83.49442346714049,27.485089406262865],[83.49481429906018,27.48507046401476],[83.49515867578425,27.48516655596674],[83.49547016568484,27.485343733364857],[83.49555675969498,27.485499779998584],[83.49555475867297,27.48572997207394],[83.49534098940906,27.48647181488385],[83.49494552882352,27.487118191807962],[83.49480847699193,27.48774743891053],[83.49480522491982,27.488113108454755],[83.4950265545557,27.488829382106875],[83.49544852063296,27.4895487189229],[83.49596639769204,27.48998847436979],[83.49721385864365,27.49027281102275],[83.49761169276,27.490387095874237],[83.49808855589517,27.49052201197568],[83.4992835586024,27.49108830595945],[83.499491321797,27.491177082280284],[83.49960036254451,27.49127454889921],[83.50038921508329,27.491744563584724],[83.5010689648188,27.492216516581262],[83.50125540712408,27.492555741247894],[83.50134487588706,27.493201618828145],[83.50126822201561,27.493632433292007],[83.50109071718313,27.493995226667867],[83.50098467734291,27.494500437204927],[83.50119794121213,27.49506322862133],[83.50170225135325,27.49563383432643],[83.50245346415966,27.49625045473115],[83.50319273633387,27.496580366626798],[83.50380840110732,27.496939098459],[83.50398415294733,27.49705263186728],[83.50437254524476,27.497306832411653],[83.50548464194554,27.49825198737727],[83.5056266927219,27.498541447843316],[83.50574204742543,27.498776579972567],[83.50578274910484,27.49915594151401],[83.50558842524201,27.499739799929188],[83.50539141290714,27.500705208942858],[83.50545974882769,27.50121329572152],[83.50568795675535,27.50174901560216],[83.50627535870964,27.502446285106313],[83.50657915857572,27.502661786658376],[83.50773033195746,27.503295600018664],[83.50866430110186,27.503827070841016],[83.51009695241176,27.504716960975482],[83.51060626490445,27.505192664372707],[83.51161582178935,27.5062390362253],[83.51201746896311,27.506931115405955],[83.51216120901547,27.50714155329251],[83.51233952353628,27.507602688991234],[83.5124338066365,27.508253005018517],[83.51243599410122,27.5082665717653],[83.51231544898282,27.508760466598158],[83.51206585575531,27.509030420162386],[83.51153228309036,27.509265550919526],[83.5111540802974,27.50927555305844],[83.51107086245759,27.509270738630427],[83.51093262360718,27.50926129768558],[83.50986204104517,27.508975336453084],[83.50886317370504,27.508520388404595],[83.50796471684461,27.508397600373335],[83.50747359830045,27.50825143130378],[83.50668887146252,27.50801617236299],[83.50592452675386,27.507914140772282],[83.50537313522658,27.50794152232591],[83.50501343869816,27.508138892673788],[83.50497717485553,27.50825161322819],[83.50497073520752,27.508271930883357],[83.5048828263898,27.508682364316073],[83.50503012942643,27.509283291402625],[83.50546622598752,27.509849146179146],[83.50624595073852,27.51042519215296],[83.50660539494795,27.51071765380762],[83.50703574088064,27.511084825082786],[83.50715766074127,27.511195857790966],[83.50726676290377,27.51128425933196],[83.50772236735108,27.511597352467266],[83.50825925341437,27.511770779236016],[83.5084325041638,27.51195420916734],[83.50853053957245,27.512396963755755],[83.50843306429034,27.512753256535134],[83.50825699886198,27.5129219299218],[83.50917571266751,27.513426267929507],[83.5095255909614,27.513506480139558],[83.5097983171758,27.513385570432646],[83.51053146542564,27.512902805176935],[83.51078380812972,27.512874359519017],[83.51103877718262,27.512963323783435],[83.51156622143743,27.513412081600123],[83.51188808961781,27.513557625433375],[83.51299055887662,27.513861654758255],[83.51351687816141,27.513913171347742],[83.51406895636548,27.5143123519877],[83.51461778374224,27.51444064130442],[83.51565197916258,27.514299789697606],[83.51646721786521,27.514072412333302],[83.51705481064033,27.514017959675908],[83.51748109348148,27.514069101092606],[83.5176706004072,27.51424133970686],[83.51780952541135,27.514751927142736],[83.5178057721622,27.51517398907987],[83.51789749355234,27.515341350362085],[83.51809863048013,27.515434566216157],[83.51848245938359,27.515379425536345],[83.52099882864863,27.514812514572903],[83.52146281315862,27.51481414116783],[83.52199169662529,27.514716613397788],[83.52201482971971,27.51484758970501],[83.52208529311203,27.514743996662407],[83.52212224421096,27.5146899813654],[83.5244315371447,27.514230601082712],[83.52512154423485,27.51353102234523],[83.52578435322819,27.512752294406912],[83.52693253275007,27.511033979761795],[83.52764848649467,27.510404358713302],[83.52781229784112,27.509973857751625],[83.52802975397253,27.50974435332526],[83.52843577961313,27.509585432015882],[83.52975783118731,27.50953341935089],[83.53104324358748,27.5095941908457],[83.5335773062637,27.509239279513157],[83.53408436889285,27.509053663359495],[83.53509630532336,27.508993835084045],[83.53530225714805,27.50893363015179],[83.53534270938601,27.508942633407337],[83.53530606816547,27.509831894713088],[83.53515494800686,27.510558232629183],[83.53515244639449,27.510853881741845],[83.53527055190536,27.511068695336093],[83.53575591810011,27.511305078604824],[83.53685019692465,27.51145993843713],[83.5379622949572,27.511829236988316],[83.53903362703696,27.512327135458033],[83.53908470857915,27.512367898252414],[83.53916711352385,27.51241334901678],[83.53927921725587,27.512472366474363],[83.53929409759142,27.51247693071725],[83.54027971163448,27.512816532251044],[83.54090788079301,27.51289980804853],[83.54119229912834,27.512828537521262],[83.54125588610155,27.5122960692135],[83.54147246731984,27.511806987676845],[83.54154805802186,27.511748533498622],[83.5418414162092,27.51181492821912],[83.54198309406766,27.511689016564613],[83.54171449606154,27.5113676094311],[83.54175738713937,27.511087840144665],[83.54228895910335,27.51111216036593],[83.5423764283765,27.511074086943566],[83.54262846053855,27.51050610845759],[83.54267591685229,27.509966762663232],[83.54261520847658,27.50950612638426],[83.54232816646375,27.509049304193937],[83.54269805358385,27.508840556402806],[83.54290744372209,27.508638122104262],[83.54293564197009,27.508611114057647],[83.54303967979119,27.50870401715612],[83.54379527234047,27.50865225369518],[83.54450059540416,27.508674886841753],[83.54578782121652,27.508516592561648],[83.54684958928112,27.508253705167295],[83.54693355773294,27.508231385936288],[83.5491056737729,27.50799013224637],[83.54987014449169,27.507848155050095],[83.54995586337658,27.507859720361903],[83.55016381537068,27.50784227819789],[83.55251831256376,27.50726073777799],[83.55462271622203,27.506843119437168],[83.55698052754126,27.506123787535603],[83.55707068606361,27.505966116686576],[83.55714865257453,27.505630018036396],[83.55786748224108,27.505250845553213],[83.55808643897025,27.505025842203878],[83.55798352703104,27.50447474259567],[83.5583575403923,27.50431113223617],[83.55896970483057,27.504283751031352],[83.56008586845877,27.50376810142062],[83.56036978675516,27.50327014330181],[83.56076030718637,27.503011818420795],[83.56079319404948,27.502939671997787]]]}},{"type":"Feature","properties":{"province":"Lumbini Province","district":"Rupandehi","municipality":"Rohini Rural Municipality","ward":"6","wardNumber":6,"sourceMunicipality":"Rohini","sourceType":"Gaunpalika"},"geometry":{"type":"Polygon","coordinates":[[[83.57244304541277,27.509799211537654],[83.57231787468035,27.50969724329645],[83.57229242785672,27.509640726679468],[83.57231681228976,27.509302190168007],[83.57211424015607,27.50825425616647],[83.57197862965073,27.507549611561817],[83.57137034606772,27.50594070011214],[83.57145506522055,27.505717447171012],[83.57343654842481,27.505389479930855],[83.57487176686104,27.505265196440245],[83.57582399299254,27.50549832924896],[83.57630198278359,27.505526838656866],[83.57734686915448,27.50536973199541],[83.57859708161087,27.50511622181156],[83.58052073107564,27.504611890164654],[83.58097602488888,27.50453649341046],[83.58367883701071,27.504086367136132],[83.58481738411668,27.50382566712453],[83.5848547105307,27.503825792350494],[83.58591541434893,27.503819855201325],[83.58806602160416,27.50395264796064],[83.58839245416128,27.504064181609593],[83.58896010182121,27.503991349065416],[83.58947623004894,27.503995163311103],[83.58981291615619,27.50432344801254],[83.58998491809233,27.50428099850387],[83.5902295084097,27.50403348905106],[83.59055875523447,27.50390576429367],[83.59174913307793,27.50391376919771],[83.59191038047938,27.50386456679873],[83.59208306967196,27.503713835325883],[83.59220349008241,27.503398180434075],[83.59240256386704,27.503134728857194],[83.59258488171886,27.503026884638164],[83.59476143711798,27.50264046284263],[83.59476306251811,27.50246891252873],[83.59438605117413,27.50154013881147],[83.59436354347058,27.500955467127298],[83.59465521547938,27.500543221290602],[83.5949480757914,27.499277849818323],[83.59526569566849,27.498445855522245],[83.59542169236165,27.49764049444207],[83.59552660869332,27.4965483610284],[83.59576901420914,27.495224097989745],[83.595271642126,27.495473170198572],[83.59492301290956,27.49554669113131],[83.5937615835932,27.495963123883374],[83.59342589659704,27.49604114598893],[83.59276946679269,27.496009948190117],[83.59222020066055,27.496168555615508],[83.5910287591687,27.496736158314626],[83.59011442032399,27.497042684144606],[83.58952751546227,27.49712677003256],[83.58907722400482,27.49712326787601],[83.58866300948064,27.496966220856343],[83.58800970657028,27.496343599235445],[83.58747300928744,27.496019252853493],[83.58483591212875,27.49503408397896],[83.58450379004597,27.49483446159648],[83.58507362601836,27.494330564732905],[83.58668234787054,27.493364721198994],[83.58668528797018,27.49300361555525],[83.58665996615,27.49292227930939],[83.58649840805893,27.492373304339594],[83.58624350547001,27.490467493916256],[83.58616403917085,27.490142211220054],[83.5860381183457,27.48997028535896],[83.58496878705307,27.48919968161828],[83.58388107549455,27.48824389877318],[83.58178611696474,27.486775087593152],[83.58109542535828,27.486445677063475],[83.58097600649141,27.48640247676816],[83.58009774566179,27.486081567918966],[83.57963301087085,27.485974098615564],[83.5791254492131,27.485672383836054],[83.57903341630535,27.485464447088603],[83.5791526483113,27.485322593592592],[83.57959937626131,27.485071145782],[83.58024211493704,27.48427178656892],[83.58097595037046,27.48373450548086],[83.58144068538715,27.483395030981566],[83.58144368782006,27.483020358799084],[83.58172279059916,27.482996352696425],[83.58144412482866,27.482975220428447],[83.58128356782076,27.48227726547392],[83.58097595451127,27.481874583940183],[83.5806126967978,27.481397254870323],[83.57992281889211,27.4805961432057],[83.57975000582991,27.480218657081238],[83.57975569765168,27.479453495174617],[83.57989568792816,27.47907469630533],[83.5780945841175,27.479166344741095],[83.57556439908716,27.479312195211648],[83.57453339358786,27.479320382990352],[83.57243474307948,27.47945166774502],[83.57218571267775,27.47946667162382],[83.5541731182831,27.48030882027886],[83.55294491504284,27.48040415765512],[83.55085776876331,27.48050137012068],[83.55089178094772,27.480616590852325],[83.55110429594735,27.48102577457682],[83.55147624433383,27.481449087080026],[83.55192828543262,27.481694285327833],[83.55244347659271,27.481583128726104],[83.55337350605085,27.482242886443625],[83.55356013625921,27.482640753974415],[83.55376014748457,27.482776856868906],[83.55375958438354,27.482844564449014],[83.5538747521769,27.48291264743591],[83.55424076200494,27.482999485931554],[83.5542939683405,27.48306744337066],[83.55422144187023,27.483247808553322],[83.55437462206041,27.483469499102647],[83.55461864960478,27.483580845396176],[83.55493007635509,27.483893312768107],[83.55520292789899,27.483621108427354],[83.55572518286776,27.48395226893741],[83.55578708000489,27.484065365001005],[83.55554724015603,27.484543130140217],[83.55554398789208,27.484958376658973],[83.55522074358169,27.485180816254022],[83.5547320629571,27.485073283605384],[83.55425157393819,27.484491612098722],[83.55407413367196,27.484400709694977],[83.55374951353723,27.48447641892204],[83.55354656258491,27.485076219966597],[83.55358338763625,27.485283968119532],[83.55397753210565,27.485696028226318],[83.5540966372263,27.48628776456285],[83.55422699751755,27.486443935706454],[83.55446158402148,27.486480821939313],[83.55516178164737,27.48592328470512],[83.55532909385019,27.485923785016933],[83.55562964229361,27.486087270805765],[83.55566921887603,27.48631083719835],[83.55532796551344,27.486844680597425],[83.5556472075032,27.48724298562412],[83.55591024133261,27.48784422597121],[83.55611581626471,27.48809317398891],[83.55696831818514,27.488531492687123],[83.55788890573214,27.48943500957477],[83.55807347321952,27.489735785800924],[83.55817757166272,27.490611919089947],[83.5580874130634,27.49092538557987],[83.55789065190076,27.491062425198244],[83.55726323224822,27.491153013151216],[83.55691253958717,27.491427218190463],[83.55684220118667,27.491612022697183],[83.55684032429971,27.49183102422586],[83.55704071074679,27.492048401125675],[83.55768157175258,27.492323546042957],[83.55758147196148,27.492515039098752],[83.55715306197864,27.492834194336165],[83.55669883195846,27.49288920971569],[83.5565527156356,27.49295422849044],[83.55648737858712,27.493069137245985],[83.55648431406446,27.493441559323085],[83.5562462255212,27.493711638614307],[83.55629749285518,27.494106817215094],[83.55666850489592,27.49438108613529],[83.55668332187525,27.494548197895647],[83.5565482085481,27.49502627501664],[83.557004375755,27.495449775384152],[83.55739408182777,27.495554869930537],[83.55783724449037,27.495906099233526],[83.55802956563855,27.49599475062946],[83.55810784470368,27.49613722950833],[83.55755213653696,27.496941277416028],[83.55637032425136,27.49718578482044],[83.55623020952736,27.49734107953474],[83.55626522235472,27.497605282336057],[83.55662341571579,27.4979088726505],[83.55699273935953,27.498377260618067],[83.55737656806477,27.498522992524105],[83.55796059675393,27.49814563209454],[83.55822019349286,27.498119312292555],[83.5584096375449,27.498291488705185],[83.55854849983179,27.498869784183672],[83.55872575309687,27.499084722767495],[83.55937680540977,27.499197381462142],[83.55959157282989,27.49915068112814],[83.55968416972696,27.498855281680505],[83.55968260785092,27.498523496538695],[83.56012952317954,27.498260795717034],[83.56029496037598,27.498028853228835],[83.56050366282929,27.497736017500618],[83.56030533882625,27.49804241886118],[83.56064421472156,27.498043545179662],[83.56090237173645,27.498220348158082],[83.56102522897791,27.498674418563283],[83.56127281868521,27.499034087742878],[83.56131833500427,27.49920126185491],[83.56100390617482,27.499588499746825],[83.56100271723227,27.499723977720336],[83.56139742460687,27.500181112771863],[83.56126968907196,27.500553096735512],[83.56077481634622,27.501422851390647],[83.56070522780806,27.501664109584148],[83.56069778459782,27.502591819266456],[83.56079319404948,27.502939671997787],[83.56138547578074,27.502889658737036],[83.5617800583439,27.503130167667464],[83.56203702775889,27.503440196521172],[83.56251651665,27.503581613816785],[83.56305252761959,27.503585553948188],[83.5632927416458,27.503730784746484],[83.56337001922294,27.50387095067359],[83.56317332145802,27.5040012387438],[83.56268826732247,27.5040787602195],[83.562545338195,27.504299512529144],[83.56265875444248,27.504579720100512],[83.5628290049092,27.50473376600765],[83.5632142722726,27.504861366897103],[83.56326716579316,27.504920196437105],[83.56326635318639,27.50503529251945],[83.56291178253738,27.505661663673873],[83.562765477191,27.506169125536704],[83.56242803974085,27.506601439075784],[83.56242653850265,27.506822566818034],[83.5625190719018,27.50686576663528],[83.56304926865184,27.506750046032035],[83.56333943758709,27.506902216928612],[83.56343053305606,27.507153103199897],[83.56322139238843,27.507642183817538],[83.56327340966085,27.508254051106242],[83.56330454566259,27.50861753286439],[83.5631584284788,27.509000770824034],[83.56261997823646,27.509450526328273],[83.56261847649762,27.509667215519418],[83.563299227916,27.509811571860343],[83.56370987923499,27.509997939396605],[83.56379253453974,27.510147171162277],[83.56366667463794,27.51053047095778],[83.56396791033869,27.51085869326465],[83.5642035580441,27.51136059161162],[83.56435098797695,27.511460307959027],[83.56469217689595,27.511371095309645],[83.56543001337154,27.51091515047434],[83.56599828581184,27.510856009326584],[83.56602979668295,27.5110501915791],[83.5656300854869,27.511294949423004],[83.5655863197565,27.511409983321503],[83.56579414606624,27.511588911400235],[83.56614583855227,27.511560653766786],[83.56652872997695,27.511722139745963],[83.56664621045458,27.5116186721546],[83.56686791813824,27.511267256784304],[83.56714714756424,27.51114397079895],[83.56731614671794,27.511297954066865],[83.56746832770395,27.511551216090435],[83.5677026011944,27.511764154477195],[83.56792624564564,27.511798665093522],[83.56796476062993,27.511731019852963],[83.56801815495423,27.51175158857665],[83.56810443710178,27.511704450377312],[83.56826655957477,27.511522084616725],[83.56858936737414,27.511407988683185],[83.56891948949021,27.511411240466384],[83.56973278895872,27.511567163170543],[83.57156646908699,27.510954424385137],[83.5718038693425,27.510779060112117],[83.57200031791406,27.510384757061328],[83.57244304541277,27.509799211537654]]]}},{"type":"Feature","properties":{"province":"Lumbini Province","district":"Rupandehi","municipality":"Rohini Rural Municipality","ward":"5","wardNumber":5,"sourceMunicipality":"Rohini","sourceType":"Gaunpalika"},"geometry":{"type":"Polygon","coordinates":[[[83.6105142699907,27.49785714827023],[83.61047756903262,27.49757937879669],[83.61051308293486,27.497371818503055],[83.61057379373159,27.497001835025316],[83.6105557871545,27.496830221448896],[83.61052840290235,27.496613407778945],[83.61039616695628,27.496430291554926],[83.61026680713555,27.496233545422832],[83.61016620808743,27.49605042949088],[83.60995831969105,27.4955081442672],[83.60981576767182,27.495096835456792],[83.60982789867555,27.49443107776331],[83.6098805433638,27.494228080526373],[83.60994000325992,27.49405446707481],[83.61005041985071,27.493896733427004],[83.61029288503475,27.493565636973653],[83.61055685888006,27.493279740524347],[83.61073273630385,27.493099688088794],[83.61091286603678,27.492887938574615],[83.61110468750181,27.492511515888324],[83.61125293111331,27.492168852857752],[83.61134890435112,27.491986362024758],[83.61137191270836,27.491830691357883],[83.6113876693658,27.491668143279377],[83.61131276671037,27.49145351804031],[83.61114726908328,27.491193503206073],[83.61091224578718,27.490540499178817],[83.61076819470641,27.4898336036805],[83.61078470148867,27.489547019163794],[83.61084528656215,27.489233426929474],[83.61094226075288,27.488922147814975],[83.61128907724785,27.488277583958386],[83.61147614786846,27.487973432595407],[83.6116307051549,27.487745865851],[83.61207480826555,27.48723246651067],[83.61224981054069,27.487133625102675],[83.6125135960084,27.486886052527105],[83.6125943133169,27.486775708078998],[83.61264677036806,27.486595279770288],[83.61261282139124,27.486274685991074],[83.6124276912408,27.485754969789486],[83.61228451399028,27.48543856433827],[83.61212570589852,27.485248571043737],[83.61190956479814,27.48499512041785],[83.61159088503871,27.4847392325837],[83.611173231862,27.484209888558677],[83.61099322864528,27.483929493271706],[83.6109652804055,27.4837668832018],[83.61099710505309,27.48364059635243],[83.61106563109982,27.483579828725865],[83.61109995600174,27.483546068346552],[83.6111680434279,27.483514621881103],[83.61127001889791,27.48349911751208],[83.61140569404884,27.483503931744902],[83.61169823920709,27.483635720611918],[83.61187824339424,27.4836362215341],[83.61212739865113,27.483499243650346],[83.61226938928522,27.48324235666646],[83.61226176084242,27.483154268017465],[83.61224606846365,27.4831136307227],[83.61232247313718,27.482353157235277],[83.61252261016837,27.48182775369039],[83.61274775647512,27.481595998235193],[83.6134861550474,27.48140606891841],[83.61372536904494,27.481135927322484],[83.6138440385655,27.48059007992999],[83.61384691569057,27.480192713008353],[83.61376963796774,27.47976139835144],[83.61382491066018,27.479158908784825],[83.61433403840537,27.47802495129297],[83.61435823528406,27.477620958079005],[83.61067512474104,27.477732671583485],[83.60578694344166,27.47794472521887],[83.60421542458921,27.477994424047896],[83.60176733296584,27.47811164188464],[83.59955720400518,27.478215856051634],[83.5980387050572,27.4782815597189],[83.58097589882153,27.479028309303786],[83.57989568792816,27.47907469630533],[83.57975569765168,27.479453495174617],[83.57975000582991,27.480218657081238],[83.57992281889211,27.4805961432057],[83.5806126967978,27.481397254870323],[83.58097595451127,27.481874583940183],[83.58128356782076,27.48227726547392],[83.58144412482866,27.482975220428447],[83.58172279059916,27.482996352696425],[83.58144368782006,27.483020358799084],[83.58144068538715,27.483395030981566],[83.58097595037046,27.48373450548086],[83.58024211493704,27.48427178656892],[83.57959937626131,27.485071145782],[83.5791526483113,27.485322593592592],[83.57903341630535,27.485464447088603],[83.5791254492131,27.485672383836054],[83.57963301087085,27.485974098615564],[83.58009774566179,27.486081567918966],[83.58097600649141,27.48640247676816],[83.58109542535828,27.486445677063475],[83.58178611696474,27.486775087593152],[83.58388107549455,27.48824389877318],[83.58496878705307,27.48919968161828],[83.5860381183457,27.48997028535896],[83.58616403917085,27.490142211220054],[83.58624350547001,27.490467493916256],[83.58649840805893,27.492373304339594],[83.58665996615,27.49292227930939],[83.58668528797018,27.49300361555525],[83.58668234787054,27.493364721198994],[83.58507362601836,27.494330564732905],[83.58450379004597,27.49483446159648],[83.58483591212875,27.49503408397896],[83.58747300928744,27.496019252853493],[83.58800970657028,27.496343599235445],[83.58866300948064,27.496966220856343],[83.58907722400482,27.49712326787601],[83.58952751546227,27.49712677003256],[83.59011442032399,27.497042684144606],[83.5910287591687,27.496736158314626],[83.59222020066055,27.496168555615508],[83.59276946679269,27.496009948190117],[83.59342589659704,27.49604114598893],[83.5937615835932,27.495963123883374],[83.59492301290956,27.49554669113131],[83.595271642126,27.495473170198572],[83.59576901420914,27.495224097989745],[83.59552660869332,27.4965483610284],[83.59542169236165,27.49764049444207],[83.59526569566849,27.498445855522245],[83.5949480757914,27.499277849818323],[83.59465521547938,27.500543221290602],[83.59436354347058,27.500955467127298],[83.59438605117413,27.50154013881147],[83.59476306251811,27.50246891252873],[83.59476143711798,27.50264046284263],[83.59258488171886,27.503026884638164],[83.59240256386704,27.503134728857194],[83.59220349008241,27.503398180434075],[83.59208306967196,27.503713835325883],[83.59191038047938,27.50386456679873],[83.59174913307793,27.50391376919771],[83.59055875523447,27.50390576429367],[83.5902295084097,27.50403348905106],[83.58998491809233,27.50428099850387],[83.59011352727305,27.50432432370492],[83.59019042984022,27.50476470313486],[83.59118279536392,27.505532680649395],[83.59141756928449,27.505612454688087],[83.59185422974006,27.505972623935207],[83.59216127812985,27.50715622272179],[83.59225162286667,27.50736190827414],[83.59241718351409,27.507513640233828],[83.59309005796072,27.50757653518402],[83.59359937113295,27.507352282736868],[83.59377193494694,27.507327963332624],[83.59395706608808,27.507337529446556],[83.59414538602394,27.50722749682097],[83.59424879951735,27.507243564415035],[83.5951612594409,27.508070059202954],[83.59554271283776,27.50821341415131],[83.59583444500815,27.508216478355735],[83.59611973813905,27.508090942051318],[83.5963954660536,27.50780729698254],[83.59639677939573,27.507604174521482],[83.59631318714995,27.507193115934342],[83.5965023830542,27.507015376876176],[83.59694454648577,27.50698730660804],[83.59738070680628,27.507132975588014],[83.59729554959063,27.50741943485209],[83.59714661917955,27.507732714166266],[83.5971453056535,27.507915579992957],[83.59726603743053,27.508137083147854],[83.59749843580299,27.508189661231746],[83.59822464224268,27.507929961636],[83.59837432347476,27.5076662586545],[83.59834337510216,27.50730502791844],[83.59826228316368,27.506972992637525],[83.59772352260708,27.506680280850297],[83.59705533848275,27.50654517738268],[83.5969430476022,27.506271783661827],[83.59694473544648,27.50607316299853],[83.5971597544841,27.505509435496897],[83.59737677215278,27.505264051455978],[83.59745473836861,27.5052304166042],[83.5975775342465,27.50521497426307],[83.59769395212288,27.505222102227233],[83.59776153920687,27.505260675504204],[83.59791559567941,27.505443917603397],[83.5980299505442,27.505683488007293],[83.59815074478405,27.50588473488656],[83.59835325670751,27.506050096310478],[83.59851294017423,27.506082168431796],[83.59884531346886,27.506078605732927],[83.59910309610716,27.50600483489414],[83.59925415243599,27.5058901759775],[83.59962504007694,27.505618097101504],[83.600193751134,27.505154774583655],[83.60039376297095,27.504974783990207],[83.60053994206716,27.504878130879124],[83.60067155371948,27.50482886710407],[83.60094759323175,27.504859001383423],[83.60135136705695,27.50503849248986],[83.60166579538406,27.505161216011853],[83.60189875609166,27.505159653498186],[83.60231666075775,27.505075067133603],[83.60251604771325,27.504985353601946],[83.60275482407597,27.504843812541946],[83.60319067293753,27.504630688530955],[83.60354861829386,27.504437506998013],[83.60393676177357,27.50412035191337],[83.60416422221675,27.50386146355323],[83.60421755516066,27.503547809384283],[83.60416065864096,27.503351314204878],[83.60400228833382,27.503136438448706],[83.60387292921638,27.5029396929087],[83.60375726136536,27.502815217901674],[83.60358313485516,27.502749260689274],[83.60340219306248,27.502644917611633],[83.60300367070582,27.50241122308999],[83.60283054536762,27.50224836241101],[83.6027942821234,27.502207537568932],[83.6028422380741,27.501627617407962],[83.60302586890367,27.50142043173261],[83.6033780625623,27.501231877589362],[83.6034465872031,27.501195929217612],[83.60378408737567,27.50122625094364],[83.60387968429598,27.50140030231845],[83.60395308592858,27.50184518366374],[83.60412502365075,27.502159401274955],[83.60440493871027,27.502376903030793],[83.60469448384458,27.50237771679777],[83.60496114510323,27.50222048297626],[83.60523605940935,27.501968409711],[83.60576338209313,27.5010467647758],[83.60585847930716,27.500902534525103],[83.60602260508145,27.49985791586484],[83.60613358408234,27.499605466629966],[83.60738936312514,27.49864293574298],[83.60838654596346,27.497982119006547],[83.6086190071603,27.49791503721472],[83.60971397381344,27.497960990177155],[83.61049913923317,27.497918041472698],[83.6105142699907,27.49785714827023]]]}}]}