{"type":"FeatureCollection","features":[{"type":"Feature","properties":{"province":"Lumbini Province","district":"Rupandehi","municipality":"Siddharthanagar Municipality","ward":"1","wardNumber":1,"sourceMunicipality":"Siddharthanagar","sourceType":"Nagarpalika"},"geometry":{"type":"Polygon","coordinates":[[[83.46606764362181,27.496341833037036],[83.46627053080043,27.4963991006428],[83.46681604516995,27.49632220399023],[83.46689838814854,27.49625024546129],[83.46690157782545,27.495972663877367],[83.46753768737423,27.49588476465069],[83.46799666873122,27.496173163023798],[83.4683369820423,27.49613834121739],[83.46850942105343,27.496064570245224],[83.46849185335596,27.495707840239806],[83.46861102265865,27.495604497525683],[83.46908000823439,27.495789053234656],[83.46931209279639,27.496214303111916],[83.46951585575943,27.496215054173295],[83.46959244698407,27.49608220256752],[83.4698811778071,27.49630902018276],[83.47012476781155,27.4961248414185],[83.47022468030859,27.49612746742012],[83.47105167174468,27.49648044849961],[83.47106305085207,27.496485012167767],[83.47115477262122,27.496424431878015],[83.47129820146709,27.496206055510047],[83.47135047100272,27.496124970036615],[83.47136816464229,27.496127283272443],[83.47164176638792,27.496155417169916],[83.47267245944896,27.496263138544183],[83.47311974951423,27.49621068673675],[83.47324504720322,27.49588384125459],[83.47345006444556,27.494616093748746],[83.47326824900045,27.494001413110794],[83.4731230704798,27.493709764248237],[83.47319997528334,27.49344368624813],[83.47350652691009,27.493241689670015],[83.47425811755124,27.492883398895067],[83.474286065662,27.492874459205762],[83.47477343338531,27.49270928655337],[83.47494080836597,27.492563119073324],[83.47492611606697,27.49240288447465],[83.47494312316343,27.492344241918612],[83.47488522638938,27.492206389331624],[83.4746857167815,27.491727122882487],[83.47462838594792,27.490720201352307],[83.47466615226033,27.490235059550155],[83.47534190248531,27.4900389411587],[83.47544243950637,27.48986326409191],[83.47544400289358,27.489723347889353],[83.47561269182565,27.489313165536764],[83.47623998805817,27.48853225003338],[83.476877974374,27.488435348263515],[83.47772041150107,27.488178962151807],[83.47818001944827,27.488131011539295],[83.47882569557937,27.487812919476898],[83.47892085673259,27.48776584351858],[83.4795075734538,27.48779516654489],[83.479795242397,27.487710455055307],[83.47986301768917,27.487478198839078],[83.47990159711449,27.486613882296588],[83.47995962225632,27.485311687777177],[83.47998100784886,27.484526269132402],[83.47973223081988,27.483593182274507],[83.47963194379443,27.483595057143233],[83.47887891545598,27.483614811027586],[83.46604623554788,27.484135182931144],[83.45853439658153,27.48450127167106],[83.45592980847181,27.484615298538873],[83.44695105242812,27.4850044532505],[83.44690641121154,27.485017769765747],[83.44669614387293,27.48574829618359],[83.44617219773599,27.48652045877335],[83.44609035426004,27.48679997880855],[83.44621827390462,27.487360206101577],[83.44620014259313,27.48750687434293],[83.44616587881748,27.487786706604936],[83.44607784553946,27.488050346107745],[83.4456439336364,27.488405261278693],[83.44553808196308,27.488443209960455],[83.44520145737071,27.48856374490159],[83.44417739133421,27.488482968192542],[83.44393605218924,27.488664833418042],[83.44386652528308,27.48896023254343],[83.44379062192381,27.489025376566545],[83.44370446482228,27.489043131336818],[83.44341291987249,27.488942601400588],[83.4432328535176,27.489020936224918],[83.44318045894437,27.489113276355354],[83.44324660771996,27.48929632999317],[83.44346418776988,27.489443936692556],[83.44385808334161,27.489499640892056],[83.44402233082882,27.48962667871414],[83.4441079242657,27.489785038597162],[83.44403227064281,27.4899810958011],[83.4437429129293,27.490271117489005],[83.44367644927465,27.49065910639442],[83.44350388483934,27.490929248441113],[83.44342054114001,27.491215581712567],[83.4431845782439,27.49139294631063],[83.4431828896715,27.491532924390526],[83.44319220546522,27.49156906032372],[83.44324459895672,27.49166408862085],[83.44313574633092,27.491731358087637],[83.44262268182825,27.491756363823622],[83.44236152258124,27.49166052219988],[83.44222834803759,27.491718726742775],[83.44216007287324,27.491896778673865],[83.44221584124357,27.492644061388294],[83.4423175026383,27.49299660271084],[83.44243316904033,27.4933965951399],[83.44266481545141,27.493713501843818],[83.44276772817975,27.493948633487882],[83.44267631885026,27.49418751610751],[83.44273446391841,27.494519551236326],[83.44300018647883,27.494726049680974],[83.44296498472069,27.495114101171367],[83.44302838216811,27.495351359275066],[83.44315736732585,27.49542863218364],[83.44351256117572,27.49539618577342],[83.44367136870957,27.495773734253053],[83.44372476321554,27.49585069480865],[83.44373501683006,27.495832689394824],[83.44415054531385,27.495744039671916],[83.4453496121225,27.496279262777648],[83.44596533863943,27.496658687662038],[83.44673236971636,27.497225981670457],[83.44723936973422,27.497458176325036],[83.4476220091018,27.49794725853926],[83.44805504287164,27.498176952135907],[83.44828694057898,27.498419336228444],[83.4484438733587,27.498492170574764],[83.44885596411288,27.49827485835313],[83.4496414431185,27.497727261638904],[83.44987127919187,27.497651426897935],[83.4500803556418,27.49765449082087],[83.45075816796366,27.49802954079003],[83.45170514115893,27.49855469703586],[83.45219550849302,27.4988906728031],[83.45297598424666,27.499099110945732],[83.45359646221,27.49941533021465],[83.4544619068528,27.49955187214531],[83.45478146261581,27.49948541626449],[83.45530065583193,27.499105931263625],[83.45544589783131,27.49872281869856],[83.45564322138841,27.498488813000485],[83.4559297669666,27.497991104780798],[83.45601342322615,27.497846999987164],[83.45606087973148,27.49726032758763],[83.4566595404171,27.496811197911086],[83.45689037547021,27.496710480834153],[83.45732009844401,27.49630367460039],[83.45785467082673,27.496206460023217],[83.45804780572954,27.495803154630327],[83.45843626303862,27.495486437749634],[83.45833285117715,27.49496459671784],[83.45852880018519,27.494622309169017],[83.45875919846954,27.49447195274922],[83.459088257123,27.494475454190376],[83.45956674615402,27.494655633805625],[83.45972211547773,27.49490451972182],[83.45974862340563,27.495568215202443],[83.45997264196407,27.495959580311336],[83.46021623160901,27.496032727285417],[83.46038016739143,27.495963395503072],[83.46055335743559,27.495810600513305],[83.46091180197372,27.4957487712868],[83.46116677153306,27.495639176595265],[83.4617835615785,27.495736331650427],[83.46219358732458,27.496076495378365],[83.46253440140757,27.495804665855367],[83.46296537404857,27.495745399901022],[83.46378373762514,27.496089378465634],[83.46397618347487,27.49609012851827],[83.46522302029624,27.49571120826207],[83.46555476725919,27.49581173822216],[83.46593015598499,27.49605018464675],[83.46606764362181,27.496341833037036]]]}},{"type":"Feature","properties":{"province":"Lumbini Province","district":"Rupandehi","municipality":"Siddharthanagar Municipality","ward":"10","wardNumber":10,"sourceMunicipality":"Siddharthanagar","sourceType":"Nagarpalika"},"geometry":{"type":"Polygon","coordinates":[[[83.41135964099043,27.524918526601553],[83.41140309573622,27.524787738352636],[83.41171896300833,27.524423444829115],[83.41261329927924,27.52281785060552],[83.41339971759764,27.522107893456532],[83.41359454092851,27.521767919530987],[83.41359704200003,27.52153766419789],[83.41374140956594,27.521287779086396],[83.41362280543603,27.52044084238398],[83.41316964030342,27.519836288389005],[83.41306266396694,27.51954013801214],[83.41295912779994,27.518948339230136],[83.41299395430626,27.518521901804437],[83.41328887755544,27.518234255434997],[83.41374742288558,27.51800143844244],[83.41424742042999,27.517944860024954],[83.41606628062335,27.51773574119064],[83.41719532398176,27.517392831265614],[83.41776853618975,27.517313997080894],[83.41756433833994,27.51648706615685],[83.41732300563487,27.51478418961783],[83.4171601334081,27.514636770766934],[83.41699263373307,27.514597696824342],[83.41612362391493,27.514783686517745],[83.41424742946519,27.51506476430944],[83.41271611321389,27.51529532774349],[83.41093232812347,27.515452556187213],[83.40884286711643,27.51584322809317],[83.4074311574436,27.5159590703787],[83.40723258418083,27.515807025755635],[83.40704357798549,27.515530880832074],[83.40701975888517,27.51477465915339],[83.4071341145765,27.514576538125475],[83.4073550718669,27.51438110676819],[83.40778854498303,27.514161731106327],[83.4081623088322,27.514032381272543],[83.41012322244744,27.513591570034883],[83.41094265082519,27.51356794030271],[83.41310507696863,27.513191085578633],[83.41424749954625,27.51306492621603],[83.4148272761111,27.513001909595687],[83.41707160689371,27.51262761760917],[83.41823359943899,27.512575980387027],[83.41891816473829,27.512443443973012],[83.41997574434635,27.512382366162647],[83.42027835586845,27.512424253695972],[83.42155614180679,27.512127107871517],[83.42321006523687,27.51204590038571],[83.42392157902061,27.511893107527687],[83.42495508672107,27.51159489799516],[83.42575106872789,27.511507873938537],[83.42620792623634,27.51134276427833],[83.42685322974411,27.51048320134815],[83.42707775251158,27.509838574780094],[83.42708125444963,27.509527108513005],[83.42732134437699,27.50916919125149],[83.42759350997513,27.50836451840974],[83.42766503770069,27.50825198502745],[83.42776257361159,27.508112444664693],[83.42836079645265,27.507588979433475],[83.42893338471973,27.507243691754347],[83.42956055443406,27.507002497582047],[83.43035272213473,27.50697861807639],[83.43066396254184,27.50687833896027],[83.43088360710657,27.50675055256824],[83.43095482085089,27.506626703417698],[83.43103241406428,27.506114678638532],[83.43092318792543,27.50563572438435],[83.43092606464093,27.505380649959363],[83.43076869449123,27.505091127034838],[83.43073918515894,27.504860746311344],[83.43074550148602,27.50430552124516],[83.43087648863069,27.503825317375625],[83.43064915848863,27.502668726704105],[83.4307905870994,27.502242727410138],[83.43079459019202,27.50189512510147],[83.43092182481408,27.501821166368252],[83.43086011480534,27.50176446235201],[83.43076426751638,27.501387163752025],[83.43058839049603,27.501260063063416],[83.42956495020591,27.501088822059774],[83.42896535383134,27.501090883823885],[83.42828660371909,27.500909828661126],[83.42807283895996,27.500518463117622],[83.4278369415143,27.499752299711318],[83.42778417332168,27.499436081893684],[83.4277701678386,27.49945183706718],[83.42739915423563,27.499775368635724],[83.42698637668053,27.500008373198522],[83.42553921433505,27.500526084095423],[83.42417583564075,27.500757523195055],[83.4229658227502,27.501443159479297],[83.42224505572278,27.501733555166954],[83.42031915526046,27.50224707591619],[83.41983647579835,27.502330724422706],[83.41714097735634,27.50311175876521],[83.41673789034927,27.50315302014076],[83.41617924639435,27.503297436297743],[83.41499161822725,27.50367391834303],[83.41424778068766,27.503842340403818],[83.41393347671799,27.50391323541722],[83.41234145042048,27.504166118729334],[83.41017952379184,27.50484093533032],[83.4097607431907,27.504929460933454],[83.40847445503228,27.50498491051191],[83.40765890434265,27.504886692584797],[83.40663002497652,27.504568595696234],[83.40549742075906,27.504053629535868],[83.40510227502764,27.503918775774757],[83.40435812611423,27.50382762222984],[83.40379485525457,27.50385000193302],[83.40325872009954,27.503750658566073],[83.40174003366464,27.5036042989763],[83.400020462093,27.503271821622214],[83.39878938007581,27.50378565700214],[83.39809799855293,27.504008470391227],[83.39732139788593,27.5043729504384],[83.39657712204715,27.504568381053],[83.39531778174128,27.50465546570671],[83.39506506268438,27.50475818244309],[83.39521686442946,27.506110892508],[83.39541493566946,27.50674826778607],[83.39588398023838,27.507842716359725],[83.3959827022398,27.508251711753335],[83.3961843990572,27.50904256934376],[83.39623679302869,27.50917823475883],[83.39708766856538,27.509705516806996],[83.3973915913253,27.51015152359373],[83.3972913033582,27.51032488706342],[83.39618370387038,27.511028840427013],[83.39606684755934,27.511281102449427],[83.39602977048139,27.511633080447993],[83.39614531225122,27.511915663946713],[83.3963049960827,27.511945735824384],[83.39706290254504,27.51164652444122],[83.39784744298264,27.51146478575912],[83.39803870065815,27.51155143692069],[83.39808953104904,27.511930860951974],[83.39799411989551,27.51213810899422],[83.39771939199345,27.512378429507116],[83.39734675370136,27.512586738963755],[83.39668932339292,27.512674200683374],[83.39653070125989,27.512743470473772],[83.39643235205882,27.51285812855368],[83.39646942771266,27.513070503914147],[83.39677510249582,27.51330882496003],[83.39712910828436,27.51332164229236],[83.39894002772527,27.513175917221815],[83.39940551320827,27.51306282265062],[83.40079384089219,27.51259256278811],[83.40162839986253,27.512451586010236],[83.4024796527966,27.51221608248371],[83.40382233662555,27.51216757155116],[83.40429738703746,27.512214773971923],[83.40467083683667,27.5123857003578],[83.4047980706044,27.512501297196728],[83.40498013677676,27.5128361458422],[83.40503721858661,27.513283340274782],[83.40587752746967,27.513907588337148],[83.40600551147361,27.51406388494247],[83.40627460920116,27.51474664883627],[83.40605139910211,27.515418345351886],[83.40605314511266,27.5167568016401],[83.4063899532685,27.5179725971992],[83.40645466189298,27.51854620290449],[83.40682854756908,27.519290360329606],[83.40678077755892,27.520048520946723],[83.40669593276185,27.520291967014582],[83.40672306799584,27.52037105255841],[83.40692689165772,27.52066307683835],[83.40758075834357,27.520896084532534],[83.40800272614763,27.521116837544596],[83.40818916892121,27.521402047440997],[83.40803542243668,27.521927263320276],[83.40803298387637,27.522139450900898],[83.40823111820622,27.522318567101077],[83.40852966543264,27.5224756140717],[83.4087913872335,27.522713621638673],[83.40918928318494,27.522941064880374],[83.4095281573365,27.523251782432357],[83.4095946191969,27.52331298765073],[83.40943949644613,27.524208375388373],[83.4096763337755,27.52436967308349],[83.41034239216077,27.52445144936349],[83.41083363423141,27.524862008499312],[83.4110902290965,27.524939907270753],[83.41135964099043,27.524918526601553]]]}},{"type":"Feature","properties":{"province":"Lumbini Province","district":"Rupandehi","municipality":"Siddharthanagar Municipality","ward":"11","wardNumber":11,"sourceMunicipality":"Siddharthanagar","sourceType":"Nagarpalika"},"geometry":{"type":"Polygon","coordinates":[[[83.42778417332168,27.499436081893684],[83.42800225442984,27.499172942375694],[83.42814356216846,27.497421928798396],[83.4281460018079,27.497252691063796],[83.42806372159332,27.497065010649344],[83.42776680157384,27.496537855493976],[83.42708430492613,27.494821911869973],[83.4270550461795,27.49405212301737],[83.42718034400468,27.49375241042192],[83.42725593434766,27.49357216971794],[83.42746438897616,27.492961365984566],[83.42760775631803,27.49246309491338],[83.42778000983697,27.49157677220768],[83.4280059703419,27.49095921625125],[83.42837961127049,27.49027682982712],[83.42838042651219,27.489504914693434],[83.4284520794791,27.488992826990827],[83.42840831723451,27.487841550911327],[83.42835654946904,27.487319898083683],[83.42811052255867,27.486869765250518],[83.42787912659225,27.48639925128033],[83.42786712207052,27.486324791669507],[83.42786412154832,27.486182561929112],[83.42791120180743,27.486006698279436],[83.42762859805964,27.4860213265146],[83.42758714523022,27.48602345267434],[83.42749698677846,27.486025327824297],[83.42744065322013,27.486027327968866],[83.42048233053758,27.486436617312727],[83.41424765120817,27.486701741226668],[83.40975186417727,27.486892722714906],[83.40639193518034,27.487002620248383],[83.40623719051499,27.487010997538068],[83.406156472554,27.487082831116997],[83.40512027479116,27.48804673622511],[83.40353237420473,27.488448537642476],[83.40345284364545,27.48858814084897],[83.4039041328134,27.489267216903837],[83.40416579134536,27.489505287170235],[83.40448178127636,27.489987430473914],[83.40430509007344,27.490426808743894],[83.40415259397948,27.491013042880784],[83.40400572591476,27.49126743012078],[83.40269705527318,27.491223476043498],[83.40229171761874,27.49146779616916],[83.40210808612187,27.491724309146576],[83.4020758238429,27.491938621464755],[83.40217635916798,27.49237918939974],[83.40198222367572,27.492827507433958],[83.40113972315926,27.493225747685553],[83.40076983658946,27.493291765974934],[83.4004091385589,27.493703323490042],[83.39974883203183,27.49392851230016],[83.39947429197251,27.494207156117696],[83.39929966248295,27.49473230974564],[83.39905888463774,27.4951533706976],[83.3990548194889,27.4954851558139],[83.39924151185267,27.495944103525378],[83.39920956237347,27.496054573287797],[83.39895009053615,27.496243065304913],[83.39856644904887,27.496264008639972],[83.3981424172238,27.496447248221482],[83.39787944336982,27.49693138996934],[83.39774501815894,27.49708881082417],[83.39727115483691,27.497242479372137],[83.39678003475485,27.497486425277156],[83.39604007236333,27.497993321828137],[83.39569269202093,27.498567364598607],[83.39537113394887,27.49887520402773],[83.39466612272412,27.499170101060926],[83.39422758359815,27.499630923065965],[83.39375722092468,27.50001478481919],[83.39326109954494,27.50024291266872],[83.39244554804812,27.500207775639307],[83.3921765736897,27.50026529130964],[83.391657692769,27.500718985725417],[83.39132744517225,27.50088453304752],[83.39140378400612,27.501501090203497],[83.39149581651392,27.50179942745548],[83.39156727864051,27.502395603088946],[83.39217862593561,27.503362013833016],[83.39246404256973,27.503652224901696],[83.39276465336756,27.50376413394601],[83.39374807936747,27.503890298425265],[83.39453543112354,27.50428416625338],[83.39506174932129,27.504728860743825],[83.39506506268438,27.50475818244309],[83.39531778174128,27.50465546570671],[83.39657712204715,27.504568381053],[83.39732139788593,27.5043729504384],[83.39809799855293,27.504008470391227],[83.39878938007581,27.50378565700214],[83.400020462093,27.503271821622214],[83.40174003366464,27.5036042989763],[83.40325872009954,27.503750658566073],[83.40379485525457,27.50385000193302],[83.40435812611423,27.50382762222984],[83.40510227502764,27.503918775774757],[83.40549742075906,27.504053629535868],[83.40663002497652,27.504568595696234],[83.40765890434265,27.504886692584797],[83.40847445503228,27.50498491051191],[83.4097607431907,27.504929460933454],[83.41017952379184,27.50484093533032],[83.41234145042048,27.504166118729334],[83.41393347671799,27.50391323541722],[83.41424778068766,27.503842340403818],[83.41499161822725,27.50367391834303],[83.41617924639435,27.503297436297743],[83.41673789034927,27.50315302014076],[83.41714097735634,27.50311175876521],[83.41983647579835,27.502330724422706],[83.42031915526046,27.50224707591619],[83.42224505572278,27.501733555166954],[83.4229658227502,27.501443159479297],[83.42417583564075,27.500757523195055],[83.42553921433505,27.500526084095423],[83.42698637668053,27.500008373198522],[83.42739915423563,27.499775368635724],[83.4277701678386,27.49945183706718],[83.42778417332168,27.499436081893684]]]}},{"type":"Feature","properties":{"province":"Lumbini Province","district":"Rupandehi","municipality":"Siddharthanagar Municipality","ward":"12","wardNumber":12,"sourceMunicipality":"Siddharthanagar","sourceType":"Nagarpalika"},"geometry":{"type":"Polygon","coordinates":[[[83.46066332189856,27.51994431845845],[83.46343441021723,27.51962091809252],[83.46401412452573,27.51943805304968],[83.46441146017337,27.51920711092505],[83.46473226731916,27.518763668843],[83.46499705365628,27.518649573303488],[83.46554263056784,27.51852297492047],[83.46601880716157,27.518224638405268],[83.4667822799008,27.51739689730845],[83.46717304989352,27.517138822899376],[83.46760320958042,27.516941828342397],[83.46723976460214,27.516238495176992],[83.46629954477218,27.515381741396773],[83.46633399918483,27.514212647644843],[83.46627085275817,27.513393031914656],[83.46631649714223,27.512713832699514],[83.46627723278804,27.512641498658393],[83.46605271166595,27.512755719211086],[83.46324435892647,27.513498868205414],[83.462715724767,27.513729309614792],[83.46076362763678,27.51402195319086],[83.45886911453682,27.51405977173707],[83.45810226950213,27.51401619473978],[83.45759658214945,27.514140605060664],[83.45736624568104,27.514261639703154],[83.4570913951481,27.51422894200888],[83.45687281427975,27.514146855371052],[83.45592946551639,27.51413866243313],[83.4558181117153,27.51413822501762],[83.45372308607956,27.514405422945714],[83.45343529199972,27.514481006940226],[83.45116520233339,27.514652677057782],[83.45017583709232,27.514603660272574],[83.45016183163533,27.514691623243714],[83.4501582661451,27.515088864835988],[83.45039053880966,27.5155457498413],[83.45057641592277,27.516607312790217],[83.4507591082956,27.516905900145836],[83.45091672759659,27.517348968599453],[83.4512600416557,27.517296141470617],[83.45143204312215,27.517199801288445],[83.45214474504819,27.517069389497433],[83.45284337817424,27.5169615470865],[83.45422076370222,27.516619325093515],[83.45494778227759,27.516464156168023],[83.45518474503857,27.51647866143638],[83.4551968744434,27.51665252489114],[83.45506519794996,27.517496147816548],[83.45481228949777,27.51809107177545],[83.45449573123081,27.519331247493017],[83.45426683250534,27.519860777495115],[83.45418354960611,27.520517282672692],[83.45427827196404,27.520614686802993],[83.45516947720536,27.520563986501433],[83.45592963370936,27.520368306531385],[83.45678138658063,27.520150431780134],[83.45753466500742,27.520074348567128],[83.45834740386812,27.51981346146135],[83.45907429832225,27.51969880514831],[83.4595879262977,27.51955645197036],[83.46045780976772,27.519720064290457],[83.4606717003697,27.519851729042117],[83.46066332189856,27.51994431845845]]]}},{"type":"Feature","properties":{"province":"Lumbini Province","district":"Rupandehi","municipality":"Siddharthanagar Municipality","ward":"13","wardNumber":13,"sourceMunicipality":"Siddharthanagar","sourceType":"Nagarpalika"},"geometry":{"type":"Polygon","coordinates":[[[83.46627723278804,27.512641498658393],[83.46622708958796,27.512548721260117],[83.46581425057678,27.512068641701905],[83.46529074641893,27.5115565519416],[83.46505672397667,27.511129051413985],[83.46506316392565,27.510971066795427],[83.46526030111441,27.510515871533517],[83.4653712180985,27.509954268832328],[83.46533676951307,27.5096223590577],[83.46508667839115,27.50911352121497],[83.46471866700332,27.509378473283483],[83.46455366702615,27.50966449425601],[83.46431520351435,27.509769649983305],[83.46344888353055,27.50987242769956],[83.46253385810603,27.50971544227824],[83.46108738596143,27.50985204095059],[83.46022463023493,27.50954626130571],[83.45985218030597,27.509486118141076],[83.45907926895643,27.5095124990037],[83.45896091257856,27.509514311323752],[83.45765193047501,27.50922028446894],[83.45717081450334,27.5092477909385],[83.45686445124471,27.50938201719871],[83.45629098954768,27.509339128134513],[83.45598375099624,27.50939214283576],[83.45592966797845,27.50939189247408],[83.45509579744464,27.50939995580086],[83.4540305901922,27.509729862807507],[83.45360974668107,27.509725923130617],[83.45310105968747,27.509559185307793],[83.45226281191022,27.509695848409308],[83.45197576825075,27.50969247082525],[83.45155380089042,27.509467341534187],[83.45122486689264,27.50942764139362],[83.45078332868313,27.50925890360568],[83.44961133530964,27.508656160801856],[83.44964453456139,27.50873530925208],[83.44973675281594,27.50972203693231],[83.44966991438203,27.510060385637516],[83.44987355204067,27.510338780558637],[83.45014333791586,27.510549718972065],[83.45053310624121,27.510772472340744],[83.45085697602393,27.510812109999918],[83.45124774523565,27.510757220192666],[83.45200258823039,27.510480265128905],[83.45213388655355,27.510480828028843],[83.45260681056841,27.510581921890623],[83.45296056703864,27.51065556936892],[83.45311130875264,27.51083899899816],[83.45327280364435,27.51182828976218],[83.45326936312871,27.5121397558214],[83.45342266928546,27.512564693669592],[83.45335164044083,27.513293470640562],[83.45312092791384,27.513949349937796],[83.45309741840977,27.514096018285244],[83.45313468262118,27.514166101820024],[83.45333237931031,27.514383540363742],[83.45343529199972,27.514481006940226],[83.45372308607956,27.514405422945714],[83.4558181117153,27.51413822501762],[83.45592946551639,27.51413866243313],[83.45687281427975,27.514146855371052],[83.4570913951481,27.51422894200888],[83.45736624568104,27.514261639703154],[83.45759658214945,27.514140605060664],[83.45810226950213,27.51401619473978],[83.45886911453682,27.51405977173707],[83.46076362763678,27.51402195319086],[83.462715724767,27.513729309614792],[83.46324435892647,27.513498868205414],[83.46605271166595,27.512755719211086],[83.46627723278804,27.512641498658393]]]}},{"type":"Feature","properties":{"province":"Lumbini Province","district":"Rupandehi","municipality":"Siddharthanagar Municipality","ward":"2","wardNumber":2,"sourceMunicipality":"Siddharthanagar","sourceType":"Nagarpalika"},"geometry":{"type":"Polygon","coordinates":[[[83.44126119119841,27.50699790177213],[83.44131189875554,27.506858111091844],[83.44203560644452,27.505908521125544],[83.4424984039729,27.505562796163105],[83.44265158557796,27.50529478001377],[83.44278557499008,27.50483483281964],[83.44295570084314,27.50453987143818],[83.44374036795375,27.503865863391162],[83.4437940132107,27.50382316260898],[83.44390217884792,27.503588844355512],[83.44421160632908,27.503217673452752],[83.44377044771386,27.502021883222763],[83.44332191300639,27.50010156780017],[83.44308551471399,27.49947088209626],[83.44280322755587,27.49816512304417],[83.44238563869486,27.497267358097623],[83.4424833630774,27.497012783234105],[83.44353806837331,27.496174976842738],[83.44372476321554,27.49585069480865],[83.44367136870957,27.495773734253053],[83.44351256117572,27.49539618577342],[83.44315736732585,27.49542863218364],[83.44302838216811,27.495351359275066],[83.44296498472069,27.495114101171367],[83.44300018647883,27.494726049680974],[83.44273446391841,27.494519551236326],[83.44267631885026,27.49418751610751],[83.44276772817975,27.493948633487882],[83.44266481545141,27.493713501843818],[83.44243316904033,27.4933965951399],[83.4423175026383,27.49299660271084],[83.44221584124357,27.492644061388294],[83.44216007287324,27.491896778673865],[83.44222834803759,27.491718726742775],[83.44236152258124,27.49166052219988],[83.44262268182825,27.491756363823622],[83.44313574633092,27.491731358087637],[83.44324459895672,27.49166408862085],[83.44319220546522,27.49156906032372],[83.4431828896715,27.491532924390526],[83.4431845782439,27.49139294631063],[83.44342054114001,27.491215581712567],[83.44350388483934,27.490929248441113],[83.44367644927465,27.49065910639442],[83.4437429129293,27.490271117489005],[83.44403227064281,27.4899810958011],[83.4441079242657,27.489785038597162],[83.44402233082882,27.48962667871414],[83.44385808334161,27.489499640892056],[83.44346418776988,27.489443936692556],[83.44324660771996,27.48929632999317],[83.44318045894437,27.489113276355354],[83.4432328535176,27.489020936224918],[83.44341291987249,27.488942601400588],[83.44370446482228,27.489043131336818],[83.44379062192381,27.489025376566545],[83.44386652528308,27.48896023254343],[83.44393605218924,27.488664833418042],[83.44417739133421,27.488482968192542],[83.44520145737071,27.48856374490159],[83.44553808196308,27.488443209960455],[83.4456439336364,27.488405261278693],[83.44607784553946,27.488050346107745],[83.44616587881748,27.487786706604936],[83.44620014259313,27.48750687434293],[83.44621827390462,27.487360206101577],[83.44609035426004,27.48679997880855],[83.44617219773599,27.48652045877335],[83.44669614387293,27.48574829618359],[83.44690641121154,27.485017769765747],[83.44674735219706,27.485062282071688],[83.43084828821029,27.485860663301985],[83.42791120180743,27.486006698279436],[83.42786412154832,27.486182561929112],[83.42786712207052,27.486324791669507],[83.42787912659225,27.48639925128033],[83.42811052255867,27.486869765250518],[83.42835654946904,27.487319898083683],[83.42840831723451,27.487841550911327],[83.4284520794791,27.488992826990827],[83.42838042651219,27.489504914693434],[83.42837961127049,27.49027682982712],[83.4280059703419,27.49095921625125],[83.42778000983697,27.49157677220768],[83.42760775631803,27.49246309491338],[83.42746438897616,27.492961365984566],[83.42725593434766,27.49357216971794],[83.42718034400468,27.49375241042192],[83.4270550461795,27.49405212301737],[83.42708430492613,27.494821911869973],[83.42776680157384,27.496537855493976],[83.42806372159332,27.497065010649344],[83.4281460018079,27.497252691063796],[83.42814356216846,27.497421928798396],[83.42800225442984,27.499172942375694],[83.42778417332168,27.499436081893684],[83.4278369415143,27.499752299711318],[83.42807283895996,27.500518463117622],[83.42828660371909,27.500909828661126],[83.42896535383134,27.501090883823885],[83.42956495020591,27.501088822059774],[83.43058839049603,27.501260063063416],[83.43076426751638,27.501387163752025],[83.43086011480534,27.50176446235201],[83.43092182481408,27.501821166368252],[83.43096377752514,27.501796534132968],[83.43180677654958,27.501966961570616],[83.43253204494306,27.501897693339195],[83.43388254342506,27.501957338643987],[83.43475699096686,27.502193285526904],[83.43495700201984,27.502354520652336],[83.43510880620586,27.502993834601003],[83.4352067134682,27.503957993179203],[83.43546330707724,27.504525535570604],[83.43571071034658,27.50472296867648],[83.43677397761955,27.50471371898488],[83.43858302305532,27.50433723795898],[83.43872570095843,27.504337863684395],[83.43898854777264,27.504429203865712],[83.43913472606972,27.504617134462347],[83.43918836880448,27.505213184276883],[83.43908951712396,27.506111135801408],[83.43915960341859,27.506583150051963],[83.43929484016259,27.506748511276797],[83.4399952238119,27.507035659712006],[83.44126119119841,27.50699790177213]]]}},{"type":"Feature","properties":{"province":"Lumbini Province","district":"Rupandehi","municipality":"Siddharthanagar Municipality","ward":"3","wardNumber":3,"sourceMunicipality":"Siddharthanagar","sourceType":"Nagarpalika"},"geometry":{"type":"Polygon","coordinates":[[[83.46508667839115,27.50911352121497],[83.46505347923973,27.50904568909388],[83.46489523480813,27.508523659756772],[83.46489779837641,27.508313785875497],[83.46498101731274,27.50825089220142],[83.46523667428892,27.508066839296454],[83.46547970248423,27.508067652891768],[83.46601865104121,27.508250332546336],[83.4660329063263,27.50825039515853],[83.46688115599207,27.508540294434027],[83.4671053013029,27.50852310246181],[83.46717013810144,27.50845789646613],[83.46721165439679,27.50825039839543],[83.46721246700213,27.508250085495565],[83.46724329098754,27.508178314200425],[83.46723066330311,27.507643281711317],[83.46689129073017,27.506495381383534],[83.46691117455836,27.506247183191924],[83.46709736845324,27.506017616937456],[83.46798901157825,27.505829188313704],[83.46830800462124,27.505830439645827],[83.46854346622958,27.506016370096965],[83.46868389222125,27.506238122467778],[83.46872115484095,27.506450434936028],[83.46865763029557,27.507025791849653],[83.46875047572502,27.50719540391101],[83.4689639298483,27.50729324605677],[83.4694572366653,27.50729968687236],[83.46980492825973,27.507176839030006],[83.46988039400304,27.507086812878814],[83.47025303284742,27.506643621086443],[83.47037476707229,27.506337093135887],[83.47026747817883,27.506072577979868],[83.46998218498959,27.50585032463684],[83.46885952192027,27.50537205634744],[83.46872972432428,27.50518193723302],[83.46873472768974,27.504737306733876],[83.46893511573779,27.5043204973998],[83.46989522184091,27.503789155907477],[83.47001576727293,27.503579782528217],[83.4698643375682,27.503357966202113],[83.46968164458364,27.50324662083889],[83.46890967279542,27.50309251110234],[83.46838866738219,27.503061187915417],[83.46763451449007,27.50294096347357],[83.46691106138623,27.502310713930232],[83.4664320093504,27.502306649016408],[83.46577207744274,27.502482449259876],[83.46557950601057,27.502578727263018],[83.46523850398385,27.50274896400768],[83.46505468569408,27.502888254256053],[83.4648162836668,27.503302625426382],[83.46433754349628,27.50356038762531],[83.46393445673917,27.503617528080422],[83.46372781840898,27.503553509116955],[83.46353724799386,27.50343766180164],[83.4633036634212,27.503132071276003],[83.46335086918019,27.502719200362925],[83.46365717194108,27.502185419024396],[83.46461996630839,27.501683523818297],[83.46497491133228,27.50137337147263],[83.46516266937286,27.50089560619604],[83.46495840760855,27.50067141549825],[83.46469662372905,27.5005506915946],[83.46415636133418,27.50045609984613],[83.46374252184665,27.500307805534312],[83.46359428000859,27.500151508537126],[83.4636709330511,27.50001859469533],[83.46415723968796,27.499677371134943],[83.46433005420269,27.499474936549365],[83.46452587892853,27.498620186050225],[83.46499686807232,27.497800446194898],[83.46529035212892,27.497566816352066],[83.46570100626775,27.496658737871517],[83.46596610532612,27.49634377079918],[83.46598617572761,27.49631901355717],[83.46606764362181,27.496341833037036],[83.46593015598499,27.49605018464675],[83.46555476725919,27.49581173822216],[83.46522302029624,27.49571120826207],[83.46397618347487,27.49609012851827],[83.46378373762514,27.496089378465634],[83.46296537404857,27.495745399901022],[83.46253440140757,27.495804665855367],[83.46219358732458,27.496076495378365],[83.4617835615785,27.495736331650427],[83.46116677153306,27.495639176595265],[83.46091180197372,27.4957487712868],[83.46055335743559,27.495810600513305],[83.46038016739143,27.495963395503072],[83.46021623160901,27.496032727285417],[83.45997264196407,27.495959580311336],[83.45974862340563,27.495568215202443],[83.45972211547773,27.49490451972182],[83.45956674615402,27.494655633805625],[83.459088257123,27.494475454190376],[83.45875919846954,27.49447195274922],[83.45852880018519,27.494622309169017],[83.45833285117715,27.49496459671784],[83.45843626303862,27.495486437749634],[83.45804780572954,27.495803154630327],[83.45785467082673,27.496206460023217],[83.45732009844401,27.49630367460039],[83.45689037547021,27.496710480834153],[83.4566595404171,27.496811197911086],[83.45606087973148,27.49726032758763],[83.45601342322615,27.497846999987164],[83.4559297669666,27.497991104780798],[83.45564322138841,27.498488813000485],[83.45544589783131,27.49872281869856],[83.45530065583193,27.499105931263625],[83.45478146261581,27.49948541626449],[83.4544619068528,27.49955187214531],[83.45359646221,27.49941533021465],[83.45297598424666,27.499099110945732],[83.45219550849302,27.4988906728031],[83.45170514115893,27.49855469703586],[83.45075816796366,27.49802954079003],[83.4500803556418,27.49765449082087],[83.44987127919187,27.497651426897935],[83.4496414431185,27.497727261638904],[83.44885596411288,27.49827485835313],[83.4484438733587,27.498492170574764],[83.44828694057898,27.498419336228444],[83.44805504287164,27.498176952135907],[83.4476220091018,27.49794725853926],[83.44723936973422,27.497458176325036],[83.44673236971636,27.497225981670457],[83.44596533863943,27.496658687662038],[83.4453496121225,27.496279262777648],[83.44415054531385,27.495744039671916],[83.44373501683006,27.495832689394824],[83.44372476321554,27.49585069480865],[83.44353806837331,27.496174976842738],[83.4424833630774,27.497012783234105],[83.44238563869486,27.497267358097623],[83.44280322755587,27.49816512304417],[83.44308551471399,27.49947088209626],[83.44332191300639,27.50010156780017],[83.44377044771386,27.502021883222763],[83.44421160632908,27.503217673452752],[83.44425093348377,27.503323892521763],[83.44474655109386,27.504183584126775],[83.44635920454066,27.505808377736898],[83.44715831099649,27.506369044958763],[83.4477428384586,27.5066083666965],[83.44809896945428,27.50689639013572],[83.4484575368043,27.507710379889758],[83.44863979047251,27.507907500484286],[83.4492061245112,27.50825054075792],[83.44957913624053,27.50857932578093],[83.44961133530964,27.508656160801856],[83.45078332868313,27.50925890360568],[83.45122486689264,27.50942764139362],[83.45155380089042,27.509467341534187],[83.45197576825075,27.50969247082525],[83.45226281191022,27.509695848409308],[83.45310105968747,27.509559185307793],[83.45360974668107,27.509725923130617],[83.4540305901922,27.509729862807507],[83.45509579744464,27.50939995580086],[83.45592966797845,27.50939189247408],[83.45598375099624,27.50939214283576],[83.45629098954768,27.509339128134513],[83.45686445124471,27.50938201719871],[83.45717081450334,27.5092477909385],[83.45765193047501,27.50922028446894],[83.45896091257856,27.509514311323752],[83.45907926895643,27.5095124990037],[83.45985218030597,27.509486118141076],[83.46022463023493,27.50954626130571],[83.46108738596143,27.50985204095059],[83.46253385810603,27.50971544227824],[83.46344888353055,27.50987242769956],[83.46431520351435,27.509769649983305],[83.46455366702615,27.50966449425601],[83.46471866700332,27.509378473283483],[83.46508667839115,27.50911352121497]]]}},{"type":"Feature","properties":{"province":"Lumbini Province","district":"Rupandehi","municipality":"Siddharthanagar Municipality","ward":"4","wardNumber":4,"sourceMunicipality":"Siddharthanagar","sourceType":"Nagarpalika"},"geometry":{"type":"Polygon","coordinates":[[[83.42421268648947,27.53048619766152],[83.42434767638467,27.52986832923482],[83.42492064145661,27.528985883178944],[83.4253702468478,27.528285741737065],[83.42547603735731,27.52784161132041],[83.42553906368778,27.52709695530868],[83.42656732467054,27.52532712519275],[83.42734824157692,27.524443242412175],[83.42774957828823,27.524198859134163],[83.42808270219612,27.523909087134033],[83.4282390737381,27.523604998170015],[83.42840694926278,27.523280653748994],[83.42868692914521,27.52291392139017],[83.42916010526757,27.522358322431216],[83.429681424371,27.521900000872982],[83.43001761311977,27.521398041729782],[83.43068523745951,27.5206875228948],[83.43140600565178,27.520171309855343],[83.43168529688062,27.520079909368246],[83.43219448414273,27.520201633759903],[83.4323557311624,27.520355742183988],[83.43259944573127,27.52040863306946],[83.4328101487619,27.520366620944262],[83.4330099111491,27.52029072437138],[83.43346939280296,27.52023839769773],[83.43597556847719,27.520666092692853],[83.4386921321809,27.521433199733845],[83.43949148992992,27.521702719031147],[83.43997072887477,27.52193941455244],[83.44006120011596,27.52180887679489],[83.44010921874629,27.52146146220265],[83.44004675972974,27.521104544481542],[83.44011659930683,27.520556383780114],[83.44000831097796,27.51993976429557],[83.43994503886366,27.519745395052833],[83.43994716459333,27.519571594091317],[83.43997548999758,27.519045814611268],[83.43995254544159,27.51845207687412],[83.44000669280005,27.517935425751496],[83.43997787062766,27.51757188128422],[83.4401162983958,27.517023970953343],[83.44008816472842,27.516613036790403],[83.4403203771881,27.516049685111657],[83.44028417640673,27.515880260041918],[83.44032819549872,27.515054392160888],[83.44015475892573,27.514430708277803],[83.440369089352,27.513855977300715],[83.44041304427088,27.51354694955024],[83.44071690894248,27.512961278367765],[83.44077443063398,27.51267263066485],[83.44089991525097,27.51238192113908],[83.44082570170019,27.51210396388695],[83.44082845295445,27.511862518182078],[83.44134070768716,27.511067785601004],[83.44149282828646,27.51063053272269],[83.441369659537,27.510090561118233],[83.44140829876554,27.509835673645192],[83.44132508498409,27.508763233451926],[83.44133333946947,27.508250895424684],[83.44134453129882,27.507982316514948],[83.44116815678709,27.50725479000816],[83.44126119119841,27.50699790177213],[83.4399952238119,27.507035659712006],[83.43929484016259,27.506748511276797],[83.43915960341859,27.506583150051963],[83.43908951712396,27.506111135801408],[83.43918836880448,27.505213184276883],[83.43913472606972,27.504617134462347],[83.43898854777264,27.504429203865712],[83.43872570095843,27.504337863684395],[83.43858302305532,27.50433723795898],[83.43677397761955,27.50471371898488],[83.43571071034658,27.50472296867648],[83.43546330707724,27.504525535570604],[83.4352067134682,27.503957993179203],[83.43510880620586,27.502993834601003],[83.43495700201984,27.502354520652336],[83.43475699096686,27.502193285526904],[83.43388254342506,27.501957338643987],[83.43253204494306,27.501897693339195],[83.43180677654958,27.501966961570616],[83.43096377752514,27.501796534132968],[83.43092182481408,27.501821166368252],[83.43079459019202,27.50189512510147],[83.4307905870994,27.502242727410138],[83.43064915848863,27.502668726704105],[83.43087648863069,27.503825317375625],[83.43074550148602,27.50430552124516],[83.43073918515894,27.504860746311344],[83.43076869449123,27.505091127034838],[83.43092606464093,27.505380649959363],[83.43092318792543,27.50563572438435],[83.43103241406428,27.506114678638532],[83.43095482085089,27.506626703417698],[83.43088360710657,27.50675055256824],[83.43066396254184,27.50687833896027],[83.43035272213473,27.50697861807639],[83.42956055443406,27.507002497582047],[83.42893338471973,27.507243691754347],[83.42836079645265,27.507588979433475],[83.42776257361159,27.508112444664693],[83.42766503770069,27.50825198502745],[83.42759350997513,27.50836451840974],[83.42732134437699,27.50916919125149],[83.42708125444963,27.509527108513005],[83.42707775251158,27.509838574780094],[83.42685322974411,27.51048320134815],[83.42620792623634,27.51134276427833],[83.42575106872789,27.511507873938537],[83.42495508672107,27.51159489799516],[83.42392157902061,27.511893107527687],[83.42321006523687,27.51204590038571],[83.42155614180679,27.512127107871517],[83.42027835586845,27.512424253695972],[83.41997574434635,27.512382366162647],[83.41891816473829,27.512443443973012],[83.41823359943899,27.512575980387027],[83.41707160689371,27.51262761760917],[83.4148272761111,27.513001909595687],[83.41424749954625,27.51306492621603],[83.41310507696863,27.513191085578633],[83.41094265082519,27.51356794030271],[83.41012322244744,27.513591570034883],[83.4081623088322,27.514032381272543],[83.40778854498303,27.514161731106327],[83.4073550718669,27.51438110676819],[83.4071341145765,27.514576538125475],[83.40701975888517,27.51477465915339],[83.40704357798549,27.515530880832074],[83.40723258418083,27.515807025755635],[83.4074311574436,27.5159590703787],[83.40884286711643,27.51584322809317],[83.41093232812347,27.515452556187213],[83.41271611321389,27.51529532774349],[83.41424742946519,27.51506476430944],[83.41612362391493,27.514783686517745],[83.41699263373307,27.514597696824342],[83.4171601334081,27.514636770766934],[83.41732300563487,27.51478418961783],[83.41756433833994,27.51648706615685],[83.41776853618975,27.517313997080894],[83.41719532398176,27.517392831265614],[83.41606628062335,27.51773574119064],[83.41424742042999,27.517944860024954],[83.41374742288558,27.51800143844244],[83.41328887755544,27.518234255434997],[83.41299395430626,27.518521901804437],[83.41295912779994,27.518948339230136],[83.41306266396694,27.51954013801214],[83.41316964030342,27.519836288389005],[83.41362280543603,27.52044084238398],[83.41374140956594,27.521287779086396],[83.41359704200003,27.52153766419789],[83.41359454092851,27.521767919530987],[83.41339971759764,27.522107893456532],[83.41261329927924,27.52281785060552],[83.41171896300833,27.524423444829115],[83.41140309573622,27.524787738352636],[83.41135964099043,27.524918526601553],[83.41153032905302,27.52490339768883],[83.41397611068246,27.524311042517073],[83.41424752405374,27.524280597334407],[83.41446691719807,27.524256653326294],[83.41546828698237,27.524260844490165],[83.41622087784793,27.5245032302362],[83.41656400294166,27.524739425800952],[83.4168522967658,27.524871527925097],[83.4171662879905,27.52484577095321],[83.41761795482688,27.52508240443247],[83.4177483145191,27.525272522702362],[83.41778889055983,27.52567901750812],[83.41789261619262,27.52581937155856],[83.41822348814352,27.52597197963286],[83.41864739409307,27.525953413533717],[83.41887485361657,27.52603112431488],[83.41930944984705,27.52639404472063],[83.41978818801981,27.52701447773225],[83.42021196831202,27.527370646745243],[83.42046449832898,27.52750031051109],[83.42062286934666,27.52766579625495],[83.4206862674363,27.527758574146826],[83.42090065815069,27.527919684821264],[83.42123915830378,27.528015901212363],[83.42154364512506,27.52818870252075],[83.4215635896221,27.52837388242639],[83.42154214400101,27.528534054382796],[83.42139846532311,27.528662091176553],[83.42100288010265,27.529014819353755],[83.4207769843812,27.529052204426126],[83.42061554905212,27.529006440841947],[83.42015731815509,27.528873650544433],[83.41983232211949,27.52898286911738],[83.4193643357282,27.529258573979497],[83.41919227241482,27.529359415788882],[83.41903290032901,27.52951902415003],[83.41900857757331,27.529742402822023],[83.41920389943903,27.52997565905089],[83.41927992750875,27.530032425885835],[83.41986089108772,27.53041178936756],[83.42008522300011,27.530493938977276],[83.42021289601578,27.530465117802226],[83.42111479379582,27.52983237197574],[83.42133024778728,27.52990101769919],[83.4213953344421,27.530104390201547],[83.42121426464412,27.53071531931737],[83.42116843407051,27.531193647216583],[83.42133524514053,27.531431342526993],[83.42149236479722,27.531472604780717],[83.42314228985082,27.53092419859456],[83.42375201594929,27.53076871701139],[83.42412377901691,27.53056259458345],[83.42421268648947,27.53048619766152]]]}},{"type":"Feature","properties":{"province":"Lumbini Province","district":"Rupandehi","municipality":"Siddharthanagar Municipality","ward":"5","wardNumber":5,"sourceMunicipality":"Siddharthanagar","sourceType":"Nagarpalika"},"geometry":{"type":"Polygon","coordinates":[[[83.45343529199972,27.514481006940226],[83.45333237931031,27.514383540363742],[83.45313468262118,27.514166101820024],[83.45309741840977,27.514096018285244],[83.45312092791384,27.513949349937796],[83.45335164044083,27.513293470640562],[83.45342266928546,27.512564693669592],[83.45326936312871,27.5121397558214],[83.45327280364435,27.51182828976218],[83.45311130875264,27.51083899899816],[83.45296056703864,27.51065556936892],[83.45260681056841,27.510581921890623],[83.45213388655355,27.510480828028843],[83.45200258823039,27.510480265128905],[83.45124774523565,27.510757220192666],[83.45085697602393,27.510812109999918],[83.45053310624121,27.510772472340744],[83.45014333791586,27.510549718972065],[83.44987355204067,27.510338780558637],[83.44966991438203,27.510060385637516],[83.44973675281594,27.50972203693231],[83.44964453456139,27.50873530925208],[83.44961133530964,27.508656160801856],[83.44935661558651,27.508652908813573],[83.44887987709828,27.50882483315728],[83.44861490284704,27.50897950328522],[83.44845815678943,27.509186563945008],[83.44838150343138,27.50944807755895],[83.44844464773584,27.510685254172873],[83.44852980261344,27.51100384755128],[83.44887505341867,27.511510810079994],[83.44890606371858,27.511890047192665],[83.44920779875021,27.5124420222032],[83.44956886558613,27.51369839248859],[83.4500052122481,27.51429600624737],[83.45017583709232,27.514603660272574],[83.45116520233339,27.514652677057782],[83.45343529199972,27.514481006940226]]]}},{"type":"Feature","properties":{"province":"Lumbini Province","district":"Rupandehi","municipality":"Siddharthanagar Municipality","ward":"6","wardNumber":6,"sourceMunicipality":"Siddharthanagar","sourceType":"Nagarpalika"},"geometry":{"type":"Polygon","coordinates":[[[83.45091672759659,27.517348968599453],[83.4507591082956,27.516905900145836],[83.45057641592277,27.516607312790217],[83.45039053880966,27.5155457498413],[83.4501582661451,27.515088864835988],[83.45016183163533,27.514691623243714],[83.45017583709232,27.514603660272574],[83.4500052122481,27.51429600624737],[83.44956886558613,27.51369839248859],[83.44920779875021,27.5124420222032],[83.44890606371858,27.511890047192665],[83.44887505341867,27.511510810079994],[83.44852980261344,27.51100384755128],[83.44844464773584,27.510685254172873],[83.44838150343138,27.50944807755895],[83.44845815678943,27.509186563945008],[83.44861490284704,27.50897950328522],[83.44887987709828,27.50882483315728],[83.44935661558651,27.508652908813573],[83.44961133530964,27.508656160801856],[83.44957913624053,27.50857932578093],[83.4492061245112,27.50825054075792],[83.44863979047251,27.507907500484286],[83.4484575368043,27.507710379889758],[83.44809896945428,27.50689639013572],[83.4477428384586,27.5066083666965],[83.44715831099649,27.506369044958763],[83.44635920454066,27.505808377736898],[83.44474655109386,27.504183584126775],[83.44425093348377,27.503323892521763],[83.44421160632908,27.503217673452752],[83.44390217884792,27.503588844355512],[83.4437940132107,27.50382316260898],[83.44374036795375,27.503865863391162],[83.44295570084314,27.50453987143818],[83.44278557499008,27.50483483281964],[83.44265158557796,27.50529478001377],[83.4424984039729,27.505562796163105],[83.44203560644452,27.505908521125544],[83.44131189875554,27.506858111091844],[83.44126119119841,27.50699790177213],[83.44116815678709,27.50725479000816],[83.44134453129882,27.507982316514948],[83.44133333946947,27.508250895424684],[83.44132508498409,27.508763233451926],[83.44140829876554,27.509835673645192],[83.441369659537,27.510090561118233],[83.44149282828646,27.51063053272269],[83.44134070768716,27.511067785601004],[83.44082845295445,27.511862518182078],[83.44082570170019,27.51210396388695],[83.44089991525097,27.51238192113908],[83.44077443063398,27.51267263066485],[83.44071690894248,27.512961278367765],[83.44041304427088,27.51354694955024],[83.440369089352,27.513855977300715],[83.44015475892573,27.514430708277803],[83.44032819549872,27.515054392160888],[83.44028417640673,27.515880260041918],[83.4403203771881,27.516049685111657],[83.44008816472842,27.516613036790403],[83.4401162983958,27.517023970953343],[83.43997787062766,27.51757188128422],[83.44000669280005,27.517935425751496],[83.43995254544159,27.51845207687412],[83.43997548999758,27.519045814611268],[83.43994716459333,27.519571594091317],[83.43994503886366,27.519745395052833],[83.44000831097796,27.51993976429557],[83.4410238116855,27.519885126172206],[83.44319536403319,27.51997053168678],[83.44410395076899,27.519852249685158],[83.44453573559679,27.519696016912526],[83.44478082686175,27.5195434727083],[83.44495601625549,27.51971121005298],[83.4451450852052,27.52005281099382],[83.44541943445415,27.520821287666063],[83.44583821238928,27.521120876443607],[83.44601540311278,27.521069674645602],[83.4467007829492,27.52070450661314],[83.44706966997936,27.52060666593334],[83.44713494359995,27.52053014415233],[83.44714682421031,27.52043086497499],[83.4466807182937,27.518957430835098],[83.44643594250255,27.51853661885994],[83.44662513724316,27.518424524076067],[83.44807805050678,27.517976583069334],[83.4491958394621,27.51784779860277],[83.45091672759659,27.517348968599453]]]}},{"type":"Feature","properties":{"province":"Lumbini Province","district":"Rupandehi","municipality":"Siddharthanagar Municipality","ward":"7","wardNumber":7,"sourceMunicipality":"Siddharthanagar","sourceType":"Nagarpalika"},"geometry":{"type":"Polygon","coordinates":[[[83.46066332189856,27.51994431845845],[83.4606717003697,27.519851729042117],[83.46045780976772,27.519720064290457],[83.4595879262977,27.51955645197036],[83.45907429832225,27.51969880514831],[83.45834740386812,27.51981346146135],[83.45753466500742,27.520074348567128],[83.45678138658063,27.520150431780134],[83.45592963370936,27.520368306531385],[83.45516947720536,27.520563986501433],[83.45427827196404,27.520614686802993],[83.45418354960611,27.520517282672692],[83.45426683250534,27.519860777495115],[83.45449573123081,27.519331247493017],[83.45481228949777,27.51809107177545],[83.45506519794996,27.517496147816548],[83.4551968744434,27.51665252489114],[83.45518474503857,27.51647866143638],[83.45494778227759,27.516464156168023],[83.45422076370222,27.516619325093515],[83.45284337817424,27.5169615470865],[83.45214474504819,27.517069389497433],[83.45143204312215,27.517199801288445],[83.4512600416557,27.517296141470617],[83.45166787595538,27.518530192369234],[83.45212666486896,27.520351229215027],[83.45298653388392,27.52394791349729],[83.45298859648982,27.52422330639618],[83.45424431014105,27.524508081072412],[83.4559296210053,27.524372483131195],[83.45615889299972,27.52435304043865],[83.45729825286767,27.52402569707013],[83.45864712661212,27.52383233082946],[83.45960854517043,27.523779567747454],[83.46004858283275,27.52368647953661],[83.46010310307098,27.523609956994992],[83.46032074990892,27.52238516024058],[83.4603290685013,27.521656195684347],[83.46039840772625,27.521195998421554],[83.46053408370027,27.520882781602367],[83.46063387281438,27.520278229228623],[83.46066332189856,27.51994431845845]]]}},{"type":"Feature","properties":{"province":"Lumbini Province","district":"Rupandehi","municipality":"Siddharthanagar Municipality","ward":"8","wardNumber":8,"sourceMunicipality":"Siddharthanagar","sourceType":"Nagarpalika"},"geometry":{"type":"Polygon","coordinates":[[[83.45466092788479,27.535686992093858],[83.45592958535705,27.535423355410618],[83.45597110156454,27.535414477877794],[83.45604587875798,27.535261308318248],[83.45592946253039,27.53473721634246],[83.45589263772405,27.534570042029312],[83.45546085622823,27.533275035340846],[83.45524684282618,27.532323942869468],[83.45475854202024,27.53102862383796],[83.4540110868952,27.528035054182205],[83.45345182316022,27.526303919371173],[83.453210674823,27.52540465432105],[83.4529158814089,27.524342653751752],[83.45298859648982,27.52422330639618],[83.45298653388392,27.52394791349729],[83.45212666486896,27.520351229215027],[83.45166787595538,27.518530192369234],[83.4512600416557,27.517296141470617],[83.45091672759659,27.517348968599453],[83.4491958394621,27.51784779860277],[83.44807805050678,27.517976583069334],[83.44662513724316,27.518424524076067],[83.44643594250255,27.51853661885994],[83.4466807182937,27.518957430835098],[83.44714682421031,27.52043086497499],[83.44713494359995,27.52053014415233],[83.44706966997936,27.52060666593334],[83.4467007829492,27.52070450661314],[83.44601540311278,27.521069674645602],[83.44583821238928,27.521120876443607],[83.44541943445415,27.520821287666063],[83.4451450852052,27.52005281099382],[83.44495601625549,27.51971121005298],[83.44478082686175,27.5195434727083],[83.44453573559679,27.519696016912526],[83.44410395076899,27.519852249685158],[83.44319536403319,27.51997053168678],[83.4410238116855,27.519885126172206],[83.44000831097796,27.51993976429557],[83.44011659930683,27.520556383780114],[83.44004675972974,27.521104544481542],[83.44010921874629,27.52146146220265],[83.44006120011596,27.52180887679489],[83.43997072887477,27.52193941455244],[83.44008214424044,27.52199399354379],[83.44052174215338,27.522801544620876],[83.4408612389188,27.523956384490237],[83.44094833177516,27.524575129267454],[83.4411249576755,27.525009195150556],[83.44123993640044,27.52530534489228],[83.4412910176138,27.525343918610716],[83.44142281638761,27.52550021459287],[83.44139530366579,27.526181727892588],[83.44166496336801,27.52707211500948],[83.44189467166683,27.52758539142578],[83.44188966795622,27.528009703361757],[83.44224211108371,27.528108170850796],[83.44268321111069,27.52805578128681],[83.44436245856174,27.527572644387885],[83.44460898775516,27.527573645164885],[83.44477298528439,27.527752635518066],[83.44488927675216,27.528039720166444],[83.44490753109926,27.5289539260134],[83.44438064573686,27.529757661040385],[83.44437726916051,27.530051060058863],[83.44448224454307,27.530256870589955],[83.44534699940763,27.53106836167597],[83.44558765061456,27.531177644137927],[83.44676990043953,27.531096560814515],[83.44716260696339,27.531296746037555],[83.44730941046282,27.53156595024653],[83.4472635171327,27.532130052931198],[83.44754887130998,27.53241557544326],[83.447828474262,27.532576935571814],[83.44813564924829,27.53293704269961],[83.44856261677565,27.533818990685763],[83.44931514249213,27.53449456579545],[83.44973448519201,27.53448493920173],[83.44993993698597,27.53436615479699],[83.45106716691495,27.534144842546755],[83.45130606739586,27.534227054431753],[83.45152320774305,27.53499984474184],[83.4518662697462,27.535644473159106],[83.45200863344894,27.536042277584578],[83.45218426123584,27.53611742488584],[83.45256659013245,27.536121239656808],[83.45466092788479,27.535686992093858]]]}},{"type":"Feature","properties":{"province":"Lumbini Province","district":"Rupandehi","municipality":"Siddharthanagar Municipality","ward":"9","wardNumber":9,"sourceMunicipality":"Siddharthanagar","sourceType":"Nagarpalika"},"geometry":{"type":"Polygon","coordinates":[[[83.49295032555015,27.53958716885043],[83.49265846696653,27.53954096698167],[83.49168942401835,27.538797121062384],[83.49138587451172,27.538448393258527],[83.49141601141388,27.53829278542078],[83.49158501227795,27.53809478965915],[83.4917169982346,27.538036585684733],[83.49186892996022,27.538095790643634],[83.49220574080657,27.538367871569726],[83.49243888960548,27.538404820707893],[83.49263377455405,27.53820920105715],[83.49270974090187,27.53793862139333],[83.49264509355072,27.537532126461223],[83.4924053803797,27.53721747165986],[83.492127466395,27.536798909979744],[83.49189569366,27.53668518859418],[83.49174063657843,27.53666655821741],[83.49162290471342,27.536803848024334],[83.49146578419717,27.537028976335332],[83.49062784676869,27.53760601911048],[83.49041695488589,27.538117606448008],[83.49018730739871,27.538283779528534],[83.48990757891187,27.538343733820966],[83.48935224862468,27.53809791047529],[83.48935431293869,27.537921858276917],[83.48941971272055,27.537809263508745],[83.4899423432848,27.537657720360443],[83.49004513166848,27.537545186920767],[83.48999686503964,27.53708680234939],[83.48973570702731,27.536887243337283],[83.48912548347978,27.536052121002275],[83.48845692520881,27.535593734840347],[83.48826560507628,27.535421496421353],[83.48819776812154,27.53523162806478],[83.48831900177531,27.534882212589523],[83.48888208521359,27.53459531777321],[83.48894304637244,27.534297730513007],[83.48878336262534,27.534127805207767],[83.48798619430814,27.533894671644553],[83.48781575646807,27.533715681797208],[83.48750501787391,27.533148013555913],[83.48725286327627,27.532851426307246],[83.48696294536961,27.53237409777059],[83.48672054390511,27.53215428243416],[83.48654160202375,27.532112957419038],[83.48629526080394,27.532414545838485],[83.48613619971258,27.53292850884103],[83.48601753140453,27.53299359029884],[83.48579376116335,27.532983711779867],[83.4855010286772,27.53277502445154],[83.4850426100673,27.532321890474435],[83.48493213332186,27.531910706866885],[83.48497364853947,27.53176860204523],[83.48518966622929,27.531611431897097],[83.48581545983792,27.53185750586952],[83.48612257301107,27.531899268313413],[83.48632596073926,27.531863883541153],[83.48651490672822,27.531666013165264],[83.48655479656297,27.531456202370386],[83.48636941600488,27.53122982285728],[83.48536448429607,27.530618952912246],[83.48508882067523,27.53026578633037],[83.48505068285058,27.52997007432182],[83.48523187649467,27.529243861026185],[83.48508982475008,27.529035674890565],[83.48398673118228,27.52836572511071],[83.4835018034146,27.52798248624191],[83.48305051322448,27.52749327868553],[83.48272620743562,27.52699100539141],[83.48232168256195,27.52686534257551],[83.48203989143363,27.526893663051823],[83.48167344227396,27.527151862829424],[83.4813700180788,27.527193624574842],[83.48096730622115,27.527167302736295],[83.48048237698355,27.52703007445939],[83.47984139167065,27.526774872640097],[83.47943830571047,27.52654542933916],[83.47904509738012,27.52651010524557],[83.47898701391077,27.526403824150016],[83.47898870279919,27.52624577797204],[83.47926286661598,27.526034653606136],[83.479390415368,27.525813901327076],[83.47942186508932,27.52560640305644],[83.47937603646479,27.52505098949513],[83.47917796507875,27.524693571758164],[83.4779497022603,27.523474647998817],[83.47784560152928,27.523223761400313],[83.47796520922805,27.523014325898526],[83.47839336743765,27.522954934241344],[83.47853166909191,27.52275456316933],[83.47851016279891,27.522077363819072],[83.47837079921426,27.521950451190175],[83.4781474670337,27.521947324587316],[83.47713921775272,27.522329559578946],[83.47677189430944,27.522368882789713],[83.4763726224347,27.5222160872578],[83.47610227300173,27.522029969618835],[83.47595171898008,27.52146961700806],[83.47573026295713,27.521317571583506],[83.47558058201338,27.52138246559425],[83.47540564192924,27.52157364592692],[83.47508152042101,27.522249531691642],[83.47488988644453,27.52241814317454],[83.4746430449346,27.522414954143493],[83.47438745069921,27.522260470492018],[83.47422958071778,27.521971072635917],[83.47423364659484,27.521587334865753],[83.4744009597841,27.52094014507656],[83.47505670378962,27.520398674751142],[83.47510340942286,27.520161854958854],[83.47506639655037,27.520021751958854],[83.47467444051502,27.519652329569702],[83.47392172482051,27.51941932134548],[83.47375779009279,27.51922001291479],[83.47381843813648,27.51911648281176],[83.47413411760843,27.518950559874177],[83.47421014542395,27.518865159905737],[83.47432250093647,27.51858795363516],[83.47428154857242,27.518353008907035],[83.47393260834484,27.518193711167214],[83.47228112239914,27.518155821067268],[83.47198088610995,27.518220214582087],[83.47204472050726,27.518753121127116],[83.47259029576091,27.51928552898157],[83.47255209319032,27.51947733578125],[83.47237133862781,27.519605310525534],[83.47205678468084,27.51967182864781],[83.47148069787137,27.519504903635767],[83.47109555581848,27.519300279446224],[83.4701320758063,27.519000939722975],[83.46917728508014,27.518992809950984],[83.46863452200131,27.518927539188937],[83.46835698190118,27.51880006378889],[83.46827976695512,27.518659834908068],[83.46840468929116,27.518278847914857],[83.4687681364625,27.517993577665067],[83.46890331263258,27.517786454526338],[83.46896864953987,27.517615092280046],[83.468922320468,27.517443416513267],[83.46776151683058,27.517249418797864],[83.46760320958042,27.516941828342397],[83.46717304989352,27.517138822899376],[83.4667822799008,27.51739689730845],[83.46601880716157,27.518224638405268],[83.46554263056784,27.51852297492047],[83.46499705365628,27.518649573303488],[83.46473226731916,27.518763668843],[83.46441146017337,27.51920711092505],[83.46401412452573,27.51943805304968],[83.46343441021723,27.51962091809252],[83.46066332189856,27.51994431845845],[83.46063387281438,27.520278229228623],[83.46053408370027,27.520882781602367],[83.46039840772625,27.521195998421554],[83.4603290685013,27.521656195684347],[83.46032074990892,27.52238516024058],[83.46010310307098,27.523609956994992],[83.46004858283275,27.52368647953661],[83.45960854517043,27.523779567747454],[83.45864712661212,27.52383233082946],[83.45729825286767,27.52402569707013],[83.45615889299972,27.52435304043865],[83.4559296210053,27.524372483131195],[83.45424431014105,27.524508081072412],[83.45298859648982,27.52422330639618],[83.4529158814089,27.524342653751752],[83.453210674823,27.52540465432105],[83.45345182316022,27.526303919371173],[83.4540110868952,27.528035054182205],[83.45475854202024,27.53102862383796],[83.45524684282618,27.532323942869468],[83.45546085622823,27.533275035340846],[83.45589263772405,27.534570042029312],[83.45592946253039,27.53473721634246],[83.45604587875798,27.535261308318248],[83.45597110156454,27.535414477877794],[83.45623951221867,27.535598345242036],[83.45718948994185,27.535062627537293],[83.45726408091717,27.53501999065383],[83.45829483815122,27.53466738920551],[83.45928364166855,27.534531288889816],[83.46008243685046,27.53435830301484],[83.46147676566582,27.534149307544492],[83.46517532356705,27.5334728054111],[83.46785106383423,27.53309932694118],[83.46813935726988,27.5332313667997],[83.46899554867852,27.5334287395148],[83.46996615635112,27.533804852633082],[83.47008713770379,27.533897817056904],[83.4704956000926,27.53421309839463],[83.47077832896294,27.53451881391453],[83.47092300597949,27.534918994731353],[83.47166665448664,27.535418330902097],[83.4721204461026,27.535833141375797],[83.47331888807574,27.53621681876724],[83.47343618135255,27.53637755423857],[83.47347219384996,27.536657573825572],[83.47334814645978,27.537049814459962],[83.47305353614931,27.537500195902194],[83.47293855527542,27.537797657458025],[83.47291060613541,27.538142884185152],[83.4730370271967,27.538452600397257],[83.4735524667529,27.538892418517722],[83.47552213102068,27.53936031111483],[83.47575040286202,27.53950335303127],[83.47727033693961,27.54045701217249],[83.47922442973439,27.542037544303025],[83.4800485398302,27.544367730582962],[83.48030782154203,27.54484268351224],[83.48032276304944,27.545226483940315],[83.48158579219142,27.545362088967998],[83.48204083498736,27.545605286993652],[83.48248112354112,27.54560916444916],[83.48282443504475,27.546264982578833],[83.4829566080219,27.54675525227704],[83.48308052781547,27.546927302437922],[83.48342871911582,27.546930804269678],[83.48398573728481,27.547023145872018],[83.48451912232998,27.5470318996643],[83.48501780745487,27.546938935567837],[83.48674325757587,27.546886612228484],[83.48708338430188,27.5467885840032],[83.48749059682895,27.5467562001433],[83.48779627337596,27.5466489826687],[83.48783753808259,27.54668749348807],[83.48834735228279,27.546578775492556],[83.4887399350586,27.546435734207105],[83.48950315573136,27.546291818510465],[83.48974737138107,27.54618441256958],[83.4910304112843,27.544999567267368],[83.49139417107261,27.545000881219114],[83.49188872883052,27.545038831324874],[83.49229725550767,27.544929674951014],[83.4925510994117,27.544731992214555],[83.49281607346121,27.544378639161515],[83.4929248021396,27.54414425841971],[83.49300026851199,27.543900749044532],[83.4927042851951,27.54355883569588],[83.49247882767692,27.543086258308875],[83.49260356424227,27.542050704754544],[83.49289317427504,27.541160193485275],[83.49283453119236,27.539864375306568],[83.49295032555015,27.53958716885043]]]}}]}