{"type":"FeatureCollection","features":[{"type":"Feature","properties":{"province":"Madhesh Province","district":"Bara","municipality":"Adarsh Kotwal Rural Municipality","ward":"4","wardNumber":4,"sourceMunicipality":"Adarshkotwal","sourceType":"Gaunpalika"},"geometry":{"type":"Polygon","coordinates":[[[85.13211697021364,26.951498436842204],[85.13262997069221,26.951478490787583],[85.13307882330902,26.95153581794843],[85.13371862085468,26.951729308455622],[85.13435879527448,26.952017577839403],[85.13472136677167,26.95219068921265],[85.13506349231446,26.952210505737735],[85.13641092067137,26.951827260682535],[85.1368599596136,26.951771680198647],[85.13865736484134,26.951235763619167],[85.13891345899894,26.951217881473003],[85.13994014536067,26.950931979720373],[85.14013259080251,26.950912348227842],[85.14060332477237,26.95075955101084],[85.14079495783527,26.950778368175],[85.14175755798098,26.950513222485156],[85.14291198002164,26.950284899271576],[85.14316869922175,26.95026476714622],[85.14368201132909,26.950152293339535],[85.14374584702871,26.95011340673087],[85.14438758126178,26.949999807560808],[85.1447288939891,26.949999306090184],[85.14494309638427,26.949828254587057],[85.14528522124427,26.949789428635626],[85.1454135177766,26.94977023509156],[85.14560627562219,26.94971453060103],[85.14624782229141,26.949580674779376],[85.14682472017599,26.94940893408247],[85.14765852418425,26.949237379458523],[85.14778707094816,26.949179923897415],[85.14887790647526,26.948893397026428],[85.14932694536748,26.94877911070905],[85.14945474156669,26.948780360609977],[85.15028904605728,26.94853203343758],[85.15163572498953,26.94826594792014],[85.15176420904002,26.948267135041245],[85.15182867048819,26.94822824876275],[85.1522984050549,26.948170229295012],[85.15249116257739,26.9481145236516],[85.15306824763609,26.94796078864463],[85.1539019269562,26.947827557475957],[85.15447957511577,26.947676135155586],[85.15512068398355,26.947562535234777],[85.15550551165293,26.94744874996105],[85.15642491069383,26.947276444310194],[85.15653126282898,26.947392978575778],[85.15653045085311,26.947623171129163],[85.15665493935673,26.948466293325897],[85.15669446027887,26.94931016573746],[85.15675729681885,26.949542108632375],[85.15675692306822,26.949695529183206],[85.1568809124018,26.950674128502467],[85.15696868977888,26.95002112386385],[85.15703371254835,26.94979036760201],[85.15718445347022,26.94950472025668],[85.15737783532849,26.94933160587886],[85.15767856764104,26.94887096923244],[85.15821694603314,26.94789374146449],[85.15843127273762,26.947605281064742],[85.15860333394427,26.94731950831485],[85.15875469945905,26.94697290543467],[85.15918460238046,26.946283200779366],[85.15924962518424,26.946111149681933],[85.15924968680557,26.945995991271435],[85.15933584219434,26.94586213856974],[85.1595552887532,26.944481294093396],[85.15934408263557,26.943905188719995],[85.15927993323794,26.94384704682693],[85.15883482796382,26.943117147160635],[85.15834508292258,26.9426358838096],[85.15830275474076,26.94255948619436],[85.15762181490446,26.94203921195685],[85.15721672757479,26.94182808928197],[85.15627888144716,26.94142272540961],[85.15568116114471,26.941287688423177],[85.15518966810559,26.94124886703201],[85.15480559011631,26.941247494037828],[85.15448534774806,26.941150841838436],[85.15294834601492,26.941014435156813],[85.15235000185557,26.94099449478992],[85.15192340717057,26.940898656407736],[85.15175259426272,26.94082107222766],[85.15132593747747,26.940722982638487],[85.15106953070043,26.94070479194577],[85.15030174811878,26.940492108017725],[85.15013112356561,26.940491233745124],[85.14978968568985,26.9404150252483],[85.14919190283942,26.940203216770477],[85.14859474480355,26.940047861561798],[85.14765583603582,26.939665066709438],[85.1471655927712,26.939375608910993],[85.14680308326452,26.939202497521343],[85.14673937207107,26.939069833706498],[85.14644132334813,26.938857835592803],[85.14601541533952,26.938454969381564],[85.14509951280205,26.937726697720898],[85.14316191670615,26.935959313228572],[85.14292770402078,26.935767070530332],[85.14282141444338,26.93565284954621],[85.14224588867687,26.93521059789541],[85.14145790951629,26.934673068883257],[85.14118036902411,26.93450145753991],[85.14037106794541,26.933848957152325],[85.13979548000057,26.933521863955814],[85.1393691975752,26.93332893471941],[85.13898536842206,26.933158199432484],[85.13847299302984,26.93298408819274],[85.1374484904031,26.93271470154846],[85.13616752000051,26.932424873046788],[85.13531358096623,26.93227145717455],[85.13486579149956,26.93213742010089],[85.1345240403333,26.932022700634317],[85.13392507283116,26.932309726179916],[85.13334673829895,26.932652955024796],[85.13308958244598,26.932749859777402],[85.1328329893854,26.93290090494363],[85.13253325457474,26.93301612770908],[85.13242634114532,26.93309371382432],[85.13199799791597,26.9333229081328],[85.13131287492835,26.93362862704234],[85.13101101450675,26.933664889164625],[85.13099219496165,26.933667264902788],[85.1308638985723,26.933742787938108],[85.12923811767264,26.93416435747847],[85.12883209447278,26.934239881535387],[85.12876782193688,26.934296836238218],[85.12808282255406,26.934546037801898],[85.12697097871995,26.934735599451525],[85.12682123739525,26.934813497948046],[85.12553801885196,26.935119406811584],[85.12519558182522,26.935253072932362],[85.12493886386198,26.935329596805563],[85.1248106913475,26.935290023191506],[85.12487402807176,26.935519715014088],[85.12519171130344,26.936192098622914],[85.12531782259175,26.93665148355292],[85.12548788787275,26.93697745296425],[85.12567933370211,26.937170008397214],[85.12593461621212,26.937323677732564],[85.12619145955452,26.937323926236157],[85.12689677919037,26.937151246804078],[85.12704695936205,26.937055218246027],[85.12734737960045,26.93675037676267],[85.12756139452559,26.936615523516995],[85.12773320578552,26.936424529538115],[85.12824732957557,26.936079612863736],[85.12863234481826,26.935983957334006],[85.12895290055002,26.93606041584251],[85.12923000333552,26.93619582931431],[85.12940050434712,26.93636825429755],[85.12954887280577,26.936599571285655],[85.12995090070832,26.937519527433793],[85.13001467389607,26.93759579904367],[85.13056575859562,26.938746947315842],[85.13069330689967,26.93897613862995],[85.13086293227231,26.939189200265535],[85.13122369432861,26.939879276204522],[85.13164872871704,26.940453630760594],[85.13196772251777,26.940742276435493],[85.13290425969039,26.94177751293998],[85.13309501834556,26.942085228140318],[85.13334948987227,26.94260231605632],[85.1334550304806,26.94289033758305],[85.1333894460627,26.943197803338087],[85.13321769774215,26.943524275181243],[85.13298161185868,26.943657065643915],[85.13255426953657,26.94379141949534],[85.13229729964263,26.943791233594972],[85.13204170555255,26.943732342310355],[85.13127229860788,26.943731721371204],[85.13050289197047,26.943674708220527],[85.13016139220464,26.943711346042164],[85.12939217295788,26.94367233795075],[85.12894300784363,26.943709789427547],[85.1286010088957,26.9438253875243],[85.12823681390445,26.944054019084284],[85.12797965812457,26.944150923197157],[85.12748641780716,26.94457248704985],[85.12714416879366,26.94472415864538],[85.12688657591688,26.944974483740225],[85.12654401367683,26.94522324559453],[85.12622139849043,26.945643371262797],[85.12600700884198,26.945796354852998],[85.1258143141771,26.945989724936563],[85.12562080729846,26.946219168087268],[85.12540548060133,26.946602407075844],[85.12538322424352,26.946832724515954],[85.12525355424653,26.947215275870764],[85.12523092309033,26.947599200781994],[85.12537879163905,26.947904977803752],[85.1254852687898,26.94803957945589],[85.12582533349864,26.948422814608083],[85.12601703024158,26.948576984210874],[85.12646538273829,26.948769788659202],[85.1266788359917,26.94877035034296],[85.12680719535763,26.94869251451102],[85.12721496684239,26.948292082027496],[85.12755927727885,26.947774677736145],[85.1277521597461,26.94760156362389],[85.12779542509935,26.94752447803884],[85.12822364278234,26.947275027655902],[85.12843821891109,26.947007010622727],[85.12863135223002,26.946874533045573],[85.12888806938264,26.946721236840435],[85.12908082754824,26.946663281488465],[85.1292732731092,26.94664364958288],[85.1296577272573,26.946739862880165],[85.12974244607011,26.946779874269463],[85.1299128841621,26.94700869101095],[85.13001861325424,26.947317093417944],[85.12999585593082,26.94762205794863],[85.12975908495076,26.94806400216887],[85.12958683617222,26.948408479210283],[85.12935050177666,26.948638360321326],[85.12900750223162,26.948905190350885],[85.12874972300611,26.94927054889957],[85.12810599182546,26.94999807910726],[85.12797619661166,26.950303856774546],[85.12767540150476,26.950764493888034],[85.12752428635528,26.95114710688232],[85.12735047655444,26.951836872726428],[85.1272845183657,26.952297883527045],[85.12728320688335,26.9526048490145],[85.12743032704309,26.95321759066234],[85.12755712628233,26.95356419224234],[85.12781265890001,26.953794633596004],[85.12832391038715,26.95410197134977],[85.12858050475603,26.954196997962285],[85.12883634826625,26.95421750225086],[85.12966921724592,26.954389111484325],[85.12986141299929,26.9543898603652],[85.1299898349762,26.95433240547493],[85.13033208403291,26.95423712535092],[85.1303755995004,26.954180358196183],[85.13050370859497,26.954084517399757],[85.13054728663205,26.9539690459689],[85.13054822209072,26.953682398592292],[85.13040072749341,26.953164435040385],[85.13036108277385,26.952415402980517],[85.13059741772301,26.952052357170437],[85.13085469782905,26.951840356246883],[85.13106890024181,26.95172582158012],[85.13141158837755,26.951612474110703],[85.13153938503893,26.95161140994004],[85.13211697021364,26.951498436842204]]]}},{"type":"Feature","properties":{"province":"Madhesh Province","district":"Bara","municipality":"Adarsh Kotwal Rural Municipality","ward":"7","wardNumber":7,"sourceMunicipality":"Adarshkotwal","sourceType":"Gaunpalika"},"geometry":{"type":"Polygon","coordinates":[[[85.09898279966373,26.92610201597554],[85.09949461230376,26.926039307674404],[85.10007151124655,26.92613189432424],[85.1002003716562,26.926169216662355],[85.10084329665023,26.926509564002103],[85.1018095919246,26.92721301585715],[85.10213171143474,26.92751747867567],[85.10243382517693,26.927896525602485],[85.10262708414409,26.928086893049404],[85.10275713305415,26.928316147929113],[85.10280077557232,26.928469254745274],[85.1027396927377,26.928853430974808],[85.10261333562869,26.929064305876345],[85.10229522065305,26.929373773163807],[85.10203950239246,26.929490933709967],[85.1017842227723,26.92958771393306],[85.10191427121988,26.92981690544405],[85.10230147875468,26.930274350182277],[85.10268887263724,26.93061663643389],[85.10298985964917,26.930941543055752],[85.1035275592408,26.931397799211926],[85.10417336338017,26.932157894114205],[85.10430228626514,26.932271990360164],[85.10458157756918,26.932443601513096],[85.10483829704934,26.932556695797334],[85.10580152603131,26.93281776742282],[85.10612126753173,26.932738492697403],[85.10633547146398,26.93281357679666],[85.10761500226299,26.932652272672744],[85.10906484292563,26.932315853657244],[85.10940615550956,26.932256709482214],[85.10955552247323,26.93227590201086],[85.10998167839381,26.932137109506083],[85.11008715344532,26.931982750552372],[85.11019218940767,26.931715609287416],[85.11023195121444,26.9312729170139],[85.11042070558433,26.93081321777943],[85.11086417670701,26.93019578437725],[85.11114071455854,26.93002204460345],[85.11122536931252,26.929924327703688],[85.1111822286547,26.929886316833915],[85.11118003823505,26.92959966961912],[85.1111143879356,26.929390296785332],[85.11111407518933,26.929293205056553],[85.11098352524975,26.92900755948166],[85.11089567886765,26.92866295858115],[85.11117277913937,26.928604314988217],[85.11132127021348,26.928467711604473],[85.11142493100839,26.928065155617837],[85.11157242091922,26.927757001383927],[85.11222815537815,26.926966328348463],[85.11241841083942,26.926660112572876],[85.1126270457886,26.926044555325635],[85.11283868431391,26.925735901248146],[85.11296247557128,26.92520005549666],[85.11296178693259,26.925064578474828],[85.11241914941601,26.92474611229486],[85.11238238549981,26.924723793455428],[85.11212554028313,26.924592693567863],[85.111184006591,26.92423446860283],[85.11077698104732,26.92400971720137],[85.1095976685692,26.92315678494951],[85.10927573651777,26.922870389283172],[85.10912618121674,26.9227767377681],[85.10888965491225,26.922471649633966],[85.10873884843538,26.92230128782247],[85.1085671601056,26.922131113631856],[85.10826661063722,26.921844655578198],[85.10785877081518,26.921466296175197],[85.10725873609054,26.921069245831173],[85.10708736039463,26.920993849445008],[85.10657367105915,26.920670631587935],[85.10597451203327,26.920427063283583],[85.10537604287313,26.920316596118546],[85.10486241600603,26.92012879361601],[85.10436910803922,26.919769252935176],[85.1040894408723,26.919426090667145],[85.10391781387023,26.91919721201914],[85.10385335228855,26.919102934827066],[85.1036164505721,26.91875945991868],[85.10350847237467,26.9185300803095],[85.10339786487188,26.917842504012835],[85.1032236099742,26.917270586499093],[85.10313757802835,26.917099724560714],[85.10311306553709,26.916582947907166],[85.10298370424488,26.916297364694636],[85.10291742722912,26.91595257596435],[85.10265864210602,26.915496380440942],[85.10209379934261,26.91366346954635],[85.1020077050764,26.913549061696656],[85.10187784286884,26.913204710834066],[85.10166182383777,26.912804657508197],[85.10157422593424,26.91234714813248],[85.10140159875154,26.912061814659552],[85.10129374516076,26.911850503433367],[85.10127186130579,26.91173778262736],[85.1012494145301,26.911564169680275],[85.10109885798059,26.911299029836638],[85.10092704391977,26.911108537661597],[85.10067001147053,26.91095705689735],[85.10041329237197,26.910900353833444],[85.10007066569018,26.91074956109432],[85.09964375896553,26.91073480898367],[85.09868321974261,26.910740064983223],[85.09823499339592,26.910802211071545],[85.09810738515152,26.910879984220028],[85.09800090922423,26.910937251301473],[85.09772380781006,26.911054475294225],[85.0971492246189,26.911325307372966],[85.09638100657055,26.911426028521696],[85.09580442022674,26.911430657082093],[85.09535575560959,26.911375393085105],[85.09522758382323,26.91133800811461],[85.09512217141399,26.911569076861163],[85.0949519853614,26.911742003078746],[85.09473947051693,26.911897050100073],[85.09463405903635,26.912125867675982],[85.09480643632091,26.912508228837545],[85.0948723369004,26.912737921107784],[85.0952236652692,26.91464698023469],[85.09520484817016,26.915107616205702],[85.0950804945366,26.915720234517465],[85.09486979510973,26.9162568308066],[85.09486985809878,26.916333540371067],[85.09470154863938,26.916698273843835],[85.09417123462181,26.917447246597234],[85.09366392973861,26.91836983272593],[85.09353882480177,26.918905740044934],[85.09343760645987,26.919899658172582],[85.09322772081389,26.920589737135607],[85.09276124134333,26.92124343150368],[85.09240029953133,26.92160960314703],[85.0922298000252,26.92168768937534],[85.09176225562365,26.9220343563629],[85.09150678791345,26.922171773050763],[85.09071743744396,26.922311067714393],[85.09048279014304,26.92246411409476],[85.09031341687826,26.92265729685927],[85.09018655862387,26.92288849009282],[85.0900179371485,26.923348001297125],[85.0899119001622,26.923520364847995],[85.09048911167787,26.923574565119978],[85.09068180796145,26.92364989888625],[85.09087481648785,26.92381988511625],[85.09104681833081,26.924028445665304],[85.09111128032517,26.92418142782806],[85.09111209423357,26.924334910197434],[85.09111409636928,26.924603489026275],[85.09102731596649,26.92474409351566],[85.0908178037582,26.925084319478323],[85.09031237439922,26.92600690564155],[85.08991561171912,26.927235643716465],[85.08991792706752,26.927542546210585],[85.09009330743456,26.928231873398246],[85.09020191140944,26.928461252213438],[85.09048220329596,26.928804414628342],[85.09093199432156,26.929031166207718],[85.0911891518237,26.92912394210524],[85.09157491929925,26.929371513483126],[85.09215288204092,26.929500173087035],[85.09268851699817,26.92974661796414],[85.09318257596462,26.93012647741037],[85.0936570664068,26.93081348919091],[85.09383069513885,26.9311958511289],[85.09385677014438,26.931807280240747],[85.09381632075966,26.932191330819627],[85.09371234646126,26.932499109736163],[85.09360662106512,26.932633086945398],[85.09328838128819,26.932924486609558],[85.09314007840496,26.933153616921896],[85.09314276909238,26.933498906167394],[85.0932729436032,26.933804870712045],[85.09348852512545,26.93409207883689],[85.0940674884098,26.934394602335775],[85.09438848174362,26.934448553629448],[85.09470891093552,26.934446051465926],[85.09494268384844,26.934331392109275],[85.09513362793909,26.934156089555294],[85.09528161800655,26.933963094492647],[85.0955365851102,26.933771474615853],[85.09617525530805,26.93353627696506],[85.09630348989765,26.93351501971272],[85.09645241853946,26.933419053710544],[85.09685406277666,26.932899023988025],[85.09698035720403,26.932611376035723],[85.09704400487736,26.932552170560843],[85.0972322585531,26.932033829835373],[85.09727289653127,26.931746870592306],[85.09722962964479,26.93163208691112],[85.09688431325712,26.931212715351844],[85.09662665529898,26.931002530009046],[85.09591651543768,26.930222617192747],[85.09535843331624,26.929804871688475],[85.09518505496303,26.929519539178273],[85.0951614828119,26.929230828799604],[85.09520268321594,26.929000261322862],[85.09526570496568,26.928810204852784],[85.09560445232317,26.928423840158818],[85.09636972958073,26.927939381134074],[85.09713419347624,26.92737815040237],[85.09762274520546,26.92699065835947],[85.09783438297285,26.926740709430053],[85.0982160837961,26.9264329917073],[85.09847161388518,26.92629557507022],[85.09898279966373,26.92610201597554]]]}},{"type":"Feature","properties":{"province":"Madhesh Province","district":"Bara","municipality":"Adarsh Kotwal Rural Municipality","ward":"8","wardNumber":8,"sourceMunicipality":"Adarshkotwal","sourceType":"Gaunpalika"},"geometry":{"type":"Polygon","coordinates":[[[85.11497423615309,26.94873940039447],[85.11606088321727,26.94859760325412],[85.11638075015766,26.948597351349168],[85.11650842113221,26.948519578042703],[85.11693338775233,26.948191167341534],[85.11742037516211,26.94770877307155],[85.11761188261633,26.94759217534531],[85.11801646719955,26.947435501875344],[85.11814313753764,26.947319342471914],[85.1187987464461,26.946375186476047],[85.11939321166122,26.94587391073976],[85.119604975152,26.945641967022475],[85.11979498009032,26.945371886512454],[85.119985673748,26.945103994193524],[85.12024001553579,26.944910123326302],[85.12051686653547,26.944831223600247],[85.12075082616614,26.94467586421136],[85.12113177579879,26.944232669842165],[85.12138636754544,26.944059118034364],[85.12161970160216,26.943847366899686],[85.12174649697982,26.943616110459228],[85.1220604176144,26.942634008366017],[85.12220308822128,26.941596889574736],[85.12220102306077,26.941195146970955],[85.12211273783838,26.94073538751521],[85.12183188118563,26.940159782370422],[85.12163449049162,26.939240450167222],[85.12143816458125,26.93855131129813],[85.12130867792267,26.93832211936807],[85.12111347802708,26.9377481397849],[85.12104707650232,26.93740110057736],[85.12104382142743,26.936884198220156],[85.12097535464798,26.93613541592489],[85.12139462542119,26.934924495577274],[85.12151816599953,26.934176399989354],[85.12162238912597,26.933830235686184],[85.12168390877007,26.93336928763245],[85.12183002200996,26.93292571817232],[85.1213611626886,26.932947539598125],[85.12067822488551,26.932894277747664],[85.1203373506027,26.932935354368976],[85.1201880450689,26.93285983247185],[85.12010182608658,26.93280181598492],[85.12001648131941,26.93270541336579],[85.11997321497633,26.932590692278154],[85.11997215141456,26.932419141733828],[85.11986242014238,26.93195956945285],[85.11977601245123,26.93180677514789],[85.11949765998953,26.931614845041295],[85.11932309161142,26.930963967705377],[85.11921580144481,26.930870002368618],[85.119086377566,26.930582106019333],[85.11904142110907,26.930237130354712],[85.11922948596585,26.92958331247649],[85.11912213366956,26.929487096713743],[85.11867328009804,26.929298855913835],[85.1184585762135,26.92916513018073],[85.11841468382464,26.928993893386707],[85.11843443945698,26.92876351304006],[85.11839111088544,26.928648791828735],[85.11836741287618,26.928418723991335],[85.11838835744301,26.92830344007644],[85.11853534701355,26.928015667471456],[85.11857648521365,26.92778509922987],[85.11857379441662,26.927383355975458],[85.11867776842412,26.92707551502211],[85.11876223583705,26.92695973106535],[85.11901764102902,26.926804246172804],[85.11927317214948,26.926745790701204],[85.11942228834894,26.926667829387473],[85.11950675570385,26.926552045003476],[85.11967462783305,26.926148987675237],[85.11967293802817,26.925918732452686],[85.11967168606259,26.925726926940268],[85.11945804535628,26.9257670022569],[85.11851845147028,26.92573605979781],[85.11715257714029,26.925821404410442],[85.11664088986865,26.925902181044123],[85.11612832748986,26.925885929120028],[85.11552916914655,26.925775586386024],[85.11501616875381,26.925720948352804],[85.11484498117089,26.925665870714415],[85.1140756983106,26.925536524155728],[85.113732759643,26.925424117292103],[85.11321869518935,26.92519799119222],[85.11296178693259,26.925064578474828],[85.11296247557128,26.92520005549666],[85.11283868431391,26.925735901248146],[85.1126270457886,26.926044555325635],[85.11241841083942,26.926660112572876],[85.11222815537815,26.926966328348463],[85.11157242091922,26.927757001383927],[85.11142493100839,26.928065155617837],[85.11132127021348,26.928467711604473],[85.11117277913937,26.928604314988217],[85.11089567886765,26.92866295858115],[85.11098352524975,26.92900755948166],[85.11111407518933,26.929293205056553],[85.1111143879356,26.929390296785332],[85.11118003823505,26.92959966961912],[85.1111822286547,26.929886316833915],[85.11122536931252,26.929924327703688],[85.11114071455854,26.93002204460345],[85.11086417670701,26.93019578437725],[85.11042070558433,26.93081321777943],[85.11023195121444,26.9312729170139],[85.11019218940767,26.931715609287416],[85.11008715344532,26.931982750552372],[85.10998167839381,26.932137109506083],[85.10955552247323,26.93227590201086],[85.10940615550956,26.932256709482214],[85.10906484292563,26.932315853657244],[85.10761500226299,26.932652272672744],[85.10633547146398,26.93281357679666],[85.10612126753173,26.932738492697403],[85.10580152603131,26.93281776742282],[85.10483829704934,26.932556695797334],[85.10458157756918,26.932443601513096],[85.10430228626514,26.932271990360164],[85.10417336338017,26.932157894114205],[85.1035275592408,26.931397799211926],[85.10298985964917,26.930941543055752],[85.10268887263724,26.93061663643389],[85.10230147875468,26.930274350182277],[85.10191427121988,26.92981690544405],[85.1017842227723,26.92958771393306],[85.10137819835333,26.92959090391278],[85.10078310745988,26.92990249825412],[85.10063442909741,26.93001878358522],[85.09983089135784,26.931097167117148],[85.09970403349571,26.931328423491504],[85.09960012335378,26.93171072360517],[85.09964852081897,26.93247769851164],[85.09965158722115,26.93286137349767],[85.09960963511608,26.933015231722433],[85.09952548002217,26.93316708916914],[85.09929264654109,26.93343760776926],[85.09876414484535,26.93418876792429],[85.09863797501866,26.93441996202559],[85.09857614170501,26.93472742716628],[85.09864191743321,26.934957120204135],[85.09872870091459,26.935204755064664],[85.09881542067754,26.935319163013858],[85.09913722755422,26.93558523981734],[85.09939494775358,26.935736719895104],[85.09952312050659,26.93577410571248],[85.1001668583025,26.936191162442434],[85.10061677401326,26.93636145993268],[85.10119448713768,26.936528443574527],[85.10158081727266,26.936755633448136],[85.10190281206134,26.93704209123817],[85.10205499460312,26.93734786747143],[85.10203993175384,26.938189865607097],[85.10215103931705,26.938802920211383],[85.10241119988024,26.939338075540743],[85.10260483514479,26.939566829394728],[85.10286261782737,26.939718248084436],[85.10303374291553,26.939773325853686],[85.10316153992537,26.939772324715552],[85.10354555475908,26.93963615810258],[85.10375750673971,26.93948104863906],[85.10415977598286,26.938961019191282],[85.10437053870457,26.93861622865387],[85.10449733368539,26.93838503564537],[85.10464382160109,26.937982103365812],[85.10491779491795,26.937537658960473],[85.10523684791558,26.93732515792526],[85.10549231555095,26.937246383396424],[85.10581293320335,26.937264199155244],[85.10613386428005,26.937376793712883],[85.10626259952559,26.937470570764724],[85.10767536901875,26.93784542315079],[85.10805976008758,26.937880743934684],[85.10870049466153,26.937857671804853],[85.10882860417146,26.937895057654327],[85.10904324577993,26.938008464308936],[85.10923669355599,26.938216899846484],[85.10932466522891,26.938523177093032],[85.10934780064868,26.938829954217745],[85.10930597248971,26.938927295677935],[85.1092002476732,26.93906133563607],[85.10841446291826,26.939640822697324],[85.10809641111703,26.93995028980325],[85.10790603054973,26.940181983467866],[85.10777923531782,26.940413239865382],[85.10767457364899,26.940720955808352],[85.10765650845134,26.941258363971794],[85.10776542536198,26.94164122575766],[85.10791598278863,26.941908615951558],[85.10806628829181,26.942081228756376],[85.10838696978045,26.942232208813515],[85.10883519694326,26.942287347705733],[85.10928311046727,26.942245458577208],[85.10941053146657,26.942206071004488],[85.10979341999594,26.94195480756601],[85.11056001309635,26.941797507538407],[85.11094427871042,26.94181482374095],[85.11124295160512,26.941909475198617],[85.11145734284914,26.942061268036362],[85.11156613494842,26.942367419799027],[85.11156707378655,26.942597613193396],[85.11148385809933,26.9429052662051],[85.11127297059956,26.943290630973344],[85.11057353197343,26.94400484414913],[85.11027698765842,26.944390896643082],[85.11008817188069,26.944850594951234],[85.11000426768274,26.9451582480396],[85.11000595715342,26.94538844092845],[85.1101150003881,26.94585032563853],[85.11024442350904,26.946079517602243],[85.11041648864804,26.94628807801575],[85.11054484857773,26.946345719947516],[85.11157416775939,26.94722240950092],[85.11180906747923,26.947355947384487],[85.11202358526471,26.947528059271153],[85.11253902695302,26.948137923603856],[85.1126683254016,26.948290405539986],[85.11290435206529,26.94859774407047],[85.1131832051665,26.948843814951477],[85.11333388701472,26.949054813954294],[85.11363393571203,26.949282691837766],[85.11387021155699,26.9495516448381],[85.11391303966133,26.94955133215183],[85.11418820124992,26.9492985688512],[85.11478341750998,26.948932770809716],[85.11497423615309,26.94873940039447]]]}},{"type":"Feature","properties":{"province":"Madhesh Province","district":"Bara","municipality":"Adarsh Kotwal Rural Municipality","ward":"1","wardNumber":1,"sourceMunicipality":"Adarshkotwal","sourceType":"Gaunpalika"},"geometry":{"type":"Polygon","coordinates":[[[85.13696656328375,26.961805940995447],[85.1370321481176,26.96149841202485],[85.13716081867737,26.961269407066318],[85.13739765360377,26.96096281538219],[85.13797586301344,26.960599205599856],[85.13829648041411,26.960542500297336],[85.13855251190553,26.960581010244066],[85.13889370022444,26.96075430905643],[85.13923513862994,26.960830579477502],[85.13974670263497,26.961101782299963],[85.14017329724668,26.961256324962182],[85.14059945524733,26.961600486949507],[85.14102579988813,26.961736962252072],[85.14136829939365,26.96160323365662],[85.14153923732712,26.96150707895282],[85.14168966594619,26.961372663760955],[85.14211769642361,26.961163787788855],[85.14239660974641,26.96091327492545],[85.14282413998028,26.960781172069826],[85.14346756043459,26.960263578541547],[85.14357491104849,26.960167862184765],[85.1437891141932,26.96005320261228],[85.14490364106327,26.95905790481544],[85.14522544498345,26.958865659013977],[85.1455473735065,26.958560567423877],[85.14593238798751,26.958291111217548],[85.14619023075231,26.95806104222524],[85.14659775306477,26.957640166402822],[85.1467056654955,26.95741134844044],[85.14670697624172,26.9571043833008],[85.14655929470516,26.956642874017863],[85.14658105131495,26.95648920329936],[85.14653972262519,26.956259324056187],[85.1465619165224,26.956028880445405],[85.14652089919879,26.95564551866443],[85.14641460887215,26.95541388786649],[85.14574172120176,26.952956919932237],[85.14555133564365,26.952495722358968],[85.1453002356658,26.951267675701608],[85.14500474808254,26.950498138284296],[85.1447288939891,26.949999306090184],[85.14438758126178,26.949999807560808],[85.14374584702871,26.95011340673087],[85.14368201132909,26.950152293339535],[85.14316869922175,26.95026476714622],[85.14291198002164,26.950284899271576],[85.14175755798098,26.950513222485156],[85.14079495783527,26.950778368175],[85.14060332477237,26.95075955101084],[85.14013259080251,26.950912348227842],[85.13994014536067,26.950931979720373],[85.13891345899894,26.951217881473003],[85.13865736484134,26.951235763619167],[85.1368599596136,26.951771680198647],[85.13641092067137,26.951827260682535],[85.13506349231446,26.952210505737735],[85.13472136677167,26.95219068921265],[85.13435879527448,26.952017577839403],[85.13371862085468,26.951729308455622],[85.13307882330902,26.95153581794843],[85.13262997069221,26.951478490787583],[85.13211697021364,26.951498436842204],[85.13153938503893,26.95161140994004],[85.13141158837755,26.951612474110703],[85.13106890024181,26.95172582158012],[85.13085469782905,26.951840356246883],[85.13059741772301,26.952052357170437],[85.13036108277385,26.952415402980517],[85.13040072749341,26.953164435040385],[85.13054822209072,26.953682398592292],[85.13054728663205,26.9539690459689],[85.13050370859497,26.954084517399757],[85.1303755995004,26.954180358196183],[85.13033208403291,26.95423712535092],[85.1299898349762,26.95433240547493],[85.12986141299929,26.9543898603652],[85.12966921724592,26.954389111484325],[85.12883634826625,26.95421750225086],[85.12858050475603,26.954196997962285],[85.12832391038715,26.95410197134977],[85.12781265890001,26.953794633596004],[85.12755712628233,26.95356419224234],[85.12743032704309,26.95321759066234],[85.12728320688335,26.9526048490145],[85.1272845183657,26.952297883527045],[85.12735047655444,26.951836872726428],[85.12752428635528,26.95114710688232],[85.12767540150476,26.950764493888034],[85.12797619661166,26.950303856774546],[85.12810599182546,26.94999807910726],[85.12874972300611,26.94927054889957],[85.12900750223162,26.948905190350885],[85.12935050177666,26.948638360321326],[85.12958683617222,26.948408479210283],[85.12975908495076,26.94806400216887],[85.12999585593082,26.94762205794863],[85.13001861325424,26.947317093417944],[85.1299128841621,26.94700869101095],[85.12974244607011,26.946779874269463],[85.1296577272573,26.946739862880165],[85.1292732731092,26.94664364958288],[85.12908082754824,26.946663281488465],[85.12888806938264,26.946721236840435],[85.12863135223002,26.946874533045573],[85.12843821891109,26.947007010622727],[85.12822364278234,26.947275027655902],[85.12779542509935,26.94752447803884],[85.1277521597461,26.94760156362389],[85.12755927727885,26.947774677736145],[85.12721496684239,26.948292082027496],[85.12680719535763,26.94869251451102],[85.1266788359917,26.94877035034296],[85.12646538273829,26.948769788659202],[85.12601703024158,26.948576984210874],[85.12582533349864,26.948422814608083],[85.1254852687898,26.94803957945589],[85.12537879163905,26.947904977803752],[85.12523092309033,26.947599200781994],[85.12525355424653,26.947215275870764],[85.12538322424352,26.946832724515954],[85.12540548060133,26.946602407075844],[85.12562080729846,26.946219168087268],[85.1258143141771,26.945989724936563],[85.12600700884198,26.945796354852998],[85.12622139849043,26.945643371262797],[85.12654401367683,26.94522324559453],[85.12688657591688,26.944974483740225],[85.12714416879366,26.94472415864538],[85.12748641780716,26.94457248704985],[85.12797965812457,26.944150923197157],[85.12823681390445,26.944054019084284],[85.1286010088957,26.9438253875243],[85.12894300784363,26.943709789427547],[85.12939217295788,26.94367233795075],[85.13016139220464,26.943711346042164],[85.13050289197047,26.943674708220527],[85.13127229860788,26.943731721371204],[85.13204170555255,26.943732342310355],[85.13229729964263,26.943791233594972],[85.13255426953657,26.94379141949534],[85.13298161185868,26.943657065643915],[85.13321769774215,26.943524275181243],[85.1333894460627,26.943197803338087],[85.1334550304806,26.94289033758305],[85.13334948987227,26.94260231605632],[85.13309501834556,26.942085228140318],[85.13290425969039,26.94177751293998],[85.13196772251777,26.940742276435493],[85.13164872871704,26.940453630760594],[85.13122369432861,26.939879276204522],[85.13086293227231,26.939189200265535],[85.13069330689967,26.93897613862995],[85.13056575859562,26.938746947315842],[85.13001467389607,26.93759579904367],[85.12995090070832,26.937519527433793],[85.12954887280577,26.936599571285655],[85.12940050434712,26.93636825429755],[85.12923000333552,26.93619582931431],[85.12895290055002,26.93606041584251],[85.12863234481826,26.935983957334006],[85.12824732957557,26.936079612863736],[85.12773320578552,26.936424529538115],[85.12756139452559,26.936615523516995],[85.12734737960045,26.93675037676267],[85.12704695936205,26.937055218246027],[85.12689677919037,26.937151246804078],[85.12619145955452,26.937323926236157],[85.12593461621212,26.937323677732564],[85.12567933370211,26.937170008397214],[85.12548788787275,26.93697745296425],[85.12531782259175,26.93665148355292],[85.12519171130344,26.936192098622914],[85.12487402807176,26.935519715014088],[85.1248106913475,26.935290023191506],[85.12468382924312,26.93488696767997],[85.12417644844453,26.933622536129324],[85.12417975710429,26.932816737526647],[85.12422339687734,26.932644811385178],[85.12454644859135,26.931953856335724],[85.12478290769309,26.931608879369875],[85.1248050398426,26.93149359513606],[85.12499873300939,26.931092538675294],[85.12540737906615,26.930403083828423],[85.12549459615921,26.93005704459351],[85.12547421191088,26.929845044895817],[85.12517610105739,26.929558524776652],[85.12496339687854,26.929309702799777],[85.12475025469898,26.929155658487428],[85.12398422045511,26.92846433410285],[85.12370774214207,26.928136989159825],[85.12336655287746,26.927889167856698],[85.12330140346238,26.927731684668718],[85.1232088693034,26.9277978925167],[85.12318511046485,26.92781383484239],[85.12299548156055,26.92818100616245],[85.1230206197208,26.928871520720218],[85.1229613524306,26.92956266211026],[85.1228371239528,26.930177656063258],[85.12271126711408,26.930562269906368],[85.1226915119577,26.930792649696418],[85.12250382195603,26.93148260331744],[85.12241979245354,26.93163677408419],[85.12233588844516,26.931944365449258],[85.12197870083169,26.932809433522888],[85.12183002200996,26.93292571817232],[85.12168390877007,26.93336928763245],[85.12162238912597,26.933830235686184],[85.12151816599953,26.934176399989354],[85.12139462542119,26.934924495577274],[85.12097535464798,26.93613541592489],[85.12104382142743,26.936884198220156],[85.12104707650232,26.93740110057736],[85.12111347802708,26.9377481397849],[85.12130867792267,26.93832211936807],[85.12143816458125,26.93855131129813],[85.12163449049162,26.939240450167222],[85.12183188118563,26.940159782370422],[85.12211273783838,26.94073538751521],[85.12220102306077,26.941195146970955],[85.12220308822128,26.941596889574736],[85.1220604176144,26.942634008366017],[85.12174649697982,26.943616110459228],[85.12161970160216,26.943847366899686],[85.12138636754544,26.944059118034364],[85.12113177579879,26.944232669842165],[85.12075082616614,26.94467586421136],[85.12051686653547,26.944831223600247],[85.12024001553579,26.944910123326302],[85.119985673748,26.945103994193524],[85.11979498009032,26.945371886512454],[85.119604975152,26.945641967022475],[85.11939321166122,26.94587391073976],[85.1187987464461,26.946375186476047],[85.11814313753764,26.947319342471914],[85.11801646719955,26.947435501875344],[85.11761188261633,26.94759217534531],[85.11742037516211,26.94770877307155],[85.11693338775233,26.948191167341534],[85.11650842113221,26.948519578042703],[85.11638075015766,26.948597351349168],[85.11606088321727,26.94859760325412],[85.11497423615309,26.94873940039447],[85.11478341750998,26.948932770809716],[85.11418820124992,26.9492985688512],[85.11391303966133,26.94955133215183],[85.11387021155699,26.9495516448381],[85.11382882309778,26.949761893954786],[85.11370296622715,26.95014657036385],[85.11347038370964,26.950511803896777],[85.11334371246373,26.950627901468398],[85.11308774489015,26.95072474339111],[85.11232146534535,26.950922680260508],[85.11170411603317,26.951155502081154],[85.111174299815,26.951638209030733],[85.11096241131251,26.951926545055933],[85.11062629304715,26.952773357745944],[85.11052175722395,26.953157909306217],[85.11052688980102,26.954002031843583],[85.11063568142914,26.95430812133292],[85.1108082466087,26.954634028719852],[85.11098018567094,26.954824584324488],[85.11117294469258,26.95495843462075],[85.11140840741777,26.95514842679694],[85.11166518911945,26.955261458637796],[85.1120065022221,26.955261082062375],[85.11226265928963,26.95531772237482],[85.11303044028212,26.955331972795545],[85.11328653356776,26.955311903272865],[85.11371193827807,26.955155042572628],[85.11422387635689,26.95515328885422],[85.11439487623808,26.95519029885691],[85.11499378584342,26.955512828374175],[85.11544445305597,26.955874932604985],[85.11570085993071,26.95594964047424],[85.11604304827367,26.95610037074167],[85.11655548760498,26.956213714490342],[85.11706623646772,26.95609455113867],[85.11732201665298,26.95597964103931],[85.11800370241538,26.955820716658376],[85.11842942101059,26.95576094659439],[85.11877054547973,26.955740188741476],[85.11885595222606,26.955721433138972],[85.11953982865029,26.955907858965997],[85.12005258028108,26.956118168274948],[85.12024583957678,26.95630853615859],[85.12035394302907,26.956537852241027],[85.12037751653396,26.956883015996606],[85.12012505285932,26.95746062451267],[85.11980844048317,26.957979966923247],[85.1197250359303,26.9582673637836],[85.1197688033759,26.958497181209626],[85.11968377315746,26.958556574122277],[85.11976911694693,26.958648413199416],[85.11977099472527,26.958901174692006],[85.11983677100173,26.959189572239232],[85.1198828533685,26.95970609810638],[85.12022898508287,26.960511395869915],[85.1203151420092,26.96062580367989],[85.12076537241688,26.96100591312175],[85.12117158481404,26.96119678001923],[85.12136440638069,26.961271989111253],[85.1215990549501,26.96130849828111],[85.12168427333795,26.961269486203218],[85.12185514866661,26.961288428277275],[85.12211067948434,26.961209654017544],[85.1223224432625,26.961036414445605],[85.12270332912325,26.960457805068778],[85.12297967904583,26.960322451762142],[85.12320876315157,26.960304820366282],[85.1232484030024,26.960302256836695],[85.12350468327276,26.960234735292847],[85.12415342144843,26.960249861907688],[85.12473000847618,26.960346824307447],[85.12536949461703,26.960693798574283],[85.12581728598758,26.961019766612267],[85.12645652277752,26.96140287581702],[85.1266701637992,26.961480210462103],[85.12679746146803,26.96161449941398],[85.12720167519143,26.962114706344853],[85.12777632608375,26.962651798831402],[85.12803229585276,26.962805467772917],[85.12835260127356,26.962845790480472],[85.12860894558426,26.96284597675137],[85.12899377320488,26.962788707913166],[85.1295073349306,26.962502496076535],[85.1297646149368,26.962290495039657],[85.13040703627863,26.96204385715646],[85.13091941200638,26.962082615884253],[85.13156077094287,26.96198714679496],[85.13194509947945,26.962006650726238],[85.13290695137327,26.961836408133387],[85.1332274434066,26.961836094052664],[85.13341970208437,26.96191349028869],[85.13363209448282,26.96218269334944],[85.13362990944432,26.96271985163371],[85.13358627007098,26.9629504194363],[85.13356120332206,26.963718082977916],[85.13345335261715,26.963949150756047],[85.13340965063549,26.964177468207264],[85.13340833916216,26.964486684561987],[85.13336513702724,26.96463829171658],[85.1333850832074,26.964868359062173],[85.13347042803099,26.96502340448495],[85.13359772589264,26.9651578178617],[85.13427854175373,26.96579100050353],[85.1347258324936,26.966060577766683],[85.13504613728448,26.96615729172724],[85.13523789599773,26.966255069984385],[85.13549417788039,26.966311772680044],[85.13587856907085,26.966333402033403],[85.13622075680013,26.96629451336228],[85.13641332686028,26.966218490364707],[85.1365204903217,26.966102518261806],[85.1367148710532,26.965701461479576],[85.1369717760594,26.965451074437542],[85.13748639998127,26.96508802787015],[85.13767878266663,26.96499168539958],[85.13780732895059,26.9648777767305],[85.13812869541155,26.96470597419362],[85.13851352312534,26.964648643226788],[85.13832232679408,26.964361246834446],[85.13808973823272,26.963900425225567],[85.13787753315337,26.963592960879495],[85.13762287534799,26.963130013660134],[85.13755935074131,26.963074123105912],[85.1370929871111,26.962229251873104],[85.13702927569341,26.96209433785462],[85.13696656328375,26.961805940995447]]]}},{"type":"Feature","properties":{"province":"Madhesh Province","district":"Bara","municipality":"Adarsh Kotwal Rural Municipality","ward":"6","wardNumber":6,"sourceMunicipality":"Adarshkotwal","sourceType":"Gaunpalika"},"geometry":{"type":"Polygon","coordinates":[[[85.16226008207722,26.961985298997057],[85.16260308031052,26.96171834340381],[85.16303142407399,26.961489086615842],[85.16339536786663,26.961240074179003],[85.16348108653409,26.961239385482788],[85.16382308588956,26.961067208615216],[85.16399439902139,26.96106808245253],[85.16416483604395,26.96110734376119],[85.16489079136002,26.961401488523894],[85.16501790120128,26.961452377459025],[85.16644911540094,26.961742956062288],[85.16679036652496,26.961916192024418],[85.1682423996993,26.962147940461275],[85.16890464359244,26.96230266985],[85.16905413518144,26.9622066405621],[85.16916198589325,26.96197776008649],[85.16920549939954,26.961747254423088],[85.1692292556272,26.96123010226508],[85.16938024568108,26.960921886011164],[85.16963683922725,26.96082723239437],[85.16995739407061,26.960826792810256],[85.1702357459952,26.96077033764205],[85.17029976931812,26.960751768502046],[85.17040693236086,26.96063567218155],[85.1704290028448,26.960520450422848],[85.17023917958359,26.959944219346877],[85.17023967847831,26.959752350263393],[85.17030401321827,26.95963887982036],[85.17062525488232,26.959523468877066],[85.17094599767286,26.959484643377888],[85.17124604378719,26.95933322177196],[85.17141766763345,26.959121909001055],[85.17169639351465,26.958911908352583],[85.1719966895319,26.958604691863922],[85.17240358690519,26.958432013832862],[85.17266036783197,26.95824026795749],[85.17268256195194,26.95812498435511],[85.17255532592692,26.957819082507783],[85.17257714590133,26.957742122826865],[85.1726633024275,26.95766466149132],[85.17294127798958,26.957511177633048],[85.17326208267353,26.957415959992677],[85.17351880144028,26.95739801590607],[85.1736046453229,26.957358941509924],[85.17369036399792,26.957301799690182],[85.17381890987348,26.957129185752606],[85.17399165751293,26.95672594157825],[85.17416340686258,26.956534946451516],[85.17448489844308,26.956381024434467],[85.17493393747581,26.956325381402493],[85.17514782827796,26.95630549867552],[85.17527631282421,26.95624804404261],[85.17568327231234,26.955960207071602],[85.17583388852016,26.955789719203626],[85.17589859790304,26.95553858182215],[85.17600626139597,26.95528944558544],[85.17607197014514,26.954945781880653],[85.1760727196678,26.954715589106662],[85.1760091952295,26.954542289067824],[85.17577510732048,26.954311784533253],[85.17569020036659,26.954138796531588],[85.17569157408921,26.953908479328962],[85.17586438381008,26.95339013825971],[85.1758243648034,26.952756264974614],[85.17559177606775,26.95212395553541],[85.17520950653306,26.95150871370202],[85.17493277816794,26.951181494266134],[85.17442140178875,26.950874282190483],[85.17425077638119,26.950816953446704],[85.17373740090422,26.95085515477097],[85.1735660886909,26.950910797215514],[85.17339515142271,26.951006951042466],[85.17330880827608,26.951122798338133],[85.17307372238476,26.951217264508664],[85.1717055341464,26.95129185652036],[85.17127794124964,26.951408268066928],[85.17110662847598,26.951407455996375],[85.17050815947947,26.951559129331812],[85.17018741769364,26.951597954235606],[85.17010151124991,26.951634778061567],[85.17010076245165,26.951864971184722],[85.1700574971733,26.95194211872315],[85.1698430449258,26.952095164636866],[85.16975720199878,26.95224927327011],[85.1697351947643,26.9523826252435],[85.16962784338769,26.95247840336401],[85.16868899765603,26.952228835307064],[85.16826165342566,26.952189513792046],[85.16809084077424,26.952111929427787],[85.16777084665911,26.951920437408525],[85.16738807854269,26.95149700208985],[85.1669405377007,26.95120960739538],[85.1668127410154,26.95109326182304],[85.16677059933757,26.951034932155515],[85.16681405092844,26.95072984229247],[85.16670769891694,26.950613371234834],[85.16630242520945,26.95051740726272],[85.16589758632315,26.950152865465338],[85.16581218007902,26.950112978475403],[85.16504333593959,26.950053840274425],[85.164890528858,26.950007703063278],[85.16478755364778,26.949977007228277],[85.16446955802246,26.949304748368892],[85.16444954817959,26.948959584230145],[85.16440753238432,26.94884480107483],[85.16425878960895,26.948710637230374],[85.16413111610228,26.948537899553642],[85.16406765402714,26.94830589410765],[85.1640684028882,26.948134281187496],[85.16413336374687,26.947962230349965],[85.16441302485207,26.947425071756093],[85.16443740459867,26.946790572071585],[85.16435324622394,26.946445971693112],[85.16441876779822,26.946082051459324],[85.16461152554551,26.945908874862027],[85.16473994670912,26.94585141959642],[85.16489056441218,26.945856920492627],[85.16525275965978,26.945871985681844],[85.16566015734419,26.945566143343047],[85.16608818788679,26.945373022430665],[85.1662169835938,26.945220726955103],[85.16621767046362,26.945105630328136],[85.16609068444879,26.94475909160626],[85.16611287832382,26.94458735343497],[85.16619897208572,26.94445350085496],[85.1662628080635,26.94441455191408],[85.16645519091288,26.94451001603176],[85.16683920744966,26.94462648638749],[85.16707454410786,26.944608730056636],[85.16722515925636,26.9443208318436],[85.16741860399412,26.944091263690026],[85.16750500921118,26.943860320309778],[85.1674836260233,26.94380180327855],[85.16727142053446,26.94349433820395],[85.16737877163577,26.94334223121864],[85.16757134194097,26.9432075032043],[85.16821357441567,26.9429019716337],[85.16866317629467,26.9427876236122],[85.16879078514943,26.942824946789646],[85.16906907504094,26.94282719598231],[85.16926158196219,26.942692467148575],[85.16934730002379,26.942576557927193],[85.16943370537861,26.942347865113327],[85.16939306230046,26.941887667463185],[85.1694590211281,26.941444849805617],[85.16960919955277,26.941233662318492],[85.16973762192906,26.941234849108703],[85.16988686392686,26.94129230275293],[85.17016215695526,26.941926487242323],[85.17026857130833,26.942040708262752],[85.1705032208463,26.942079405515518],[85.17061119690105,26.94192729820458],[85.17061125784936,26.941812201398832],[85.1704214346131,26.94117726595197],[85.1704443155587,26.940831664042083],[85.17055235360056,26.940620914315822],[85.17072385220148,26.940411851611096],[85.17091685938794,26.940256743050245],[85.1710451566802,26.940239924446537],[85.17123716484757,26.940297002993788],[85.17172672255485,26.94075788582262],[85.17179093305856,26.940757322649464],[85.17189834706406,26.940605215463112],[85.17196368128648,26.940356391754197],[85.17204939933964,26.940181902230282],[85.17215675046421,26.94008612334144],[85.17243535160266,26.939934890313815],[85.1728213023745,26.939570531237973],[85.173078707986,26.93937878627665],[85.17333567704941,26.939263813567706],[85.17372019151412,26.93918841410644],[85.17416910661258,26.93918691100253],[85.17468154473839,26.93930450600671],[85.17487361501384,26.939305192467152],[85.17506649803049,26.939208788133143],[85.17510913780538,26.9391316398296],[85.17508819227032,26.939055117786907],[85.17515308982797,26.93893945836382],[85.17517503529066,26.9388061060351],[85.1752609410538,26.93871057784396],[85.17577412741359,26.93853702428783],[85.1760941831119,26.938615607971453],[85.17624361285756,26.93869106672486],[85.176752430136,26.93961452300419],[85.17715683175219,26.94011448033867],[85.17722079254237,26.94015230354498],[85.17760524622886,26.940189687921503],[85.17805378514298,26.94015211174923],[85.1787591690206,26.94017330151716],[85.17905852849032,26.940134664012778],[85.17923002756817,26.939923288209407],[85.17929498716859,26.93975123719371],[85.17929573607661,26.93946459072359],[85.17914867843496,26.938946689191276],[85.17915011435363,26.938601337293512],[85.17930010535972,26.93836983131974],[85.17949348756639,26.938196716504805],[85.17964404077192,26.937967460756433],[85.17979615493823,26.937334274139566],[85.17979690316808,26.937047565314685],[85.17973406599401,26.93681562243264],[85.1793308520173,26.936126047003505],[85.17933153847456,26.93595224542523],[85.17950359896305,26.935607706330842],[85.17956887065975,26.935282172312878],[85.17963376862546,26.93516651273414],[85.17959168899154,26.93487792889479],[85.17946545198038,26.93441854442853],[85.1794661383271,26.93424474281586],[85.1795531682137,26.933957407908494],[85.17970328489685,26.93374622060047],[85.17970472105064,26.933457322813933],[85.1796626416451,26.933227443103466],[85.17955697632055,26.93299806337737],[85.17906704318607,26.932498856976746],[85.17885502626848,26.932153069503855],[85.17872791475257,26.93186517246253],[85.17868589827938,26.93169174706906],[85.17870877883884,26.93123111187105],[85.1786666996072,26.931116327993415],[85.17858198055053,26.93096134547338],[85.17838909830931,26.931057749790227],[85.17821803550363,26.93107719414343],[85.17796181629677,26.931018490408615],[85.17764251086484,26.930826998107328],[85.17736540788333,26.93063525613991],[85.17698145312099,26.930403690329392],[85.17676943574426,26.930114294170547],[85.17655635672357,26.929962562947082],[85.17621454347307,26.929845779917727],[85.17593687892926,26.92984584468203],[85.17542450317657,26.929730500632278],[85.17499859566146,26.929517377563037],[85.17470011073898,26.929325760642275],[85.1744231954948,26.92909556917336],[85.17442394428016,26.928921768559675],[85.17436023241477,26.928730462141484],[85.17423293496392,26.92859604896642],[85.17414752839419,26.928556162077594],[85.17406237214931,26.9285388448872],[85.17397652854713,26.928575669310607],[85.17339813200466,26.929016113861845],[85.17324782708299,26.9290940131041],[85.17307695272814,26.92913164990924],[85.17239326481744,26.929130528071596],[85.17188038915172,26.929091956970012],[85.1717100134725,26.929052695995296],[85.17153945081184,26.928936788142828],[85.17134794132528,26.9287442326819],[85.17134894093978,26.928534357890463],[85.17124283839904,26.92837950057786],[85.17083781278278,26.928111987281568],[85.17051781986636,26.92797694930722],[85.17041171772021,26.927880796562395],[85.1704336005806,26.9277451935318],[85.17053976400612,26.927784954483144],[85.17075359267109,26.927765135213157],[85.17126721688199,26.92763215609183],[85.17207770320017,26.927959498366775],[85.1722699610786,26.9279217986126],[85.17244146095415,26.927825581493668],[85.17252711636554,26.927709735079162],[85.17252780347805,26.927594638304473],[85.17242176250534,26.927326872461045],[85.17225163804767,26.927249288123075],[85.17214441044567,26.927229908046655],[85.17186649752203,26.927324750253497],[85.17175989512977,26.927305244606686],[85.17165360621418,26.92719108724649],[85.1716757986474,26.926845610448165],[85.17154925105979,26.92659610006619],[85.17154968758537,26.92646068516116],[85.17159239023499,26.92638591359347],[85.1717208118394,26.926328333257352],[85.17184910894704,26.9263656556697],[85.1723174075317,26.92667318162827],[85.17244564291293,26.926712754770904],[85.1727234941611,26.926674367332925],[85.17280915040722,26.926617225075123],[85.17287404774328,26.926501565721708],[85.17276994319315,26.9258117379232],[85.17292062136342,26.925523840545097],[85.17289992504962,26.925350226471863],[85.17281476753773,26.92521549979807],[85.17249552437241,26.924965366070058],[85.17213501583703,26.92474492799087],[85.17202672580602,26.92467815939718],[85.1718562864773,26.924390638271216],[85.17189923827804,26.924103616273552],[85.17172948579133,26.923757390286696],[85.1717293601882,26.92362197549585],[85.17181520317237,26.923526509525033],[85.17207192184303,26.92345211083467],[85.17224248407247,26.923450671901236],[85.17243499140825,26.923374585836886],[85.172499264582,26.923258989616812],[85.1725429027976,26.92291551355247],[85.1726926437516,26.922722455619756],[85.17320657975964,26.922264443757985],[85.17352794431172,26.92180361843556],[85.1735489509182,26.921708590365306],[85.17380591853026,26.921478521882467],[85.17402037031381,26.921210379720865],[85.17464090690567,26.92077187236059],[85.17515409390384,26.92054186449231],[85.17549571852719,26.92052323221787],[85.17568822540531,26.920388441134495],[85.17573111509763,26.920157873071485],[85.1757105429016,26.919812710054735],[85.17564708020515,26.919526625490846],[85.17566902478583,26.91939089838451],[85.17575430499079,26.919295495305885],[85.17624592234405,26.919295867482568],[85.17635277324035,26.919220531929955],[85.17639560118484,26.91916370274172],[85.17645999807883,26.918876555504724],[85.17646080867357,26.918587595390814],[85.17643948744603,26.918416233254153],[85.17635445658317,26.918414733023692],[85.17575592601646,26.918607042336596],[85.17515720729259,26.91872039118718],[85.17473023795343,26.918642621160245],[85.174302769118,26.918641810143015],[85.17379008207556,26.91873627831134],[85.17344826975852,26.918736905296132],[85.17242227072924,26.91898467142515],[85.17208039533546,26.91898298527432],[85.17156720869063,26.919212992821944],[85.17105477175183,26.919269137103587],[85.17062680427661,26.919462321233166],[85.17019933592104,26.919576481653923],[85.17002839847211,26.919670385377515],[85.16977168084806,26.919920835671636],[85.16960030644724,26.920035119603856],[85.16925799512924,26.920225302629806],[85.1681459664451,26.920683692954526],[85.16784660777685,26.920893818671075],[85.16759032743279,26.921008791340256],[85.16737618785457,26.921182093555885],[85.16694884476439,26.921314259463564],[85.16575153218793,26.92156346443854],[85.16540972014151,26.92156177803561],[85.16506803282097,26.92163905305978],[85.16489059323803,26.92164280444186],[85.16412775077804,26.921655937806374],[85.16387165766982,26.92173246116401],[85.16367883759592,26.92177247426186],[85.16344418915388,26.921848935294722],[85.16301672083515,26.921847874588423],[85.16250409492335,26.921770855084638],[85.1621620941929,26.92169239656402],[85.16128708410793,26.92138587355389],[85.16090356587362,26.92100307514861],[85.16075407277954,26.920792139240604],[85.16037030532026,26.920445476626117],[85.16022106149792,26.92025485918991],[85.16005074845947,26.92015920704951],[85.15979434153871,26.920138701766323],[85.1596234044713,26.920176276575805],[85.1593670609104,26.92015802258264],[85.15919562307174,26.920195597387128],[85.15902474859234,26.920291750916775],[85.15889620252814,26.920405659859373],[85.15855407769908,26.92055970759166],[85.15838326618129,26.920597157102634],[85.1582123292239,26.920693435682647],[85.1580408915306,26.920730947715285],[85.15710110923098,26.920673248186105],[85.15590498335743,26.920671753913183],[85.15558436628699,26.92071051749585],[85.15554135267303,26.920941085031775],[85.15541236942734,26.921190409019452],[85.15526106977156,26.92203359487268],[85.1552595744074,26.922875467324488],[85.1553012796275,26.92326108110834],[85.15547090685601,26.923720152724865],[85.15573757407306,26.924744951966122],[85.1558306100255,26.925100806489258],[85.15589326096747,26.925560753229817],[85.15586925653197,26.926174871370378],[85.15586850775219,26.926405126384154],[85.1558041726187,26.926518473277536],[85.15535163818154,26.927515330604194],[85.15528536787704,26.928053051920514],[85.15530650099129,26.928206409424913],[85.15541166778871,26.9286479127525],[85.15543205115351,26.928801207752876],[85.15564357086815,26.929472091732414],[85.15566420372137,26.929643454079805],[85.15576936982944,26.929951856606493],[85.15591742684583,26.93033434356292],[85.1560017724955,26.930699262996328],[85.15621422780495,26.931101567438752],[85.1563842910563,26.931294248652407],[85.15680926332944,26.93190698821748],[85.15702090564174,26.932347679477136],[85.15723298675212,26.932770240427985],[85.15725343296945,26.932923535390287],[85.15748714561036,26.933309772043078],[85.15765602208728,26.933692196709956],[85.15774036768204,26.934000661073355],[85.1577814480406,26.934384086289324],[85.1577588167778,26.934691176459793],[85.15775750526227,26.934998204218207],[85.15760607828972,26.9354575904245],[85.15754205502796,26.935534863432093],[85.15749829038282,26.935688721221485],[85.15728308855543,26.93607196026701],[85.15719668387558,26.93630065261509],[85.1569387798781,26.936760914776745],[85.15672414109521,26.937067380827465],[85.15607859890716,26.938219285213926],[85.15562431653497,26.939599880325453],[85.15549377253258,26.940079459211987],[85.1554073675259,26.940308152306784],[85.1553630412398,26.940768912676024],[85.15533959780399,26.94113477034889],[85.15518966810559,26.94124886703201],[85.15568116114471,26.941287688423177],[85.15627888144716,26.94142272540961],[85.15721672757479,26.94182808928197],[85.15762181490446,26.94203921195685],[85.15830275474076,26.94255948619436],[85.15834508292258,26.9426358838096],[85.15883482796382,26.943117147160635],[85.15927993323794,26.94384704682693],[85.15934408263557,26.943905188719995],[85.1595552887532,26.944481294093396],[85.15933584219434,26.94586213856974],[85.15924968680557,26.945995991271435],[85.15924962518424,26.946111149681933],[85.15918460238046,26.946283200779366],[85.15875469945905,26.94697290543467],[85.15860333394427,26.94731950831485],[85.15843127273762,26.947605281064742],[85.15821694603314,26.94789374146449],[85.15767856764104,26.94887096923244],[85.15737783532849,26.94933160587886],[85.15718445347022,26.94950472025668],[85.15703371254835,26.94979036760201],[85.15696868977888,26.95002112386385],[85.1568809124018,26.950674128502467],[85.15690185788452,26.95075071296066],[85.15683689724007,26.950922826606444],[85.15645057190451,26.951384152028602],[85.15634197146453,26.95178683316669],[85.15644751325044,26.952131308954936],[85.1564459525727,26.952535302900625],[85.15640243708881,26.952648523216293],[85.15640093942308,26.953052579818326],[85.1563342939105,26.95374372050453],[85.15635274248231,26.954319202019132],[85.15641551788035,26.954663991034298],[85.15647897941187,26.954837291201063],[85.1567979735337,26.955240970514865],[85.15722381947889,26.955567001498256],[85.15765047708068,26.95572148266727],[85.15779896983895,26.955837641070588],[85.15792620522778,26.956087088479155],[85.15801036321895,26.956431752132044],[85.15800961392883,26.95660555262566],[85.15792239823834,26.957066688993407],[85.15781460943829,26.957239114668308],[85.15757902497381,26.95746905922247],[85.15742822084859,26.95775470652773],[85.15725615973899,26.957986337459413],[85.15712680192068,26.958330439271496],[85.15712386755149,26.958964750607482],[85.1572286592659,26.959424323266763],[85.15722784819833,26.959713220570745],[85.15711918629954,26.96011590158163],[85.15711706349435,26.960576349534232],[85.15718052547231,26.960749525450616],[85.1574566919669,26.961210034258528],[85.15764795066038,26.9614409760018],[85.15807329728686,26.961843717137455],[85.15843536871932,26.962075470419045],[85.15864919745414,26.962114355968076],[85.15892648600354,26.962132297405148],[85.15943979805422,26.9619611190672],[85.15978179896571,26.962019259877387],[85.16012280030823,26.962174428648492],[85.16050538035356,26.962633998761486],[85.16063361530267,26.962732276745143],[85.16082518692095,26.962807423412567],[85.16099606200261,26.96282855324481],[85.16125284287334,26.962751967105955],[85.16157364639666,26.962598107490244],[85.1618097322698,26.96240654981787],[85.1619806687815,26.962310333708846],[85.16210984093036,26.962196424495136],[85.16226008207722,26.961985298997057]]]}},{"type":"Feature","properties":{"province":"Madhesh Province","district":"Bara","municipality":"Adarsh Kotwal Rural Municipality","ward":"5","wardNumber":5,"sourceMunicipality":"Adarshkotwal","sourceType":"Gaunpalika"},"geometry":{"type":"Polygon","coordinates":[[[85.16735955582462,26.99694135707971],[85.16813071333111,26.996826631705975],[85.1684168181948,26.996837820709292],[85.16828095464605,26.99667414869738],[85.16815296834513,26.996481092595406],[85.16776820013644,26.996078038124292],[85.16732022080393,26.995693553012064],[85.16710682773477,26.995406406673297],[85.16693682510808,26.994927080004985],[85.16642394720382,26.994484389429644],[85.16606143586418,26.993966051478537],[85.16606299456215,26.993449149745018],[85.1660002194947,26.992989202903846],[85.1658083955717,26.99258677261179],[85.16542444001843,26.99212501391782],[85.16491362046426,26.99108871192945],[85.16489129987804,26.99100318739405],[85.16449001754569,26.989476178214222],[85.16436234369922,26.989246986921387],[85.16436234344012,26.98918834438168],[85.16410762181897,26.988612551026662],[85.1640442212469,26.988267825559337],[85.16402364805451,26.987863956797067],[85.16406809823846,26.987346741909292],[85.1641326834373,26.98719494688529],[85.16419720659962,26.987040963881007],[85.16447605634582,26.986657162069314],[85.16477572758633,26.98646510414844],[85.16489095672955,26.986391957642063],[85.16507558630836,26.986275296622406],[85.16573932815537,26.98614112931095],[85.16638137597724,26.986160631052083],[85.16670187022696,26.986333992783127],[85.16689387915933,26.98650623035187],[85.16721462282628,26.9867000352251],[85.16747134206061,26.986794874205874],[85.16781359289227,26.98675817419356],[85.16789949866735,26.986719162822688],[85.16798540449355,26.986623571852835],[85.16807118447885,26.98639262847511],[85.16817872355803,26.98625858852141],[85.168436067161,26.986163934300993],[85.16856392634904,26.986162932633754],[85.16869234904202,26.98622044950709],[85.16897051359274,26.98625877180105],[85.16935503131948,26.986528723693805],[85.16963319616879,26.986566983258946],[85.16971866402471,26.98654822764946],[85.16982601553337,26.986452573716967],[85.16991223377903,26.98626001675123],[85.17019127057108,26.985896533392665],[85.17038427793177,26.985800129423108],[85.17070533354833,26.985781684339997],[85.1710904115337,26.985685842099237],[85.17153995120654,26.98566864654693],[85.1716901939343,26.98562900947617],[85.17194759936014,26.985437264307723],[85.17226946440084,26.985073468017866],[85.17263372066807,26.98478600680632],[85.17274125983909,26.984651967116662],[85.17272018795751,26.984498671478395],[85.17261333569593,26.98440251876219],[85.17218567883346,26.984345129358093],[85.17184380253599,26.98417189324658],[85.1716513557212,26.984017785924486],[85.17156638623433,26.983844673347395],[85.17158789309984,26.983729389571945],[85.17175926778869,26.983558712907673],[85.1721203994219,26.983515073271143],[85.17225188506997,26.98350044328098],[85.17255155698088,26.983367027982762],[85.17280914947214,26.983118828466186],[85.17289543006063,26.98294433941346],[85.17304585784186,26.98256160108179],[85.17319665958503,26.98210215224047],[85.17326168150271,26.98181500533631],[85.17326230518269,26.98164120424643],[85.17334889726159,26.98123871045266],[85.173349769909,26.980778262891846],[85.17326498571015,26.980433662345312],[85.17326573534042,26.980203407036164],[85.17322359335803,26.980029980615107],[85.17315950622155,26.979856680297875],[85.17303170772702,26.979683942784046],[85.17290447193184,26.979319399326418],[85.1726907038887,26.979052571832426],[85.1721358108459,26.978628324822484],[85.17205021582377,26.97845527442217],[85.17207234737457,26.978342241497796],[85.17239377486365,26.977937807744954],[85.17263085923302,26.97747760868472],[85.17258815528176,26.977306433794233],[85.172460357289,26.97719015058392],[85.17201137801041,26.97690269382271],[85.17173383705446,26.976613860264006],[85.17167037488497,26.97644287235628],[85.17173633138911,26.975636510235443],[85.17158789918909,26.97517506286237],[85.17148154603021,26.974945746047922],[85.17128984736286,26.974428219739657],[85.1713127898847,26.973967585138737],[85.17137787401947,26.973565278379695],[85.17131447346353,26.973220427610485],[85.17129464986813,26.972586428606345],[85.17114627975076,26.972124919432662],[85.17114715273881,26.97172317599565],[85.17102035062145,26.970974831346272],[85.1709569503025,26.97068649757127],[85.17076575290913,26.970227613881157],[85.17066033508274,26.969594240780317],[85.17059687209644,26.969305906367648],[85.17064063467323,26.9687886288168],[85.17074898384675,26.968365691755483],[85.17085589798351,26.96829029413342],[85.17130687296489,26.967868979986473],[85.17139259101728,26.967694490983984],[85.17139333938206,26.967464236113532],[85.17143629119009,26.96729237277922],[85.17141490827728,26.96723610563912],[85.17143704049441,26.96706211698759],[85.17145848453792,26.96694683356743],[85.17148067927899,26.96677509514805],[85.17143816196317,26.966563283249396],[85.17139952198754,26.96642142940176],[85.17135375398249,26.966257006252565],[85.17126840912086,26.966104274630005],[85.17096942357811,26.96581556637916],[85.17002976205214,26.96514399843062],[85.16966725178624,26.964740757301303],[85.16956096079372,26.96456783158327],[85.1694339744226,26.96416490112631],[85.16894460171847,26.9631848656699],[85.16888113931203,26.962955173636622],[85.16890345711096,26.962553243300228],[85.16890464359244,26.96230266985],[85.1682423996993,26.962147940461275],[85.16679036652496,26.961916192024418],[85.16644911540094,26.961742956062288],[85.16501790120128,26.961452377459025],[85.16489079136002,26.961401488523894],[85.16416483604395,26.96110734376119],[85.16399439902139,26.96106808245253],[85.16382308588956,26.961067208615216],[85.16348108653409,26.961239385482788],[85.16339536786663,26.961240074179003],[85.16303142407399,26.961489086615842],[85.16260308031052,26.96171834340381],[85.16226008207722,26.961985298997057],[85.16210984093036,26.962196424495136],[85.1619806687815,26.962310333708846],[85.1618097322698,26.96240654981787],[85.16157364639666,26.962598107490244],[85.16125284287334,26.962751967105955],[85.16099606200261,26.96282855324481],[85.16082518692095,26.962807423412567],[85.16063361530267,26.962732276745143],[85.16050538035356,26.962633998761486],[85.16012280030823,26.962174428648492],[85.15978179896571,26.962019259877387],[85.15943979805422,26.9619611190672],[85.15892648600354,26.962132297405148],[85.15864919745414,26.962114355968076],[85.15843536871932,26.962075470419045],[85.15839147922924,26.962344487752144],[85.15817646529776,26.96274573163246],[85.15808931131836,26.963091771037092],[85.15808849987766,26.96337841738407],[85.15806680511773,26.963475633638854],[85.1581297666025,26.963667002545748],[85.15827826079803,26.96395471155141],[85.15844813682386,26.964185778297573],[85.15846883328103,26.96430068702985],[85.15861726409021,26.964588332936774],[85.15887204728183,26.964992513138267],[85.15899903419123,26.96533911427485],[85.15927457542128,26.965799560745193],[85.15948578153042,26.966375603972722],[85.15951460539931,26.966422805078768],[85.15959213371531,26.966548528944617],[85.15991019373682,26.967353888633024],[85.16003711838627,26.967872040447187],[85.16005768985426,26.968102108309996],[85.16018536343869,26.968389942275984],[85.1604193891026,26.968735605086877],[85.16061058640558,26.969022938227592],[85.16078121274091,26.969254005452477],[85.16095102711766,26.96960023122605],[85.16099335592557,26.96973527021733],[85.16116335760145,26.970040859345083],[85.16139738412451,26.970445164828405],[85.16146153313659,26.970618465345783],[85.16152524535588,26.970751129231196],[85.16156738651183,26.970868100218954],[85.16180128777201,26.971385313530636],[85.1618426182732,26.971788932031664],[85.16194884602957,26.97207701606264],[85.16205519957757,26.972249941523053],[85.16245816701213,26.97339996478441],[85.1624786769049,26.97374512849322],[85.16252075607186,26.97397500804245],[85.16256352233434,26.9740333380023],[85.16258415597245,26.97426340554547],[85.1625839068561,26.97436049657003],[85.16258378266767,26.97453198459766],[85.16257879385036,26.976430229560886],[85.16287615814603,26.977238090571632],[85.16342830529634,26.978445566999355],[85.16357586516375,26.9792523662021],[85.16355367069501,26.9795392002204],[85.163617070859,26.979827597805993],[85.16412639188033,26.981209250848508],[85.1642738888409,26.981957344439977],[85.16427920348605,26.982043120126114],[85.16361164623105,26.982053126093486],[85.1631627324473,26.982129088762548],[85.16290576335892,26.98212896522613],[85.16252124779442,26.982222432097714],[85.16175152867066,26.982280702946134],[85.16066125572645,26.982526655922054],[85.15965613830654,26.982659075088748],[85.15952821587625,26.98266013861777],[85.15937853671929,26.982679457881],[85.15888660680065,26.982735414402903],[85.15843837954704,26.982696218099818],[85.15749828415503,26.98254142766836],[85.15640832221727,26.982518801021225],[85.15583148537382,26.982460349735998],[85.15467843610244,26.982171896343736],[85.15454995101032,26.98211425494446],[85.15452707106526,26.982708054651123],[85.15452445141922,26.9836854044014],[85.15473684648406,26.984376606215804],[85.1548639568598,26.98460804792378],[85.15488527808216,26.984722957151135],[85.15496993599909,26.984990848006813],[85.15509760893316,26.985222290254953],[85.15528949338399,26.985453169781827],[85.15556653414627,26.985683423491746],[85.1557794890543,26.98593218225892],[85.15616356966379,26.986278844993663],[85.15637614893484,26.9865660530427],[85.15675997998417,26.98689239690604],[85.15712267793229,26.987316019575506],[85.15731449857365,26.987470126890113],[85.15759091572632,26.987950891539906],[85.1574623075652,26.988121254672684],[85.15711937145642,26.988408466182687],[85.15696881835471,26.988773073449657],[85.15696869528732,26.98900332855778],[85.15705272843974,26.98946308856104],[85.15726456088964,26.990154227736245],[85.15745575901882,26.990615362622524],[85.15766746656249,26.991363018438964],[85.15770942239905,26.991766636608176],[85.15785704210116,26.99234324335154],[85.15802754472512,26.99268715584869],[85.1582180556544,26.99320705768901],[85.15849397509275,26.99412788967135],[85.15862015005489,26.994761074565456],[85.15885411514867,26.99533699277639],[85.15906582249139,26.996143290848774],[85.15925739484328,26.99639223855939],[85.15951305207518,26.996566163109435],[85.16028221040737,26.996814857053412],[85.16079465022632,26.99702729215284],[85.16156368277916,26.997201526178895],[85.16173437113912,26.997258855250323],[85.16186248028951,26.997278047321572],[85.16214020730249,26.99733668803944],[85.16290948992348,26.997413832011496],[85.16436264755865,26.997397319060653],[85.16489121616785,26.99733879954281],[85.16573246104969,26.99724608004245],[85.16650343054516,26.997054582028223],[85.16701724328773,26.99703676193198],[85.16735955582462,26.99694135707971]]]}},{"type":"Feature","properties":{"province":"Madhesh Province","district":"Bara","municipality":"Adarsh Kotwal Rural Municipality","ward":"2","wardNumber":2,"sourceMunicipality":"Adarshkotwal","sourceType":"Gaunpalika"},"geometry":{"type":"Polygon","coordinates":[[[85.12944628805083,26.98801274349132],[85.12981104372011,26.987515470061357],[85.12994040113395,26.987227822080104],[85.12994283476483,26.98646034727457],[85.13002811517374,26.986306175955292],[85.1301568495858,26.98619232922094],[85.13032822461818,26.986134499409086],[85.13073368639611,26.986309548318495],[85.13105299321468,26.986616199541587],[85.13150022298022,26.98724913322208],[85.13169160721827,26.987423620708768],[85.13194832652485,26.987462193402504],[85.13310212435601,26.987443932240264],[85.13342305333482,26.98729232396537],[85.13367914798306,26.987387287979317],[85.13382876621075,26.98748537783615],[85.13412706484645,26.987771898042485],[85.13438297157467,26.98785110772969],[85.13463950249582,26.987869362242655],[85.13489615922643,26.98783116174065],[85.13515237794725,26.987754637953657],[85.135280737248,26.98767911512037],[85.13560185423233,26.987602028751667],[85.13598605790652,26.98766210671826],[85.13611447996904,26.987719747533745],[85.1364769888223,26.98781614899225],[85.13649843436242,26.98781596125925],[85.13739601249951,26.98781777006364],[85.1381012098133,26.987913544381435],[85.13874200728627,26.98793548523825],[85.1397677573711,26.987897843474855],[85.14111381381701,26.987900462583347],[85.14154115729512,26.98786313663861],[85.14171247034082,26.987864011333283],[85.14177655622292,26.98784544250412],[85.14228930641575,26.987845814962697],[85.14305890054484,26.98771314746177],[85.14312336176168,26.987732965371276],[85.14382849440928,26.987636933740653],[85.14434168246186,26.98761917527345],[85.14479022121658,26.987561406534162],[85.14498291767643,26.987562093283632],[85.14530359771639,26.987620483383697],[85.14588049646147,26.987622480908556],[85.1469058727712,26.987738259698222],[85.14729038919619,26.987701246626074],[85.14793187402132,26.98772087393748],[85.14838022657172,26.98778038984738],[85.1485727971533,26.98776075801288],[85.14889335175772,26.98781908583306],[85.14946993892852,26.987839213642275],[85.15036782977843,26.987746118809174],[85.150560150557,26.987764810738756],[85.1512015730912,26.98772798475023],[85.15241983214678,26.987729291020738],[85.15282591779184,26.987710158185543],[85.1529754098977,26.98773153888887],[85.15355243373536,26.987674893763813],[85.15457812171526,26.987637127667206],[85.1548989268831,26.987657069259892],[85.15534809188924,26.987601425069762],[85.15611693573037,26.987640307910773],[85.15662968714078,26.987755714170557],[85.15694999300625,26.987795912054978],[85.15759091572632,26.987950891539906],[85.15731449857365,26.987470126890113],[85.15712267793229,26.987316019575506],[85.15675997998417,26.98689239690604],[85.15637614893484,26.9865660530427],[85.15616356966379,26.986278844993663],[85.1557794890543,26.98593218225892],[85.15556653414627,26.985683423491746],[85.15528949338399,26.985453169781827],[85.15509760893316,26.985222290254953],[85.15496993599909,26.984990848006813],[85.15488527808216,26.984722957151135],[85.1548639568598,26.98460804792378],[85.15473684648406,26.984376606215804],[85.15452445141922,26.9836854044014],[85.15452707106526,26.982708054651123],[85.15454995101032,26.98211425494446],[85.15450805982304,26.982017538617125],[85.15423145586088,26.981575160556925],[85.15382605499701,26.98123093641522],[85.15365530321664,26.98103819301952],[85.15331536239158,26.980499286623555],[85.15318800105274,26.98011667455544],[85.15314691868598,26.97942628464173],[85.15301955781415,26.979041359256257],[85.15289150941254,26.97896565051418],[85.1525925879486,26.97898390759073],[85.15240051760121,26.97892689155925],[85.15214448529724,26.978770909341936],[85.15208052375057,26.97867663271415],[85.15191102026868,26.97812053238757],[85.15174363813124,26.976891797279894],[85.1515104233678,26.976200782464474],[85.15138306242382,26.975989659262495],[85.15102024182748,26.975873001312788],[85.15089181988681,26.975874065421863],[85.14980273142024,26.97567982652146],[85.14884225256354,26.97542807012597],[85.14833012631138,26.975235891221693],[85.14813811791224,26.97512010752065],[85.14781837354425,26.974831524477693],[85.14766931751166,26.974543878682255],[85.1476056055784,26.97446760667549],[85.1475207612574,26.974238101465073],[85.14752157184415,26.974007847068826],[85.14758646917284,26.97370038119852],[85.14769369394696,26.973469249786195],[85.14782242811353,26.973317016898477],[85.14788738715207,26.97300948899302],[85.14784587046204,26.97270289922593],[85.14769700166818,26.972491899943936],[85.14716280530645,26.972356363429306],[85.14690646110117,26.972414881384907],[85.14671432862545,26.97241419477274],[85.14639358555216,26.972335548517535],[85.14600956839404,26.97216262437467],[85.14575403628851,26.971990888400708],[85.14558328534805,26.97179814515714],[85.145328813347,26.971240482693922],[85.1451585619347,26.971029734028242],[85.14468932576868,26.970778475137923],[85.14385626964253,26.97060467843205],[85.14315182309008,26.970508841133586],[85.14263919693434,26.970391121664182],[85.14251077486198,26.9703921852148],[85.14167884322129,26.970082910787315],[85.14150796779191,26.969948872217106],[85.14122999144277,26.970102356952257],[85.14084522594436,26.970177693279208],[85.14058900671706,26.970177506970515],[85.14020424055327,26.970119679172953],[85.13956325582681,26.970136187867443],[85.13917861545893,26.970213774853022],[85.13907126429768,26.97030942845791],[85.138856937368,26.970539122008223],[85.13821283402784,26.971745105027143],[85.13782707003688,26.97214772498991],[85.13748425856744,26.972319777279207],[85.13729193807704,26.97235747707746],[85.13709999178243,26.97230033666881],[85.13652465353952,26.971837765823746],[85.13620465967547,26.97164627402341],[85.13601246401662,26.97156887709402],[85.13588454194611,26.971569815940683],[85.1355637375682,26.971664969867263],[85.13543537909246,26.971740492688735],[85.13526394175187,26.97191342002813],[85.13519891926092,26.97208547059567],[85.13515222429135,26.973582285504342],[85.13519243165852,26.974387772188162],[85.1351487913704,26.97455963574206],[85.13514860561082,26.974789891014016],[85.13510502814755,26.974905362712395],[85.13501930998385,26.975018896503467],[85.13471951349712,26.97521089110121],[85.13461266198642,26.97522983490614],[85.13422852093116,26.975113302469556],[85.13393015975457,26.974941879293308],[85.13367425250381,26.974785959118794],[85.13333268932975,26.974651046870342],[85.13281987628145,26.974632606703995],[85.13262749308099,26.974670242974447],[85.1323705882104,26.974861926180324],[85.13217801830194,26.974937887088842],[85.13192142410246,26.97497621155414],[85.13160111843834,26.97487937285839],[85.13147313397496,26.97480135043485],[85.13121685148703,26.97474483500585],[85.13096119503601,26.97462723966044],[85.13089698409122,26.974627739551032],[85.13044894366458,26.974416930124526],[85.13012882486127,26.974205057454014],[85.12993694221643,26.974166046643738],[85.12980845699425,26.974164796984006],[85.12948827809352,26.97425988897485],[85.12910270111628,26.97450902676772],[85.12873838148091,26.97485500499302],[85.12845946878853,26.975179977077477],[85.12843746169867,26.975313328855492],[85.12850167320195,26.97537153274728],[85.12867248679568,26.975449117707704],[85.1289715969907,26.975507695641916],[85.12914178458945,26.975583092044356],[85.12931272187396,26.975604347022497],[85.12999709724332,26.97552882132577],[85.13016734737766,26.9756041554802],[85.13040181050343,26.975873108456565],[85.13048634372798,26.976199766450186],[85.13048546996413,26.976488664148647],[85.13059001247258,26.977178491028965],[85.13088656572837,26.978175907528396],[85.13103505843215,26.978407287020072],[85.13131172557279,26.978809091157967],[85.1318872511686,26.979233276045395],[85.13218555001754,26.979522046660108],[85.13227014497733,26.979733545623045],[85.1322056849931,26.979962050251803],[85.13192702252404,26.98025094957506],[85.13184174100115,26.980287710502974],[85.13134974895888,26.98034360486284],[85.13057990537013,26.980573238721192],[85.12993761133826,26.981090831095134],[85.12974497886809,26.981166792108294],[85.12957347958874,26.98133971875019],[85.1293594014244,26.981472321350545],[85.12925205057414,26.981567974989133],[85.12912281715418,26.981873753177176],[85.12912263116388,26.982103946203857],[85.12933452435973,26.982508563498012],[85.12944106385999,26.98264310238925],[85.12978294030228,26.98275775944368],[85.13021028426262,26.982720433901644],[85.13038090946567,26.982777762750217],[85.13044505881456,26.98283596697879],[85.13046569209914,26.983009580511457],[85.13040129444803,26.983181631124737],[85.13040054522361,26.98329672744602],[85.13025074084086,26.983431142412414],[85.12992949970483,26.983621012722665],[85.12986535160499,26.983756989972278],[85.12986329243977,26.98436866998151],[85.12971311458762,26.984715210313247],[85.12949897492567,26.98484781280009],[85.12937048960866,26.984848876097132],[85.12917854296703,26.984674388824576],[85.12885961156863,26.984272897599247],[85.12853986716648,26.983984313951726],[85.12828377355723,26.983945741536512],[85.12809095295721,26.984060151122552],[85.12798372776743,26.9841738722606],[85.12783361090092,26.9844030032083],[85.12778990968299,26.984633571308283],[85.12763898191565,26.9850365656087],[85.12727453774997,26.985438997785902],[85.1270171961637,26.985784163321718],[85.12680199435212,26.986185345145483],[85.12622303741497,26.986932567492275],[85.12615795214221,26.987163322584745],[85.12626393189467,26.98762295718962],[85.12643380729683,26.98785402458097],[85.12654059708642,26.98795023981332],[85.12664738662465,26.987987750558922],[85.12690354338957,26.988026322515466],[85.12707473105554,26.987950487339884],[85.12733119899318,26.987894281406888],[85.12784382507103,26.988009750783046],[85.12841966386536,26.988336906204573],[85.1285907265011,26.988376229084924],[85.1291037890744,26.98828182365184],[85.12918907044617,26.98824274938439],[85.12944628805083,26.98801274349132]]]}},{"type":"Feature","properties":{"province":"Madhesh Province","district":"Bara","municipality":"Adarsh Kotwal Rural Municipality","ward":"3","wardNumber":3,"sourceMunicipality":"Adarshkotwal","sourceType":"Gaunpalika"},"geometry":{"type":"Polygon","coordinates":[[[85.16252124779442,26.982222432097714],[85.16290576335892,26.98212896522613],[85.1631627324473,26.982129088762548],[85.16361164623105,26.982053126093486],[85.16427920348605,26.982043120126114],[85.1642738888409,26.981957344439977],[85.16412639188033,26.981209250848508],[85.163617070859,26.979827597805993],[85.16355367069501,26.9795392002204],[85.16357586516375,26.9792523662021],[85.16342830529634,26.978445566999355],[85.16287615814603,26.977238090571632],[85.16257879385036,26.976430229560886],[85.16258378266767,26.97453198459766],[85.1625839068561,26.97436049657003],[85.16258415597245,26.97426340554547],[85.16256352233434,26.9740333380023],[85.16252075607186,26.97397500804245],[85.1624786769049,26.97374512849322],[85.16245816701213,26.97339996478441],[85.16205519957757,26.972249941523053],[85.16194884602957,26.97207701606264],[85.1618426182732,26.971788932031664],[85.16180128777201,26.971385313530636],[85.16156738651183,26.970868100218954],[85.16152524535588,26.970751129231196],[85.16146153313659,26.970618465345783],[85.16139738412451,26.970445164828405],[85.16116335760145,26.970040859345083],[85.16099335592557,26.96973527021733],[85.16095102711766,26.96960023122605],[85.16078121274091,26.969254005452477],[85.16061058640558,26.969022938227592],[85.1604193891026,26.968735605086877],[85.16018536343869,26.968389942275984],[85.16005768985426,26.968102108309996],[85.16003711838627,26.967872040447187],[85.15991019373682,26.967353888633024],[85.15959213371531,26.966548528944617],[85.15951460539931,26.966422805078768],[85.15948578153042,26.966375603972722],[85.15927457542128,26.965799560745193],[85.15899903419123,26.96533911427485],[85.15887204728183,26.964992513138267],[85.15861726409021,26.964588332936774],[85.15846883328103,26.96430068702985],[85.15844813682386,26.964185778297573],[85.15827826079803,26.96395471155141],[85.1581297666025,26.963667002545748],[85.15806680511773,26.963475633638854],[85.15808849987766,26.96337841738407],[85.15808931131836,26.963091771037092],[85.15817646529776,26.96274573163246],[85.15839147922924,26.962344487752144],[85.15843536871932,26.962075470419045],[85.15807329728686,26.961843717137455],[85.15764795066038,26.9614409760018],[85.1574566919669,26.961210034258528],[85.15718052547231,26.960749525450616],[85.15711706349435,26.960576349534232],[85.15711918629954,26.96011590158163],[85.15722784819833,26.959713220570745],[85.1572286592659,26.959424323266763],[85.15712386755149,26.958964750607482],[85.15712680192068,26.958330439271496],[85.15725615973899,26.957986337459413],[85.15742822084859,26.95775470652773],[85.15757902497381,26.95746905922247],[85.15781460943829,26.957239114668308],[85.15792239823834,26.957066688993407],[85.15800961392883,26.95660555262566],[85.15801036321895,26.956431752132044],[85.15792620522778,26.956087088479155],[85.15779896983895,26.955837641070588],[85.15765047708068,26.95572148266727],[85.15722381947889,26.955567001498256],[85.1567979735337,26.955240970514865],[85.15647897941187,26.954837291201063],[85.15641551788035,26.954663991034298],[85.15635274248231,26.954319202019132],[85.1563342939105,26.95374372050453],[85.15640093942308,26.953052579818326],[85.15640243708881,26.952648523216293],[85.1564459525727,26.952535302900625],[85.15644751325044,26.952131308954936],[85.15634197146453,26.95178683316669],[85.15645057190451,26.951384152028602],[85.15683689724007,26.950922826606444],[85.15690185788452,26.95075071296066],[85.1568809124018,26.950674128502467],[85.15675692306822,26.949695529183206],[85.15675729681885,26.949542108632375],[85.15669446027887,26.94931016573746],[85.15665493935673,26.948466293325897],[85.15653045085311,26.947623171129163],[85.15653126282898,26.947392978575778],[85.15642491069383,26.947276444310194],[85.15550551165293,26.94744874996105],[85.15512068398355,26.947562535234777],[85.15447957511577,26.947676135155586],[85.1539019269562,26.947827557475957],[85.15306824763609,26.94796078864463],[85.15249116257739,26.9481145236516],[85.1522984050549,26.948170229295012],[85.15182867048819,26.94822824876275],[85.15176420904002,26.948267135041245],[85.15163572498953,26.94826594792014],[85.15028904605728,26.94853203343758],[85.14945474156669,26.948780360609977],[85.14932694536748,26.94877911070905],[85.14887790647526,26.948893397026428],[85.14778707094816,26.949179923897415],[85.14765852418425,26.949237379458523],[85.14682472017599,26.94940893408247],[85.14624782229141,26.949580674779376],[85.14560627562219,26.94971453060103],[85.1454135177766,26.94977023509156],[85.14528522124427,26.949789428635626],[85.14494309638427,26.949828254587057],[85.1447288939891,26.949999306090184],[85.14500474808254,26.950498138284296],[85.1453002356658,26.951267675701608],[85.14555133564365,26.952495722358968],[85.14574172120176,26.952956919932237],[85.14641460887215,26.95541388786649],[85.14652089919879,26.95564551866443],[85.1465619165224,26.956028880445405],[85.14653972262519,26.956259324056187],[85.14658105131495,26.95648920329936],[85.14655929470516,26.956642874017863],[85.14670697624172,26.9571043833008],[85.1467056654955,26.95741134844044],[85.14659775306477,26.957640166402822],[85.14619023075231,26.95806104222524],[85.14593238798751,26.958291111217548],[85.1455473735065,26.958560567423877],[85.14522544498345,26.958865659013977],[85.14490364106327,26.95905790481544],[85.1437891141932,26.96005320261228],[85.14357491104849,26.960167862184765],[85.14346756043459,26.960263578541547],[85.14282413998028,26.960781172069826],[85.14239660974641,26.96091327492545],[85.14211769642361,26.961163787788855],[85.14168966594619,26.961372663760955],[85.14153923732712,26.96150707895282],[85.14136829939365,26.96160323365662],[85.14102579988813,26.961736962252072],[85.14059945524733,26.961600486949507],[85.14017329724668,26.961256324962182],[85.13974670263497,26.961101782299963],[85.13923513862994,26.960830579477502],[85.13889370022444,26.96075430905643],[85.13855251190553,26.960581010244066],[85.13829648041411,26.960542500297336],[85.13797586301344,26.960599205599856],[85.13739765360377,26.96096281538219],[85.13716081867737,26.961269407066318],[85.1370321481176,26.96149841202485],[85.13696656328375,26.961805940995447],[85.13702927569341,26.96209433785462],[85.1370929871111,26.962229251873104],[85.13755935074131,26.963074123105912],[85.13762287534799,26.963130013660134],[85.13787753315337,26.963592960879495],[85.13808973823272,26.963900425225567],[85.13832232679408,26.964361246834446],[85.13851352312534,26.964648643226788],[85.13883407815845,26.96464832924471],[85.13909067194285,26.964553674507226],[85.13934745303726,26.96453579346853],[85.13966850741545,26.964402314652407],[85.1397968040105,26.96438318362955],[85.14018132013646,26.964420692154302],[85.14045861034921,26.964499714426253],[85.14052213415967,26.964555605422962],[85.14071308162062,26.964940029744394],[85.14075459871918,26.96524893281617],[85.14073221673961,26.965400352455088],[85.14055978007383,26.965785466708837],[85.14043117216066,26.965899375624907],[85.14019427429945,26.966264671756697],[85.14006591624376,26.96639883713851],[85.14003527997392,26.966423969385772],[85.13985165069268,26.966569888585386],[85.13974404984903,26.96670392798655],[85.1394657635582,26.967087605006963],[85.13920773438743,26.96760432060956],[85.13918585164274,26.967681280626415],[85.13924931362756,26.967854519173038],[85.13933440845007,26.967989245273948],[85.13959056576313,26.968160982038434],[85.14074342740982,26.968508266008406],[85.1410632336754,26.968681752846955],[85.14138266542052,26.96900865954123],[85.14148895538298,26.969240289139847],[85.14155235549255,26.969469981508567],[85.14155198127732,26.969623402097024],[85.14150796779191,26.969948872217106],[85.14167884322129,26.970082910787315],[85.14251077486198,26.9703921852148],[85.14263919693434,26.970391121664182],[85.14315182309008,26.970508841133586],[85.14385626964253,26.97060467843205],[85.14468932576868,26.970778475137923],[85.1451585619347,26.971029734028242],[85.145328813347,26.971240482693922],[85.14558328534805,26.97179814515714],[85.14575403628851,26.971990888400708],[85.14600956839404,26.97216262437467],[85.14639358555216,26.972335548517535],[85.14671432862545,26.97241419477274],[85.14690646110117,26.972414881384907],[85.14716280530645,26.972356363429306],[85.14769700166818,26.972491899943936],[85.14784587046204,26.97270289922593],[85.14788738715207,26.97300948899302],[85.14782242811353,26.973317016898477],[85.14769369394696,26.973469249786195],[85.14758646917284,26.97370038119852],[85.14752157184415,26.974007847068826],[85.1475207612574,26.974238101465073],[85.1476056055784,26.97446760667549],[85.14766931751166,26.974543878682255],[85.14781837354425,26.974831524477693],[85.14813811791224,26.97512010752065],[85.14833012631138,26.975235891221693],[85.14884225256354,26.97542807012597],[85.14980273142024,26.97567982652146],[85.15089181988681,26.975874065421863],[85.15102024182748,26.975873001312788],[85.15138306242382,26.975989659262495],[85.1515104233678,26.976200782464474],[85.15174363813124,26.976891797279894],[85.15191102026868,26.97812053238757],[85.15208052375057,26.97867663271415],[85.15214448529724,26.978770909341936],[85.15240051760121,26.97892689155925],[85.1525925879486,26.97898390759073],[85.15289150941254,26.97896565051418],[85.15301955781415,26.979041359256257],[85.15314691868598,26.97942628464173],[85.15318800105274,26.98011667455544],[85.15331536239158,26.980499286623555],[85.15365530321664,26.98103819301952],[85.15382605499701,26.98123093641522],[85.15423145586088,26.981575160556925],[85.15450805982304,26.982017538617125],[85.15454995101032,26.98211425494446],[85.15467843610244,26.982171896343736],[85.15583148537382,26.982460349735998],[85.15640832221727,26.982518801021225],[85.15749828415503,26.98254142766836],[85.15843837954704,26.982696218099818],[85.15888660680065,26.982735414402903],[85.15937853671929,26.982679457881],[85.15952821587625,26.98266013861777],[85.15965613830654,26.982659075088748],[85.16066125572645,26.982526655922054],[85.16175152867066,26.982280702946134],[85.16252124779442,26.982222432097714]]]}}]}