{"type":"FeatureCollection","features":[{"type":"Feature","properties":{"province":"Madhesh Province","district":"Bara","municipality":"Simaraungadh Municipality","ward":"11","wardNumber":11,"sourceMunicipality":"Simraungadh","sourceType":"Nagarpalika"},"geometry":{"type":"Polygon","coordinates":[[[85.15526106977156,26.92203359487268],[85.15541236942734,26.921190409019452],[85.15554135267303,26.920941085031775],[85.15558436628699,26.92071051749585],[85.15590498335743,26.920671753913183],[85.15710110923098,26.920673248186105],[85.1580408915306,26.920730947715285],[85.1582123292239,26.920693435682647],[85.15838326618129,26.920597157102634],[85.15855407769908,26.92055970759166],[85.15889620252814,26.920405659859373],[85.15902474859234,26.920291750916775],[85.15919562307174,26.920195597387128],[85.1593670609104,26.92015802258264],[85.1596234044713,26.920176276575805],[85.15979434153871,26.920138701766323],[85.16005074845947,26.92015920704951],[85.16022106149792,26.92025485918991],[85.16037030532026,26.920445476626117],[85.16075407277954,26.920792139240604],[85.16090356587362,26.92100307514861],[85.16128708410793,26.92138587355389],[85.1621620941929,26.92169239656402],[85.16250409492335,26.921770855084638],[85.16301672083515,26.921847874588423],[85.16344418915388,26.921848935294722],[85.16367883759592,26.92177247426186],[85.16387165766982,26.92173246116401],[85.16412775077804,26.921655937806374],[85.16489059323803,26.92164280444186],[85.16506803282097,26.92163905305978],[85.16540972014151,26.92156177803561],[85.16575153218793,26.92156346443854],[85.16694884476439,26.921314259463564],[85.16737618785457,26.921182093555885],[85.16759032743279,26.921008791340256],[85.16784660777685,26.920893818671075],[85.1681459664451,26.920683692954526],[85.16925799512924,26.920225302629806],[85.16960030644724,26.920035119603856],[85.16977168084806,26.919920835671636],[85.17002839847211,26.919670385377515],[85.17019933592104,26.919576481653923],[85.17062680427661,26.919462321233166],[85.17105477175183,26.919269137103587],[85.17156720869063,26.919212992821944],[85.17208039533546,26.91898298527432],[85.17242227072924,26.91898467142515],[85.17344826975852,26.918736905296132],[85.17379008207556,26.91873627831134],[85.174302769118,26.918641810143015],[85.17473023795343,26.918642621160245],[85.17515720729259,26.91872039118718],[85.17575592601646,26.918607042336596],[85.17635445658317,26.918414733023692],[85.17643948744603,26.918416233254153],[85.17663255611166,26.918033181951657],[85.17665468696146,26.917802801392956],[85.17661267046334,26.917514216929565],[85.17667700446779,26.9172834613696],[85.17697679987882,26.91699656260939],[85.1770410726387,26.916883153806396],[85.17699880589532,26.916691660951994],[85.17693434467482,26.9166132001173],[85.17657177272643,26.91636344136094],[85.17648686547405,26.916249032972505],[85.17648692715404,26.916077483221827],[85.17730028153585,26.915291997462255],[85.17745021008244,26.915062804270054],[85.17749353743197,26.914870560183605],[85.17749384899791,26.914717077757896],[85.17721605961633,26.91464043190362],[85.17710951954444,26.91456228379789],[85.17706681529542,26.914391109310625],[85.17676851735835,26.91421755973701],[85.1767471962323,26.914102651134435],[85.17672612471,26.913834197377188],[85.17657719480538,26.913738420053548],[85.17640600609724,26.91367890311196],[85.17634204448085,26.913584626337208],[85.17636392721776,26.91344902326741],[85.17647102788908,26.9133352391292],[85.17689830895242,26.913200822960896],[85.17694132425868,26.91316206147214],[85.17694138599671,26.91304696526969],[85.17655761789638,26.912702553423696],[85.17647271088669,26.912588082605822],[85.17642975703352,26.91245310563745],[85.17651541242178,26.912337258746714],[85.17698602083594,26.91206930200412],[85.17692249649498,26.91195464383358],[85.1767513090121,26.91195383251989],[85.17653773026913,26.91187887354362],[85.17641005697054,26.911706136547014],[85.17643150210863,26.91164730639988],[85.17653872835149,26.911551589694092],[85.17683789946918,26.91143849307806],[85.17703009394647,26.91128338372666],[85.17737190655508,26.911285069804496],[85.17745793806478,26.911207608837103],[85.17745799972353,26.911151154710716],[85.17733063854914,26.910824997421486],[85.17726623925351,26.910748787764334],[85.17707448119255,26.91070971477687],[85.17692517573508,26.910516846805837],[85.17675467507495,26.910403189267587],[85.17666926789141,26.91036324030428],[85.17641242452245,26.910421820972296],[85.17632726840114,26.910402253103943],[85.17611350249175,26.910363367895847],[85.17594318922966,26.910209073698624],[85.17594325109317,26.910093977425422],[85.17598626660013,26.910055215327695],[85.17617846202019,26.91007622127277],[85.17624229770092,26.910037271797854],[85.17637128028517,26.90978794786],[85.17645643647852,26.90974881039882],[85.17660586552545,26.909711486406145],[85.17671309113145,26.909559378259786],[85.17669252084774,26.909385765193246],[85.1765649092376,26.909041477403598],[85.17647956452919,26.908886432007655],[85.17624497643136,26.90859947420875],[85.1760744139674,26.908542270799828],[85.17590322591724,26.908541396040956],[85.17579656281815,26.908637112062845],[85.17573179063777,26.909001032668613],[85.17562468993496,26.909117129306036],[85.17553928445615,26.90913582264051],[85.17521885424902,26.90913394915358],[85.17513350981751,26.909096313575212],[85.17513382185624,26.9089428309546],[85.17517633688223,26.908865745928697],[85.17536915592787,26.9086948194906],[85.17541242108992,26.908559029123793],[85.17532688933963,26.908444683640365],[85.17507073288202,26.90838585531047],[85.17481401433268,26.90846244180238],[85.17457880338796,26.908597607208552],[85.17423717928425,26.908672693704617],[85.17372455480428,26.90871077058006],[85.17366015596878,26.908749719101422],[85.17342425988267,26.909130895050826],[85.17329583871619,26.90924705463505],[85.17314615911349,26.909322765975777],[85.17271912838221,26.909418858315497],[85.17220687764686,26.909244809794764],[85.17186512695957,26.909186732685924],[85.1717366426312,26.909244187843342],[85.17165098651071,26.90930133018207],[85.17096673800972,26.909607235726337],[85.17036883200447,26.909607676282693],[85.16985651828465,26.90949008243586],[85.16968533071714,26.909491458168315],[85.16925836101073,26.90941375091524],[85.1684895799394,26.909393060716184],[85.16814758046527,26.909488465900772],[85.16763439372399,26.909718410747434],[85.16739887139647,26.90988964995449],[85.16722762137444,26.909947480593125],[85.16705705939674,26.909946606219243],[85.16620318263261,26.909791190240984],[85.16603193264014,26.90979262888048],[85.16534868162941,26.909638024982097],[85.16489076269525,26.909483794465643],[85.16466586794091,26.909406585008483],[85.16398186673703,26.909367139845013],[85.16338396019938,26.909252484500165],[85.16312811554532,26.909098815369116],[85.16268007519577,26.90892651682131],[85.162466558409,26.908790540542263],[85.16227486239342,26.90863868445414],[85.16208304031795,26.90840774286665],[85.16189128076651,26.908061766641822],[85.16176554074887,26.9070854809011],[85.16144704257503,26.90610625745977],[85.16117000020876,26.9056074245566],[85.16099974949114,26.9053967384551],[85.16085063121946,26.905280517671777],[85.16059434918036,26.905203746808787],[85.16038070873508,26.905243821552666],[85.16027360793139,26.905357605546182],[85.16018770308274,26.905511713813873],[85.16012336832337,26.905740219309923],[85.15988728442163,26.906105515035197],[85.1596523867287,26.906276754414943],[85.15922523012634,26.906180978152527],[85.15888360335468,26.906007742154856],[85.1585425401066,26.905893147553172],[85.1581151965229,26.905835695100873],[85.15781602362193,26.90581562798164],[85.15762389062475,26.905738169446003],[85.15702617214517,26.9057002239395],[85.15676982780637,26.905623327433226],[85.1565136083463,26.905623141335276],[85.15600085892102,26.905640899390846],[85.15540263968414,26.90567966391798],[85.15463379518987,26.905525747571513],[85.15429273136134,26.90541115339497],[85.15397267561575,26.905255796314524],[85.1537167057712,26.905027606041934],[85.15337595314085,26.904509017642425],[85.15295047865233,26.903645766192817],[85.15292978291949,26.903472152361644],[85.15267493381168,26.902609775634364],[85.15259102467365,26.902034856763887],[85.15248504537753,26.9016317390908],[85.15244327677509,26.901056507976328],[85.15244389927697,26.900749605144934],[85.15240207111046,26.900596373185316],[85.152402194322,26.900424822610777],[85.15246665362095,26.90013767485858],[85.15242656941932,26.899043291205807],[85.15232052836168,26.898583719664728],[85.15210819643984,26.898066318222796],[85.15200178181824,26.897873074316326],[85.15183103176567,26.897854132957814],[85.15114728305173,26.898083203794204],[85.15054875079906,26.898083581210045],[85.15020725047978,26.898045697484967],[85.14986575042418,26.897949170387477],[85.14928991232368,26.897642396066267],[85.14860703597576,26.897334246082977],[85.1480952843796,26.897142067361777],[85.14766806448363,26.897025910736843],[85.14715581459464,26.89696914690363],[85.14681400147886,26.89696739834607],[85.14595943959874,26.897044300073137],[85.14544700304543,26.89721547775067],[85.14459231638799,26.897407538513747],[85.14416484872932,26.89758027972484],[85.1433103482726,26.89759847639589],[85.14262709794752,26.897502452056194],[85.14224608290759,26.897417491429334],[85.14207164563368,26.89759723240149],[85.14196460735894,26.897769658557685],[85.14189945982643,26.898056805971464],[85.14189927326643,26.898228356577068],[85.14196248771104,26.89869055457378],[85.14208916231894,26.899206455237252],[85.14261973997833,26.900644438061143],[85.14295968224064,26.901393281176837],[85.14308641902713,26.901796273699848],[85.14327699387911,26.902715668499525],[85.14348863837155,26.903350353607646],[85.14365895266151,26.90357929510003],[85.14408517297797,26.90396403108259],[85.14425586098773,26.904039427144053],[85.14440560397844,26.90415558500992],[85.14474710457027,26.90425211226037],[85.14500313640463,26.90436739443963],[85.1451736379927,26.90448111487229],[85.14553589725737,26.90482802744889],[85.14574847871262,26.905307042274554],[85.14574748018875,26.905708847374314],[85.14564025598817,26.905996369731948],[85.14546882003839,26.90628439312593],[85.14506186094702,26.906687201061224],[85.14493319089033,26.90697491158822],[85.14503929401646,26.90731932481796],[85.14531589843894,26.907779833415425],[85.1455709326319,26.90835562588437],[85.14557012171458,26.908585819194553],[85.14573943875988,26.909390242044168],[85.14573925229358,26.909620497049172],[85.14575988617526,26.909794110721876],[85.14578064560857,26.91004224599994],[85.14586412015697,26.911077549382163],[85.14601136687227,26.911940864756083],[85.14605213851817,26.91286144740706],[85.1461572444801,26.913666309112042],[85.14615531162148,26.9144721704],[85.14619789060582,26.91470211258324],[85.14617551066728,26.9151626233632],[85.14604615355796,26.91550672566102],[85.14598169443927,26.915852639318782],[85.14587378141312,26.916140161857896],[85.14585208839671,26.916542093124246],[85.14591548809116,26.9167153940047],[85.1460431609915,26.916885942971586],[85.14623498273832,26.917060430930384],[85.14649095314827,26.917405906325968],[85.14655422833188,26.91775075725788],[85.14653097488647,26.918498038973343],[85.14644507055175,26.918785373749856],[85.14625038116549,26.919820741914723],[85.14624944523001,26.92016609357537],[85.14618486152645,26.920624791401465],[85.14605587847889,26.920817660634125],[85.1458634344451,26.92108561537471],[85.14573488841242,26.921199462088804],[85.14543515507461,26.921373452224437],[85.14507227203157,26.921410277657387],[85.14449543626725,26.92139021240007],[85.14423909180854,26.921313191008494],[85.1435982934067,26.921198786029976],[85.1431502532503,26.921026362079164],[85.14238253067995,26.920429940602244],[85.14206216410216,26.920430317784078],[85.14154916420057,26.920506654976403],[85.1408440931078,26.920505596487153],[85.14078013215557,26.92046777328769],[85.14065189765803,26.920486841351835],[85.14052328808721,26.920467586577384],[85.13969104339725,26.92008385349697],[85.13905037063338,26.920043907663864],[85.13853830729218,26.919890052291414],[85.13821793930681,26.919831661745985],[85.13802530652883,26.91983097516988],[85.13764079115255,26.91990856253999],[85.13738388585523,26.920023472532378],[85.13674290213048,26.920195713578092],[85.13520434019057,26.920384152066323],[85.13447732476969,26.92057727548044],[85.13456260718763,26.9206714272686],[85.13473304551641,26.920843852444214],[85.13481795297756,26.92115244197571],[85.13483852454196,26.92138251005303],[85.13524311442448,26.92205407968788],[85.13528475756306,26.922437504918854],[85.13522029793288,26.92266594768977],[85.13509181414638,26.922782045198478],[85.13498502622421,26.922934215245334],[85.13498452629129,26.923010925024105],[85.13500547136277,26.92308750988062],[85.13519773083505,26.923300383865506],[85.13551660156486,26.92383729028927],[85.1355806263995,26.92406698259215],[85.13566522064664,26.92421977712385],[85.13570748814489,26.92460313925067],[85.13568935821064,26.92474324265771],[85.13568529449296,26.924777128499173],[85.1356847320111,26.924910291853617],[85.13570611510998,26.92496880891134],[85.13570430453831,26.925350296315436],[85.13566066471283,26.9255808645908],[85.13570211978994,26.925887516643527],[85.13601786864204,26.927115063386275],[85.13603825173337,26.927327063006746],[85.13588832274542,26.927441160171448],[85.13528916808043,26.92770780360609],[85.13464649804858,26.928225334539768],[85.13417489013317,26.928531614560484],[85.13366164113765,26.92870498000925],[85.13312650871576,26.92895305584758],[85.1330617357774,26.929086782662555],[85.13308280731202,26.92924007786219],[85.13331514663868,26.929872450051853],[85.13352728937338,26.930256686602252],[85.13390924511275,26.93079309269386],[85.13439742916084,26.93163783837449],[85.13448221139964,26.931867405231433],[85.1345240403333,26.932022700634317],[85.13486579149956,26.93213742010089],[85.13531358096623,26.93227145717455],[85.13616752000051,26.932424873046788],[85.1374484904031,26.93271470154846],[85.13847299302984,26.93298408819274],[85.13898536842206,26.933158199432484],[85.1393691975752,26.93332893471941],[85.13979548000057,26.933521863955814],[85.14037106794541,26.933848957152325],[85.14118036902411,26.93450145753991],[85.14145790951629,26.934673068883257],[85.14224588867687,26.93521059789541],[85.14282141444338,26.93565284954621],[85.14292770402078,26.935767070530332],[85.14316191670615,26.935959313228572],[85.14509951280205,26.937726697720898],[85.14601541533952,26.938454969381564],[85.14644132334813,26.938857835592803],[85.14673937207107,26.939069833706498],[85.14680308326452,26.939202497521343],[85.1471655927712,26.939375608910993],[85.14765583603582,26.939665066709438],[85.14859474480355,26.940047861561798],[85.14919190283942,26.940203216770477],[85.14978968568985,26.9404150252483],[85.15013112356561,26.940491233745124],[85.15030174811878,26.940492108017725],[85.15106953070043,26.94070479194577],[85.15132593747747,26.940722982638487],[85.15175259426272,26.94082107222766],[85.15192340717057,26.940898656407736],[85.15235000185557,26.94099449478992],[85.15294834601492,26.941014435156813],[85.15448534774806,26.941150841838436],[85.15480559011631,26.941247494037828],[85.15518966810559,26.94124886703201],[85.15533959780399,26.94113477034889],[85.1553630412398,26.940768912676024],[85.1554073675259,26.940308152306784],[85.15549377253258,26.940079459211987],[85.15562431653497,26.939599880325453],[85.15607859890716,26.938219285213926],[85.15672414109521,26.937067380827465],[85.1569387798781,26.936760914776745],[85.15719668387558,26.93630065261509],[85.15728308855543,26.93607196026701],[85.15749829038282,26.935688721221485],[85.15754205502796,26.935534863432093],[85.15760607828972,26.9354575904245],[85.15775750526227,26.934998204218207],[85.1577588167778,26.934691176459793],[85.1577814480406,26.934384086289324],[85.15774036768204,26.934000661073355],[85.15765602208728,26.933692196709956],[85.15748714561036,26.933309772043078],[85.15725343296945,26.932923535390287],[85.15723298675212,26.932770240427985],[85.15702090564174,26.932347679477136],[85.15680926332944,26.93190698821748],[85.1563842910563,26.931294248652407],[85.15621422780495,26.931101567438752],[85.1560017724955,26.930699262996328],[85.15591742684583,26.93033434356292],[85.15576936982944,26.929951856606493],[85.15566420372137,26.929643454079805],[85.15564357086815,26.929472091732414],[85.15543205115351,26.928801207752876],[85.15541166778871,26.9286479127525],[85.15530650099129,26.928206409424913],[85.15528536787704,26.928053051920514],[85.15535163818154,26.927515330604194],[85.1558041726187,26.926518473277536],[85.15586850775219,26.926405126384154],[85.15586925653197,26.926174871370378],[85.15589326096747,26.925560753229817],[85.1558306100255,26.925100806489258],[85.15573757407306,26.924744951966122],[85.15547090685601,26.923720152724865],[85.1553012796275,26.92326108110834],[85.1552595744074,26.922875467324488],[85.15526106977156,26.92203359487268]]]}},{"type":"Feature","properties":{"province":"Madhesh Province","district":"Bara","municipality":"Simaraungadh Municipality","ward":"7","wardNumber":7,"sourceMunicipality":"Simraungadh","sourceType":"Nagarpalika"},"geometry":{"type":"Polygon","coordinates":[[[85.12561266520912,26.894820188945495],[85.12544384968042,26.89416699704217],[85.12525202826978,26.893994697839997],[85.12508109110715,26.893957688216226],[85.12482499705408,26.89395750166581],[85.12422677870988,26.894052532229825],[85.12382100498284,26.894069351718624],[85.12410010379588,26.893590834776337],[85.12437870349353,26.89313044782744],[85.12476396681903,26.89269175453949],[85.12504212899043,26.89244117977231],[85.12564246860316,26.891542599762605],[85.12604892792517,26.891216564982816],[85.12641262261171,26.891082773509297],[85.12711737996457,26.891007185709384],[85.12803521661411,26.891160100461576],[85.12824923199224,26.89116066230491],[85.12859116877968,26.890932156119547],[85.12884763678278,26.890835313589694],[85.12974577480699,26.89033841293155],[85.13017349317498,26.89018592814319],[85.13047222762275,26.890165483492513],[85.1307498915575,26.890242254566793],[85.13102680694949,26.890492827039605],[85.13141094901056,26.890645494787535],[85.13162340385311,26.890934953494597],[85.13230640481883,26.891202591137912],[85.13341649950588,26.891320057954616],[85.13427000045033,26.89151185991354],[85.13486821948419,26.891549930456712],[85.13563675088774,26.89149403505924],[85.13591460219462,26.89139925567017],[85.13655583504462,26.891206820948128],[85.13766667781272,26.890958554706906],[85.13794496647799,26.890843456466857],[85.13822256725867,26.890787063762755],[85.13850010682249,26.890787062042502],[85.13914109063496,26.890691593633104],[85.13944007527829,26.89069371726708],[85.13937679966905,26.890290161421035],[85.13925031088725,26.889600522303528],[85.13893256312572,26.888603167922177],[85.13876324712356,26.887911590716566],[85.13861593889538,26.887222138656032],[85.13863769608236,26.887068406385183],[85.13825342900198,26.886839091023884],[85.13786941228673,26.886704490478934],[85.13759212335046,26.88666385506312],[85.13707818497276,26.88668605187669],[85.13669510745352,26.88670268407278],[85.13588424697646,26.886548955134593],[85.13498735619574,26.886470437004444],[85.13430410495522,26.886374349748696],[85.13374883905193,26.886353971554325],[85.13359928463308,26.886373228215202],[85.13349618487018,26.886446312111303],[85.13340677749505,26.88650795601134],[85.13293579758971,26.887177592925205],[85.13274285253193,26.887389030428334],[85.13265700926922,26.88742585477951],[85.1324221120542,26.88754057695459],[85.13216595558042,26.88759909547297],[85.13197376101712,26.88763673266749],[85.13178212602587,26.887290694325394],[85.13171916229322,26.886907456647403],[85.13159186299296,26.88644807237033],[85.13131551007602,26.88606427422351],[85.13116601646107,26.8859684342222],[85.13071791450002,26.885775692367545],[85.13027037450583,26.885641592837473],[85.12937354497792,26.885506557736644],[85.12911738926611,26.885506433192965],[85.12869023257552,26.885448856257504],[85.12849797455053,26.885427788503065],[85.1285201694868,26.885314755375976],[85.12854298525473,26.88450876806313],[85.12850103118727,26.884278888450492],[85.12848220587983,26.883396504523766],[85.12842105670757,26.883196132855012],[85.12843737518476,26.883065094220722],[85.12845481772422,26.882924990987267],[85.12848382410093,26.882234099975555],[85.12852933916123,26.88200353205868],[85.12863731556794,26.881849110945048],[85.12876711190196,26.881735264414626],[85.12878899476745,26.881660555248256],[85.1290921025173,26.88125862329333],[85.1292859227645,26.88106975406752],[85.1295895311177,26.880591049413933],[85.12969719494711,26.880533781378286],[85.12997367122173,26.8805563497227],[85.13031592102344,26.880483638826643],[85.13063903754245,26.88019892846328],[85.13074563815198,26.880159728810966],[85.13142782602135,26.880167790456028],[85.13177051322127,26.880074761125826],[85.13187848939188,26.879922653455107],[85.13188098842467,26.879672079521736],[85.13183978497379,26.879575364513688],[85.13173505797256,26.87942044411752],[85.13150465893206,26.8790340819961],[85.13138011207784,26.878725867153346],[85.13129833010939,26.878417276649806],[85.13098783538358,26.87756884177435],[85.13094732003948,26.877415671924258],[85.13094543811405,26.876409000904378],[85.13077718929388,26.87644876351479],[85.12812491034988,26.877149358039578],[85.12725890763464,26.87739330886147],[85.1266137981138,26.877574490727042],[85.1255478478165,26.87795767082541],[85.12494269081901,26.878362042891517],[85.12439724444107,26.87875234757874],[85.12413352524304,26.87912683417933],[85.12385173518463,26.8792081093656],[85.12343608279205,26.87923855799848],[85.1232086241672,26.879208738234396],[85.12196948406188,26.87932921721788],[85.12144079079476,26.87937629596992],[85.12142316001163,26.87937867162703],[85.11946719469888,26.87955673454579],[85.11494316658793,26.879935680646543],[85.11407991477809,26.880080165411368],[85.1135211484309,26.880147812509243],[85.11309430397806,26.880063102313144],[85.11280200920655,26.880033845198962],[85.11253972524031,26.880042661571128],[85.11156312003196,26.88024447622417],[85.11110088963567,26.880527999268654],[85.11109864087521,26.88081464636972],[85.11128933631231,26.88100732714232],[85.11162964963144,26.881124234477557],[85.11175644627845,26.881222575157103],[85.11192394810409,26.881681709598496],[85.11232534850784,26.88218185395948],[85.11240875533925,26.882413734373216],[85.11217242079724,26.882697694471076],[85.11210996226374,26.88306611473065],[85.1121052109714,26.883095498584918],[85.11197228796523,26.883272614265366],[85.11142021503457,26.883829968559056],[85.11122820778797,26.883887986004762],[85.11101575549442,26.884043032452823],[85.11095392274935,26.88435049830154],[85.11108653756759,26.885040138068067],[85.11108829035392,26.885347102903378],[85.11098381662562,26.88572940374409],[85.1109427408948,26.88603668161887],[85.11092874305439,26.887111184947543],[85.11088697819716,26.887283048181896],[85.11084546469178,26.88747522996295],[85.11057036695718,26.887917548369852],[85.11031583757281,26.888149806033503],[85.1101677223545,26.888378936692455],[85.1101273969948,26.888762923907283],[85.11014971854894,26.888916282126235],[85.1104091918627,26.889451437991568],[85.11049728929983,26.889834424610182],[85.11064897212805,26.890160519814543],[85.11084241891177,26.890312500849532],[85.11103492750127,26.890369641492708],[85.11129152042598,26.890349572116467],[85.11150522468891,26.890386269658606],[85.11169842152614,26.89057657398012],[85.1119141267406,26.89088185046002],[85.11208781852885,26.89126646307408],[85.11215221671029,26.8913426723689],[85.11224112767535,26.89187920492037],[85.11220005283285,26.892184232058067],[85.11224782454836,26.8928745596827],[85.11253205981437,26.893946685218822],[85.11266154687044,26.894252649617698],[85.11266492676859,26.894787557052705],[85.11260171668638,26.895018250043645],[85.11272970091437,26.89497892553571],[85.11332779513378,26.8949944896493],[85.11384035800045,26.895085263848674],[85.11435242058708,26.89506312936736],[85.11563251276971,26.894863439322478],[85.1158883557662,26.8947643460692],[85.11620828589191,26.894725708255805],[85.11639966765264,26.894665502005612],[85.11652727629854,26.894587729100394],[85.11710279825442,26.89443193035363],[85.11740184497738,26.89442955317902],[85.11750800838318,26.89427525750539],[85.11780580362978,26.894101329439813],[85.11825334184302,26.89398266751866],[85.11889382574354,26.893959532307623],[85.11940695253406,26.89410901145147],[85.11953474928187,26.894107947906132],[85.11998391397928,26.89421947857173],[85.12051886122957,26.89440709276665],[85.12060439291102,26.894465110013673],[85.12107481607869,26.894691611525328],[85.12114046752359,26.89495731415295],[85.12135535903712,26.895109170120822],[85.12212739659917,26.895793742536558],[85.12234260173122,26.896040313432408],[85.12281396376336,26.896417984692313],[85.12313664701463,26.896781089583687],[85.12320823507412,26.896760208679027],[85.1233016439066,26.89673463780547],[85.12387891721939,26.8965426410257],[85.12422085295353,26.896314259680395],[85.12454196893306,26.896006980074734],[85.12505521756235,26.895720706242013],[85.12524766238802,26.895644682414847],[85.12554714623327,26.89550914105753],[85.12561266520912,26.894820188945495]]]}},{"type":"Feature","properties":{"province":"Madhesh Province","district":"Bara","municipality":"Simaraungadh Municipality","ward":"3","wardNumber":3,"sourceMunicipality":"Simraungadh","sourceType":"Nagarpalika"},"geometry":{"type":"Polygon","coordinates":[[[85.11248797597794,26.912979153933993],[85.112722310291,26.91280578910199],[85.11282797333493,26.9126717498792],[85.11295445441638,26.912345715639553],[85.11307862115953,26.91165632467],[85.11307161095584,26.910430777021542],[85.11313438199433,26.910220340348378],[85.11309017739897,26.909952136463914],[85.11306240927574,26.908728964472076],[85.1130186416157,26.908499084885523],[85.11277786038393,26.907505606232547],[85.11262361118048,26.90666717308155],[85.11253701539916,26.906437606069993],[85.11230036317703,26.90605574579785],[85.11163361395127,26.905142355513494],[85.11146161196663,26.904933794454074],[85.11118244616848,26.90470579191291],[85.11086045052761,26.904344937616525],[85.11083825466612,26.90426835206407],[85.11064530785342,26.90403972388403],[85.11055871150309,26.903812344861052],[85.1105750254561,26.902970347129568],[85.11055188969905,26.902663569533107],[85.1104662324109,26.902531031247868],[85.11027266039207,26.902302339631838],[85.10982455832388,26.902305905716684],[85.10943947962502,26.90219381274994],[85.10931111992082,26.90219481311196],[85.10882006471951,26.9021219191938],[85.10856390838907,26.902123921465424],[85.10837208884323,26.902199881961543],[85.10811593291605,26.902201946620917],[85.10779500263102,26.902147995013816],[85.10728250176061,26.90213174224784],[85.1068130182239,26.902135433324542],[85.106046552333,26.90254099420866],[85.10583353713268,26.902639711536498],[85.10555700002246,26.90281338874733],[85.105429579055,26.902909230199857],[85.10511033750491,26.903026828496362],[85.10466198630918,26.903068718081343],[85.10485305532052,26.90291373444477],[85.10491676512423,26.90279813745268],[85.10491626388576,26.90268304110957],[85.10458863651837,26.901423860368727],[85.10445871184334,26.901135963501048],[85.10417848209771,26.900734097650588],[85.10402604857865,26.9003335424744],[85.10394032940269,26.90025745862352],[85.10381121935364,26.90012304435789],[85.10349097728655,26.90020006886036],[85.10306469751337,26.90037493508094],[85.10255251028869,26.900453398071186],[85.10187038674911,26.90072510569092],[85.10101657520076,26.900826577367596],[85.10041823121809,26.900847024633638],[85.09964995094211,26.90100426136869],[85.09922348361799,26.9011610596407],[85.09845564081643,26.90135437094049],[85.09751792570766,26.901761245000777],[85.09717692569629,26.90184064524554],[85.09649442732078,26.902073903821613],[85.09623814624332,26.90213229779446],[85.09589689753214,26.90224783369996],[85.09572683609166,26.902364243734986],[85.09547093076854,26.902461086017798],[85.0950441498497,26.902520793007664],[85.09478849370267,26.90263789130638],[85.0946390645791,26.902677403417346],[85.09451158088311,26.902773244737478],[85.09421384823347,26.902965114603862],[85.09336078765999,26.903276460286875],[85.09308356194983,26.903373365304045],[85.09299809293522,26.903392121370143],[85.09265759457642,26.903586617444745],[85.09214547128109,26.903741853078586],[85.09163272127688,26.90376386273671],[85.09086475265003,26.903882651443514],[85.09001137971228,26.904096905455802],[85.0895000062063,26.90432885142405],[85.0892864907455,26.904445636747205],[85.08911711799537,26.9046388197911],[85.08909748720471,26.904887205443554],[85.08914037868534,26.90496360230029],[85.08950582721315,26.905326456853803],[85.09002045497489,26.905629480962904],[85.09014931518853,26.90574582750735],[85.0902571677109,26.90589849671974],[85.09047218565212,26.90606835766812],[85.0909238538334,26.906565939680558],[85.09131049766434,26.906908288345825],[85.09146199159252,26.907139605798463],[85.09146349333294,26.907367547079627],[85.09138034064108,26.907751910891857],[85.09125367083061,26.908059877063504],[85.09102202605146,26.90838897463987],[85.09095744003766,26.908482001968615],[85.09095869210154,26.908673871587975],[85.09098132669699,26.908865552189503],[85.09113307205325,26.909268358056007],[85.09130532304239,26.909440844584413],[85.09143368373135,26.909496297870447],[85.09258541478019,26.909146501774686],[85.09284088276227,26.909011398498293],[85.09307502985942,26.908817715901296],[85.09365061392089,26.908585269361915],[85.09384280955932,26.90860414877164],[85.0939928653167,26.90869998936824],[85.09418687486924,26.90890836160606],[85.09446854449403,26.909522415850642],[85.09479391841151,26.910364036500695],[85.09503188384853,26.910822670279604],[85.09520469854759,26.911051548746958],[85.09522758382323,26.91133800811461],[85.09535575560959,26.911375393085105],[85.09580442022674,26.911430657082093],[85.09638100657055,26.911426028521696],[85.0971492246189,26.911325307372966],[85.09772380781006,26.911054475294225],[85.09800090922423,26.910937251301473],[85.09810738515152,26.910879984220028],[85.09823499339592,26.910802211071545],[85.09868321974261,26.910740064983223],[85.09964375896553,26.91073480898367],[85.10007066569018,26.91074956109432],[85.10041329237197,26.910900353833444],[85.10067001147053,26.91095705689735],[85.10092704391977,26.911108537661597],[85.10109885798059,26.911299029836638],[85.1012494145301,26.911564169680275],[85.10127186130579,26.91173778262736],[85.10129374516076,26.911850503433367],[85.10191222023009,26.911694454984772],[85.10242396949542,26.911557286890886],[85.10293590638676,26.911514896979597],[85.10319193765261,26.9114361223108],[85.10376758556762,26.911336777938292],[85.10389663289234,26.91147125363653],[85.1040470646244,26.91165968406094],[85.10419887238616,26.912060237739837],[85.10439294549317,26.912404088565545],[85.10471506583959,26.912708488201417],[85.10501467608019,26.912898042917657],[85.10546309039377,26.91285609040085],[85.10597490184543,26.91273699036059],[85.10648727687403,26.912732986851378],[85.10674337078306,26.912789627622704],[85.10717052754572,26.91282469824613],[85.10776780817142,26.91268684236569],[85.10798069797823,26.912569993584984],[85.10804459572904,26.912474652892403],[85.10834314304489,26.912490406243396],[85.10919695461654,26.9123889346042],[85.1099674263961,26.912710150382022],[85.1103093012763,26.912784232747754],[85.11065174015908,26.912914644130648],[85.11107927229492,26.912988038593834],[85.11201780282396,26.912924202434578],[85.11221062391623,26.912999411210674],[85.11233929725776,26.913095439353153],[85.11248797597794,26.912979153933993]]]}},{"type":"Feature","properties":{"province":"Madhesh Province","district":"Bara","municipality":"Simaraungadh Municipality","ward":"10","wardNumber":10,"sourceMunicipality":"Simraungadh","sourceType":"Nagarpalika"},"geometry":{"type":"Polygon","coordinates":[[[85.13528916808043,26.92770780360609],[85.13588832274542,26.927441160171448],[85.13603825173337,26.927327063006746],[85.13601786864204,26.927115063386275],[85.13570211978994,26.925887516643527],[85.13566066471283,26.9255808645908],[85.13570430453831,26.925350296315436],[85.13570611510998,26.92496880891134],[85.1356847320111,26.924910291853617],[85.13568529449296,26.924777128499173],[85.13568935821064,26.92474324265771],[85.13570748814489,26.92460313925067],[85.13566522064664,26.92421977712385],[85.1355806263995,26.92406698259215],[85.13551660156486,26.92383729028927],[85.13519773083505,26.923300383865506],[85.13500547136277,26.92308750988062],[85.13498452629129,26.923010925024105],[85.13498502622421,26.922934215245334],[85.13509181414638,26.922782045198478],[85.13522029793288,26.92266594768977],[85.13528475756306,26.922437504918854],[85.13524311442448,26.92205407968788],[85.13483852454196,26.92138251005303],[85.13481795297756,26.92115244197571],[85.13473304551641,26.920843852444214],[85.13456260718763,26.9206714272686],[85.13447732476969,26.92057727548044],[85.13417815290933,26.920633918153722],[85.13385778556302,26.92063423248714],[85.13379382438022,26.920594158886615],[85.13370823041939,26.920594846776137],[85.1335160975491,26.920517387371984],[85.13313245562502,26.920306077291148],[85.13262014140896,26.919998676907795],[85.13223556261542,26.919940787089836],[85.1314026949209,26.919940729059125],[85.13044090577391,26.92007477296443],[85.13018412481348,26.92014917093431],[85.12979992269155,26.920188309411582],[85.12915868798548,26.92034016993835],[85.12890203214579,26.920360302600724],[85.12843161061963,26.920531105126607],[85.12787609588104,26.92062807358661],[85.12781182156036,26.92062632378499],[85.1270418546562,26.92093272991665],[85.12659300402827,26.921182306041267],[85.12616503602867,26.921314409608176],[85.12582316165793,26.921506717374474],[85.12556656851669,26.92166001352872],[85.12543789697504,26.92169715086373],[85.12505325814874,26.921946225491777],[85.124540008402,26.922176046006225],[85.12409034607349,26.922482075904878],[85.12385488658468,26.922732275473482],[85.12370933394634,26.922848560447306],[85.12320852645578,26.92300373338516],[85.12311386698876,26.923042869932193],[85.12307160211898,26.923099637562608],[85.12264513375342,26.923197855615722],[85.12232551848018,26.923410232227308],[85.12198489406033,26.923528143472225],[85.12158087350302,26.92379985048594],[85.12129758381275,26.924054989726283],[85.12124081310807,26.924107379720073],[85.12052192883404,26.924745071589545],[85.1203696861556,26.924879486872054],[85.1201369154038,26.92514987925699],[85.12005276098463,26.92530179980789],[85.119862066696,26.92549517019683],[85.11967168606259,26.925726926940268],[85.11967293802817,26.925918732452686],[85.11967462783305,26.926148987675237],[85.11950675570385,26.926552045003476],[85.11942228834894,26.926667829387473],[85.11927317214948,26.926745790701204],[85.11901764102902,26.926804246172804],[85.11876223583705,26.92695973106535],[85.11867776842412,26.92707551502211],[85.11857379441662,26.927383355975458],[85.11857648521365,26.92778509922987],[85.11853534701355,26.928015667471456],[85.11838835744301,26.92830344007644],[85.11836741287618,26.928418723991335],[85.11839111088544,26.928648791828735],[85.11843443945698,26.92876351304006],[85.11841468382464,26.928993893386707],[85.1184585762135,26.92916513018073],[85.11867328009804,26.929298855913835],[85.11912213366956,26.929487096713743],[85.11922948596585,26.92958331247649],[85.11904142110907,26.930237130354712],[85.119086377566,26.930582106019333],[85.11921580144481,26.930870002368618],[85.11932309161142,26.930963967705377],[85.11949765998953,26.931614845041295],[85.11977601245123,26.93180677514789],[85.11986242014238,26.93195956945285],[85.11997215141456,26.932419141733828],[85.11997321497633,26.932590692278154],[85.12001648131941,26.93270541336579],[85.12010182608658,26.93280181598492],[85.1201880450689,26.93285983247185],[85.1203373506027,26.932935354368976],[85.12067822488551,26.932894277747664],[85.1213611626886,26.932947539598125],[85.12183002200996,26.93292571817232],[85.12197870083169,26.932809433522888],[85.12233588844516,26.931944365449258],[85.12241979245354,26.93163677408419],[85.12250382195603,26.93148260331744],[85.1226915119577,26.930792649696418],[85.12271126711408,26.930562269906368],[85.1228371239528,26.930177656063258],[85.1229613524306,26.92956266211026],[85.1230206197208,26.928871520720218],[85.12299548156055,26.92818100616245],[85.12318511046485,26.92781383484239],[85.1232088693034,26.9277978925167],[85.12330140346238,26.927731684668718],[85.12336655287746,26.927889167856698],[85.12370774214207,26.928136989159825],[85.12398422045511,26.92846433410285],[85.12475025469898,26.929155658487428],[85.12496339687854,26.929309702799777],[85.12517610105739,26.929558524776652],[85.12547421191088,26.929845044895817],[85.12549459615921,26.93005704459351],[85.12540737906615,26.930403083828423],[85.12499873300939,26.931092538675294],[85.1248050398426,26.93149359513606],[85.12478290769309,26.931608879369875],[85.12454644859135,26.931953856335724],[85.12422339687734,26.932644811385178],[85.12417975710429,26.932816737526647],[85.12417644844453,26.933622536129324],[85.12468382924312,26.93488696767997],[85.1248106913475,26.935290023191506],[85.12493886386198,26.935329596805563],[85.12519558182522,26.935253072932362],[85.12553801885196,26.935119406811584],[85.12682123739525,26.934813497948046],[85.12697097871995,26.934735599451525],[85.12808282255406,26.934546037801898],[85.12876782193688,26.934296836238218],[85.12883209447278,26.934239881535387],[85.12923811767264,26.93416435747847],[85.1308638985723,26.933742787938108],[85.13099219496165,26.933667264902788],[85.13101101450675,26.933664889164625],[85.13131287492835,26.93362862704234],[85.13199799791597,26.9333229081328],[85.13242634114532,26.93309371382432],[85.13253325457474,26.93301612770908],[85.1328329893854,26.93290090494363],[85.13308958244598,26.932749859777402],[85.13334673829895,26.932652955024796],[85.13392507283116,26.932309726179916],[85.1345240403333,26.932022700634317],[85.13448221139964,26.931867405231433],[85.13439742916084,26.93163783837449],[85.13390924511275,26.93079309269386],[85.13352728937338,26.930256686602252],[85.13331514663868,26.929872450051853],[85.13308280731202,26.92924007786219],[85.1330617357774,26.929086782662555],[85.13312650871576,26.92895305584758],[85.13366164113765,26.92870498000925],[85.13417489013317,26.928531614560484],[85.13464649804858,26.928225334539768],[85.13528916808043,26.92770780360609]]]}},{"type":"Feature","properties":{"province":"Madhesh Province","district":"Bara","municipality":"Simaraungadh Municipality","ward":"6","wardNumber":6,"sourceMunicipality":"Simraungadh","sourceType":"Nagarpalika"},"geometry":{"type":"Polygon","coordinates":[[[85.13516077348692,26.902785730675422],[85.13522598233342,26.902324781953702],[85.13546287537336,26.901406511155326],[85.13554859364218,26.90129066417734],[85.13560561358294,26.901066786045476],[85.13569995784728,26.90069586366956],[85.13585069700305,26.900159705300478],[85.1364731036589,26.898780108795464],[85.13681628767239,26.89822431916619],[85.13694508452922,26.898072023590583],[85.1373306597732,26.897610761244554],[85.13750122216125,26.897611635869357],[85.13777932347884,26.897478469583433],[85.13820679109543,26.897362183611243],[85.13923191625346,26.897288406831446],[85.14004346280952,26.897191561421213],[85.14038527496412,26.897193310114822],[85.14064143191804,26.89719349665085],[85.14115405738534,26.897288709028594],[85.14192296427319,26.897327591698115],[85.1420934647042,26.89738491993651],[85.14224608290759,26.897417491429334],[85.14237131579017,26.8972900780491],[85.14254262697987,26.8970607605344],[85.14265066307924,26.89665807906299],[85.14256806302336,26.895392519595976],[85.14258963127064,26.895162139467182],[85.14261207634301,26.894952014829208],[85.14265459069382,26.894798219593547],[85.14265527821054,26.894741765288657],[85.14274205572247,26.894165533671345],[85.14280913535707,26.892900973517243],[85.14268276986816,26.89192243681616],[85.14268470438374,26.89134683035424],[85.1426426873293,26.891060495897605],[85.14258159320096,26.889621010694096],[85.14251831788178,26.88933480232864],[85.1425192531528,26.88898951310337],[85.1423723175908,26.88783955127229],[85.1423091045416,26.887494700393475],[85.14237406509211,26.88732039838166],[85.14237431316609,26.88703375192053],[85.14226908318771,26.886400316284753],[85.1421630420636,26.886055840155628],[85.14205793606656,26.885366013099944],[85.1419518329532,26.885077991460278],[85.14173030914097,26.884201735759692],[85.1417191172916,26.88415672184401],[85.14171955450827,26.88407994996136],[85.14163483505847,26.883906836506284],[85.14159269308882,26.883658888766202],[85.14159300288614,26.8833135374702],[85.14166265272223,26.883173058209362],[85.14171948520668,26.883066526884914],[85.14188873286628,26.88274686976916],[85.14195494371202,26.882574818497826],[85.14204259936082,26.88234612574211],[85.14206810620952,26.882000586619483],[85.14206948068232,26.881826848353043],[85.14198794880905,26.881538513784424],[85.14201814256656,26.8807324645928],[85.14187452340876,26.880212250038024],[85.14176954652368,26.880037010895975],[85.14166725723963,26.87969034754549],[85.14155564838646,26.87885378937282],[85.14134925996431,26.878855478670513],[85.14044380429719,26.878930505119893],[85.13860994208959,26.87829076456237],[85.13786372855425,26.877924348300393],[85.13702723247728,26.877463842052943],[85.13671311601333,26.87726778564283],[85.13635967213703,26.876909495197353],[85.13632284628073,26.87687142163092],[85.13606662449182,26.876487497916965],[85.13591275287364,26.875956029838505],[85.13556774942425,26.875624746627782],[85.13458689027372,26.875578487863077],[85.13365236182291,26.87575979642778],[85.13094543811405,26.876409000904378],[85.13094732003948,26.877415671924258],[85.13098783538358,26.87756884177435],[85.13129833010939,26.878417276649806],[85.13138011207784,26.878725867153346],[85.13150465893206,26.8790340819961],[85.13173505797256,26.87942044411752],[85.13183978497379,26.879575364513688],[85.13188098842467,26.879672079521736],[85.13187848939188,26.879922653455107],[85.13177051322127,26.880074761125826],[85.13142782602135,26.880167790456028],[85.13074563815198,26.880159728810966],[85.13063903754245,26.88019892846328],[85.13031592102344,26.880483638826643],[85.12997367122173,26.8805563497227],[85.12969719494711,26.880533781378286],[85.1295895311177,26.880591049413933],[85.1292859227645,26.88106975406752],[85.1290921025173,26.88125862329333],[85.12878899476745,26.881660555248256],[85.12876711190196,26.881735264414626],[85.12863731556794,26.881849110945048],[85.12852933916123,26.88200353205868],[85.12848382410093,26.882234099975555],[85.12845481772422,26.882924990987267],[85.12843737518476,26.883065094220722],[85.12842105670757,26.883196132855012],[85.12848220587983,26.883396504523766],[85.12850103118727,26.884278888450492],[85.12854298525473,26.88450876806313],[85.1285201694868,26.885314755375976],[85.12849797455053,26.885427788503065],[85.12869023257552,26.885448856257504],[85.12911738926611,26.885506433192965],[85.12937354497792,26.885506557736644],[85.13027037450583,26.885641592837473],[85.13071791450002,26.885775692367545],[85.13116601646107,26.8859684342222],[85.13131551007602,26.88606427422351],[85.13159186299296,26.88644807237033],[85.13171916229322,26.886907456647403],[85.13178212602587,26.887290694325394],[85.13197376101712,26.88763673266749],[85.13216595558042,26.88759909547297],[85.1324221120542,26.88754057695459],[85.13265700926922,26.88742585477951],[85.13274285253193,26.887389030428334],[85.13293579758971,26.887177592925205],[85.13340677749505,26.88650795601134],[85.13349618487018,26.886446312111303],[85.13359928463308,26.886373228215202],[85.13374883905193,26.886353971554325],[85.13430410495522,26.886374349748696],[85.13498735619574,26.886470437004444],[85.13588424697646,26.886548955134593],[85.13669510745352,26.88670268407278],[85.13707818497276,26.88668605187669],[85.13759212335046,26.88666385506312],[85.13786941228673,26.886704490478934],[85.13825342900198,26.886839091023884],[85.13863769608236,26.887068406385183],[85.13861593889538,26.887222138656032],[85.13876324712356,26.887911590716566],[85.13893256312572,26.888603167922177],[85.13925031088725,26.889600522303528],[85.13937679966905,26.890290161421035],[85.13944007527829,26.89069371726708],[85.13914109063496,26.890691593633104],[85.13850010682249,26.890787062042502],[85.13822256725867,26.890787063762755],[85.13794496647799,26.890843456466857],[85.13766667781272,26.890958554706906],[85.13655583504462,26.891206820948128],[85.13591460219462,26.89139925567017],[85.13563675088774,26.89149403505924],[85.13486821948419,26.891549930456712],[85.13427000045033,26.89151185991354],[85.13341649950588,26.891320057954616],[85.13230640481883,26.891202591137912],[85.13162340385311,26.890934953494597],[85.13141094901056,26.890645494787535],[85.13102680694949,26.890492827039605],[85.1307498915575,26.890242254566793],[85.13047222762275,26.890165483492513],[85.13017349317498,26.89018592814319],[85.12974577480699,26.89033841293155],[85.12884763678278,26.890835313589694],[85.12859116877968,26.890932156119547],[85.12824923199224,26.89116066230491],[85.12803521661411,26.891160100461576],[85.12711737996457,26.891007185709384],[85.12641262261171,26.891082773509297],[85.12604892792517,26.891216564982816],[85.12564246860316,26.891542599762605],[85.12504212899043,26.89244117977231],[85.12476396681903,26.89269175453949],[85.12437870349353,26.89313044782744],[85.12410010379588,26.893590834776337],[85.12382100498284,26.894069351718624],[85.12422677870988,26.894052532229825],[85.12482499705408,26.89395750166581],[85.12508109110715,26.893957688216226],[85.12525202826978,26.893994697839997],[85.12544384968042,26.89416699704217],[85.12561266520912,26.894820188945495],[85.12554714623327,26.89550914105753],[85.12573927929292,26.89558660094437],[85.12659465220784,26.895089949892483],[85.1275353065497,26.894746094499784],[85.12821961773119,26.894438188451645],[85.1290746776465,26.893979924373138],[85.12984408180021,26.893693898568536],[85.13078517375986,26.89327326989166],[85.13131936716793,26.892889842483505],[85.13157652318817,26.89279293708746],[85.13183267972333,26.892793123590927],[85.13217380543244,26.892986804101522],[85.13236518887562,26.893177109085155],[85.13251399553127,26.893523584929515],[85.13251299770356,26.893925265266734],[85.13214855622645,26.894616657520686],[85.13201907417262,26.89507585634999],[85.13184801240517,26.895210334209253],[85.13169820863281,26.895268038959653],[85.13135564781331,26.89557325566921],[85.13124873424923,26.895707295660596],[85.13107686096926,26.896013386440558],[85.13081808489892,26.897010806111787],[85.13068941383034,26.897239811291307],[85.13017604221076,26.897758590999498],[85.1298332938035,26.8980457396693],[85.12961915402798,26.898216728347347],[85.12957632549349,26.89827574592397],[85.12854883096925,26.89919358392502],[85.12809910732604,26.899788573656565],[85.12779881291969,26.900228829734495],[85.12775611017862,26.90036236878514],[85.12769139925689,26.90043964225344],[85.12722054308864,26.90093772849657],[85.12675030961786,26.90118524039484],[85.12679251436509,26.90137673418794],[85.12691862835946,26.902222169996293],[85.12698152766626,26.90252863411025],[85.12749446567823,26.902470364600113],[85.12834840308098,26.902510934408856],[85.13039902945413,26.902512549902642],[85.13103913853368,26.902570626072272],[85.13180842019165,26.902591503072067],[85.13373006155993,26.9025918685418],[85.1341786006304,26.90263112728923],[85.13469128879858,26.902728591244724],[85.13516077348692,26.902785730675422]]]}},{"type":"Feature","properties":{"province":"Madhesh Province","district":"Bara","municipality":"Simaraungadh Municipality","ward":"8","wardNumber":8,"sourceMunicipality":"Simraungadh","sourceType":"Nagarpalika"},"geometry":{"type":"Polygon","coordinates":[[[85.16739887139647,26.90988964995449],[85.16763439372399,26.909718410747434],[85.16814758046527,26.909488465900772],[85.1684895799394,26.909393060716184],[85.16925836101073,26.90941375091524],[85.16968533071714,26.909491458168315],[85.16985651828465,26.90949008243586],[85.17036883200447,26.909607676282693],[85.17096673800972,26.909607235726337],[85.17165098651071,26.90930133018207],[85.1717366426312,26.909244187843342],[85.17186512695957,26.909186732685924],[85.17171563330332,26.90897579643866],[85.17165304386793,26.908400752487946],[85.17133373504501,26.90765178382885],[85.17118492765077,26.90732575160329],[85.17122800527305,26.907230598088592],[85.17148453522354,26.90702078570394],[85.17184879118564,26.906636358100748],[85.17261825792106,26.90617853198201],[85.1730894903063,26.905795416900116],[85.173367775483,26.905258132395428],[85.1734962598449,26.90514422304915],[85.17370965058868,26.90514472234806],[85.17403070494956,26.905087891663182],[85.17492790816829,26.905051063461542],[85.17520532152069,26.904974289023315],[85.17546197643489,26.90478248116591],[85.17554769466227,26.904668947411345],[85.17561265505446,26.90443819225479],[85.17571981662427,26.904094215616723],[85.17569911930008,26.903672278913398],[85.17574257077784,26.90349816490362],[85.17574288228388,26.903344682190827],[85.17574356722486,26.902924808851058],[85.17580858967209,26.902578957189732],[85.17595864115296,26.902175963239536],[85.17602372419701,26.90165849818091],[85.17596032426029,26.901370101037713],[85.1755767421692,26.900736854803935],[85.17557730367126,26.900488531965188],[85.17532195662369,26.9000279598633],[85.17515158027511,26.89979689336889],[85.17491693035464,26.899625093941577],[85.174490085613,26.899432164662688],[85.17440449176618,26.899432977968846],[85.17380733421321,26.899201037898575],[85.1735512403165,26.899144397791368],[85.17303799028831,26.89918028519919],[85.17261058421539,26.89929669708439],[85.17246115529936,26.899390475776585],[85.1722899679891,26.899391851591076],[85.17220499840785,26.899333960144247],[85.17214141068708,26.899027495732543],[85.1720774493336,26.898987359046586],[85.17199204335654,26.899006115098704],[85.17182023224939,26.899314519376016],[85.1714989930841,26.89971670114597],[85.17137057200641,26.899830610840045],[85.17119950912233,26.899906446162277],[85.17094353998672,26.899868061171986],[85.17070901564298,26.8997142670527],[85.1706026009396,26.89957966583101],[85.17043166390255,26.899542718014022],[85.17000400742936,26.899636560358147],[85.16974785117117,26.899636437160222],[85.16957703901292,26.8996740114396],[85.16923478924586,26.89980774004852],[85.16897857090723,26.899866259169638],[85.16880707131877,26.89996016202247],[85.16863632146469,26.90000004955121],[85.16735479062682,26.900055760160065],[85.16709819621273,26.900015062076296],[85.16675644619446,26.9000156267418],[85.16632953968377,26.899937855833066],[85.1659021959671,26.899995563257846],[85.16541058029951,26.900243450960154],[85.16515442427796,26.90029971912881],[85.16489045291576,26.90027483802155],[85.16476947037182,26.900262272509618],[85.16453519635174,26.90012654621882],[85.1642366483659,26.8998581566855],[85.16406633351004,26.899514243866992],[85.16415279968149,26.89911175032137],[85.16408971013497,26.89853670623356],[85.16396278614867,26.89807494609481],[85.16387731623591,26.897901958292298],[85.16385668209121,26.89773053338316],[85.16368642887427,26.897212819372218],[85.16364441169482,26.896924234692925],[85.16364478622964,26.896770751859872],[85.1635166137225,26.896733492169744],[85.16317486388088,26.896734119251164],[85.16298273066862,26.89671305110979],[85.16274733358583,26.896963251250174],[85.16253307097344,26.897364557177827],[85.16259665831538,26.897670959825298],[85.16272383150259,26.897979174554983],[85.16272364574337,26.89820936771746],[85.1627230848794,26.898401236465556],[85.16238108506387,26.898496578389395],[85.16167557823668,26.898687513762095],[85.16052246907114,26.898800803043137],[85.16013782903278,26.898916838914317],[85.15930358839384,26.899318711468002],[85.15885473707672,26.89937429207625],[85.15870586987442,26.899337157558293],[85.15857800922586,26.899144101533],[85.15849328876769,26.898799438306494],[85.15838706085718,26.898570121228126],[85.15815209767015,26.898301168740925],[85.15798159800002,26.898243902556917],[85.15702055871225,26.898242782200256],[85.15640101901286,26.898164324567965],[85.15588864357565,26.898164015152485],[85.15576059704699,26.898126692297673],[85.1550556507322,26.898069304301398],[85.15460736134443,26.897991720604264],[85.15371046990029,26.897990037812136],[85.15292024334107,26.897894888443716],[85.15230076607047,26.897875135955832],[85.15200178181824,26.897873074316326],[85.15210819643984,26.898066318222796],[85.15232052836168,26.898583719664728],[85.15242656941932,26.899043291205807],[85.15246665362095,26.90013767485858],[85.152402194322,26.900424822610777],[85.15240207111046,26.900596373185316],[85.15244389927697,26.900749605144934],[85.15244327677509,26.901056507976328],[85.15248504537753,26.9016317390908],[85.15259102467365,26.902034856763887],[85.15267493381168,26.902609775634364],[85.15292978291949,26.903472152361644],[85.15295047865233,26.903645766192817],[85.15337595314085,26.904509017642425],[85.1537167057712,26.905027606041934],[85.15397267561575,26.905255796314524],[85.15429273136134,26.90541115339497],[85.15463379518987,26.905525747571513],[85.15540263968414,26.90567966391798],[85.15600085892102,26.905640899390846],[85.1565136083463,26.905623141335276],[85.15676982780637,26.905623327433226],[85.15702617214517,26.9057002239395],[85.15762389062475,26.905738169446003],[85.15781602362193,26.90581562798164],[85.1581151965229,26.905835695100873],[85.1585425401066,26.905893147553172],[85.15888360335468,26.906007742154856],[85.15922523012634,26.906180978152527],[85.1596523867287,26.906276754414943],[85.15988728442163,26.906105515035197],[85.16012336832337,26.905740219309923],[85.16018770308274,26.905511713813873],[85.16027360793139,26.905357605546182],[85.16038070873508,26.905243821552666],[85.16059434918036,26.905203746808787],[85.16085063121946,26.905280517671777],[85.16099974949114,26.9053967384551],[85.16117000020876,26.9056074245566],[85.16144704257503,26.90610625745977],[85.16176554074887,26.9070854809011],[85.16189128076651,26.908061766641822],[85.16208304031795,26.90840774286665],[85.16227486239342,26.90863868445414],[85.162466558409,26.908790540542263],[85.16268007519577,26.90892651682131],[85.16312811554532,26.909098815369116],[85.16338396019938,26.909252484500165],[85.16398186673703,26.909367139845013],[85.16466586794091,26.909406585008483],[85.16489076269525,26.909483794465643],[85.16534868162941,26.909638024982097],[85.16603193264014,26.90979262888048],[85.16620318263261,26.909791190240984],[85.16705705939674,26.909946606219243],[85.16722762137444,26.909947480593125],[85.16739887139647,26.90988964995449]]]}},{"type":"Feature","properties":{"province":"Madhesh Province","district":"Bara","municipality":"Simaraungadh Municipality","ward":"9","wardNumber":9,"sourceMunicipality":"Simraungadh","sourceType":"Nagarpalika"},"geometry":{"type":"Polygon","coordinates":[[[85.16272383150259,26.897979174554983],[85.16259665831538,26.897670959825298],[85.16253307097344,26.897364557177827],[85.16274733358583,26.896963251250174],[85.16298273066862,26.89671305110979],[85.16317486388088,26.896734119251164],[85.1635166137225,26.896733492169744],[85.16364478622964,26.896770751859872],[85.16394470522414,26.89631236635019],[85.16426563280392,26.8960050239561],[85.1645220387951,26.895910369340818],[85.16473586732675,26.89589055059261],[85.16484284427018,26.895948316347162],[85.16489061160938,26.89600664619684],[85.16490655592752,26.896024526173004],[85.16499152645483,26.896330741041933],[85.16501166273649,26.896944545815984],[85.16489068388691,26.897480579275825],[85.16483885462233,26.89771114761269],[85.16485967622404,26.898017924999845],[85.16489075112048,26.89815765311099],[85.16490194319816,26.89820948131536],[85.16494470868814,26.898267810003283],[85.16507244416275,26.898384094166914],[85.16520055421785,26.898421416997227],[85.16545670999103,26.898421540391258],[85.16571386579821,26.89826818172758],[85.16629088805185,26.89807837246619],[85.16684534390099,26.89844391454028],[85.16703735126825,26.898444601220746],[85.16731520272872,26.898347508650613],[85.16740104628009,26.898310685017783],[85.16746531889122,26.898195025918962],[85.16708242432416,26.897505261991483],[85.1671041807325,26.89729288770288],[85.16725373411967,26.89708401289884],[85.16738246791849,26.897006301958935],[85.16770271065475,26.89698779499287],[85.16785213966477,26.896950407409783],[85.1679164754025,26.896967912335242],[85.1680869765841,26.897142588316907],[85.16815037693493,26.897428734396815],[85.16825666621155,26.897545205076792],[85.16859910439288,26.89748818646084],[85.16866287711298,26.89744930056554],[85.16885563349052,26.897219731272703],[85.16889846074677,26.897104260190982],[85.16885638226464,26.89698947682322],[85.16857884162383,26.896682574910162],[85.16849393457076,26.89650946256214],[85.16857971416373,26.896280769425054],[85.16900793122558,26.895936416224835],[85.16900774312661,26.895859705979206],[85.1689865475348,26.89581925653024],[85.16873070367677,26.895724293218937],[85.16855957751491,26.89560832234002],[85.16838882733744,26.895589442519054],[85.16804776354935,26.89541620620481],[85.16787732485336,26.89524390583556],[85.16783468280828,26.895013963762125],[85.16783524430706,26.894822095108925],[85.16817761709416,26.894458110822242],[85.16843408563344,26.8943047522176],[85.1688189126257,26.89420903464527],[85.16911820905756,26.89399890836496],[85.1692685123047,26.893808039727045],[85.16914102529972,26.893405109195474],[85.1691628438313,26.893079888669217],[85.16924881153567,26.892925717799756],[85.1693772333111,26.892811808255626],[85.16969766217584,26.8926398185814],[85.16993343425646,26.892428005685556],[85.1699549397697,26.89214117110181],[85.16984883637502,26.89179669520388],[85.16987090628427,26.891681411384887],[85.16995637422728,26.89154749681813],[85.17008479552119,26.89149004142043],[85.1702979364838,26.89152880201276],[85.17042579722924,26.89166321584796],[85.17068182928004,26.89183488929218],[85.17098118903793,26.8918166325915],[85.17108785250393,26.891720853462317],[85.1710886010626,26.89154711507584],[85.17096024071199,26.891374439926476],[85.17089684105466,26.891203390230913],[85.17049256349415,26.89051156432341],[85.17038621013675,26.89014676964624],[85.17042909985909,26.890090003119735],[85.17062166988687,26.890031984983235],[85.17113398234316,26.890034483187772],[85.17149686595782,26.89007211742049],[85.17162553745375,26.890034918377328],[85.17177490462579,26.889938888653436],[85.17216166749714,26.88948200293345],[85.17226926757549,26.88917641262804],[85.1723779912362,26.888678953439133],[85.17233672351186,26.888218817918553],[85.17214571347165,26.88775993435859],[85.17214646279419,26.887644838252232],[85.17223255541742,26.887454531942584],[85.1723398438211,26.88735881535699],[85.17259656329588,26.887358938866054],[85.17298126633206,26.887437022289873],[85.173173837226,26.88743764673011],[85.17328043809192,26.88740069757985],[85.17338772755416,26.887304981114028],[85.17349551466985,26.88701970953837],[85.17349676272917,26.886712744413032],[85.1734547469076,26.886539256217358],[85.1733057528391,26.886253860574456],[85.17313612514164,26.88579253872123],[85.17305134374894,26.88569619831598],[85.17290185057595,26.88560042046896],[85.17255984979876,26.88550395634509],[85.17238859975261,26.885503082412665],[85.17196100656274,26.88559692450552],[85.17136309757905,26.885288149687135],[85.1710207846993,26.885288776132985],[85.17076375359787,26.885324726239663],[85.17033578605911,26.88549534072523],[85.16941470168004,26.885952104943105],[85.16892071201264,26.88650470778298],[85.16853382500396,26.887191786624214],[85.1684269740233,26.88732595158237],[85.16829874081819,26.887460116659994],[85.16795661718801,26.88767055511042],[85.16778542938417,26.887728448469108],[85.1675292736931,26.887728324204943],[85.16727324155298,26.887669495557837],[85.16693155320002,26.887496259113227],[85.16631307533852,26.887266632859074],[85.1662063478985,26.887170417397122],[85.16605735448377,26.886939224973272],[85.1660582896333,26.886537420052075],[85.16614406942696,26.88625008481655],[85.16629374814293,26.886056902322558],[85.16670008234826,26.885733117287323],[85.16717112606351,26.88527329222574],[85.16734387437495,26.88481590718525],[85.16745315996543,26.884185346446046],[85.16758233050598,26.883897511225022],[85.16783967223023,26.883649374365554],[85.16828989811255,26.88336578808171],[85.16869835851614,26.88306444720686],[85.16874712259344,26.882608125844467],[85.1688133339448,26.88243601238621],[85.16920359860286,26.881961058666725],[85.16959211356412,26.88167797277075],[85.17010905096765,26.881393761750832],[85.17114523714577,26.880581642877715],[85.17198285453901,26.880283488180233],[85.17262615150983,26.880174327715753],[85.1732029874675,26.880219212323297],[85.17390718438118,26.880398449325888],[85.17422773936501,26.880422829187193],[85.17519434040828,26.880125862336754],[85.17558110673149,26.879976003911565],[85.17579612192002,26.879843213594974],[85.17588284057756,26.879768003385163],[85.17612086304649,26.879540309839165],[85.17638301867852,26.879025782753885],[85.17655789304142,26.878719629058324],[85.17673376684813,26.878262244229138],[85.17673639089466,26.878031988340915],[85.17682660885181,26.87762943257651],[85.17685267857698,26.87722750135946],[85.17681316193982,26.87699755911369],[85.17570688144272,26.876880405465368],[85.17301589580039,26.876663543554283],[85.17273366749434,26.87663878784841],[85.17053342354127,26.876485566741216],[85.16848110883896,26.876274578597293],[85.16767887829567,26.876281272521446],[85.16594080453704,26.87633623479358],[85.16489048424945,26.876451024256305],[85.16393757338469,26.876553684109677],[85.16215717339504,26.876780510730967],[85.16006591026635,26.87713181235569],[85.15905879365577,26.877406398182494],[85.15750228917801,26.87775100797043],[85.15594584641568,26.8780978050616],[85.15564967587096,26.878179205886337],[85.15538320408979,26.878273984976953],[85.15416638464949,26.878417095822755],[85.15256242313956,26.878484373893254],[85.14932455195813,26.8785897968654],[85.1493101089995,26.87858992178081],[85.14341407806671,26.878811642495062],[85.14268887553041,26.87884465593103],[85.14155564838646,26.87885378937282],[85.14166725723963,26.87969034754549],[85.14176954652368,26.880037010895975],[85.14187452340876,26.880212250038024],[85.14201814256656,26.8807324645928],[85.14198794880905,26.881538513784424],[85.14206948068232,26.881826848353043],[85.14206810620952,26.882000586619483],[85.14204259936082,26.88234612574211],[85.14195494371202,26.882574818497826],[85.14188873286628,26.88274686976916],[85.14171948520668,26.883066526884914],[85.14166265272223,26.883173058209362],[85.14159300288614,26.8833135374702],[85.14159269308882,26.883658888766202],[85.14163483505847,26.883906836506284],[85.14171955450827,26.88407994996136],[85.1417191172916,26.88415672184401],[85.14173030914097,26.884201735759692],[85.1419518329532,26.885077991460278],[85.14205793606656,26.885366013099944],[85.1421630420636,26.886055840155628],[85.14226908318771,26.886400316284753],[85.14237431316609,26.88703375192053],[85.14237406509211,26.88732039838166],[85.1423091045416,26.887494700393475],[85.1423723175908,26.88783955127229],[85.1425192531528,26.88898951310337],[85.14251831788178,26.88933480232864],[85.14258159320096,26.889621010694096],[85.1426426873293,26.891060495897605],[85.14268470438374,26.89134683035424],[85.14268276986816,26.89192243681616],[85.14280913535707,26.892900973517243],[85.14274205572247,26.894165533671345],[85.14265527821054,26.894741765288657],[85.14265459069382,26.894798219593547],[85.14261207634301,26.894952014829208],[85.14258963127064,26.895162139467182],[85.14256806302336,26.895392519595976],[85.14265066307924,26.89665807906299],[85.14254262697987,26.8970607605344],[85.14237131579017,26.8972900780491],[85.14224608290759,26.897417491429334],[85.14262709794752,26.897502452056194],[85.1433103482726,26.89759847639589],[85.14416484872932,26.89758027972484],[85.14459231638799,26.897407538513747],[85.14544700304543,26.89721547775067],[85.14595943959874,26.897044300073137],[85.14681400147886,26.89696739834607],[85.14715581459464,26.89696914690363],[85.14766806448363,26.897025910736843],[85.1480952843796,26.897142067361777],[85.14860703597576,26.897334246082977],[85.14928991232368,26.897642396066267],[85.14986575042418,26.897949170387477],[85.15020725047978,26.898045697484967],[85.15054875079906,26.898083581210045],[85.15114728305173,26.898083203794204],[85.15183103176567,26.897854132957814],[85.15200178181824,26.897873074316326],[85.15230076607047,26.897875135955832],[85.15292024334107,26.897894888443716],[85.15371046990029,26.897990037812136],[85.15460736134443,26.897991720604264],[85.1550556507322,26.898069304301398],[85.15576059704699,26.898126692297673],[85.15588864357565,26.898164015152485],[85.15640101901286,26.898164324567965],[85.15702055871225,26.898242782200256],[85.15798159800002,26.898243902556917],[85.15815209767015,26.898301168740925],[85.15838706085718,26.898570121228126],[85.15849328876769,26.898799438306494],[85.15857800922586,26.899144101533],[85.15870586987442,26.899337157558293],[85.15885473707672,26.89937429207625],[85.15930358839384,26.899318711468002],[85.16013782903278,26.898916838914317],[85.16052246907114,26.898800803043137],[85.16167557823668,26.898687513762095],[85.16238108506387,26.898496578389395],[85.1627230848794,26.898401236465556],[85.16272364574337,26.89820936771746],[85.16272383150259,26.897979174554983]]]}},{"type":"Feature","properties":{"province":"Madhesh Province","district":"Bara","municipality":"Simaraungadh Municipality","ward":"5","wardNumber":5,"sourceMunicipality":"Simraungadh","sourceType":"Nagarpalika"},"geometry":{"type":"Polygon","coordinates":[[[85.14618486152645,26.920624791401465],[85.14624944523001,26.92016609357537],[85.14625038116549,26.919820741914723],[85.14644507055175,26.918785373749856],[85.14653097488647,26.918498038973343],[85.14655422833188,26.91775075725788],[85.14649095314827,26.917405906325968],[85.14623498273832,26.917060430930384],[85.1460431609915,26.916885942971586],[85.14591548809116,26.9167153940047],[85.14585208839671,26.916542093124246],[85.14587378141312,26.916140161857896],[85.14598169443927,26.915852639318782],[85.14604615355796,26.91550672566102],[85.14617551066728,26.9151626233632],[85.14619789060582,26.91470211258324],[85.14615531162148,26.9144721704],[85.1461572444801,26.913666309112042],[85.14605213851817,26.91286144740706],[85.14601136687227,26.911940864756083],[85.14586412015697,26.911077549382163],[85.14578064560857,26.91004224599994],[85.14575988617526,26.909794110721876],[85.14573925229358,26.909620497049172],[85.14573943875988,26.909390242044168],[85.14557012171458,26.908585819194553],[85.1455709326319,26.90835562588437],[85.14531589843894,26.907779833415425],[85.14503929401646,26.90731932481796],[85.14493319089033,26.90697491158822],[85.14506186094702,26.906687201061224],[85.14546882003839,26.90628439312593],[85.14564025598817,26.905996369731948],[85.14574748018875,26.905708847374314],[85.14574847871262,26.905307042274554],[85.14553589725737,26.90482802744889],[85.1451736379927,26.90448111487229],[85.14500313640463,26.90436739443963],[85.14474710457027,26.90425211226037],[85.14440560397844,26.90415558500992],[85.14425586098773,26.904039427144053],[85.14408517297797,26.90396403108259],[85.14365895266151,26.90357929510003],[85.14348863837155,26.903350353607646],[85.14327699387911,26.902715668499525],[85.14308641902713,26.901796273699848],[85.14295968224064,26.901393281176837],[85.14261973997833,26.900644438061143],[85.14208916231894,26.899206455237252],[85.14196248771104,26.89869055457378],[85.14189927326643,26.898228356577068],[85.14189945982643,26.898056805971464],[85.14196460735894,26.897769658557685],[85.14207164563368,26.89759723240149],[85.14224608290759,26.897417491429334],[85.1420934647042,26.89738491993651],[85.14192296427319,26.897327591698115],[85.14115405738534,26.897288709028594],[85.14064143191804,26.89719349665085],[85.14038527496412,26.897193310114822],[85.14004346280952,26.897191561421213],[85.13923191625346,26.897288406831446],[85.13820679109543,26.897362183611243],[85.13777932347884,26.897478469583433],[85.13750122216125,26.897611635869357],[85.1373306597732,26.897610761244554],[85.13694508452922,26.898072023590583],[85.13681628767239,26.89822431916619],[85.1364731036589,26.898780108795464],[85.13585069700305,26.900159705300478],[85.13569995784728,26.90069586366956],[85.13560561358294,26.901066786045476],[85.13554859364218,26.90129066417734],[85.13546287537336,26.901406511155326],[85.13522598233342,26.902324781953702],[85.13516077348692,26.902785730675422],[85.13469128879858,26.902728591244724],[85.1341786006304,26.90263112728923],[85.13373006155993,26.9025918685418],[85.13180842019165,26.902591503072067],[85.13103913853368,26.902570626072272],[85.13039902945413,26.902512549902642],[85.12834840308098,26.902510934408856],[85.12749446567823,26.902470364600113],[85.12698152766626,26.90252863411025],[85.12695977242582,26.902815469068017],[85.12685192094638,26.903046537186096],[85.12676595499393,26.903390326167933],[85.12663672210462,26.90381345123883],[85.12657201315082,26.90413898520238],[85.12650742850535,26.904290716937158],[85.12626953583349,26.905441431534364],[85.1261837558686,26.90567237513704],[85.12592441744167,26.906744378520493],[85.12568814821036,26.907357935314224],[85.12572473745085,26.909583151276742],[85.12574468694764,26.910194643973455],[85.1257872663049,26.91042683702868],[85.12569898970493,26.911422879593488],[85.1257624527929,26.91172934474164],[85.12573994781526,26.912189979983026],[85.12584536475174,26.912726324493836],[85.12584480283216,26.912918193296576],[85.12584442831557,26.91307167599881],[85.12575808635658,26.91337707894387],[85.12571476058635,26.913704737386773],[85.12539401871496,26.913799829606123],[85.12470989511574,26.91412580388623],[85.1244526769897,26.914276850197577],[85.12432475608163,26.914392947119566],[85.1238110690811,26.91464083485179],[85.1235759210967,26.914793943552215],[85.12329788327462,26.91500606992719],[85.12334008827109,26.915197563506446],[85.12337822756065,26.91536429996695],[85.12355129588614,26.916116770528888],[85.12397602054776,26.91711556187083],[85.12438004709482,26.917805262459723],[85.12455023674205,26.918016073487095],[85.12480583145424,26.918208190680346],[85.12525430880318,26.918362608896963],[85.12595937937883,26.918363730260673],[85.12608736327579,26.918324281313765],[85.12627937105053,26.91832502987395],[85.12651452067794,26.918420244877787],[85.12679124859447,26.918650498116214],[85.12706779054022,26.91916971219361],[85.12728043240355,26.919477238915057],[85.12774954476733,26.919994825699483],[85.12800514026297,26.920186943130705],[85.12843161061963,26.920531105126607],[85.12890203214579,26.920360302600724],[85.12915868798548,26.92034016993835],[85.12979992269155,26.920188309411582],[85.13018412481348,26.92014917093431],[85.13044090577391,26.92007477296443],[85.1314026949209,26.919940729059125],[85.13223556261542,26.919940787089836],[85.13262014140896,26.919998676907795],[85.13313245562502,26.920306077291148],[85.1335160975491,26.920517387371984],[85.13370823041939,26.920594846776137],[85.13379382438022,26.920594158886615],[85.13385778556302,26.92063423248714],[85.13417815290933,26.920633918153722],[85.13447732476969,26.92057727548044],[85.13520434019057,26.920384152066323],[85.13674290213048,26.920195713578092],[85.13738388585523,26.920023472532378],[85.13764079115255,26.91990856253999],[85.13802530652883,26.91983097516988],[85.13821793930681,26.919831661745985],[85.13853830729218,26.919890052291414],[85.13905037063338,26.920043907663864],[85.13969104339725,26.92008385349697],[85.14052328808721,26.920467586577384],[85.14065189765803,26.920486841351835],[85.14078013215557,26.92046777328769],[85.1408440931078,26.920505596487153],[85.14154916420057,26.920506654976403],[85.14206216410216,26.920430317784078],[85.14238253067995,26.920429940602244],[85.1431502532503,26.921026362079164],[85.1435982934067,26.921198786029976],[85.14423909180854,26.921313191008494],[85.14449543626725,26.92139021240007],[85.14507227203157,26.921410277657387],[85.14543515507461,26.921373452224437],[85.14573488841242,26.921199462088804],[85.1458634344451,26.92108561537471],[85.14605587847889,26.920817660634125],[85.14618486152645,26.920624791401465]]]}},{"type":"Feature","properties":{"province":"Madhesh Province","district":"Bara","municipality":"Simaraungadh Municipality","ward":"4","wardNumber":4,"sourceMunicipality":"Simraungadh","sourceType":"Nagarpalika"},"geometry":{"type":"Polygon","coordinates":[[[85.11715257714029,26.925821404410442],[85.11851845147028,26.92573605979781],[85.11945804535628,26.9257670022569],[85.11967168606259,26.925726926940268],[85.119862066696,26.92549517019683],[85.12005276098463,26.92530179980789],[85.1201369154038,26.92514987925699],[85.1203696861556,26.924879486872054],[85.12052192883404,26.924745071589545],[85.12124081310807,26.924107379720073],[85.12129758381275,26.924054989726283],[85.12158087350302,26.92379985048594],[85.12198489406033,26.923528143472225],[85.12232551848018,26.923410232227308],[85.12264513375342,26.923197855615722],[85.12307160211898,26.923099637562608],[85.12311386698876,26.923042869932193],[85.12320852645578,26.92300373338516],[85.12370933394634,26.922848560447306],[85.12385488658468,26.922732275473482],[85.12409034607349,26.922482075904878],[85.124540008402,26.922176046006225],[85.12505325814874,26.921946225491777],[85.12543789697504,26.92169715086373],[85.12556656851669,26.92166001352872],[85.12582316165793,26.921506717374474],[85.12616503602867,26.921314409608176],[85.12659300402827,26.921182306041267],[85.1270418546562,26.92093272991665],[85.12781182156036,26.92062632378499],[85.12787609588104,26.92062807358661],[85.12843161061963,26.920531105126607],[85.12800514026297,26.920186943130705],[85.12774954476733,26.919994825699483],[85.12728043240355,26.919477238915057],[85.12706779054022,26.91916971219361],[85.12679124859447,26.918650498116214],[85.12651452067794,26.918420244877787],[85.12627937105053,26.91832502987395],[85.12608736327579,26.918324281313765],[85.12595937937883,26.918363730260673],[85.12525430880318,26.918362608896963],[85.12480583145424,26.918208190680346],[85.12455023674205,26.918016073487095],[85.12438004709482,26.917805262459723],[85.12397602054776,26.91711556187083],[85.12355129588614,26.916116770528888],[85.12337822756065,26.91536429996695],[85.12334008827109,26.915197563506446],[85.12329788327462,26.91500606992719],[85.1235759210967,26.914793943552215],[85.1238110690811,26.91464083485179],[85.12432475608163,26.914392947119566],[85.1244526769897,26.914276850197577],[85.12470989511574,26.91412580388623],[85.12539401871496,26.913799829606123],[85.12571476058635,26.913704737386773],[85.12575808635658,26.91337707894387],[85.12584442831557,26.91307167599881],[85.12584480283216,26.912918193296576],[85.12584536475174,26.912726324493836],[85.12573994781526,26.912189979983026],[85.1257624527929,26.91172934474164],[85.12569898970493,26.911422879593488],[85.1257872663049,26.91042683702868],[85.12574468694764,26.910194643973455],[85.12572473745085,26.909583151276742],[85.12568814821036,26.907357935314224],[85.12592441744167,26.906744378520493],[85.1261837558686,26.90567237513704],[85.12626953583349,26.905441431534364],[85.12650742850535,26.904290716937158],[85.12657201315082,26.90413898520238],[85.12663672210462,26.90381345123883],[85.12676595499393,26.903390326167933],[85.12685192094638,26.903046537186096],[85.12695977242582,26.902815469068017],[85.12698152766626,26.90252863411025],[85.12691862835946,26.902222169996293],[85.12679251436509,26.90137673418794],[85.12675030961786,26.90118524039484],[85.12722054308864,26.90093772849657],[85.12769139925689,26.90043964225344],[85.12775611017862,26.90036236878514],[85.12779881291969,26.900228829734495],[85.12809910732604,26.899788573656565],[85.12854883096925,26.89919358392502],[85.12957632549349,26.89827574592397],[85.12961915402798,26.898216728347347],[85.1298332938035,26.8980457396693],[85.13017604221076,26.897758590999498],[85.13068941383034,26.897239811291307],[85.13081808489892,26.897010806111787],[85.13107686096926,26.896013386440558],[85.13124873424923,26.895707295660596],[85.13135564781331,26.89557325566921],[85.13169820863281,26.895268038959653],[85.13184801240517,26.895210334209253],[85.13201907417262,26.89507585634999],[85.13214855622645,26.894616657520686],[85.13251299770356,26.893925265266734],[85.13251399553127,26.893523584929515],[85.13236518887562,26.893177109085155],[85.13217380543244,26.892986804101522],[85.13183267972333,26.892793123590927],[85.13157652318817,26.89279293708746],[85.13131936716793,26.892889842483505],[85.13078517375986,26.89327326989166],[85.12984408180021,26.893693898568536],[85.1290746776465,26.893979924373138],[85.12821961773119,26.894438188451645],[85.1275353065497,26.894746094499784],[85.12659465220784,26.895089949892483],[85.12573927929292,26.89558660094437],[85.12554714623327,26.89550914105753],[85.12524766238802,26.895644682414847],[85.12505521756235,26.895720706242013],[85.12454196893306,26.896006980074734],[85.12422085295353,26.896314259680395],[85.12387891721939,26.8965426410257],[85.1233016439066,26.89673463780547],[85.12320823507412,26.896760208679027],[85.12313664701463,26.896781089583687],[85.12299584641859,26.896922132414605],[85.12294532831439,26.89697220969757],[85.12273181215923,26.8970122851487],[85.1223055949753,26.897130759140154],[85.12211415018932,26.89724741924245],[85.12177452875149,26.89759321013156],[85.12166974190208,26.897880670256725],[85.12175690115875,26.898225333443907],[85.12206001710395,26.899026442903473],[85.12223220676564,26.899253070870355],[85.1225109350926,26.899501392621787],[85.12266280567898,26.899901947146823],[85.12264461457701,26.900475365999103],[85.12247668183888,26.900934938837324],[85.12230768470589,26.901281604059246],[85.12216113355424,26.901740990031655],[85.12225142232265,26.90265888440991],[85.12216858244727,26.903061315051726],[85.12206273225485,26.903233741733345],[85.12193518559818,26.90332952022351],[85.12133828183659,26.903564529654165],[85.12108231300031,26.903584599394236],[85.12082565594558,26.903471505508648],[85.12022668565855,26.903304771777755],[85.11971318279299,26.90305832728432],[85.11926376730152,26.90287002386073],[85.11875082909074,26.90274092654815],[85.11855788242337,26.90264539870601],[85.11817286611345,26.902533305824065],[85.1174680451467,26.9024824817802],[85.11708334142023,26.90240877445048],[85.11663455155633,26.902276925458093],[85.1163138082939,26.902241103938],[85.11605752691929,26.902166395578767],[85.11490178763955,26.9016383092338],[85.11387522309091,26.90132147096837],[85.11361856534717,26.90120831400957],[85.11323379944238,26.90111428865754],[85.11291480925657,26.9013267271058],[85.11227526388548,26.90158005517242],[85.1118276630413,26.901698717403793],[85.1109337140397,26.902125597013747],[85.11042209016239,26.902262827350636],[85.11027266039207,26.902302339631838],[85.1104662324109,26.902531031247868],[85.11055188969905,26.902663569533107],[85.1105750254561,26.902970347129568],[85.11055871150309,26.903812344861052],[85.11064530785342,26.90403972388403],[85.11083825466612,26.90426835206407],[85.11086045052761,26.904344937616525],[85.11118244616848,26.90470579191291],[85.11146161196663,26.904933794454074],[85.11163361395127,26.905142355513494],[85.11230036317703,26.90605574579785],[85.11253701539916,26.906437606069993],[85.11262361118048,26.90666717308155],[85.11277786038393,26.907505606232547],[85.1130186416157,26.908499084885523],[85.11306240927574,26.908728964472076],[85.11309017739897,26.909952136463914],[85.11313438199433,26.910220340348378],[85.11307161095584,26.910430777021542],[85.11307862115953,26.91165632467],[85.11295445441638,26.912345715639553],[85.11282797333493,26.9126717498792],[85.112722310291,26.91280578910199],[85.11248797597794,26.912979153933993],[85.11233929725776,26.913095439353153],[85.11221062391623,26.912999411210674],[85.11201780282396,26.912924202434578],[85.11107927229492,26.912988038593834],[85.11065174015908,26.912914644130648],[85.1103093012763,26.912784232747754],[85.1099674263961,26.912710150382022],[85.10919695461654,26.9123889346042],[85.10834314304489,26.912490406243396],[85.10804459572904,26.912474652892403],[85.10798069797823,26.912569993584984],[85.10776780817142,26.91268684236569],[85.10717052754572,26.91282469824613],[85.10674337078306,26.912789627622704],[85.10648727687403,26.912732986851378],[85.10597490184543,26.91273699036059],[85.10546309039377,26.91285609040085],[85.10501467608019,26.912898042917657],[85.10471506583959,26.912708488201417],[85.10439294549317,26.912404088565545],[85.10419887238616,26.912060237739837],[85.1040470646244,26.91165968406094],[85.10389663289234,26.91147125363653],[85.10376758556762,26.911336777938292],[85.10319193765261,26.9114361223108],[85.10293590638676,26.911514896979597],[85.10242396949542,26.911557286890886],[85.10191222023009,26.911694454984772],[85.10129374516076,26.911850503433367],[85.10140159875154,26.912061814659552],[85.10157422593424,26.91234714813248],[85.10166182383777,26.912804657508197],[85.10187784286884,26.913204710834066],[85.1020077050764,26.913549061696656],[85.10209379934261,26.91366346954635],[85.10265864210602,26.915496380440942],[85.10291742722912,26.91595257596435],[85.10298370424488,26.916297364694636],[85.10311306553709,26.916582947907166],[85.10313757802835,26.917099724560714],[85.1032236099742,26.917270586499093],[85.10339786487188,26.917842504012835],[85.10350847237467,26.9185300803095],[85.1036164505721,26.91875945991868],[85.10385335228855,26.919102934827066],[85.10391781387023,26.91919721201914],[85.1040894408723,26.919426090667145],[85.10436910803922,26.919769252935176],[85.10486241600603,26.92012879361601],[85.10537604287313,26.920316596118546],[85.10597451203327,26.920427063283583],[85.10657367105915,26.920670631587935],[85.10708736039463,26.920993849445008],[85.10725873609054,26.921069245831173],[85.10785877081518,26.921466296175197],[85.10826661063722,26.921844655578198],[85.1085671601056,26.922131113631856],[85.10873884843538,26.92230128782247],[85.10888965491225,26.922471649633966],[85.10912618121674,26.9227767377681],[85.10927573651777,26.922870389283172],[85.1095976685692,26.92315678494951],[85.11077698104732,26.92400971720137],[85.111184006591,26.92423446860283],[85.11212554028313,26.924592693567863],[85.11238238549981,26.924723793455428],[85.11241914941601,26.92474611229486],[85.11296178693259,26.925064578474828],[85.11321869518935,26.92519799119222],[85.113732759643,26.925424117292103],[85.1140756983106,26.925536524155728],[85.11484498117089,26.925665870714415],[85.11501616875381,26.925720948352804],[85.11552916914655,26.925775586386024],[85.11612832748986,26.925885929120028],[85.11664088986865,26.925902181044123],[85.11715257714029,26.925821404410442]]]}},{"type":"Feature","properties":{"province":"Madhesh Province","district":"Bara","municipality":"Simaraungadh Municipality","ward":"2","wardNumber":2,"sourceMunicipality":"Simraungadh","sourceType":"Nagarpalika"},"geometry":{"type":"Polygon","coordinates":[[[85.12230768470589,26.901281604059246],[85.12247668183888,26.900934938837324],[85.12264461457701,26.900475365999103],[85.12266280567898,26.899901947146823],[85.1225109350926,26.899501392621787],[85.12223220676564,26.899253070870355],[85.12206001710395,26.899026442903473],[85.12175690115875,26.898225333443907],[85.12166974190208,26.897880670256725],[85.12177452875149,26.89759321013156],[85.12211415018932,26.89724741924245],[85.1223055949753,26.897130759140154],[85.12273181215923,26.8970122851487],[85.12294532831439,26.89697220969757],[85.12299584641859,26.896922132414605],[85.12313664701463,26.896781089583687],[85.12281396376336,26.896417984692313],[85.12234260173122,26.896040313432408],[85.12212739659917,26.895793742536558],[85.12135535903712,26.895109170120822],[85.12114046752359,26.89495731415295],[85.12107481607869,26.894691611525328],[85.12060439291102,26.894465110013673],[85.12051886122957,26.89440709276665],[85.11998391397928,26.89421947857173],[85.11953474928187,26.894107947906132],[85.11940695253406,26.89410901145147],[85.11889382574354,26.893959532307623],[85.11825334184302,26.89398266751866],[85.11780580362978,26.894101329439813],[85.11750800838318,26.89427525750539],[85.11740184497738,26.89442955317902],[85.11710279825442,26.89443193035363],[85.11652727629854,26.894587729100394],[85.11639966765264,26.894665502005612],[85.11620828589191,26.894725708255805],[85.1158883557662,26.8947643460692],[85.11563251276971,26.894863439322478],[85.11435242058708,26.89506312936736],[85.11384035800045,26.895085263848674],[85.11332779513378,26.8949944896493],[85.11272970091437,26.89497892553571],[85.11260171668638,26.895018250043645],[85.11262372642597,26.895151351882912],[85.11264604766362,26.89530458397477],[85.1126057852157,26.895686384196136],[85.11247999169149,26.89614783283679],[85.11237608180888,26.896586524718277],[85.11205120812753,26.895805859348712],[85.11175022027264,26.895406431236847],[85.11149199879804,26.895006689611794],[85.11116737537266,26.89437500597665],[85.11093047413642,26.894031530685773],[85.11084400498758,26.89393519051728],[85.11060835499507,26.893783522314138],[85.11035107280928,26.89367042785644],[85.1096668839417,26.893596847675006],[85.10889816575302,26.893638988757544],[85.10804435462157,26.893853368351852],[85.10727726227749,26.894125764429837],[85.10685142027737,26.89433901666019],[85.10644702442156,26.894626603746357],[85.10627621226296,26.89466630383649],[85.10576371245189,26.89464998877973],[85.10563516493175,26.89463067105193],[85.10535793860008,26.894727638397665],[85.10497404951431,26.89486386767454],[85.10465499651576,26.89505817682315],[85.1040794742181,26.89529068507026],[85.10273592285262,26.89569849977536],[85.10222417417802,26.895817537430382],[85.10228919855449,26.895970518821702],[85.1023772953914,26.896353568466196],[85.10259318975723,26.89673561758642],[85.10276688075302,26.897194689463742],[85.10302697951673,26.897729844737665],[85.10309131575954,26.89780611732413],[85.1033301576916,26.89841817095468],[85.10337379901881,26.898571278465557],[85.1034181921572,26.898801157891178],[85.10376670137724,26.89987284647203],[85.10381121935364,26.90012304435789],[85.10394032940269,26.90025745862352],[85.10402604857865,26.9003335424744],[85.10417848209771,26.900734097650588],[85.10445871184334,26.901135963501048],[85.10458863651837,26.901423860368727],[85.10491626388576,26.90268304110957],[85.10491676512423,26.90279813745268],[85.10485305532052,26.90291373444477],[85.10466198630918,26.903068718081343],[85.10511033750491,26.903026828496362],[85.105429579055,26.902909230199857],[85.10555700002246,26.90281338874733],[85.10583353713268,26.902639711536498],[85.106046552333,26.90254099420866],[85.1068130182239,26.902135433324542],[85.10728250176061,26.90213174224784],[85.10779500263102,26.902147995013816],[85.10811593291605,26.902201946620917],[85.10837208884323,26.902199881961543],[85.10856390838907,26.902123921465424],[85.10882006471951,26.9021219191938],[85.10931111992082,26.90219481311196],[85.10943947962502,26.90219381274994],[85.10982455832388,26.902305905716684],[85.11027266039207,26.902302339631838],[85.11042209016239,26.902262827350636],[85.1109337140397,26.902125597013747],[85.1118276630413,26.901698717403793],[85.11227526388548,26.90158005517242],[85.11291480925657,26.9013267271058],[85.11323379944238,26.90111428865754],[85.11361856534717,26.90120831400957],[85.11387522309091,26.90132147096837],[85.11490178763955,26.9016383092338],[85.11605752691929,26.902166395578767],[85.1163138082939,26.902241103938],[85.11663455155633,26.902276925458093],[85.11708334142023,26.90240877445048],[85.1174680451467,26.9024824817802],[85.11817286611345,26.902533305824065],[85.11855788242337,26.90264539870601],[85.11875082909074,26.90274092654815],[85.11926376730152,26.90287002386073],[85.11971318279299,26.90305832728432],[85.12022668565855,26.903304771777755],[85.12082565594558,26.903471505508648],[85.12108231300031,26.903584599394236],[85.12133828183659,26.903564529654165],[85.12193518559818,26.90332952022351],[85.12206273225485,26.903233741733345],[85.12216858244727,26.903061315051726],[85.12225142232265,26.90265888440991],[85.12216113355424,26.901740990031655],[85.12230768470589,26.901281604059246]]]}},{"type":"Feature","properties":{"province":"Madhesh Province","district":"Bara","municipality":"Simaraungadh Municipality","ward":"1","wardNumber":1,"sourceMunicipality":"Simraungadh","sourceType":"Nagarpalika"},"geometry":{"type":"Polygon","coordinates":[[[85.11253205981437,26.893946685218822],[85.11224782454836,26.8928745596827],[85.11220005283285,26.892184232058067],[85.11224112767535,26.89187920492037],[85.11215221671029,26.8913426723689],[85.11208781852885,26.89126646307408],[85.1119141267406,26.89088185046002],[85.11169842152614,26.89057657398012],[85.11150522468891,26.890386269658606],[85.11129152042598,26.890349572116467],[85.11103492750127,26.890369641492708],[85.11084241891177,26.890312500849532],[85.11064897212805,26.890160519814543],[85.11049728929983,26.889834424610182],[85.1104091918627,26.889451437991568],[85.11014971854894,26.888916282126235],[85.1101273969948,26.888762923907283],[85.1101677223545,26.888378936692455],[85.11031583757281,26.888149806033503],[85.11057036695718,26.887917548369852],[85.11084546469178,26.88747522996295],[85.11088697819716,26.887283048181896],[85.11092874305439,26.887111184947543],[85.1109427408948,26.88603668161887],[85.11098381662562,26.88572940374409],[85.11108829035392,26.885347102903378],[85.11108653756759,26.885040138068067],[85.11095392274935,26.88435049830154],[85.11101575549442,26.884043032452823],[85.11122820778797,26.883887986004762],[85.11142021503457,26.883829968559056],[85.11197228796523,26.883272614265366],[85.1121052109714,26.883095498584918],[85.11210996226374,26.88306611473065],[85.11217242079724,26.882697694471076],[85.11240875533925,26.882413734373216],[85.11232534850784,26.88218185395948],[85.11192394810409,26.881681709598496],[85.11175644627845,26.881222575157103],[85.11162964963144,26.881124234477557],[85.11128933631231,26.88100732714232],[85.11109864087521,26.88081464636972],[85.11110088963567,26.880527999268654],[85.11156312003196,26.88024447622417],[85.11141137479748,26.879979336266544],[85.1112207997756,26.879147968597685],[85.11047064788922,26.878765672008228],[85.10997208980457,26.87868152495855],[85.10932766803283,26.878939478813855],[85.10780336146094,26.879113913137626],[85.10591498486079,26.879322858709287],[85.10568039686537,26.879071910995837],[85.10522804095602,26.87862853294133],[85.10408449776898,26.878682617420424],[85.10060297476619,26.87884293202024],[85.09994923600426,26.878863878349613],[85.09990653269725,26.878864253837715],[85.09955609099237,26.878614181960454],[85.0987806116203,26.877356190987413],[85.0981236169922,26.876641296938676],[85.09755659274475,26.87598210642691],[85.09692085657129,26.87537761933297],[85.09650101173874,26.874845964766372],[85.09580575859272,26.874984509022223],[85.09489498831553,26.875095420814382],[85.0932217518485,26.875286735446743],[85.09208064977004,26.875652161613402],[85.09125459986547,26.876001642760972],[85.0910456521549,26.87665783671222],[85.09068302037267,26.87689772153395],[85.0902511745313,26.87681294868156],[85.09018146076001,26.87663070822917],[85.08990192263794,26.87694661505619],[85.08970735396747,26.877327290551722],[85.08968547100265,26.87740418822502],[85.0892988332772,26.877899273097004],[85.08927426407577,26.878357657623496],[85.08928908395954,26.878720952119142],[85.08958994501297,26.878858553081326],[85.09027163234309,26.878939073428928],[85.091294756647,26.878928878512752],[85.09248719450568,26.87905278354509],[85.09444453779524,26.879410065999302],[85.09470069437424,26.87941256596002],[85.09555156862105,26.879611370533386],[85.09580678804018,26.879650005422743],[85.0958921941102,26.879631311699278],[85.09631747537283,26.87974990742201],[85.0966155227091,26.879846871073127],[85.09670017856277,26.87988688289309],[85.09672087345513,26.8799454627815],[85.09658526899517,26.881090799993018],[85.09647366985776,26.881780128250014],[85.09632130486062,26.88229590554177],[85.09627778918095,26.88235267243751],[85.09623483640418,26.88246589333236],[85.09619025978681,26.882734847181023],[85.09614693204917,26.88280961916669],[85.09602670119851,26.883000176344225],[85.09597443278186,26.883066070452422],[85.09584201019747,26.88323187017943],[85.09584445032363,26.883613294945533],[85.09588802985645,26.88376640230324],[85.09587177928108,26.884554321293145],[85.0959153582526,26.884707428618302],[85.09593880699695,26.885109046740023],[85.09609487024849,26.88614384961195],[85.09612019601283,26.886757592809136],[85.09591037270057,26.88737083627115],[85.09589036692068,26.88758321099803],[85.09608325115875,26.887676550489513],[85.09621217367913,26.887734253773665],[85.09659687701294,26.887751569348847],[85.09685353394089,26.887808209916823],[85.09755835348453,26.887805018437994],[85.09781526106448,26.887879789166664],[85.09815801194308,26.88805083777502],[85.09841579481596,26.888222699164817],[85.09873641334974,26.888317225605828],[85.09963405401304,26.888274145970723],[85.10044553824164,26.88829033387623],[85.10080910908295,26.888346223885865],[85.10085250085463,26.888404552682445],[85.10100255599663,26.88849820436244],[85.10115348826986,26.888747527557378],[85.10123964469312,26.88880329307897],[85.10128253574145,26.888879689980655],[85.10141496322612,26.88949262002463],[85.1015673970726,26.88995413002494],[85.10161435587781,26.89064220674771],[85.10159704107194,26.89125626210278],[85.10142904478916,26.89171802370759],[85.10130387723727,26.892177222311457],[85.10128343370907,26.892407602005004],[85.10139203713362,26.89263698171424],[85.10177905573637,26.89301996709083],[85.10190841697907,26.893249158839502],[85.1020178973249,26.893632083318103],[85.10206241551732,26.893938610331574],[85.10206980036813,26.895089699010647],[85.10222292176053,26.895625730304122],[85.10222417417802,26.895817537430382],[85.10273592285262,26.89569849977536],[85.1040794742181,26.89529068507026],[85.10465499651576,26.89505817682315],[85.10497404951431,26.89486386767454],[85.10535793860008,26.894727638397665],[85.10563516493175,26.89463067105193],[85.10576371245189,26.89464998877973],[85.10627621226296,26.89466630383649],[85.10644702442156,26.894626603746357],[85.10685142027737,26.89433901666019],[85.10727726227749,26.894125764429837],[85.10804435462157,26.893853368351852],[85.10889816575302,26.893638988757544],[85.1096668839417,26.893596847675006],[85.11035107280928,26.89367042785644],[85.11060835499507,26.893783522314138],[85.11084400498758,26.89393519051728],[85.11093047413642,26.894031530685773],[85.11116737537266,26.89437500597665],[85.11149199879804,26.895006689611794],[85.11175022027264,26.895406431236847],[85.11205120812753,26.895805859348712],[85.11237608180888,26.896586524718277],[85.11247999169149,26.89614783283679],[85.1126057852157,26.895686384196136],[85.11264604766362,26.89530458397477],[85.11262372642597,26.895151351882912],[85.11260171668638,26.895018250043645],[85.11266492676859,26.894787557052705],[85.11266154687044,26.894252649617698],[85.11253205981437,26.893946685218822]]]}}]}