{"type":"FeatureCollection","features":[{"type":"Feature","properties":{"province":"Madhesh Province","district":"Parsa","municipality":"Jirabhawani Rural Municipality","ward":"3","wardNumber":3,"sourceMunicipality":"Jirabhawani","sourceType":"Gaunpalika"},"geometry":{"type":"Polygon","coordinates":[[[84.739495238483,27.186530806041244],[84.73962603599946,27.186457847301256],[84.73990370105155,27.186463222841613],[84.74029078053265,27.186397951981174],[84.7404020712807,27.18624840757201],[84.7406410330038,27.1861206819116],[84.74092544893347,27.185897990954974],[84.74121349108094,27.185562391275123],[84.74149684505542,27.18537802364705],[84.74160819781457,27.18522847887226],[84.74204529426929,27.18491475979508],[84.74224286585445,27.18472851740639],[84.74228944551813,27.18461542182851],[84.74235684128702,27.183757356201852],[84.74226361779596,27.183297409234353],[84.7418349570788,27.182602206307923],[84.74111381334578,27.181666996706706],[84.74070822330086,27.18091302605348],[84.74067189695806,27.180682958573],[84.74070828273356,27.18017037050565],[84.74077618216492,27.1800391437793],[84.74092942577357,27.17992773617405],[84.74130781295969,27.179422336180508],[84.74153658190195,27.178913248580425],[84.74157296861738,27.178398409360167],[84.74141178265725,27.178069750218125],[84.74076154144598,27.1776353129701],[84.74050625972673,27.177589237886068],[84.74033626016573,27.177547288452338],[84.739799750808,27.17761105905576],[84.73929988010846,27.17788457838843],[84.7389965816187,27.1780103041296],[84.73873767468672,27.178079387650843],[84.73856423634417,27.17817060202399],[84.73822010977295,27.17824012381704],[84.73804904671012,27.178234247966063],[84.73728489034005,27.17804413198785],[84.73644014054399,27.17768071594],[84.73618379630578,27.17765489635785],[84.73550435785829,27.1774846608994],[84.73507763845663,27.17745534187851],[84.73482035634464,27.177488414735567],[84.73387282118688,27.177712233821623],[84.73361547668114,27.177724862815463],[84.73350781234761,27.17776156154806],[84.73333881275245,27.17768116386505],[84.73307990491293,27.177750246920375],[84.7327358409917,27.17781751854024],[84.73223059210748,27.17755831859175],[84.73172059157562,27.17743015787272],[84.7314643722349,27.17742459492343],[84.73103390225813,27.177508183243543],[84.73062243878633,27.17768861267678],[84.73019203088404,27.177774389387935],[84.73001846773995,27.177865603874427],[84.72967390406819,27.1779531934451],[84.72941399633159,27.178060601149646],[84.7291943533624,27.1782445933952],[84.7288696720098,27.17839076243235],[84.72880327287328,27.178465596639157],[84.728650967708,27.17853636771142],[84.72830796618653,27.17856744116484],[84.72813546583606,27.178620269285485],[84.72796440300807,27.178616643738458],[84.72729246919995,27.17892261159146],[84.7266889987367,27.179079221629255],[84.72651899772654,27.179037272572877],[84.72600605958168,27.17904440138992],[84.72583237123872,27.179115297606444],[84.72540452616775,27.17912430199489],[84.7249778688149,27.1790949194746],[84.72480780638784,27.17905290725771],[84.72470320479,27.178974447772852],[84.72455221097592,27.178754008485818],[84.72443629278158,27.178585396576473],[84.72439709039577,27.17847042519495],[84.72406790497055,27.178022919492417],[84.72361379809767,27.177479074284086],[84.7232979939985,27.17731821567676],[84.72283757324122,27.17696392504976],[84.72266807308132,27.17690159525017],[84.72218689478629,27.176547429545977],[84.72193473924023,27.176388446592462],[84.72142530152387,27.176260160385404],[84.72125692643664,27.17617976280146],[84.72104822360428,27.176002523643565],[84.72094562362943,27.17584735335027],[84.72073635826206,27.175690433137266],[84.7204811393847,27.175646608064646],[84.72022129445556,27.17575401564777],[84.72004923134124,27.1757887767547],[84.7198787302657,27.17576477038476],[84.71968891042134,27.175684497530256],[84.71947914545257,27.175545644546535],[84.71935772490838,27.17531376393536],[84.71924049295123,27.174928401458],[84.7192398043182,27.174820057045196],[84.71923680097922,27.17435504564875],[84.7191494539291,27.173723547653385],[84.71921747626757,27.17292412529207],[84.71910030609052,27.172556829687345],[84.71887278355501,27.17230294375745],[84.71872641742719,27.172204352433557],[84.71843668405502,27.17189207404221],[84.71835246550366,27.171851875359607],[84.71789492095871,27.171438942609566],[84.71735522030968,27.17091128932916],[84.71702422176867,27.17055856201946],[84.71657236648848,27.169955948758027],[84.71617872014346,27.169562959533902],[84.71595169782434,27.1692910680424],[84.71582615160223,27.169192351628872],[84.71566465350675,27.168902017039017],[84.71560550546506,27.168728465964936],[84.71540111719382,27.168438381171967],[84.71532264984708,27.168206250711215],[84.71536710040984,27.167463407700655],[84.71520866565292,27.16705791360387],[84.71496388623358,27.16667092637666],[84.71481801933534,27.166552079331048],[84.71471241838535,27.166511942487645],[84.71451840992604,27.166562645301248],[84.71432440112534,27.16661553642832],[84.71421192252556,27.16678539966733],[84.71404980203963,27.167181204313795],[84.71389349545727,27.167407770614705],[84.71367385368885,27.167591700966334],[84.71324132030414,27.16773386887371],[84.71272675555835,27.167779384113746],[84.71264203736415,27.167757252860305],[84.71238319214477,27.16782852473894],[84.71189113675128,27.167835528255583],[84.71176402670054,27.1677932658601],[84.71159615270014,27.16769254981123],[84.711452348918,27.167499180480412],[84.71132061101693,27.16692201162955],[84.71122388638659,27.16659522883378],[84.71095259864394,27.166397983700517],[84.71069844232431,27.16631571028034],[84.71044109733279,27.16632833977103],[84.71009434550014,27.166472321248065],[84.70983550051186,27.16654359293207],[84.70966193671583,27.16663468214161],[84.7094040926428,27.166665379789723],[84.70914418464487,27.166772787021678],[84.70860717523529,27.166856876211277],[84.70744156037712,27.167208046007012],[84.7070145289044,27.16722830354315],[84.70690605143243,27.167233304862567],[84.70671204275307,27.167286196358013],[84.70639023724226,27.167278820334673],[84.70619835416097,27.16727300599722],[84.70594369778593,27.16720886351986],[84.70517478991506,27.167149535424077],[84.70483535239566,27.167045130985368],[84.70457638168939,27.16709608428264],[84.70431647398145,27.167203491670314],[84.70327865613041,27.167517963081558],[84.70302181220119,27.1675124620119],[84.70258977847047,27.167634311556018],[84.70233193358615,27.167664946605818],[84.70181924538227,27.167613370027063],[84.70147930754136,27.167526971513695],[84.7012219005029,27.167539538407176],[84.70066600897889,27.1675242857962],[84.70067682595763,27.167849255795716],[84.70082844726595,27.16848281625433],[84.70094605392278,27.168829793203845],[84.70091354414055,27.16917308210025],[84.70108360944441,27.169923864461374],[84.7012054697973,27.17084644798959],[84.70120866116598,27.17146037837245],[84.70125886941253,27.17192057530014],[84.70124374019198,27.172437602926472],[84.70141318118858,27.173188384867633],[84.70216540063423,27.174509584052235],[84.70237241534849,27.17481779851609],[84.70263613865559,27.175211475922225],[84.70282339607547,27.175386589016878],[84.70298764414454,27.175620532641318],[84.70340348631147,27.17603146420656],[84.70371210183487,27.176440646255372],[84.70385490487475,27.176674777062747],[84.70391417785088,27.176864082284926],[84.7039334975708,27.17692491307582],[84.70375824582973,27.177054451822908],[84.70369234678822,27.177111218810076],[84.70349833872159,27.177164109659664],[84.70323793127933,27.177291897532978],[84.70291731290935,27.177284396930627],[84.7025998834309,27.177182180238916],[84.70240743731759,27.177176366498244],[84.70189806209808,27.17705026869202],[84.70183316298618,27.177068649325577],[84.70132428777815,27.17692229533505],[84.70100373310923,27.17691479453556],[84.70074532543698,27.17696574724197],[84.70055287971387,27.176962184533373],[84.70008639552572,27.176835898607276],[84.69997754305305,27.17689060277307],[84.69997604281885,27.176947057376008],[84.7001821817811,27.177221387104016],[84.70049604801007,27.177459080650905],[84.70074289024483,27.177789677036806],[84.70127490200086,27.17860629091875],[84.70137275198773,27.178915068541034],[84.7012933496852,27.17943022047127],[84.70094259924998,27.180454397153568],[84.7008622598632,27.181025877733273],[84.70074065503762,27.1815591602341],[84.70073083963948,27.181902323955807],[84.70078536119652,27.182249675061865],[84.70086139069275,27.18259465117779],[84.70094260856295,27.18276801464108],[84.70093954541576,27.18288317404986],[84.70103383246371,27.183325116077523],[84.70111198716678,27.183613637907875],[84.7012910547633,27.184095778582726],[84.70135389089141,27.18415410799048],[84.7017612309375,27.184908266476715],[84.70213549466087,27.185317259808073],[84.70240815909226,27.185534823460298],[84.70287133037945,27.185830408968506],[84.7030153220508,27.186044095765812],[84.70306002811351,27.186734548721628],[84.70292054114806,27.187132541518107],[84.702865397952,27.18759105071926],[84.70288315426669,27.187706022319478],[84.70298425505449,27.18793577743524],[84.7032339107023,27.188191851656796],[84.70337777693713,27.188403288620023],[84.70345449351375,27.188750514792368],[84.70344924278322,27.188922127593937],[84.70354059111766,27.18949723393118],[84.70359973899006,27.18967072289028],[84.703705027914,27.18974918287328],[84.70404721649376,27.189776815015524],[84.70438827917853,27.18982251494847],[84.70456046766992,27.18980582152898],[84.7050782822034,27.18966552908826],[84.70524997050615,27.189669153883194],[84.70541947067478,27.189729233754967],[84.70548230648589,27.189787626200385],[84.7055623994199,27.189981370244478],[84.705667188216,27.190080148685766],[84.70575134452008,27.190120347845557],[84.70585857077212,27.190122035628626],[84.70600968897116,27.19006714408681],[84.7060865281592,27.18962882737008],[84.70630254475856,27.18955774323984],[84.70639013912408,27.189546051675325],[84.70675333469698,27.189492285069154],[84.70699117234817,27.189382751609646],[84.70723107224526,27.18919644655249],[84.70740300978649,27.189143680105687],[84.7083370418998,27.189355614415767],[84.70876626236556,27.18926990013487],[84.7091081999142,27.18925914624573],[84.71004623310462,27.18929953030302],[84.71081232713425,27.189392742101376],[84.71115520311518,27.18934347709701],[84.7113517121089,27.18917555169413],[84.71163869113475,27.188837764248543],[84.71185552113425,27.188707975117477],[84.71215263088493,27.18879224951049],[84.71283494392097,27.188806814030464],[84.71330955477427,27.188626071426775],[84.71339696173355,27.18857149255848],[84.71373977529802,27.188501970992885],[84.71408177644732,27.18849121642494],[84.71423389462716,27.188397876460947],[84.71438907566873,27.18819169008274],[84.71447529474815,27.188155179557565],[84.71526533502066,27.18815561416096],[84.71543839807977,27.188082530104037],[84.7155696335016,27.187971247093067],[84.71570486977848,27.18770648076943],[84.71585698754623,27.18761314087671],[84.71626269952758,27.187604261399482],[84.71652148148685,27.187512671166626],[84.71686342026996,27.187501854200203],[84.71720692061838,27.18743464651038],[84.71746557835274,27.187324987741327],[84.7175722425858,27.187326675806247],[84.71766871407888,27.186926682479196],[84.71763251241153,27.186696615140775],[84.71765602041391,27.18662203069179],[84.71776574741747,27.1865086223535],[84.71800402274815,27.18638095918456],[84.71830594565458,27.18631168713306],[84.71868927455002,27.186359387870073],[84.7191108052709,27.186560382620332],[84.71938296899735,27.186777945982602],[84.71958804521789,27.187068030894107],[84.71979731079541,27.187227201349767],[84.71983751255556,27.187303786618624],[84.71996312188239,27.18740243983641],[84.72025298024914,27.187732723671324],[84.72064956461116,27.188067008136397],[84.72083369630849,27.18833921288276],[84.72087364915627,27.188454058444794],[84.72086833524803,27.188625671849827],[84.72102902017915,27.18897471088463],[84.72117288691601,27.189168079691893],[84.72131994102703,27.189266670647847],[84.72152458052672,27.1895770739415],[84.72162274112355,27.189644281077413],[84.72200688440273,27.189913170864685],[84.72259747730264,27.190194502270778],[84.72297417928704,27.190472457439895],[84.72323039823495,27.190477895520637],[84.72348574312619,27.19054203895061],[84.72407471054849,27.19086175541917],[84.72449336612372,27.1911779099954],[84.72554381776222,27.191831535637824],[84.7256285364727,27.191853666845844],[84.72680259675843,27.19266465125854],[84.7271185262594,27.19282551020446],[84.72715422702686,27.19307364550258],[84.7271735470588,27.193132287776077],[84.72712184186406,27.193434939114905],[84.72713240997959,27.19379829625124],[84.72712940906189,27.193913455349854],[84.7272440785555,27.19437333973433],[84.72727509111238,27.194774958048946],[84.72720094105887,27.195116120834612],[84.72710840763605,27.195342374780946],[84.7270925913258,27.19591573118123],[84.72716862094816,27.19626070733047],[84.72682606070833,27.197057005051015],[84.72679905155991,27.19726706716865],[84.72679292592858,27.197495070927854],[84.7266964541081,27.197895126487886],[84.72668582705538,27.198296932352644],[84.72698950382903,27.198895794464256],[84.72714718807438,27.19935768037234],[84.7274355465774,27.19974666877808],[84.72797862311562,27.2001794808693],[84.72810066818222,27.200411361947317],[84.7281583781578,27.20064349233949],[84.72814862629868,27.200986655557056],[84.72807978930335,27.20117664905926],[84.72833138250834,27.201335570036317],[84.72884232021867,27.201384832391035],[84.72920120266267,27.201545441268006],[84.72951250696943,27.201857594616754],[84.72988927073989,27.202135549469194],[84.73061972965401,27.202763732366055],[84.73082536879325,27.203035748887743],[84.73102807066917,27.203440992000505],[84.73115099124905,27.203616418032986],[84.73132774680707,27.20419333755073],[84.73136851216013,27.204251729629313],[84.73140627577969,27.204425405257012],[84.73167024757886,27.204162202325445],[84.73175752886401,27.204087242141757],[84.732145483418,27.203963329699935],[84.73221075716896,27.203906562737888],[84.73246853935616,27.203855546687663],[84.73281360361831,27.203729571137224],[84.73300998735085,27.203561520764065],[84.73325813943757,27.20308844314858],[84.73331722054817,27.202478701846683],[84.733199801018,27.20209333924943],[84.7327940234698,27.201321300716792],[84.73269804931441,27.20093581250787],[84.73266447290175,27.20062897315256],[84.73252829612437,27.2001692753674],[84.73253292208825,27.200015730323894],[84.73268879150702,27.199809544142752],[84.73316727867015,27.199536149773827],[84.73368346811897,27.19943411787183],[84.7339219924365,27.199326773561214],[84.73414419814239,27.19904575228801],[84.73421522309995,27.198817372355713],[84.73420052998581,27.198589493244857],[84.73414075694093,27.198434072575445],[84.73374986133834,27.19791017043111],[84.73363044126528,27.19760157972076],[84.73363712955434,27.197373575625356],[84.73373372668289,27.196993838632604],[84.73402551879575,27.196543205138475],[84.73433338105411,27.196245804317197],[84.73455314826577,27.196059560698387],[84.73483800245617,27.195818801326492],[84.73501100309181,27.195747967861916],[84.73516437156842,27.195636559421672],[84.73588744797036,27.195043632965568],[84.73606469938412,27.194839510047668],[84.73617805287094,27.194613193163192],[84.73624920275951,27.194384875608034],[84.7363329804006,27.193700486639873],[84.7362632026213,27.193165829867],[84.73625313498817,27.192782217039884],[84.73633760069184,27.192097890220314],[84.73642694521962,27.191966476833418],[84.73664983601232,27.19092473240904],[84.7367898229267,27.19052673960175],[84.73695075600416,27.190148940943757],[84.73708555443702,27.18992249848965],[84.73732920516744,27.189643603667182],[84.73768670894572,27.18911807299865],[84.73817401172589,27.188557968616443],[84.73854627149768,27.188262568848007],[84.73892472095456,27.18775716864446],[84.73919744417283,27.187209506799245],[84.73925015035516,27.18686840614874],[84.739495238483,27.186530806041244]]]}},{"type":"Feature","properties":{"province":"Madhesh Province","district":"Parsa","municipality":"Jirabhawani Rural Municipality","ward":"1","wardNumber":1,"sourceMunicipality":"Jirabhawani","sourceType":"Gaunpalika"},"geometry":{"type":"Polygon","coordinates":[[[84.69549016520362,27.229532651048743],[84.69591988541428,27.229503391423787],[84.69643226203763,27.2295707843189],[84.6971986069435,27.22975883778398],[84.69762932720354,27.22969125361318],[84.69804435455252,27.229431863572326],[84.69836978573245,27.2292857569347],[84.69871522554402,27.22919597987457],[84.698886913196,27.229199667577024],[84.69914019429208,27.229320202636252],[84.69924342092915,27.22947549719046],[84.69932257583186,27.229707628383125],[84.69929737979123,27.22982059917096],[84.69933720669154,27.229935507825115],[84.69946131611191,27.230092865404245],[84.6999527471197,27.230140065430923],[84.70038302995233,27.230092800450915],[84.7006399372126,27.230095988103788],[84.70089490601464,27.230178261271046],[84.70137908610614,27.230476035172465],[84.70173828065366,27.230675092498682],[84.70284062553543,27.2310984008694],[84.70326922092018,27.2310872079249],[84.70344197250614,27.231052509881224],[84.70378941198649,27.230888210673022],[84.70392127226857,27.2307747394233],[84.70459745747917,27.230387560819523],[84.70514897049347,27.229843086401814],[84.70560319967099,27.22969860503109],[84.70595176474146,27.229513987453743],[84.70630595602982,27.229119432824454],[84.70639017376213,27.22896326147176],[84.70653185007171,27.228703059413217],[84.70658292957813,27.22839809439658],[84.70671785377945,27.228169339927298],[84.70676774266808,27.227175922098173],[84.70683826785454,27.22694760535324],[84.7068250744467,27.226658770259345],[84.70685789705553,27.22625909050167],[84.7068196322218,27.22610348186332],[84.70684989204446,27.22579864280048],[84.70696743383878,27.225418843371873],[84.70707784921838,27.225305434415755],[84.70716356784497,27.22528917938311],[84.70750144292768,27.225411588696524],[84.70792109813979,27.225689356980364],[84.70892959719085,27.22624858049898],[84.7091604327968,27.226405313593908],[84.70947736170321,27.226509842810582],[84.709990488802,27.22650046359216],[84.710589833312,27.2264387558147],[84.71118824163251,27.226433439991194],[84.71204761937366,27.226259761008357],[84.71230746475555,27.226132034872094],[84.7124386373122,27.226020814610465],[84.71248721707717,27.22581062751528],[84.71224281221221,27.225403321179435],[84.71226632099051,27.225326486103242],[84.71233328234398,27.225233584011654],[84.7128143335452,27.224840653997518],[84.71292456090116,27.22470911542683],[84.71308299323881,27.224408151500317],[84.71306554855555,27.224252480777036],[84.71255066818452,27.223591475282014],[84.71247113812746,27.223397793371443],[84.71188929698229,27.22282969104195],[84.7113850482468,27.222550110931824],[84.71109306438865,27.22229428646694],[84.71105279967011,27.22221545042354],[84.71086541722265,27.22204033785232],[84.71051741237292,27.221513933778226],[84.71050903200181,27.221073866829357],[84.7104365658334,27.22061148178318],[84.71033865419588,27.220302765832788],[84.71033071181937,27.21984456868775],[84.71027100105533,27.21968914849859],[84.71010562757496,27.219493591071146],[84.71006586211935,27.21939675067886],[84.71006792495686,27.21931997797129],[84.71022366928176,27.219093473459484],[84.7102262949624,27.21901676379589],[84.71010124855259,27.21889997915715],[84.70997520204521,27.218839649787636],[84.70989404658134,27.218684354647795],[84.7098861034911,27.218223968786976],[84.70971635111671,27.21743479965001],[84.70978324944763,27.217341897226735],[84.70995681358505,27.2172304268429],[84.71004672116837,27.217078756735624],[84.71007741840093,27.21675353578521],[84.70999901301079,27.2165214680221],[84.7099830701616,27.216496711018813],[84.70989634993057,27.216366235172483],[84.70974222810159,27.215753055659842],[84.70943098785433,27.21543865180843],[84.70896787815516,27.215179139881478],[84.70865457500052,27.214943758744372],[84.70855247408281,27.214768207328653],[84.70851477173524,27.214596844501312],[84.70856385181261,27.21436859026812],[84.70870015084145,27.214065438129193],[84.70878943256565,27.21391376833727],[84.70918207625503,27.213616117157425],[84.70959910565418,27.213988663054565],[84.70987114471285,27.21418815764343],[84.71022996435475,27.214328573428205],[84.7103550731181,27.21444754544175],[84.71080580486672,27.215144998352997],[84.71101394469112,27.21532217529518],[84.71141259202562,27.21557987427839],[84.71200368546195,27.21582281894562],[84.71259071595986,27.216217120406835],[84.71271582430052,27.216336092022924],[84.71281404918115,27.21649807721626],[84.71302200233015,27.21684011472642],[84.71325809149378,27.217534130278064],[84.71337901167736,27.217786328807207],[84.71344178512963,27.217826590523405],[84.71399386656174,27.218681527270633],[84.71420056948315,27.218935539179615],[84.71444959894804,27.21917123259961],[84.71453444295669,27.219211431477078],[84.71501099498903,27.219701073521257],[84.7153662524879,27.21997690394178],[84.71551218180029,27.22009575091443],[84.71578071900349,27.22042622200703],[84.71584036709775,27.220581642746733],[84.71590264016552,27.22064003463431],[84.71606332578448,27.220989073752445],[84.71642977525002,27.22162819827793],[84.71682004571434,27.222154413691108],[84.71715335786946,27.222450625003844],[84.71750292514427,27.22291832370082],[84.71775208064798,27.22317208482235],[84.71787762757133,27.223270801481714],[84.71825945589488,27.223354574226274],[84.71860308193712,27.223287365746852],[84.7187762697917,27.22321421875025],[84.71916828806833,27.22293457343311],[84.7193633599673,27.222843295347698],[84.7195343596696,27.222828853435878],[84.7198152134453,27.222721320822625],[84.72043694092027,27.222618851081698],[84.7205238483557,27.222582277128833],[84.72069747368394,27.222491062691763],[84.72106854664504,27.22219347361994],[84.72163181517836,27.221919704375477],[84.72193611470152,27.221733023561836],[84.72228174041456,27.22158904276337],[84.72252126596491,27.221441122705684],[84.72273978252608,27.2212548802532],[84.72297868319436,27.221106898554964],[84.72326628748237,27.220766860218088],[84.72369169100787,27.2200874713086],[84.72403431338874,27.21929111080643],[84.72419068299405,27.219064669189965],[84.724672107697,27.21865360904534],[84.72503868042328,27.218527571227135],[84.72529389881319,27.218553327978984],[84.72572168151908,27.21852400480709],[84.72602697970154,27.218301251209642],[84.72639567797754,27.21811875856875],[84.72639924081733,27.21798553229281],[84.72631808560995,27.217830237035],[84.72605067296794,27.217479509279297],[84.72561588622466,27.21700999835472],[84.72534378541017,27.216810502735633],[84.72515390202592,27.216730292405433],[84.72490812362773,27.216499038019045],[84.72480264632827,27.21630097982241],[84.72496245413016,27.21592318112579],[84.72494819721648,27.2156749826724],[84.7245301049033,27.215340823901375],[84.72413658269893,27.214909510303045],[84.72399002922342,27.214792851417357],[84.72379958322782,27.214730646241584],[84.72369491971077,27.214652123987793],[84.72365871734974,27.21442218129408],[84.72347696185821,27.214034880617596],[84.72334015979386,27.213572870849745],[84.72334484793555,27.21341932497935],[84.72326975652847,27.213036025745527],[84.72298333642111,27.212570327098845],[84.72282265080543,27.21222341287978],[84.72280526947225,27.212070055199828],[84.72289455161665,27.211918385701107],[84.72296501370957,27.211690068510137],[84.72292681165288,27.211536773426534],[84.7228047655342,27.211304892742163],[84.72261788337238,27.211109461260556],[84.72228157185039,27.210930660118297],[84.72207224396507,27.210771550888975],[84.72188542416448,27.21057605666695],[84.72174205797502,27.21036236966251],[84.7217037312244,27.210191006549536],[84.7216522725864,27.20974887752476],[84.72144900926385,27.209361701089264],[84.72100959612317,27.20904798553822],[84.72070379414951,27.208505577033748],[84.72052672664647,27.20796473139068],[84.72054560604738,27.20727846697393],[84.72051552997246,27.206818144265746],[84.72042774447634,27.206128004731852],[84.7203506529791,27.20581910135011],[84.72023129557536,27.205510448262803],[84.72006848437044,27.20522011345533],[84.71994387490332,27.20508532453698],[84.71963669756049,27.204619688864945],[84.71957698763659,27.20446426876479],[84.71945187856775,27.204347484337887],[84.71924211389934,27.20420863142027],[84.71896294888842,27.20427777808142],[84.71883527646258,27.204255897369613],[84.71864695700255,27.20411916964652],[84.71848164524513,27.20392361311765],[84.71823511496424,27.2035727606602],[84.71815445954932,27.20339939729793],[84.71811607023179,27.203228035051136],[84.71812288474754,27.202997779897174],[84.71798201824404,27.20268925232443],[84.71764820692536,27.202395291169235],[84.71745826195487,27.202312767804134],[84.71733115260585,27.202272818992082],[84.71726694105,27.202291137438785],[84.71711326040865,27.202438681059608],[84.71712439072546,27.20280428873827],[84.71697070981521,27.2029517699081],[84.71686304606624,27.202988468798367],[84.71641438050713,27.202997534893512],[84.71609176292581,27.203084937104677],[84.71596527823856,27.203044988377084],[84.7156299035383,27.202807419371247],[84.71540281889104,27.202535465414016],[84.7151526636036,27.20229970888046],[84.71485411654686,27.202292207648597],[84.71414710724139,27.20237260925002],[84.71382861472655,27.202308779026747],[84.71363673101828,27.202302964927178],[84.71300274697965,27.20206020844885],[84.71242809838539,27.202008945093027],[84.71217437964877,27.20190860356585],[84.71180080325959,27.20151780252756],[84.71168244582796,27.20117082660395],[84.71164830676534,27.20086398606171],[84.71167794138043,27.200559146545718],[84.71162029435847,27.2003269534749],[84.71146004562668,27.199941778680756],[84.71085275802196,27.19952503308138],[84.71047718189449,27.19921094122099],[84.71049143467648,27.198675908983258],[84.71045116975421,27.198599387353234],[84.71026384966248,27.198422022542918],[84.70980149114934,27.19816476154031],[84.70961317155731,27.19802578393374],[84.70957128114263,27.197987647901392],[84.7095140091204,27.197811846389744],[84.70943354052386,27.197563960562057],[84.70950206571194,27.197412416295812],[84.7095806549602,27.19687700857684],[84.70950362503491,27.196570418387314],[84.70940102439718,27.196415248260337],[84.70899987569885,27.19625251445408],[84.70823271908792,27.196197688240417],[84.70772496857154,27.196033203912666],[84.70722078253716,27.195753623648212],[84.70699313498778,27.195481668985728],[84.70680994164444,27.195153010623017],[84.7063903481132,27.194771462896913],[84.70616376409285,27.19456490305325],[84.7056545752765,27.194380162280474],[84.70514282473945,27.194292451120045],[84.70495287951145,27.19419411005372],[84.70489054336105,27.19411539929873],[84.7048093879949,27.19396004163744],[84.7047516783165,27.193712031714302],[84.7047604931173,27.19340506618325],[84.70485452628694,27.19310210223365],[84.70486059045588,27.192871846288753],[84.70476211499299,27.192563068842563],[84.70463756842963,27.192428279742753],[84.70436227962507,27.192307807836716],[84.70384952820383,27.192258482625366],[84.70340217644979,27.1921703954804],[84.70295638653396,27.192028230267024],[84.70263820622354,27.191905632182646],[84.70217040922171,27.19178159738815],[84.70165915843425,27.191673567767463],[84.70082622576952,27.19157835424915],[84.70031653853955,27.191416245769055],[84.69987224929119,27.191215313799376],[84.69962153105341,27.190979557354897],[84.6994423377403,27.190479348214108],[84.6993387363645,27.190362501564604],[84.69866561284009,27.18990762039435],[84.69843690231197,27.18965373388282],[84.69833023853232,27.189651983432537],[84.6981880626389,27.190126748632462],[84.69818493674947,27.190239594143797],[84.69830542025373,27.190530179301888],[84.6986996289228,27.19099769023284],[84.69876040258467,27.19113285504999],[84.6987750960068,27.19136298552049],[84.6986831253391,27.191589177252858],[84.6986172264229,27.191645943701566],[84.69842265513724,27.19171684031816],[84.69825096679781,27.19171321533015],[84.69806002122046,27.191653197786522],[84.69781780803639,27.191875639299997],[84.69771014387211,27.191912274719794],[84.69745380020551,27.191888769215318],[84.69713505724287,27.19178423967078],[84.69675097818524,27.191718471501602],[84.69655590717151,27.191809686391714],[84.69640210019647,27.191941412490365],[84.69633463886255,27.192054571270855],[84.69634639437254,27.192417928116758],[84.69618171059776,27.19293120458523],[84.69606773270246,27.193177715171835],[84.69637709772473,27.193605089608496],[84.69677393332562,27.193975509850983],[84.69691898736554,27.194171191307678],[84.69693518146697,27.194342616588383],[84.69682020305432,27.19462763862854],[84.69700502190508,27.1949178479518],[84.69706416921862,27.19509139923213],[84.6971753373875,27.195725085118973],[84.69717077370078,27.195896697842606],[84.6971043123688,27.195971469763894],[84.69701246693366,27.1961999124084],[84.69660613257157,27.196935505082802],[84.69655705301841,27.197163759527474],[84.69637248699506,27.197618331598648],[84.69636336068032,27.197963745503586],[84.69648371811428,27.198252079815223],[84.69647909238356,27.1984236304829],[84.69616935418613,27.198761543250594],[84.69580065726646,27.19892590542539],[84.69564528789161,27.19911408544002],[84.69555844383241,27.199150534375008],[84.69552580752658,27.19917779214373],[84.69512009692718,27.19950257662085],[84.69505582355916,27.199520895166657],[84.69463935839627,27.19983680141054],[84.69394566731117,27.200126888758177],[84.69381649475733,27.200163587452703],[84.69356121351103,27.20009944489176],[84.69336745480442,27.200113949578125],[84.69288996745985,27.200353333995192],[84.69276116975637,27.20034945819072],[84.69257022428066,27.200289440627973],[84.6924434898123,27.200208854910283],[84.69234088955436,27.20005362242812],[84.69232250723503,27.199938588563455],[84.69220052408208,27.19970670835218],[84.69212355657999,27.199400118615653],[84.69148950698154,27.19831523906247],[84.69118064167385,27.19786760905894],[84.69080587722809,27.19747668245999],[84.69055922205514,27.197089694891016],[84.69045868438792,27.19685768894797],[84.6902121547729,27.196488643869237],[84.69013249904447,27.1962588892259],[84.68996962548754,27.19594823584775],[84.68976404918884,27.19565802651538],[84.68955515895719,27.19546271934816],[84.68945199564047,27.19530748640814],[84.68915794853206,27.195107991314877],[84.68879531551207,27.195044349299316],[84.68822222833997,27.194839540488168],[84.68765395559241,27.19448343740172],[84.68746351071148,27.19440310175411],[84.6872756280383,27.194225613475105],[84.6867079807466,27.19386957288462],[84.68601384908473,27.19346895726034],[84.68563308327545,27.193326353454374],[84.68544107462742,27.193302472445083],[84.6849321367495,27.193155993515433],[84.68461727021872,27.19295893635761],[84.68449016150811,27.19291667491688],[84.68397603409052,27.192943996770225],[84.6835868918222,27.193088103190917],[84.68328190546545,27.193272407711156],[84.68302618627025,27.193246588493132],[84.6829006398031,27.19314781039691],[84.6828597491745,27.193069099484106],[84.68282786116782,27.192705804989913],[84.68265579501923,27.192011476578017],[84.68262028111369,27.19178140955759],[84.68260033667241,27.191722829759176],[84.68236968870626,27.191565908871137],[84.68203237575277,27.19140505063374],[84.68158402414876,27.19137566866319],[84.68145228869648,27.191486888465388],[84.68121320125333,27.1916144896021],[84.68101231555241,27.191897573219624],[84.68100081258638,27.192279122825713],[84.68130580215116,27.192823844846576],[84.68143084880903,27.19294062843958],[84.68169700999776,27.193329804839973],[84.68179748590298,27.193561809650234],[84.681791171977,27.19377180946266],[84.68168081915401,27.193885155272344],[84.68159397517788,27.1939217292146],[84.68131724782475,27.193875653947504],[84.68092078837356,27.193541243873817],[84.68077754738844,27.193327556681943],[84.68044217301865,27.19308992517928],[84.68012680603215,27.192910873602553],[84.67991335277576,27.19288705504391],[84.67973972717272,27.192978207410434],[84.67953840338204,27.193279421794895],[84.67944368255831,27.193584574271146],[84.67943955646909,27.19373580582938],[84.6795373436047,27.194044583647354],[84.67967964678508,27.194296720354608],[84.68012056066613,27.194576738519206],[84.68026592705893,27.194713715523765],[84.68093648744102,27.19518897832739],[84.68146161950108,27.195506882780712],[84.68201976495457,27.196170076290496],[84.6821002332735,27.19632543371459],[84.68239584515341,27.197195251096034],[84.68253595976829,27.197503779188775],[84.6827615471163,27.198581657349],[84.68281706862251,27.198888372767687],[84.68284495606734,27.199425467939523],[84.68280663506538,27.20080024723816],[84.68307642639348,27.20187787484359],[84.68307173765277,27.202029107215814],[84.6834211206162,27.203336553265228],[84.68366452494733,27.203820694352267],[84.68370128912204,27.20405069944643],[84.68377419262191,27.204510834523916],[84.68373768218181,27.20504599148461],[84.68339312062479,27.2058805508401],[84.68319173526777,27.206181827295183],[84.68266441846585,27.206647090631655],[84.68220662596046,27.206924673644867],[84.68133912053202,27.207287782694873],[84.68102844529,27.207682087921683],[84.68087001297509,27.207985302356718],[84.68074965823938,27.2084396234947],[84.68074553241031,27.20859310653578],[84.68084507024564,27.208863498155097],[84.68123971719285,27.20931075288527],[84.68151294313104,27.209508060408442],[84.68199187088508,27.209997764902123],[84.68314604952846,27.210883709067563],[84.68345904026417,27.211177857554272],[84.68370713338548,27.21150845335909],[84.68376684297459,27.21166168622179],[84.68419931717432,27.21230287352185],[84.68421813691373,27.212379520412295],[84.68431980013158,27.212591207377578],[84.68432930558535,27.21301320669942],[84.68427291116404,27.213489784460894],[84.68437444963831,27.21368340359256],[84.68447923899602,27.21377993127889],[84.6849940525695,27.213752609302457],[84.68518674869807,27.213776490614666],[84.68544159343509,27.213858763584085],[84.68558921034543,27.21393928715588],[84.68563003781371,27.21401580955378],[84.68596503740463,27.214291764888404],[84.68606757614253,27.214447059758513],[84.68612784871115,27.214600230034314],[84.68612272228931,27.214792161467265],[84.68597091688098,27.214844802541375],[84.6856710559293,27.214839488785163],[84.68562766527091,27.21485774484237],[84.68560359441769,27.214952772395296],[84.6856230393605,27.215029357293766],[84.68574808611085,27.21514607848664],[84.68610615640057,27.215383584925554],[84.68624964676457,27.215617653000734],[84.68619781652937,27.215920429664244],[84.68611047227725,27.215977197264092],[84.68599962003543,27.216126741489713],[84.685993367857,27.216336678138155],[84.6862032584098,27.216498162058464],[84.68639426713804,27.216555928521032],[84.6865210013609,27.216636577115597],[84.6868396810898,27.216720788120785],[84.68722538563561,27.216727914300513],[84.68733104943463,27.216770238535595],[84.6874357759656,27.216866829210534],[84.6874954859229,27.217022249731162],[84.68741070804867,27.217711140117107],[84.68728635192016,27.218323445552777],[84.68721670182738,27.21849305840433],[84.68703982506834,27.218681301353726],[84.68695348048098,27.218699744734238],[84.68678285562024,27.218675737601085],[84.68637989407658,27.218533260199262],[84.68627154147963,27.21856995820157],[84.68597493505534,27.219196581457737],[84.68577661346407,27.219382698962498],[84.68558141641968,27.219455908942685],[84.68534064138089,27.219624083721254],[84.68500639459229,27.22007715567995],[84.68484046053018,27.22061068748424],[84.68487559988418,27.22087914130602],[84.68491648978106,27.22095791437135],[84.68501952906999,27.22109276625267],[84.68535609053549,27.221312392591173],[84.68539898122864,27.221312142381684],[84.68548638821265,27.22125762576507],[84.68555903926624,27.220952536187617],[84.68565013422143,27.220780610452515],[84.68575954941899,27.220707713236095],[84.68588765907664,27.220709400926125],[84.68618395566304,27.220850129358528],[84.68669264389,27.221034993795147],[84.68703008097047,27.221213921000512],[84.68725735322899,27.221508443764442],[84.68747512403867,27.22212587458833],[84.68751026253294,27.222396517074383],[84.68765000268856,27.222743493615535],[84.68779349455235,27.222977499194734],[84.6878783382501,27.223017698039328],[84.68884175495394,27.22304007629255],[84.68897205247873,27.222985247547122],[84.6899402214613,27.222851830017408],[84.69099267021527,27.22277886786611],[84.6910988974761,27.222800936673988],[84.69118167851406,27.222917908785234],[84.69108426834079,27.22329983351706],[84.69087819442483,27.223756781080546],[84.69059890780383,27.224516629958885],[84.69030748989594,27.224971764965968],[84.68986214018892,27.225538244783706],[84.68969420629094,27.226148488038152],[84.68959917536817,27.227221115598812],[84.68969815336165,27.22822065879411],[84.68972835896028,27.23013903560119],[84.68974149071124,27.230427870372452],[84.68980588866194,27.23042980762912],[84.68993256103532,27.23049013748194],[84.69024967868648,27.230630803472728],[84.69095156209193,27.23081916914934],[84.69172097078446,27.2308943755524],[84.69267676100932,27.231201150273712],[84.69297618363763,27.231226720084397],[84.69320064048863,27.23088474342047],[84.69351094016243,27.230528824971145],[84.69394847481378,27.23023098650888],[84.69472926135623,27.22990207522137],[84.69486112136441,27.229788541048364],[84.69505688142608,27.22969732643443],[84.69549016520362,27.229532651048743]]]}},{"type":"Feature","properties":{"province":"Madhesh Province","district":"Parsa","municipality":"Jirabhawani Rural Municipality","ward":"5","wardNumber":5,"sourceMunicipality":"Jirabhawani","sourceType":"Gaunpalika"},"geometry":{"type":"Polygon","coordinates":[[[84.74831897115594,27.25666144944651],[84.74851066619745,27.25662212480697],[84.74895908171989,27.256640003966115],[84.74966346548946,27.256597864343014],[84.75145818936181,27.25662205266661],[84.75165051012391,27.256582665300385],[84.75203521379753,27.256600919217036],[84.75235501883868,27.25655853081502],[84.75280424755215,27.25659447760743],[84.75331668527511,27.256553338490026],[84.75382974980678,27.256607039839547],[84.75696959325455,27.25656520388279],[84.75754617946497,27.256483115937385],[84.7583778603379,27.256304748156982],[84.75889004812969,27.256225222915937],[84.7595306585321,27.256183333489627],[84.75972279154857,27.256123627126563],[84.76036240189248,27.256023095758213],[84.76100176127595,27.25578933745533],[84.76247255086176,27.255357017574575],[84.76285587853032,27.25518333972546],[84.76323989471548,27.255104502697584],[84.76394434146061,27.254983277140575],[84.76573837663825,27.25491250046255],[84.7668702306115,27.25486792077453],[84.76693425367962,27.25490368077822],[84.7677471785311,27.255032403957312],[84.76838760160341,27.254970196006795],[84.76870846967807,27.25498651190292],[84.76954065090652,27.25488485383013],[84.77101494379237,27.25487453278236],[84.77120663904965,27.254835021018636],[84.7725522591409,27.25474855304474],[84.7733196030361,27.254590817056513],[84.7738963778408,27.254546989256504],[84.77453648785047,27.25442832712631],[84.77530520835029,27.25438343654139],[84.7758173959338,27.25430384874981],[84.77600934243266,27.254302722277878],[84.77626531077335,27.254242641213658],[84.77645788136722,27.25424164066971],[84.77773879046042,27.254117099623272],[84.77784545422602,27.25411653602967],[84.7778001237806,27.25377368553982],[84.7778623329426,27.253543117729087],[84.77790059492582,27.252969573912207],[84.77779030163495,27.252453297380047],[84.77759497789054,27.25205486889468],[84.77748681285395,27.251940398166212],[84.77729248936828,27.251598360803655],[84.77686039029894,27.25102738181923],[84.77673059189009,27.250797939594356],[84.7764465460333,27.249998268714698],[84.77642234841407,27.24959658782843],[84.77637864381217,27.249481679107685],[84.77637182472846,27.24850670497293],[84.77649499240286,27.2478740191813],[84.77670519226304,27.247414632710143],[84.77676496235202,27.246840964492804],[84.7767633348631,27.24661077196286],[84.77665122888749,27.245922945010207],[84.77641176255875,27.245350965323382],[84.77630384685222,27.24518004066434],[84.77625932953944,27.244952285879883],[84.77621600073851,27.24489383173858],[84.77608163526865,27.244093284586413],[84.77595102352245,27.24374868309058],[84.77562715217223,27.24329230007758],[84.77538993884673,27.24304529082817],[84.77517535875653,27.242874929454945],[84.7751319052187,27.24279846986025],[84.77504643651346,27.242762834319574],[84.77485223912956,27.242533642577403],[84.77456931877215,27.24179036288079],[84.77464753144118,27.240871279563297],[84.77477407613024,27.240642587693134],[84.77483666091842,27.240468473802746],[84.77483584792884,27.240353314640856],[84.77504523508455,27.239778894817942],[84.77515077262291,27.239606719186362],[84.77544700590529,27.239259803815493],[84.77559336960391,27.238800730665858],[84.77567320873736,27.238111778027008],[84.7756278785225,27.237766739132773],[84.77564694587383,27.23742357533229],[84.77573103822658,27.237251650178113],[84.77575023236402,27.23702120711153],[84.77595880611982,27.23633162843035],[84.77595061087628,27.23524149542931],[84.7760333895696,27.234895643594417],[84.77618025389539,27.23449308790663],[84.77622014203916,27.23414973687056],[84.77647141970053,27.233516361506176],[84.77649086334648,27.233229589963784],[84.77655344760231,27.233057789272717],[84.7765725153677,27.232712250646472],[84.77648379345445,27.232313258680595],[84.77644021520116,27.2321983497995],[84.77609439809635,27.23168338719245],[84.77596347241494,27.2312845832472],[84.77594083831835,27.23111090693333],[84.7759799133062,27.230652522016857],[84.77627289320911,27.22984734673185],[84.77627132908647,27.2296170918859],[84.77616059773854,27.229042173378197],[84.77598740766514,27.2286413063111],[84.77570686499593,27.228238876429213],[84.77527495240446,27.227494159110332],[84.77499197056952,27.226746315435037],[84.77440912597302,27.225715764036735],[84.77393626240772,27.225257943759],[84.7737636356455,27.225028689527793],[84.7734197579701,27.22468521481661],[84.77316172376212,27.224341302061784],[84.77286042437319,27.22405409419433],[84.7722788937143,27.223289871712442],[84.77221487075866,27.22325186019263],[84.7718055294092,27.222660438165228],[84.77154774651075,27.222449689746213],[84.77122456245498,27.22199105558113],[84.77094201825703,27.221301854725507],[84.77085248271203,27.220670356786854],[84.77070086310805,27.220382335110255],[84.77063671462976,27.220326256277698],[84.77063633872831,27.220267551350315],[84.7703995633019,27.2199822182363],[84.77026982698222,27.219752651457878],[84.77005174337421,27.21906319956051],[84.77002904703937,27.218891773905337],[84.76983359749033,27.21837368526156],[84.76966015686735,27.21802927215163],[84.76948540296884,27.217398274803262],[84.76915915383924,27.21649944902751],[84.76900728349335,27.216078200590964],[84.76892131439331,27.215963542958704],[84.76870479520174,27.215504283496866],[84.76823186846369,27.21493355457447],[84.76797333422607,27.214512869559123],[84.76786473048122,27.214226847911604],[84.76786454161692,27.21411168926008],[84.76777725863734,27.213805225028334],[84.76766871727204,27.213537208703787],[84.76766389927882,27.212753978690607],[84.76755635929258,27.21252434931157],[84.76729776292981,27.21218043658011],[84.7668889222378,27.211568820945804],[84.76686647534576,27.211415400809905],[84.76675855999838,27.21114963554789],[84.76652272259747,27.210997404096446],[84.76626594020935,27.21092207049665],[84.76532690666306,27.21084823905882],[84.76481478120061,27.21090975902749],[84.76421668609919,27.210854307769306],[84.76379040459102,27.21091307658214],[84.76344896609248,27.210914953211766],[84.76327815374727,27.210954214826],[84.76306588821666,27.21110888588731],[84.76298079428966,27.211127391617723],[84.76238232396693,27.21101554871272],[84.76212591726498,27.2109966689541],[84.76195591752195,27.21105624988372],[84.76178566741419,27.211172284661107],[84.76161548061862,27.211211609469558],[84.7613591357521,27.211192666581216],[84.76108128330189,27.211079009483047],[84.76095248599214,27.210984982048608],[84.76084500827282,27.210870448956147],[84.76071533414832,27.210640944467315],[84.76032856414966,27.21010585127295],[84.76007140663727,27.209974062771227],[84.75968663969782,27.209917548060137],[84.75947312367053,27.209803515340415],[84.759386028153,27.209517306437363],[84.75944804931969,27.209171642281007],[84.75957428186109,27.208884244179703],[84.75982849880256,27.208596221478373],[84.76008346740689,27.208402976411204],[84.76027397341683,27.208115328313642],[84.76042083804367,27.207712647372706],[84.76046178917234,27.20742581270338],[84.76041558245413,27.206850519142204],[84.76034949377222,27.206505542494536],[84.76015435702283,27.20593325019518],[84.7601089640557,27.20547305231642],[84.76023432033517,27.205070621163536],[84.7603615539557,27.204841928569145],[84.76074319206609,27.204438059106494],[84.76099728503618,27.204129717734265],[84.76103929986179,27.203996303236366],[84.76101572657485,27.203594684944964],[84.76075687919122,27.20302276809762],[84.76024156048015,27.202224285133454],[84.75996164196363,27.201537333832253],[84.7598756723557,27.201422675525297],[84.75957506049643,27.201024809851],[84.75946764473846,27.200833504090955],[84.75916753359414,27.20049209204835],[84.75906036815756,27.200321104555826],[84.75863227118911,27.19992392715224],[84.75828939340656,27.199523998219387],[84.7579895325739,27.199238978055075],[84.75788236713616,27.19906799048926],[84.75779564645605,27.198840486131548],[84.75773005815644,27.198382664328047],[84.7577491884413,27.198037187754977],[84.75800190348966,27.19734967284518],[84.75842536924924,27.196774002278115],[84.75884983639364,27.196369944279578],[84.75910505430221,27.196215085210167],[84.75967938993598,27.196038156507417],[84.7601270546188,27.19597926206785],[84.76063874230074,27.19605096913818],[84.76095898560197,27.196182444633752],[84.76140821500101,27.196446333228387],[84.76185606736072,27.196597375515225],[84.76211253674916,27.19663207243047],[84.7628154204422,27.196610188514658],[84.76351786593663,27.19643257120571],[84.76383679530059,27.196277337567427],[84.76443163727592,27.195872278660577],[84.76458006569685,27.195699914607744],[84.7649398199942,27.19506597707681],[84.76523623952134,27.194662545607763],[84.76536247252665,27.19430075119421],[84.76551046396894,27.19416445998986],[84.7655740491065,27.19404905106973],[84.765934805154,27.193645244145607],[84.76635795745365,27.193051567622227],[84.76678254973072,27.192665515656326],[84.76735619713605,27.192298967982037],[84.76741928188521,27.19210903726984],[84.76735356898806,27.191822703606082],[84.7673505019763,27.19119070479516],[84.76728585254327,27.19096313839227],[84.76717874975768,27.190810218486657],[84.76683624791904,27.190563772249174],[84.76651487818933,27.190166031929767],[84.76636438441032,27.189936652276433],[84.76614842745532,27.18936673561586],[84.76593397184388,27.189099345694064],[84.76576290840424,27.189005443447545],[84.76544241532464,27.18874086623667],[84.76505614568936,27.18826672823661],[84.76445786122396,27.187888556981697],[84.76417906959145,27.187546957839512],[84.7638998403819,27.187128648129338],[84.76381487171106,27.187070443807624],[84.76377148039481,27.186993921519107],[84.76330061797626,27.186520221449545],[84.76270170863855,27.186142050300013],[84.7624878786938,27.185971688260462],[84.76206103302721,27.18574599797565],[84.76191129024944,27.18563171514599],[84.76174053936869,27.18557619978017],[84.76148394509327,27.18542409312243],[84.76097125544925,27.18519896621699],[84.76067239423853,27.18504942377848],[84.75996988741724,27.185301437426343],[84.75926775480883,27.185517440875007],[84.75888492826849,27.18572944202339],[84.75858838238577,27.18601771539815],[84.75831309497669,27.186364568507074],[84.75746359886787,27.187095973343638],[84.75725120822113,27.187230263841943],[84.75693259263089,27.187518662333193],[84.75678435182247,27.18771134381703],[84.75663604712945,27.187806935264593],[84.75640196130509,27.187905277624004],[84.7562103917353,27.187944665117588],[84.75589046142025,27.187946416778697],[84.75557040607796,27.18783300898519],[84.75505709002168,27.187418201360693],[84.75454415014514,27.18715237524787],[84.75352089887917,27.187103739316505],[84.75313694411719,27.18697263989227],[84.75281638842445,27.1867824599478],[84.75251546299273,27.186325889670023],[84.75206548297709,27.185757223588446],[84.75161562744928,27.18530146663268],[84.7513163922621,27.185093156200175],[84.75086691205946,27.184693789891515],[84.75048108056748,27.184181203393873],[84.75022310919839,27.183724382789684],[84.7501370143545,27.18349687846465],[84.75007136350507,27.183115767085166],[84.74989867210388,27.18258173509685],[84.74985496840188,27.182466889342468],[84.74976949868392,27.18233416312197],[84.74961981854787,27.182314658197132],[84.74910781665079,27.182089405902996],[84.7485312293736,27.181920920662066],[84.7480723718497,27.181717987959935],[84.74804198554703,27.18170460922762],[84.74752792184654,27.181729930968636],[84.7472726406414,27.181686168927584],[84.74710426559604,27.1816057703301],[84.74676420296267,27.18151955848219],[84.74635474026113,27.181625591190507],[84.74630984919696,27.181700300652068],[84.74644039987122,27.18235192951698],[84.74648128985163,27.1824284518182],[84.7464954216865,27.182658644165297],[84.74661434154578,27.182985302452003],[84.7466071521151,27.183233625433335],[84.74649586152154,27.183383170147042],[84.74636406428233,27.183494515343515],[84.74610309330804,27.183640372249965],[84.74582299079458,27.183729899370416],[84.74573508408953,27.18380254568492],[84.74568969262778,27.183897636354885],[84.74565880806072,27.184202476375177],[84.7456987608167,27.184317385000575],[84.74590858833994,27.18445623726498],[84.74605145386802,27.18468792955672],[84.74611122685272,27.1848434130239],[84.74628873122111,27.185343559096644],[84.74639133253957,27.18549872985202],[84.7464893073311,27.18580519428196],[84.74654232834754,27.18618861933213],[84.74655445924388,27.186493271276234],[84.74647374445532,27.187064751818195],[84.74631850047153,27.187250682037817],[84.74614543772262,27.187323829186592],[84.74571815496911,27.187312577457316],[84.74530862995844,27.187416359537277],[84.74486953309167,27.187806913020566],[84.74455635736724,27.188257733992792],[84.74409275166128,27.188761321601557],[84.74372049102146,27.189056721442974],[84.74337323871484,27.189218833528432],[84.74309601111791,27.189193264481723],[84.74292813652721,27.18909479825903],[84.74276226264355,27.188919622181796],[84.74251923331248,27.188435605582338],[84.74244589278487,27.188034238422265],[84.74244889309944,27.187919079139316],[84.74249334675228,27.187862437902133],[84.74247402700374,27.18780610825152],[84.74257062300447,27.187426371556096],[84.74257731219588,27.18719836698517],[84.74262789206645,27.186931788794794],[84.74241543858248,27.18686970876954],[84.74224287598737,27.1869225374514],[84.7420718750634,27.18691891183056],[84.74173343730442,27.18679431362604],[84.74139700058392,27.18659513118867],[84.74080021869682,27.186523862531992],[84.74054599935019,27.186441714276175],[84.74029078053265,27.186397951981174],[84.73990370105155,27.186463222841613],[84.73962603599946,27.186457847301256],[84.739495238483,27.186530806041244],[84.73925015035516,27.18686840614874],[84.73919744417283,27.187209506799245],[84.73892472095456,27.18775716864446],[84.73854627149768,27.188262568848007],[84.73817401172589,27.188557968616443],[84.73768670894572,27.18911807299865],[84.73732920516744,27.189643603667182],[84.73708555443702,27.18992249848965],[84.73695075600416,27.190148940943757],[84.7367898229267,27.19052673960175],[84.73664983601232,27.19092473240904],[84.73642694521962,27.191966476833418],[84.73633760069184,27.192097890220314],[84.73625313498817,27.192782217039884],[84.7362632026213,27.193165829867],[84.7363329804006,27.193700486639873],[84.73624920275951,27.194384875608034],[84.73617805287094,27.194613193163192],[84.73606469938412,27.194839510047668],[84.73588744797036,27.195043632965568],[84.73516437156842,27.195636559421672],[84.73501100309181,27.195747967861916],[84.73483800245617,27.195818801326492],[84.73455314826577,27.196059560698387],[84.73433338105411,27.196245804317197],[84.73402551879575,27.196543205138475],[84.73373372668289,27.196993838632604],[84.73363712955434,27.197373575625356],[84.73363044126528,27.19760157972076],[84.73374986133834,27.19791017043111],[84.73414075694093,27.198434072575445],[84.73420052998581,27.198589493244857],[84.73421522309995,27.198817372355713],[84.73414419814239,27.19904575228801],[84.7339219924365,27.199326773561214],[84.73368346811897,27.19943411787183],[84.73316727867015,27.199536149773827],[84.73268879150702,27.199809544142752],[84.73253292208825,27.200015730323894],[84.73252829612437,27.2001692753674],[84.73266447290175,27.20062897315256],[84.73269804931441,27.20093581250787],[84.7327940234698,27.201321300716792],[84.733199801018,27.20209333924943],[84.73331722054817,27.202478701846683],[84.73325813943757,27.20308844314858],[84.73300998735085,27.203561520764065],[84.73281360361831,27.203729571137224],[84.73246853935616,27.203855546687663],[84.73221075716896,27.203906562737888],[84.732145483418,27.203963329699935],[84.73175752886401,27.204087242141757],[84.73167024757886,27.204162202325445],[84.73140627577969,27.204425405257012],[84.7313292503217,27.20489979444223],[84.73139621477551,27.20559018515376],[84.73118489045322,27.206275199229],[84.73111699378266,27.20718971834589],[84.7312135931103,27.207575144442263],[84.73141616952377,27.207962319892207],[84.73154027861992,27.208117427271503],[84.73189728644671,27.20846996731568],[84.73197669130467,27.208548552626365],[84.73224672855979,27.208822507223672],[84.73228761904235,27.208899029770055],[84.73234726660003,27.209052198953138],[84.73237753002826,27.20951245949567],[84.73219633928755,27.20989038395636],[84.73184708778787,27.210151836954047],[84.73167414871365,27.210242989131906],[84.73147651454825,27.210429107064403],[84.73136578741148,27.210580964551287],[84.73109331451495,27.21118501814812],[84.73101003630667,27.2118716575467],[84.73096571139514,27.212711529652726],[84.73089168540297,27.21307307340385],[84.73078195845281,27.2131866073511],[84.7306962387935,27.213202737643403],[84.73027152051478,27.21311696351164],[84.7300122375347,27.213226683779276],[84.72966811176246,27.213314210814712],[84.72940826606924,27.213441999364726],[84.7292118194884,27.21361004963454],[84.72894322330681,27.214042552313476],[84.7290377591382,27.214504812909784],[84.72922095302461,27.214815340982376],[84.7296574912205,27.215264471883437],[84.72992440252969,27.215633266350977],[84.73010765934025,27.215961862876043],[84.73027409613513,27.216118970949815],[84.73067330690708,27.216356164164566],[84.7307984151441,27.21647513650549],[84.73080616831027,27.21649764242953],[84.73087694520243,27.216707203995753],[84.73083261703655,27.216781913677732],[84.73080448255713,27.21701004285655],[84.73066305794241,27.21748705936285],[84.730769721631,27.217488746890535],[84.73102337839293,27.21757095696947],[84.73121226069594,27.217689616834246],[84.73129797984573,27.21767336159362],[84.73155282346558,27.217737442076146],[84.73189582413085,27.217685988554663],[84.73240632486807,27.217755569804638],[84.73266048089371,27.217819712356516],[84.73286980905566,27.217976570593724],[84.73290957379744,27.218073473778993],[84.73305150208826,27.218345803038478],[84.73327914939465,27.21859968982944],[84.73360227158317,27.2192570694013],[84.73401411235156,27.21978309747545],[84.7340696962606,27.2200717444565],[84.73406144506978,27.22036070428383],[84.73388782160525,27.221217081828406],[84.73374839737062,27.22161732497246],[84.73359271591048,27.221843829311126],[84.7333430018782,27.22235523104692],[84.732859951098,27.222822807172008],[84.73279248868761,27.222936091105737],[84.7325203912611,27.22350400835341],[84.73240953852523,27.223635484940157],[84.73215532290294,27.224320750245287],[84.73215075880641,27.22449230037716],[84.73210468050114,27.224605396046297],[84.73209436540223,27.224950810246565],[84.73220972206344,27.225412945902224],[84.73241492420757,27.225705280829555],[84.73249345344699,27.225937348781343],[84.73250520921313,27.226280387300804],[84.73242799554673,27.226739021722004],[84.73220285165227,27.227155520117808],[84.73202516315054,27.2274002180184],[84.73186429217951,27.2277983351528],[84.73187442306352,27.228182010372493],[84.73195257818585,27.228452401863297],[84.73215877939876,27.228706413984018],[84.73255386414934,27.229079021941832],[84.73282127707755,27.229429749554697],[84.73281108680733,27.22979323110019],[84.73300647432313,27.230430980684755],[84.73327094779786,27.2308945532897],[84.73366103168922,27.231477098260566],[84.73385935754693,27.232053891869725],[84.73401072893041,27.232800235934217],[84.73398471925556,27.232971911245134],[84.73403630314408,27.23342985825466],[84.73400122942358,27.233944634890182],[84.73403805707828,27.234174702415114],[84.73407732214667,27.234289610762033],[84.73422243830106,27.234464911585537],[84.73445189888162,27.23469841714965],[84.73478702326314,27.23497205861],[84.73496734140276,27.235413500364757],[84.7350211133187,27.23581499340311],[84.73512121350126,27.23606500407885],[84.73515591522491,27.2363515251484],[84.73501867818857,27.23669306380362],[84.73484148854476,27.236919693372986],[84.73462290953891,27.23708561769291],[84.73459940059327,27.23716257809753],[84.73472150977123,27.23739433371148],[84.73499692395774,27.23751249253287],[84.735336986703,27.23757619701654],[84.73601236120767,27.237933800067356],[84.73638675119571,27.238322225868917],[84.73653436809894,27.238400497817825],[84.73722518725401,27.238985980044585],[84.73780709209011,27.239626228836936],[84.73799247379141,27.23987805271795],[84.73798791052934,27.240049602541628],[84.73808400982284,27.24045315899208],[84.73818529793489,27.240682850891258],[84.73870836741594,27.241113413440075],[84.73904705531162,27.241253828004],[84.73929939895129,27.241410498207475],[84.73959063230438,27.241720525953497],[84.73965246814514,27.24181717886352],[84.73974606713446,27.24231551294319],[84.73982828512226,27.24243248421206],[84.7399688388425,27.24277708564396],[84.74019817346083,27.24299252263418],[84.74051391549712,27.24318951677464],[84.74061707957179,27.243324368759453],[84.74058500701047,27.243724111221955],[84.7407670125039,27.244129354931903],[84.74111964410174,27.244554103804113],[84.74172243198777,27.245196477762757],[84.74197439980358,27.245391471508796],[84.74230696101831,27.24574182391486],[84.74256043053316,27.245880426437143],[84.742709047631,27.245920311776434],[84.74288017368517,27.245923874993842],[84.74314014369834,27.245796086663123],[84.74339698760532,27.245781206069044],[84.74373467517047,27.245959945374352],[84.74406936222286,27.246251592288715],[84.7441505802055,27.246404699739518],[84.74439179631173,27.24698349374196],[84.74447464062591,27.247098151923396],[84.74453291215093,27.247310027074846],[84.7445079041493,27.247443315868537],[84.74439455056405,27.247687701088847],[84.74439161240095,27.247802796820476],[84.74447233020736,27.24797622296075],[84.74446726699671,27.24816809159074],[84.74417534918621,27.24869556047371],[84.7441263322966,27.2489237526925],[84.7441127044408,27.249438466377185],[84.74416897654557,27.24972711381739],[84.74416291239952,27.249955117669735],[84.7441168960797,27.25006821382722],[84.74413384021354,27.25024188973706],[84.74441807318794,27.25081824553821],[84.74474807135793,27.25126343846366],[84.74493670386103,27.251420421479637],[84.7451487195173,27.25150050614678],[84.74538261816134,27.251542142534745],[84.74550828976345,27.25164079642705],[84.74554874242298,27.251737637384302],[84.74558263140098,27.25208055021148],[84.74590612841364,27.25277406526884],[84.74598228373257,27.253118979429285],[84.74596265434359,27.25386394803727],[84.74588919099868,27.2542051735654],[84.74568142976419,27.254772841568656],[84.74499218047617,27.255753882158675],[84.74491465392408,27.256248590400084],[84.74488914506698,27.25639994719311],[84.74593796810875,27.256401131753563],[84.7463665016695,27.256369495985656],[84.74677102547224,27.256435013601187],[84.7476696691505,27.25645282844227],[84.74802567585918,27.256617938036605],[84.74807250559772,27.256638005993555],[84.74812702524828,27.256662513627266],[84.74831897115594,27.25666144944651]]]}},{"type":"Feature","properties":{"province":"Madhesh Province","district":"Parsa","municipality":"Jirabhawani Rural Municipality","ward":"2","wardNumber":2,"sourceMunicipality":"Jirabhawani","sourceType":"Gaunpalika"},"geometry":{"type":"Polygon","coordinates":[[[84.7300122375347,27.213226683779276],[84.73027152051478,27.21311696351164],[84.7306962387935,27.213202737643403],[84.73078195845281,27.2131866073511],[84.73089168540297,27.21307307340385],[84.73096571139514,27.212711529652726],[84.73101003630667,27.2118716575467],[84.73109331451495,27.21118501814812],[84.73136578741148,27.210580964551287],[84.73147651454825,27.210429107064403],[84.73167414871365,27.210242989131906],[84.73184708778787,27.210151836954047],[84.73219633928755,27.20989038395636],[84.73237753002826,27.20951245949567],[84.73234726660003,27.209052198953138],[84.73228761904235,27.208899029770055],[84.73224672855979,27.208822507223672],[84.73197669130467,27.208548552626365],[84.73189728644671,27.20846996731568],[84.73154027861992,27.208117427271503],[84.73141616952377,27.207962319892207],[84.7312135931103,27.207575144442263],[84.73111699378266,27.20718971834589],[84.73118489045322,27.206275199229],[84.73139621477551,27.20559018515376],[84.7313292503217,27.20489979444223],[84.73140627577969,27.204425405257012],[84.73136851216013,27.204251729629313],[84.73132774680707,27.20419333755073],[84.73115099124905,27.203616418032986],[84.73102807066917,27.203440992000505],[84.73082536879325,27.203035748887743],[84.73061972965401,27.202763732366055],[84.72988927073989,27.202135549469194],[84.72951250696943,27.201857594616754],[84.72920120266267,27.201545441268006],[84.72884232021867,27.201384832391035],[84.72833138250834,27.201335570036317],[84.72807978930335,27.20117664905926],[84.72814862629868,27.200986655557056],[84.7281583781578,27.20064349233949],[84.72810066818222,27.200411361947317],[84.72797862311562,27.2001794808693],[84.7274355465774,27.19974666877808],[84.72714718807438,27.19935768037234],[84.72698950382903,27.198895794464256],[84.72668582705538,27.198296932352644],[84.7266964541081,27.197895126487886],[84.72679292592858,27.197495070927854],[84.72679905155991,27.19726706716865],[84.72682606070833,27.197057005051015],[84.72716862094816,27.19626070733047],[84.7270925913258,27.19591573118123],[84.72710840763605,27.195342374780946],[84.72720094105887,27.195116120834612],[84.72727509111238,27.194774958048946],[84.7272440785555,27.19437333973433],[84.72712940906189,27.193913455349854],[84.72713240997959,27.19379829625124],[84.72712184186406,27.193434939114905],[84.7271735470588,27.193132287776077],[84.72715422702686,27.19307364550258],[84.7271185262594,27.19282551020446],[84.72680259675843,27.19266465125854],[84.7256285364727,27.191853666845844],[84.72554381776222,27.191831535637824],[84.72449336612372,27.1911779099954],[84.72407471054849,27.19086175541917],[84.72348574312619,27.19054203895061],[84.72323039823495,27.190477895520637],[84.72297417928704,27.190472457439895],[84.72259747730264,27.190194502270778],[84.72200688440273,27.189913170864685],[84.72162274112355,27.189644281077413],[84.72152458052672,27.1895770739415],[84.72131994102703,27.189266670647847],[84.72117288691601,27.189168079691893],[84.72102902017915,27.18897471088463],[84.72086833524803,27.188625671849827],[84.72087364915627,27.188454058444794],[84.72083369630849,27.18833921288276],[84.72064956461116,27.188067008136397],[84.72025298024914,27.187732723671324],[84.71996312188239,27.18740243983641],[84.71983751255556,27.187303786618624],[84.71979731079541,27.187227201349767],[84.71958804521789,27.187068030894107],[84.71938296899735,27.186777945982602],[84.7191108052709,27.186560382620332],[84.71868927455002,27.186359387870073],[84.71830594565458,27.18631168713306],[84.71800402274815,27.18638095918456],[84.71776574741747,27.1865086223535],[84.71765602041391,27.18662203069179],[84.71763251241153,27.186696615140775],[84.71766871407888,27.186926682479196],[84.7175722425858,27.187326675806247],[84.71746557835274,27.187324987741327],[84.71720692061838,27.18743464651038],[84.71686342026996,27.187501854200203],[84.71652148148685,27.187512671166626],[84.71626269952758,27.187604261399482],[84.71585698754623,27.18761314087671],[84.71570486977848,27.18770648076943],[84.7155696335016,27.187971247093067],[84.71543839807977,27.188082530104037],[84.71526533502066,27.18815561416096],[84.71447529474815,27.188155179557565],[84.71438907566873,27.18819169008274],[84.71423389462716,27.188397876460947],[84.71408177644732,27.18849121642494],[84.71373977529802,27.188501970992885],[84.71339696173355,27.18857149255848],[84.71330955477427,27.188626071426775],[84.71283494392097,27.188806814030464],[84.71215263088493,27.18879224951049],[84.71185552113425,27.188707975117477],[84.71163869113475,27.188837764248543],[84.7113517121089,27.18917555169413],[84.71115520311518,27.18934347709701],[84.71081232713425,27.189392742101376],[84.71004623310462,27.18929953030302],[84.7091081999142,27.18925914624573],[84.70876626236556,27.18926990013487],[84.7083370418998,27.189355614415767],[84.70740300978649,27.189143680105687],[84.70723107224526,27.18919644655249],[84.70699117234817,27.189382751609646],[84.70675333469698,27.189492285069154],[84.70639013912408,27.189546051675325],[84.70630254475856,27.18955774323984],[84.7060865281592,27.18962882737008],[84.70600968897116,27.19006714408681],[84.70585857077212,27.190122035628626],[84.70575134452008,27.190120347845557],[84.705667188216,27.190080148685766],[84.7055623994199,27.189981370244478],[84.70548230648589,27.189787626200385],[84.70541947067478,27.189729233754967],[84.70524997050615,27.189669153883194],[84.7050782822034,27.18966552908826],[84.70456046766992,27.18980582152898],[84.70438827917853,27.18982251494847],[84.70404721649376,27.189776815015524],[84.703705027914,27.18974918287328],[84.70346081433448,27.190050646687663],[84.70310787309228,27.190424820380418],[84.70288916808839,27.190572677555853],[84.70264089153765,27.19102768649227],[84.70258768556023,27.19140704848155],[84.70263820622354,27.191905632182646],[84.70295638653396,27.192028230267024],[84.70340217644979,27.1921703954804],[84.70384952820383,27.192258482625366],[84.70436227962507,27.192307807836716],[84.70463756842963,27.192428279742753],[84.70476211499299,27.192563068842563],[84.70486059045588,27.192871846288753],[84.70485452628694,27.19310210223365],[84.7047604931173,27.19340506618325],[84.7047516783165,27.193712031714302],[84.7048093879949,27.19396004163744],[84.70489054336105,27.19411539929873],[84.70495287951145,27.19419411005372],[84.70514282473945,27.194292451120045],[84.7056545752765,27.194380162280474],[84.70616376409285,27.19456490305325],[84.7063903481132,27.194771462896913],[84.70680994164444,27.195153010623017],[84.70699313498778,27.195481668985728],[84.70722078253716,27.195753623648212],[84.70772496857154,27.196033203912666],[84.70823271908792,27.196197688240417],[84.70899987569885,27.19625251445408],[84.70940102439718,27.196415248260337],[84.70950362503491,27.196570418387314],[84.7095806549602,27.19687700857684],[84.70950206571194,27.197412416295812],[84.70943354052386,27.197563960562057],[84.7095140091204,27.197811846389744],[84.70957128114263,27.197987647901392],[84.70961317155731,27.19802578393374],[84.70980149114934,27.19816476154031],[84.71026384966248,27.198422022542918],[84.71045116975421,27.198599387353234],[84.71049143467648,27.198675908983258],[84.71047718189449,27.19921094122099],[84.71085275802196,27.19952503308138],[84.71146004562668,27.199941778680756],[84.71162029435847,27.2003269534749],[84.71167794138043,27.200559146545718],[84.71164830676534,27.20086398606171],[84.71168244582796,27.20117082660395],[84.71180080325959,27.20151780252756],[84.71217437964877,27.20190860356585],[84.71242809838539,27.202008945093027],[84.71300274697965,27.20206020844885],[84.71363673101828,27.202302964927178],[84.71382861472655,27.202308779026747],[84.71414710724139,27.20237260925002],[84.71485411654686,27.202292207648597],[84.7151526636036,27.20229970888046],[84.71540281889104,27.202535465414016],[84.7156299035383,27.202807419371247],[84.71596527823856,27.203044988377084],[84.71609176292581,27.203084937104677],[84.71641438050713,27.202997534893512],[84.71686304606624,27.202988468798367],[84.71697070981521,27.2029517699081],[84.71712439072546,27.20280428873827],[84.71711326040865,27.202438681059608],[84.71726694105,27.202291137438785],[84.71733115260585,27.202272818992082],[84.71745826195487,27.202312767804134],[84.71764820692536,27.202395291169235],[84.71798201824404,27.20268925232443],[84.71812288474754,27.202997779897174],[84.71811607023179,27.203228035051136],[84.71815445954932,27.20339939729793],[84.71823511496424,27.2035727606602],[84.71848164524513,27.20392361311765],[84.71864695700255,27.20411916964652],[84.71883527646258,27.204255897369613],[84.71896294888842,27.20427777808142],[84.71924211389934,27.20420863142027],[84.71945187856775,27.204347484337887],[84.71957698763659,27.20446426876479],[84.71963669756049,27.204619688864945],[84.71994387490332,27.20508532453698],[84.72006848437044,27.20522011345533],[84.72023129557536,27.205510448262803],[84.7203506529791,27.20581910135011],[84.72042774447634,27.206128004731852],[84.72051552997246,27.206818144265746],[84.72054560604738,27.20727846697393],[84.72052672664647,27.20796473139068],[84.72070379414951,27.208505577033748],[84.72100959612317,27.20904798553822],[84.72144900926385,27.209361701089264],[84.7216522725864,27.20974887752476],[84.7217037312244,27.210191006549536],[84.72174205797502,27.21036236966251],[84.72188542416448,27.21057605666695],[84.72207224396507,27.210771550888975],[84.72228157185039,27.210930660118297],[84.72261788337238,27.211109461260556],[84.7228047655342,27.211304892742163],[84.72292681165288,27.211536773426534],[84.72296501370957,27.211690068510137],[84.72289455161665,27.211918385701107],[84.72280526947225,27.212070055199828],[84.72282265080543,27.21222341287978],[84.72298333642111,27.212570327098845],[84.72326975652847,27.213036025745527],[84.72334484793555,27.21341932497935],[84.72334015979386,27.213572870849745],[84.72347696185821,27.214034880617596],[84.72365871734974,27.21442218129408],[84.72369491971077,27.214652123987793],[84.72379958322782,27.214730646241584],[84.72399002922342,27.214792851417357],[84.72413658269893,27.214909510303045],[84.7245301049033,27.215340823901375],[84.72494819721648,27.2156749826724],[84.72496245413016,27.21592318112579],[84.72480264632827,27.21630097982241],[84.72490812362773,27.216499038019045],[84.72515390202592,27.216730292405433],[84.72534378541017,27.216810502735633],[84.72561588622466,27.21700999835472],[84.72605067296794,27.217479509279297],[84.72631808560995,27.217830237035],[84.72639924081733,27.21798553229281],[84.72639567797754,27.21811875856875],[84.72668453487437,27.218469360504134],[84.72689223748533,27.218666918668408],[84.72733171278,27.218982884958198],[84.72764664217411,27.219161810870204],[84.7280483527478,27.21930416446783],[84.72821629035943,27.219404880998898],[84.7283021968253,27.21940669393268],[84.72872479076491,27.219548983630997],[84.72974279154252,27.219803242789823],[84.73033988563311,27.21981586930777],[84.73049425442464,27.219666137345655],[84.73041259531304,27.21876368514376],[84.73047499116922,27.218077170270067],[84.73061291459136,27.217735632626102],[84.73061766651786,27.2175820873135],[84.73066305794241,27.21748705936285],[84.73080448255713,27.21701004285655],[84.73083261703655,27.216781913677732],[84.73087694520243,27.216707203995753],[84.73080616831027,27.21649764242953],[84.7307984151441,27.21647513650549],[84.73067330690708,27.216356164164566],[84.73027409613513,27.216118970949815],[84.73010765934025,27.215961862876043],[84.72992440252969,27.215633266350977],[84.7296574912205,27.215264471883437],[84.72922095302461,27.214815340982376],[84.7290377591382,27.214504812909784],[84.72894322330681,27.214042552313476],[84.7292118194884,27.21361004963454],[84.72940826606924,27.213441999364726],[84.72966811176246,27.213314210814712],[84.7300122375347,27.213226683779276]]]}},{"type":"Feature","properties":{"province":"Madhesh Province","district":"Parsa","municipality":"Jirabhawani Rural Municipality","ward":"4","wardNumber":4,"sourceMunicipality":"Jirabhawani","sourceType":"Gaunpalika"},"geometry":{"type":"Polygon","coordinates":[[[84.74530862995844,27.187416359537277],[84.74571815496911,27.187312577457316],[84.74614543772262,27.187323829186592],[84.74631850047153,27.187250682037817],[84.74647374445532,27.187064751818195],[84.74655445924388,27.186493271276234],[84.74654232834754,27.18618861933213],[84.7464893073311,27.18580519428196],[84.74639133253957,27.18549872985202],[84.74628873122111,27.185343559096644],[84.74611122685272,27.1848434130239],[84.74605145386802,27.18468792955672],[84.74590858833994,27.18445623726498],[84.7456987608167,27.184317385000575],[84.74565880806072,27.184202476375177],[84.74568969262778,27.183897636354885],[84.74573508408953,27.18380254568492],[84.74582299079458,27.183729899370416],[84.74610309330804,27.183640372249965],[84.74636406428233,27.183494515343515],[84.74649586152154,27.183383170147042],[84.7466071521151,27.183233625433335],[84.74661434154578,27.182985302452003],[84.7464954216865,27.182658644165297],[84.74648128985163,27.1824284518182],[84.74644039987122,27.18235192951698],[84.74630984919696,27.181700300652068],[84.74635474026113,27.181625591190507],[84.74640588297159,27.18134094481818],[84.74652516810065,27.179455578477874],[84.7466043827871,27.178940488931083],[84.74667397043488,27.178770814208384],[84.74694206444765,27.17763404095544],[84.74693093365269,27.1772910030818],[84.7468329587398,27.17698228764108],[84.74683502156645,27.17690551522182],[84.74667377308839,27.176576856272213],[84.74668715134034,27.17612078491826],[84.74665088666137,27.1758907800598],[84.7466474457583,27.175279100590124],[84.74659092351791,27.175031090376105],[84.74650995581847,27.174817090046645],[84.74619464896716,27.173990410242382],[84.7461376270751,27.17376046804809],[84.74583313740654,27.173236189638402],[84.74554646790452,27.172829134068042],[84.74523622720892,27.172476406605742],[84.74482663697579,27.171893986278516],[84.74387240409322,27.17024906840959],[84.74367576741221,27.169710660796085],[84.74359261112137,27.169632076063554],[84.74337084060684,27.16920663924537],[84.7432478568112,27.16903127551387],[84.74293967635732,27.16793814241636],[84.74247512655641,27.167067076301503],[84.74229055804679,27.166815252552727],[84.74189622391457,27.166422325695553],[84.74164925649278,27.16611217305027],[84.74142636023203,27.16570705430728],[84.74124854339375,27.165243043693714],[84.74116638741822,27.165128322625502],[84.7410874200068,27.164916573326522],[84.74088127797968,27.163994490988774],[84.7407818027806,27.16374447965274],[84.74074991494828,27.16340150418934],[84.74055946654673,27.162653159706256],[84.74041359956028,27.162534313347173],[84.7401223038262,27.16227848898539],[84.73970133621411,27.16205955139986],[84.73902146003316,27.16190738390517],[84.73876524081174,27.161899694846777],[84.7380749259413,27.16207262330632],[84.73764876877445,27.16202298446987],[84.73730570515607,27.162051869302857],[84.73705054886804,27.16200804471413],[84.73674931291846,27.162057060457656],[84.73649246918453,27.162049309144436],[84.73597596723924,27.16216947081345],[84.73558469870093,27.162349837791936],[84.73465342079832,27.16272720151426],[84.7345210596606,27.162858803744864],[84.73408771375638,27.163057426100956],[84.73369444595737,27.16331456546729],[84.7334963114782,27.163500683401793],[84.73314862126941,27.163683112997415],[84.73297662124064,27.163717873109626],[84.73280612035113,27.163693929134748],[84.73249125439422,27.16349468446756],[84.73206972333169,27.16329381415005],[84.7317304106115,27.163209728515874],[84.73095750179522,27.163304071415716],[84.73052615599606,27.16342823381477],[84.7303519675658,27.163519386824035],[84.73015433292079,27.16368524868409],[84.7298070816055,27.16384954794828],[84.72963501809664,27.163882057954087],[84.72895007899407,27.163903754098428],[84.72843138895446,27.16408243314304],[84.72817416974596,27.164115381162958],[84.72761721459096,27.164138515473272],[84.72739019334982,27.163866623566435],[84.72722919526275,27.163555907407236],[84.72700323545915,27.163245692080647],[84.72683436067352,27.163183361872527],[84.72657814146397,27.163177924033263],[84.7264055157015,27.163210433902826],[84.72589414048679,27.163161171146655],[84.72512123114834,27.16325545126339],[84.72477623005682,27.16336104576841],[84.72468938563925,27.163397619840392],[84.72442578999014,27.163620185729133],[84.72399331932391,27.163762353621273],[84.72371046553135,27.163926340728047],[84.72334183107525,27.164090765457114],[84.72314882185576,27.164105332735705],[84.72306360305744,27.16410120650604],[84.72288947741792,27.164192421347305],[84.72282307837628,27.164267256417375],[84.72274986453988,27.16455202773348],[84.72259555870328,27.164701822361582],[84.72233827722697,27.164732520005067],[84.72208368294726,27.16467062761465],[84.7214843373276,27.164673692256443],[84.72105818067686,27.16462624221056],[84.7206158302888,27.16442312148193],[84.7202795810031,27.16422393943259],[84.72005318404378,27.163951922935794],[84.71949003706169,27.16349897900567],[84.71881491297529,27.163195454028546],[84.71839025660627,27.163089300047435],[84.71779203671399,27.16307429717588],[84.71719012850689,27.16317445388725],[84.71649737483345,27.1634624153205],[84.71613074043611,27.16354775402408],[84.71559004219507,27.163744688841735],[84.71533163446492,27.16379564180456],[84.71513668900842,27.163886919270542],[84.7150917353233,27.16396162937729],[84.71491704560587,27.164073162908863],[84.71463469272986,27.164216830828057],[84.71437528586097,27.164306170342098],[84.71385959580351,27.16436975285401],[84.71360343929798,27.16436425220425],[84.71315677508522,27.164276227869117],[84.71268985265893,27.164170323579054],[84.71260250848877,27.164224902507264],[84.71251210089821,27.164394640262234],[84.7125706229179,27.164568190618898],[84.71344644798205,27.165276959002416],[84.71367397040669,27.165530907635507],[84.71392443845427,27.165728214935026],[84.71413095235695,27.165961907386777],[84.71431339517451,27.16627249873748],[84.71432440112534,27.16661553642832],[84.71451840992604,27.166562645301248],[84.71471241838535,27.166511942487645],[84.71481801933534,27.166552079331048],[84.71496388623358,27.16667092637666],[84.71520866565292,27.16705791360387],[84.71536710040984,27.167463407700655],[84.71532264984708,27.168206250711215],[84.71540111719382,27.168438381171967],[84.71560550546506,27.168728465964936],[84.71566465350675,27.168902017039017],[84.71582615160223,27.169192351628872],[84.71595169782434,27.1692910680424],[84.71617872014346,27.169562959533902],[84.71657236648848,27.169955948758027],[84.71702422176867,27.17055856201946],[84.71735522030968,27.17091128932916],[84.71789492095871,27.171438942609566],[84.71835246550366,27.171851875359607],[84.71843668405502,27.17189207404221],[84.71872641742719,27.172204352433557],[84.71887278355501,27.17230294375745],[84.71910030609052,27.172556829687345],[84.71921747626757,27.17292412529207],[84.7191494539291,27.173723547653385],[84.71923680097922,27.17435504564875],[84.7192398043182,27.174820057045196],[84.71924049295123,27.174928401458],[84.71935772490838,27.17531376393536],[84.71947914545257,27.175545644546535],[84.71968891042134,27.175684497530256],[84.7198787302657,27.17576477038476],[84.72004923134124,27.1757887767547],[84.72022129445556,27.17575401564777],[84.7204811393847,27.175646608064646],[84.72073635826206,27.175690433137266],[84.72094562362943,27.17584735335027],[84.72104822360428,27.176002523643565],[84.72125692643664,27.17617976280146],[84.72142530152387,27.176260160385404],[84.72193473924023,27.176388446592462],[84.72218689478629,27.176547429545977],[84.72266807308132,27.17690159525017],[84.72283757324122,27.17696392504976],[84.7232979939985,27.17731821567676],[84.72361379809767,27.177479074284086],[84.72406790497055,27.178022919492417],[84.72439709039577,27.17847042519495],[84.72443629278158,27.178585396576473],[84.72455221097592,27.178754008485818],[84.72470320479,27.178974447772852],[84.72480780638784,27.17905290725771],[84.7249778688149,27.1790949194746],[84.72540452616775,27.17912430199489],[84.72583237123872,27.179115297606444],[84.72600605958168,27.17904440138992],[84.72651899772654,27.179037272572877],[84.7266889987367,27.179079221629255],[84.72729246919995,27.17892261159146],[84.72796440300807,27.178616643738458],[84.72813546583606,27.178620269285485],[84.72830796618653,27.17856744116484],[84.728650967708,27.17853636771142],[84.72880327287328,27.178465596639157],[84.7288696720098,27.17839076243235],[84.7291943533624,27.1782445933952],[84.72941399633159,27.178060601149646],[84.72967390406819,27.1779531934451],[84.73001846773995,27.177865603874427],[84.73019203088404,27.177774389387935],[84.73062243878633,27.17768861267678],[84.73103390225813,27.177508183243543],[84.7314643722349,27.17742459492343],[84.73172059157562,27.17743015787272],[84.73223059210748,27.17755831859175],[84.7327358409917,27.17781751854024],[84.73307990491293,27.177750246920375],[84.73333881275245,27.17768116386505],[84.73350781234761,27.17776156154806],[84.73361547668114,27.177724862815463],[84.73387282118688,27.177712233821623],[84.73482035634464,27.177488414735567],[84.73507763845663,27.17745534187851],[84.73550435785829,27.1774846608994],[84.73618379630578,27.17765489635785],[84.73644014054399,27.17768071594],[84.73728489034005,27.17804413198785],[84.73804904671012,27.178234247966063],[84.73822010977295,27.17824012381704],[84.73856423634417,27.17817060202399],[84.73873767468672,27.178079387650843],[84.7389965816187,27.1780103041296],[84.73929988010846,27.17788457838843],[84.739799750808,27.17761105905576],[84.74033626016573,27.177547288452338],[84.74050625972673,27.177589237886068],[84.74076154144598,27.1776353129701],[84.74141178265725,27.178069750218125],[84.74157296861738,27.178398409360167],[84.74153658190195,27.178913248580425],[84.74130781295969,27.179422336180508],[84.74092942577357,27.17992773617405],[84.74077618216492,27.1800391437793],[84.74070828273356,27.18017037050565],[84.74067189695806,27.180682958573],[84.74070822330086,27.18091302605348],[84.74111381334578,27.181666996706706],[84.7418349570788,27.182602206307923],[84.74226361779596,27.183297409234353],[84.74235684128702,27.183757356201852],[84.74228944551813,27.18461542182851],[84.74224286585445,27.18472851740639],[84.74204529426929,27.18491475979508],[84.74160819781457,27.18522847887226],[84.74149684505542,27.18537802364705],[84.74121349108094,27.185562391275123],[84.74092544893347,27.185897990954974],[84.7406410330038,27.1861206819116],[84.7404020712807,27.18624840757201],[84.74029078053265,27.186397951981174],[84.74054599935019,27.186441714276175],[84.74080021869682,27.186523862531992],[84.74139700058392,27.18659513118867],[84.74173343730442,27.18679431362604],[84.7420718750634,27.18691891183056],[84.74224287598737,27.1869225374514],[84.74241543858248,27.18686970876954],[84.74262789206645,27.186931788794794],[84.74257731219588,27.18719836698517],[84.74257062300447,27.187426371556096],[84.74247402700374,27.18780610825152],[84.74249334675228,27.187862437902133],[84.74244889309944,27.187919079139316],[84.74244589278487,27.188034238422265],[84.74251923331248,27.188435605582338],[84.74276226264355,27.188919622181796],[84.74292813652721,27.18909479825903],[84.74309601111791,27.189193264481723],[84.74337323871484,27.189218833528432],[84.74372049102146,27.189056721442974],[84.74409275166128,27.188761321601557],[84.74455635736724,27.188257733992792],[84.74486953309167,27.187806913020566],[84.74530862995844,27.187416359537277]]]}}]}