{"type":"FeatureCollection","features":[{"type":"Feature","properties":{"province":"Madhesh Province","district":"Saptari","municipality":"Tirhut Rural Municipality","ward":"3","wardNumber":3,"sourceMunicipality":"Tirahut","sourceType":"Gaunpalika"},"geometry":{"type":"Polygon","coordinates":[[[86.86029017803665,26.597966630873017],[86.8602714685599,26.59702066629727],[86.86005306501268,26.596257444783074],[86.85993976071224,26.595417511989062],[86.86007217970754,26.59517612705778],[86.86030582516808,26.595067967170188],[86.86058367542151,26.595011822599204],[86.8611151847034,26.595233568592114],[86.8613745279857,26.59517285935343],[86.86155102466984,26.594850199792855],[86.86150100347564,26.594676337768615],[86.8614728673139,26.594576933389497],[86.85984688335111,26.593514392686615],[86.85968757422089,26.593410364178684],[86.85926297694527,26.593060079042697],[86.85798017601434,26.59166593647604],[86.85769500396181,26.591297707217517],[86.8572383905585,26.590710290644516],[86.85690294582608,26.590057603603576],[86.8569290766378,26.589807029808757],[86.85707425160513,26.589676239685236],[86.85779613927534,26.58967241642287],[86.85808855585891,26.589539499002477],[86.85868088366716,26.588707059592682],[86.85906870068841,26.58801891476139],[86.85934248356872,26.58770538184989],[86.85972592378126,26.587005984241788],[86.86032581646086,26.586173544987084],[86.86064329650002,26.58550559531051],[86.86084735726068,26.584688603043734],[86.8607916441285,26.584307053736897],[86.86061176100132,26.584029225174135],[86.86051372368594,26.58387561796771],[86.86011969782282,26.58344630961222],[86.86000021182213,26.58309627102649],[86.85999808130757,26.582771175769864],[86.86011961197235,26.581936054801357],[86.86022189459744,26.581683291108106],[86.86054432012114,26.581365318809226],[86.86070256030294,26.581076482459107],[86.86063215691847,26.58087779989828],[86.86010758315268,26.580428049433543],[86.85976795686709,26.580213241274404],[86.85905218540988,26.579542053389652],[86.8589293894001,26.57941783098639],[86.8589046294942,26.57936587812279],[86.85867447514892,26.578891554553202],[86.85860438072699,26.578469369052478],[86.858710477724,26.578209854334933],[86.85989227206218,26.577558585506413],[86.86067392128872,26.576902382430994],[86.86125143428616,26.576343085995703],[86.86090542726255,26.57592059169255],[86.86045675786521,26.57552285551079],[86.86006091946186,26.575066476691944],[86.8558784650522,26.57135331591681],[86.85546636628717,26.570662118198314],[86.85535763362768,26.57028050756217],[86.85540345882966,26.57002324455678],[86.8556079020108,26.569641880156944],[86.85590887407429,26.568861084842897],[86.85591831467771,26.56883626472523],[86.85594813667946,26.56880019131723],[86.85597333336688,26.56877312025968],[86.85602810112857,26.568633203522865],[86.85611831476703,26.568245026027537],[86.85611480641468,26.567766447721816],[86.8561143051358,26.56770549270395],[86.85601300480165,26.566865559743274],[86.85601899099802,26.565813626756082],[86.85573642664603,26.564348200318413],[86.85569971819983,26.563865121519367],[86.85575379117668,26.563262381136205],[86.85596785608939,26.56246120598923],[86.85594684042552,26.561939678368475],[86.85562458602712,26.561165079906598],[86.85495457687803,26.56018236288993],[86.85480689194176,26.559789436792656],[86.85475987425532,26.559744236569998],[86.8546276362418,26.559613199704422],[86.85429083238252,26.55996049340902],[86.8539223981083,26.56074572906377],[86.85240088277463,26.563119069054576],[86.85224733202962,26.563448480808674],[86.85223539033908,26.563473300334493],[86.85200218568944,26.563777892617665],[86.85157179183624,26.56461495613391],[86.85129307895401,26.565422759639347],[86.85119098812876,26.565993865835125],[86.85078854267628,26.566826490153385],[86.85059673545159,26.567607347350545],[86.85050270379483,26.567778836402013],[86.85038710815425,26.568352130315336],[86.85042176020094,26.569259646359903],[86.85048535026813,26.569555482500498],[86.85047178831903,26.56990758601072],[86.85046297677509,26.57012883821876],[86.85057852616404,26.570598537696583],[86.85053483105472,26.571156076221254],[86.85031164494256,26.572404195942052],[86.8500089232446,26.573273016661755],[86.84973677388676,26.574053874338084],[86.84958122425253,26.574482627248766],[86.84957647258167,26.574498382222366],[86.849519142564,26.574685749941718],[86.8492914484059,26.57552299826315],[86.8489163274715,26.576554305887758],[86.84866143899755,26.577569919464093],[86.84853334156477,26.578348587305502],[86.84797648042019,26.580117863557632],[86.84784681610115,26.58065052134034],[86.8477724178725,26.58088746734364],[86.84771758830826,26.58104545187366],[86.84740380061838,26.581952597223477],[86.84719824082838,26.582896001099794],[86.84703581257277,26.583268299935924],[86.84682674801635,26.584015334893056],[86.84636277974676,26.584807259956705],[86.8460423652498,26.58573922516752],[86.8455011222147,26.586779349721457],[86.84499438836693,26.58758246695777],[86.84479088216928,26.5879050017996],[86.84426915609616,26.58960213172542],[86.84348533517921,26.591298889064344],[86.84345488821353,26.591364346120976],[86.84340056551221,26.59200766079647],[86.84347803689596,26.592321564421187],[86.84353574852896,26.59255638228941],[86.84357615463136,26.593560988854822],[86.84358891383641,26.593879332324434],[86.84347813499511,26.594590292704176],[86.84326044058768,26.595186032282943],[86.84326852117717,26.59619064022694],[86.84266282881076,26.597962104603642],[86.84228789266474,26.598749528038702],[86.84224031805046,26.59909037841475],[86.84224500809077,26.599112948221144],[86.84270830509178,26.59937983305183],[86.84363545676524,26.599500480858456],[86.84459468119911,26.599533103486582],[86.84608947228307,26.5993225228488],[86.8467640305049,26.59935708655724],[86.8471248475924,26.599253614765058],[86.8474438959038,26.59892663905526],[86.84747251943517,26.598170416973016],[86.84759417874155,26.59754291896826],[86.84772772545146,26.597421194038514],[86.84797612723457,26.597362736381626],[86.8482073372112,26.597442006221833],[86.84838183933192,26.597500896366558],[86.84898738005589,26.59800716203722],[86.85029055069904,26.59858419034918],[86.85543601471876,26.600465363392974],[86.85610732663405,26.60081133149279],[86.85695070591582,26.60140824550659],[86.8580930163976,26.602687044307153],[86.85922806814166,26.603591169301783],[86.8594313860384,26.603189549170963],[86.85940587319288,26.602936662460817],[86.85924055770327,26.602595627382748],[86.85858318095529,26.601827472556177],[86.85852678060986,26.60150225298617],[86.85880050136367,26.60125198917158],[86.85922352776085,26.601096625654307],[86.85927385727341,26.601065115790725],[86.8595505182485,26.600884746027667],[86.85979228885009,26.600591532648387],[86.860000105855,26.600079253897146],[86.86017853599112,26.599415745024015],[86.86029017803665,26.597966630873017]]]}},{"type":"Feature","properties":{"province":"Madhesh Province","district":"Saptari","municipality":"Tirhut Rural Municipality","ward":"5","wardNumber":5,"sourceMunicipality":"Tirahut","sourceType":"Gaunpalika"},"geometry":{"type":"Polygon","coordinates":[[[86.85204433810206,26.631691757160095],[86.85331090908349,26.63077878557472],[86.85454460082555,26.63027655937005],[86.85591058792237,26.6296503584666],[86.85912134946471,26.62764216531224],[86.86012738610542,26.626579840985276],[86.86066476280169,26.626194345445864],[86.86070921444554,26.626070183726462],[86.8606345608782,26.62596852994097],[86.86055059041341,26.625819486763262],[86.8597620592213,26.622242885081015],[86.859411660663,26.620944508625684],[86.85915186896047,26.620294134280602],[86.85883341543726,26.618738431836757],[86.8586420275956,26.618399584663052],[86.85846196078232,26.61829330575199],[86.85762697130897,26.618432482490636],[86.85752505857447,26.618342081722073],[86.85789355227412,26.617401050916495],[86.85794168893224,26.61703313024184],[86.8577839373216,26.6166221362813],[86.85735426357061,26.615506502667277],[86.85710108945463,26.614294024822044],[86.85714790632002,26.613490412983154],[86.85703497674254,26.612648292499866],[86.85631195225857,26.611902582816416],[86.85616633158453,26.611581865865396],[86.85620782622064,26.610315493824427],[86.85689494409145,26.60983078009896],[86.85708769710763,26.60955332110349],[86.85731252017843,26.609007220972263],[86.85765632769,26.608718631660217],[86.85777418217175,26.60861716300638],[86.85789547014686,26.6082447400602],[86.85768643643954,26.606951050016615],[86.8576908124822,26.60692848087821],[86.85780990437388,26.606061724855532],[86.85795220099496,26.605734502168506],[86.85817245432273,26.604809165171872],[86.85802158096865,26.604454625627763],[86.85835838684575,26.604206611576956],[86.85878522722254,26.604026427881315],[86.85920512315931,26.60363630807169],[86.85922806814166,26.603591169301783],[86.8580930163976,26.602687044307153],[86.85695070591582,26.60140824550659],[86.85610732663405,26.60081133149279],[86.85543601471876,26.600465363392974],[86.85029055069904,26.59858419034918],[86.84898738005589,26.59800716203722],[86.84838183933192,26.597500896366558],[86.8482073372112,26.597442006221833],[86.84797612723457,26.597362736381626],[86.84772772545146,26.597421194038514],[86.84759417874155,26.59754291896826],[86.84747251943517,26.598170416973016],[86.8474438959038,26.59892663905526],[86.8471248475924,26.599253614765058],[86.8467640305049,26.59935708655724],[86.84608947228307,26.5993225228488],[86.84459468119911,26.599533103486582],[86.84363545676524,26.599500480858456],[86.84270830509178,26.59937983305183],[86.84224500809077,26.599112948221144],[86.84206031351128,26.59900666859755],[86.83949194902652,26.59942369930547],[86.83805855726236,26.599720117029687],[86.83667111429676,26.59965986698334],[86.83645234730426,26.599679938231795],[86.83321579930848,26.59996293742368],[86.83265140617685,26.59993968722293],[86.83216229140972,26.599966264351586],[86.83106389207117,26.60002366984131],[86.83004427160506,26.600020181929548],[86.827569938447,26.600317550267096],[86.82650599031764,26.600370454590614],[86.82615080023571,26.600494183020125],[86.82571858715231,26.60088867890807],[86.82526661899684,26.601466103896403],[86.82499783787821,26.601711804918537],[86.8245133534733,26.601993330976182],[86.82392789430062,26.602225219003703],[86.823601647264,26.60205098382923],[86.82319836795112,26.601574162334494],[86.82315704269995,26.60172764485648],[86.82293303265993,26.602262366946015],[86.82301444576026,26.60280652573361],[86.82304540578043,26.603501854196725],[86.82296106411896,26.603657526670947],[86.82222936709658,26.60403814697394],[86.82186511346966,26.604297290434182],[86.82159345676892,26.604579189310115],[86.82094004590243,26.60549490384691],[86.81984891375265,26.60644619600161],[86.81963646404327,26.60663106569202],[86.81959957728523,26.606732533871824],[86.81955731389161,26.60684994373907],[86.81972756800224,26.60716165750693],[86.81998447637893,26.60727487550499],[86.82013234321457,26.607326951473905],[86.82049053864273,26.607523817367838],[86.82129384735379,26.60855192075427],[86.82200037219212,26.609701874047975],[86.82213067585866,26.610081296222443],[86.82231875670617,26.610896471209347],[86.82234051709976,26.6110364495229],[86.82242432029307,26.612503878753685],[86.82246159452217,26.613154131729797],[86.82261147666566,26.61412272683012],[86.82288027701837,26.615111825444675],[86.8229897586576,26.61535352052413],[86.82339334494706,26.615471424644355],[86.82352151811398,26.61562278018738],[86.82360074381938,26.61622564368577],[86.82350634289797,26.616760551447058],[86.82371473523978,26.61700687130472],[86.82410500517113,26.617199235203152],[86.8242535652951,26.617580908012982],[86.82425782465558,26.61809112038178],[86.82417623932315,26.618483860897356],[86.8242154636981,26.61995347907596],[86.82442542988433,26.620863493799746],[86.82394083356164,26.621980390321912],[86.82390838500078,26.622054787182844],[86.82390970064928,26.622224087303582],[86.82396691128044,26.622375380962342],[86.82430697927623,26.622795749590257],[86.82469806334852,26.623085142305346],[86.82521157121816,26.623607289316567],[86.82525477546773,26.623663742116282],[86.82589689667967,26.624493040620816],[86.82658765532115,26.62491371748866],[86.82778485454449,26.625786520844038],[86.82938157551813,26.62674559475095],[86.8294148380031,26.626761411240018],[86.83106082403843,26.62757156507318],[86.83216261118417,26.628234245839362],[86.8326689251047,26.628537328688545],[86.83383486227319,26.62935586593198],[86.83566591919656,26.630349009501177],[86.83688231420365,26.631273702723917],[86.83770349398962,26.6316696836549],[86.8388012679396,26.631621217625444],[86.83937735391537,26.631730242540378],[86.83989854387849,26.631764683606185],[86.8403931604927,26.631717788678205],[86.8408330745768,26.631941723751286],[86.84111186747349,26.63220398399287],[86.84189428928015,26.63293843981581],[86.84190172978674,26.632976826203237],[86.84194637483206,26.633202641902745],[86.84240099247735,26.634151288697993],[86.84243939949707,26.63528005736831],[86.84230397998688,26.635564330124268],[86.84229461536512,26.636451528280197],[86.84190736497459,26.63743988530292],[86.84198596598128,26.63805400209933],[86.84192801432846,26.63848506679244],[86.84192382556411,26.638514450693037],[86.84201004898976,26.63883735694172],[86.84305888331757,26.639752736612028],[86.843339116035,26.64014359806057],[86.84386281810195,26.640870992379508],[86.84502304648505,26.640461419926897],[86.84621728987204,26.640218896055366],[86.84665413206531,26.639973317820832],[86.8470367660095,26.63959220137991],[86.8471200961892,26.638788651961534],[86.84725376382832,26.63843885983535],[86.84740669073751,26.63819072327557],[86.84770998032216,26.637696636970617],[86.84783533474794,26.63740329848031],[86.84843166375242,26.63659799231741],[86.84888238234184,26.636090587676787],[86.84953804222563,26.63509572545264],[86.84997937676265,26.63423609208323],[86.84999475659625,26.634199956104755],[86.85042470664456,26.63297684181876],[86.85051135942699,26.63273083150373],[86.85072243135822,26.6324082966843],[86.85114332842521,26.632074630795117],[86.85204433810206,26.631691757160095]]]}},{"type":"Feature","properties":{"province":"Madhesh Province","district":"Saptari","municipality":"Tirhut Rural Municipality","ward":"2","wardNumber":2,"sourceMunicipality":"Tirahut","sourceType":"Gaunpalika"},"geometry":{"type":"Polygon","coordinates":[[[86.86689760697178,26.619220094174487],[86.86952702017548,26.616486383469162],[86.86985476037775,26.616213549060095],[86.87067297595944,26.615017812330734],[86.87088329960913,26.614787742928332],[86.87096807995508,26.614767485438048],[86.87135872509661,26.61498004264441],[86.87208056248859,26.615773016365807],[86.87324325295045,26.616853130404934],[86.87383078637869,26.617318697401107],[86.87384454230761,26.61733226316875],[86.87607051020596,26.619435851725477],[86.87681710377036,26.620039206750423],[86.87731654672795,26.62074171927643],[86.87734818475957,26.620786918960505],[86.87744196984862,26.620866003465984],[86.87771269651947,26.62109194137231],[86.8781905539771,26.62083498521251],[86.87843001282845,26.62061397920484],[86.88034700972942,26.61978708725913],[86.88091190077199,26.619685925617485],[86.88251471885911,26.618721058546598],[86.88368463320592,26.618015399528012],[86.88517772969969,26.617458967153063],[86.88583352495921,26.61711185605359],[86.88641385544759,26.6167398020856],[86.88650000967148,26.616586381453878],[86.8865500889202,26.616496103994507],[86.88651432416138,26.616410329167415],[86.88623402337205,26.615694497701675],[86.88608489595936,26.615046434963027],[86.886263267628,26.61469445433463],[86.88732758136678,26.61397735447701],[86.88776635734195,26.613463011208076],[86.88788964831569,26.613232816457582],[86.8880915179852,26.612219391397154],[86.88808207081601,26.61183559152255],[86.88801931947853,26.609241706516134],[86.88807576834947,26.60866616225621],[86.88820018118643,26.608198898241767],[86.88833084083946,26.607440486155742],[86.88863694148016,26.606765784149957],[86.88865450545319,26.606470010091382],[86.88797075679794,26.606437884035945],[86.88569904224143,26.605609921377905],[86.88486979495332,26.60513066640475],[86.88446170449625,26.604843649483904],[86.88428738748026,26.604617773351805],[86.88300615204152,26.603415811659023],[86.88229401161294,26.602968252061512],[86.88177763227065,26.602714997058108],[86.88126937841174,26.602324077047175],[86.88107155191796,26.602073255979008],[86.88055579196771,26.601415944113665],[86.87954234874567,26.600670113889592],[86.878549477522,26.60002143582759],[86.87810581306634,26.599820133104455],[86.87640936514097,26.59868994830666],[86.87579982610853,26.598368861700692],[86.87576274915627,26.59834854399745],[86.8746444704207,26.598514607400457],[86.87421975307657,26.598518801187897],[86.87384411491706,26.598421402278987],[86.8737433284358,26.598394208191063],[86.8737238839967,26.598394208850802],[86.87317081104943,26.598648790659357],[86.87241260022043,26.598776837300168],[86.87173529464238,26.598974904668285],[86.8716502625054,26.598936456600878],[86.87153384099078,26.598642871964167],[86.87101933693508,26.59833766439015],[86.86997232310036,26.597873916867172],[86.86901803451514,26.597627044140733],[86.86874743680323,26.597656118739284],[86.86823912784573,26.597709828383405],[86.86787824567585,26.59763049724646],[86.86720667716841,26.596921047759814],[86.86673837615915,26.59658201662057],[86.8666892322605,26.59649617945573],[86.86616366199486,26.596263180368883],[86.86569280345465,26.59626499958044],[86.86525414201925,26.59612690195939],[86.86500817473993,26.595964107998103],[86.8648609302995,26.595767551579833],[86.86454761704398,26.59500877076637],[86.86439068009109,26.594692555076648],[86.86410869919723,26.594473369614974],[86.86381840549798,26.594466308457815],[86.86373650067578,26.594463933435257],[86.86236093551837,26.59427527085202],[86.86217124215524,26.594331540287715],[86.86165918642861,26.59468321216463],[86.86150100347564,26.594676337768615],[86.86155102466984,26.594850199792855],[86.8613745279857,26.59517285935343],[86.8611151847034,26.595233568592114],[86.86058367542151,26.595011822599204],[86.86030582516808,26.595067967170188],[86.86007217970754,26.59517612705778],[86.85993976071224,26.595417511989062],[86.86005306501268,26.596257444783074],[86.8602714685599,26.59702066629727],[86.86029017803665,26.597966630873017],[86.86017853599112,26.599415745024015],[86.860000105855,26.600079253897146],[86.85979228885009,26.600591532648387],[86.8595505182485,26.600884746027667],[86.85927385727341,26.601065115790725],[86.85922352776085,26.601096625654307],[86.85880050136367,26.60125198917158],[86.85852678060986,26.60150225298617],[86.85858318095529,26.601827472556177],[86.85924055770327,26.602595627382748],[86.85940587319288,26.602936662460817],[86.8594313860384,26.603189549170963],[86.85922806814166,26.603591169301783],[86.85920512315931,26.60363630807169],[86.85878522722254,26.604026427881315],[86.85835838684575,26.604206611576956],[86.85802158096865,26.604454625627763],[86.85817245432273,26.604809165171872],[86.85795220099496,26.605734502168506],[86.85780990437388,26.606061724855532],[86.8576908124822,26.60692848087821],[86.85768643643954,26.606951050016615],[86.85789547014686,26.6082447400602],[86.85777418217175,26.60861716300638],[86.85765632769,26.608718631660217],[86.85731252017843,26.609007220972263],[86.85708769710763,26.60955332110349],[86.85689494409145,26.60983078009896],[86.85620782622064,26.610315493824427],[86.85616633158453,26.611581865865396],[86.85631195225857,26.611902582816416],[86.85703497674254,26.612648292499866],[86.85714790632002,26.613490412983154],[86.85710108945463,26.614294024822044],[86.85735426357061,26.615506502667277],[86.8577839373216,26.6166221362813],[86.85794168893224,26.61703313024184],[86.85789355227412,26.617401050916495],[86.85752505857447,26.618342081722073],[86.85762697130897,26.618432482490636],[86.85846196078232,26.61829330575199],[86.8586420275956,26.618399584663052],[86.85883341543726,26.618738431836757],[86.85915186896047,26.620294134280602],[86.859411660663,26.620944508625684],[86.8597620592213,26.622242885081015],[86.86055059041341,26.625819486763262],[86.8606345608782,26.62596852994097],[86.86070921444554,26.626070183726462],[86.86101963661447,26.625858305128876],[86.86125965547994,26.625492757118113],[86.8624833282414,26.624062759389894],[86.86268370881663,26.623744663962473],[86.86327797938988,26.623244071241984],[86.8634771755808,26.62315166710027],[86.86411839849818,26.62252016062356],[86.86433484600778,26.622150174135893],[86.86577271502648,26.620327434001396],[86.86689760697178,26.619220094174487]]]}},{"type":"Feature","properties":{"province":"Madhesh Province","district":"Saptari","municipality":"Tirhut Rural Municipality","ward":"1","wardNumber":1,"sourceMunicipality":"Tirahut","sourceType":"Gaunpalika"},"geometry":{"type":"Polygon","coordinates":[[[86.89089917968305,26.605333959822726],[86.89200876813003,26.60517902547982],[86.89414235844198,26.605336356252398],[86.89448479733507,26.605424627642314],[86.89464735697588,26.605465387987056],[86.89508207879614,26.60553565214681],[86.8959492729907,26.605734949882812],[86.89668491903087,26.605979262223205],[86.8965257188776,26.604929455604996],[86.89638219012895,26.602484490239707],[86.89643750531042,26.601398671514293],[86.89650808829732,26.60106013366934],[86.89682281819508,26.600473394958406],[86.89785892415831,26.599169310750003],[86.89796508596133,26.599036207771682],[86.8982730054401,26.59872717643262],[86.8993751258574,26.596838357534022],[86.8998734855967,26.596287876885153],[86.90035690457377,26.595886377786577],[86.90036634613331,26.59587968860701],[86.90067089277919,26.595800785817445],[86.90078643483218,26.59578734309468],[86.90083951573405,26.59574676817588],[86.90195414616058,26.594201113005777],[86.90233383706651,26.59358055027635],[86.9029474247183,26.59295342089159],[86.9029948785001,26.5928947158421],[86.90303914378754,26.592838323509945],[86.90376252300653,26.59228571486208],[86.9039558312259,26.591563438220827],[86.90390737183206,26.591296985098683],[86.90379144509397,26.590658111996024],[86.90335977545861,26.589894768681788],[86.90313906630753,26.58963275696243],[86.9029183562059,26.589370745752333],[86.90251282798474,26.58897769794175],[86.90191303941151,26.588496439653653],[86.9007149657101,26.587721290329625],[86.90047275162007,26.587615075036965],[86.89935596575953,26.5873208777288],[86.89872923527183,26.587180406878375],[86.89865420831542,26.587218732256122],[86.89711898098616,26.588330640444997],[86.89657278848009,26.588727576885947],[86.89520555905695,26.589810161923424],[86.89403495848418,26.590626541797523],[86.89392285718436,26.590725822754308],[86.89359267937874,26.591019037992403],[86.8932016039723,26.591298687128848],[86.89192421636112,26.592209783357276],[86.8914946260286,26.59242616488082],[86.89134557183704,26.592398971632406],[86.89124834630364,26.592265683866174],[86.89114636647328,26.59191351929877],[86.89117580447498,26.591299464007573],[86.89118318007401,26.591143668391325],[86.8911032059302,26.59066721651981],[86.8908245253024,26.589624101496426],[86.89082171138858,26.589615099637733],[86.89075624790647,26.589463868344737],[86.89061437787689,26.58913408546528],[86.88986158561852,26.587950623489416],[86.88973385116635,26.587894108550568],[86.88958504642011,26.587893985094556],[86.88919296801447,26.587963698277076],[86.88805449720057,26.5883713950859],[86.8867084476193,26.588483258160146],[86.88633124686305,26.58839942554565],[86.88451882280721,26.587470176804793],[86.88349694425891,26.587044940358684],[86.88255809374589,26.586479848369628],[86.88226116808303,26.586150005865587],[86.88179467254123,26.585321144009676],[86.88145454169077,26.5848986487033],[86.88064536818956,26.58460007231746],[86.87914969603133,26.58437533749682],[86.8783559686014,26.584306952927438],[86.87801052835071,26.584205115243826],[86.87712419602444,26.583565438970897],[86.8766799034232,26.583154260991414],[86.87654472726588,26.583029976412767],[86.87520053057284,26.58178719146972],[86.87470047064883,26.581558755892914],[86.87417765321172,26.58146123408741],[86.87384397067305,26.581512878501524],[86.873819212218,26.581517380645092],[86.87367153034502,26.581365963422705],[86.87312476474241,26.58106300587987],[86.87141025566667,26.580438470386234],[86.87117929567856,26.58035469798218],[86.87064584627338,26.580011104584194],[86.86935210764065,26.578854093737174],[86.8688481019732,26.578257675791427],[86.8680638700499,26.57763394012412],[86.86759125516963,26.577335483827234],[86.86672617884955,26.576567144209854],[86.86646920606326,26.576262183489558],[86.86630400909006,26.575544161820126],[86.86567551603027,26.57459776750392],[86.86491517894176,26.57477082809954],[86.86420898614917,26.574808535515288],[86.86354487335556,26.57504267572742],[86.86317105066617,26.575112325838788],[86.8628738801181,26.575112016693414],[86.86267505924093,26.575202171052236],[86.8624736154329,26.57546381305325],[86.86210899417063,26.57619040523087],[86.86200220668245,26.57628737318493],[86.86154197870275,26.576377217774553],[86.86125143428616,26.576343085995703],[86.86067392128872,26.576902382430994],[86.85989227206218,26.577558585506413],[86.858710477724,26.578209854334933],[86.85860438072699,26.578469369052478],[86.85867447514892,26.578891554553202],[86.8589046294942,26.57936587812279],[86.8589293894001,26.57941783098639],[86.85905218540988,26.579542053389652],[86.85976795686709,26.580213241274404],[86.86010758315268,26.580428049433543],[86.86063215691847,26.58087779989828],[86.86070256030294,26.581076482459107],[86.86054432012114,26.581365318809226],[86.86022189459744,26.581683291108106],[86.86011961197235,26.581936054801357],[86.85999808130757,26.582771175769864],[86.86000021182213,26.58309627102649],[86.86011969782282,26.58344630961222],[86.86051372368594,26.58387561796771],[86.86061176100132,26.584029225174135],[86.8607916441285,26.584307053736897],[86.86084735726068,26.584688603043734],[86.86064329650002,26.58550559531051],[86.86032581646086,26.586173544987084],[86.85972592378126,26.587005984241788],[86.85934248356872,26.58770538184989],[86.85906870068841,26.58801891476139],[86.85868088366716,26.588707059592682],[86.85808855585891,26.589539499002477],[86.85779613927534,26.58967241642287],[86.85707425160513,26.589676239685236],[86.8569290766378,26.589807029808757],[86.85690294582608,26.590057603603576],[86.8572383905585,26.590710290644516],[86.85769500396181,26.591297707217517],[86.85798017601434,26.59166593647604],[86.85926297694527,26.593060079042697],[86.85968757422089,26.593410364178684],[86.85984688335111,26.593514392686615],[86.8614728673139,26.594576933389497],[86.86150100347564,26.594676337768615],[86.86165918642861,26.59468321216463],[86.86217124215524,26.594331540287715],[86.86236093551837,26.59427527085202],[86.86373650067578,26.594463933435257],[86.86381840549798,26.594466308457815],[86.86410869919723,26.594473369614974],[86.86439068009109,26.594692555076648],[86.86454761704398,26.59500877076637],[86.8648609302995,26.595767551579833],[86.86500817473993,26.595964107998103],[86.86525414201925,26.59612690195939],[86.86569280345465,26.59626499958044],[86.86616366199486,26.596263180368883],[86.8666892322605,26.59649617945573],[86.86673837615915,26.59658201662057],[86.86720667716841,26.596921047759814],[86.86787824567585,26.59763049724646],[86.86823912784573,26.597709828383405],[86.86874743680323,26.597656118739284],[86.86901803451514,26.597627044140733],[86.86997232310036,26.597873916867172],[86.87101933693508,26.59833766439015],[86.87153384099078,26.598642871964167],[86.8716502625054,26.598936456600878],[86.87173529464238,26.598974904668285],[86.87241260022043,26.598776837300168],[86.87317081104943,26.598648790659357],[86.8737238839967,26.598394208850802],[86.8737433284358,26.598394208191063],[86.87384411491706,26.598421402278987],[86.87421975307657,26.598518801187897],[86.8746444704207,26.598514607400457],[86.87576274915627,26.59834854399745],[86.87579982610853,26.598368861700692],[86.87640936514097,26.59868994830666],[86.87810581306634,26.599820133104455],[86.878549477522,26.60002143582759],[86.87954234874567,26.600670113889592],[86.88055579196771,26.601415944113665],[86.88107155191796,26.602073255979008],[86.88126937841174,26.602324077047175],[86.88177763227065,26.602714997058108],[86.88229401161294,26.602968252061512],[86.88300615204152,26.603415811659023],[86.88428738748026,26.604617773351805],[86.88446170449625,26.604843649483904],[86.88486979495332,26.60513066640475],[86.88569904224143,26.605609921377905],[86.88797075679794,26.606437884035945],[86.88865450545319,26.606470010091382],[86.88884976451712,26.60647919781664],[86.89006307016231,26.605791605519794],[86.89025726325154,26.605631493281855],[86.89089917968305,26.605333959822726]]]}},{"type":"Feature","properties":{"province":"Madhesh Province","district":"Saptari","municipality":"Tirhut Rural Municipality","ward":"4","wardNumber":4,"sourceMunicipality":"Tirahut","sourceType":"Gaunpalika"},"geometry":{"type":"Polygon","coordinates":[[[86.827569938447,26.600317550267096],[86.83004427160506,26.600020181929548],[86.83106389207117,26.60002366984131],[86.83216229140972,26.599966264351586],[86.83265140617685,26.59993968722293],[86.83321579930848,26.59996293742368],[86.83645234730426,26.599679938231795],[86.83667111429676,26.59965986698334],[86.83805855726236,26.599720117029687],[86.83949194902652,26.59942369930547],[86.84206031351128,26.59900666859755],[86.84224500809077,26.599112948221144],[86.84224031805046,26.59909037841475],[86.84228789266474,26.598749528038702],[86.84266282881076,26.597962104603642],[86.84326852117717,26.59619064022694],[86.84326044058768,26.595186032282943],[86.84347813499511,26.594590292704176],[86.84358891383641,26.593879332324434],[86.84357615463136,26.593560988854822],[86.84353574852896,26.59255638228941],[86.84347803689596,26.592321564421187],[86.84340056551221,26.59200766079647],[86.84345488821353,26.591364346120976],[86.84348533517921,26.591298889064344],[86.84426915609616,26.58960213172542],[86.84479088216928,26.5879050017996],[86.84499438836693,26.58758246695777],[86.8455011222147,26.586779349721457],[86.8460423652498,26.58573922516752],[86.84636277974676,26.584807259956705],[86.84682674801635,26.584015334893056],[86.84703581257277,26.583268299935924],[86.84719824082838,26.582896001099794],[86.84740380061838,26.581952597223477],[86.84771758830826,26.58104545187366],[86.8477724178725,26.58088746734364],[86.84784681610115,26.58065052134034],[86.84797648042019,26.580117863557632],[86.84853334156477,26.578348587305502],[86.84866143899755,26.577569919464093],[86.8489163274715,26.576554305887758],[86.8492914484059,26.57552299826315],[86.849519142564,26.574685749941718],[86.84957647258167,26.574498382222366],[86.84958122425253,26.574482627248766],[86.84973677388676,26.574053874338084],[86.8500089232446,26.573273016661755],[86.85031164494256,26.572404195942052],[86.85053483105472,26.571156076221254],[86.85057852616404,26.570598537696583],[86.85046297677509,26.57012883821876],[86.85047178831903,26.56990758601072],[86.85024639444963,26.569920905108862],[86.84959159216181,26.569825448417614],[86.84906652687576,26.56985196250534],[86.84870389615448,26.5699554350261],[86.84806535502406,26.570135371411265],[86.84690399759371,26.570312500364228],[86.84572238044036,26.570290946938595],[86.84479860897096,26.570432187653292],[86.84464292773953,26.57043200162658],[86.84450843936597,26.570343852742393],[86.84327968166153,26.570444085246727],[86.84270597752476,26.570671471703555],[86.84217016164735,26.570975630119825],[86.84140864029835,26.57132024099277],[86.84121776003813,26.571378698137156],[86.84077215982926,26.571380454482128],[86.84010548414419,26.57165066701883],[86.83815072857941,26.57273207192064],[86.83797322813778,26.572831103498803],[86.83671391132529,26.573890742332917],[86.83659487018883,26.574001276754327],[86.8357749590823,26.574761135120166],[86.83494904256106,26.575351631328076],[86.8348009918742,26.575518557046156],[86.834682199691,26.575622276133945],[86.83456465813576,26.575698862499927],[86.83445762037235,26.575746127645672],[86.83353210675048,26.576388453268873],[86.83328958386356,26.57655750629188],[86.83279110173109,26.577304168600588],[86.83216194789829,26.578091282918738],[86.83109701871487,26.579426562843224],[86.8310300581557,26.579516715772897],[86.82869025370316,26.58249380653864],[86.82856351902609,26.582430476709696],[86.82824727808365,26.58236008482732],[86.82740622166456,26.582323022263484],[86.82541087584633,26.582587000167724],[86.82485330010445,26.582728548667788],[86.82459608238639,26.582793696195033],[86.8241771793802,26.58275256421687],[86.82343766463971,26.582988642620048],[86.82126112763822,26.583326895155306],[86.81979771998364,26.583252829215784],[86.81941527006973,26.583358489924784],[86.81913560890368,26.58354998717413],[86.81917787819424,26.583836757918835],[86.81940465609976,26.584304330352996],[86.81973165638429,26.584767524388663],[86.82000576516936,26.585320995576346],[86.82009942947667,26.585643901761518],[86.82010449574969,26.585797384626954],[86.82010512180496,26.585815452250774],[86.82011188195696,26.586300844466496],[86.82011726424193,26.586686895500137],[86.82009939248304,26.58730989023093],[86.8200873945632,26.587732014749264],[86.81995917542247,26.58866422690458],[86.8199965859091,26.59006388771405],[86.81990768798507,26.590691385324085],[86.82003011744793,26.591298749243126],[86.82005006406588,26.59139815329698],[86.82051605658287,26.59210529206337],[86.82069406495386,26.59248477637551],[86.82083412868307,26.593268316867352],[86.82104283563278,26.593695189941204],[86.82162050201445,26.594874341305577],[86.8225226555353,26.595697133166667],[86.82330263695043,26.59636181892721],[86.82364845700415,26.596813634342606],[86.82368328916179,26.597258514733134],[86.82354382156934,26.598556334751446],[86.82357183711332,26.59891756556199],[86.82342923331315,26.599556316512434],[86.82341036518802,26.600472773646672],[86.82328051801666,26.601217618770093],[86.82319836795112,26.601574162334494],[86.823601647264,26.60205098382923],[86.82392789430062,26.602225219003703],[86.8245133534733,26.601993330976182],[86.82499783787821,26.601711804918537],[86.82526661899684,26.601466103896403],[86.82571858715231,26.60088867890807],[86.82615080023571,26.600494183020125],[86.82650599031764,26.600370454590614],[86.827569938447,26.600317550267096]]]}}]}