{"type":"FeatureCollection","features":[{"type":"Feature","properties":{"province":"Madhesh Province","district":"Siraha","municipality":"Aurahi Rural Municipality","ward":"5","wardNumber":5,"sourceMunicipality":"Aurahi","sourceType":"Gaunpalika"},"geometry":{"type":"Polygon","coordinates":[[[86.30371042263282,26.652484894255146],[86.30405004602409,26.65245269439589],[86.30430476359234,26.652453942271734],[86.30464320093947,26.652516519366895],[86.30498244893442,26.65252045405615],[86.3058320705231,26.652434294810366],[86.30642759798583,26.65230625145987],[86.30689557950798,26.652197902627368],[86.3076605440581,26.652091050278695],[86.30825451044514,26.65208035369422],[86.30867941498327,26.652025958698708],[86.30961331655492,26.651980810468697],[86.31012393925685,26.65187271043676],[86.31063581055382,26.651667520705058],[86.31089059046901,26.651652950486962],[86.31114686964135,26.65154129054946],[86.31191227246153,26.651436626971957],[86.31214723074311,26.651304585669543],[86.31263747014883,26.651139907187748],[86.31331827862738,26.650994169682303],[86.31384959707805,26.65094483760987],[86.31374568111544,26.650770474471514],[86.31328613282716,26.650269394604997],[86.31309912310924,26.649979561776384],[86.31297651217464,26.64963358635919],[86.31292092188032,26.649059980694044],[86.31286039654468,26.64883166424667],[86.31284394918639,26.64848625038765],[86.31291090716927,26.64825855814388],[86.31295979470474,26.64780054809514],[86.3131154695407,26.64728658324308],[86.31325207286837,26.64660100553311],[86.31327739159424,26.64631448341991],[86.31336704441064,26.64597175679684],[86.31341386950197,26.645646911539846],[86.31347989138027,26.645475673027217],[86.31348863703776,26.64484592502013],[86.31362230426474,26.644390602756143],[86.31371520563589,26.64381768371062],[86.31389357586512,26.64318868482256],[86.31389907192698,26.642789192205168],[86.31405799569768,26.642045034281406],[86.31421204613193,26.641646228718255],[86.3143023239901,26.64124711051324],[86.31461267460666,26.640275634276193],[86.31466318613539,26.63970252757297],[86.31490526615593,26.639076154320787],[86.31490857687002,26.638827830744184],[86.3147456358424,26.63834850495398],[86.31453774416792,26.63804047864333],[86.31396884584908,26.637764591287056],[86.31367279976125,26.637704514391245],[86.31352655625881,26.637529902157535],[86.31344502367784,26.637301585615955],[86.31340719296439,26.63695604680749],[86.31354248460768,26.636385566128787],[86.31378450281768,26.635756941044164],[86.31380813369489,26.635585452741783],[86.31372716382381,26.63531881323249],[86.3135604120803,26.63510581496807],[86.31313906926982,26.63488925511262],[86.31280075689226,26.634808610458762],[86.31254604000837,26.63482543041766],[86.31220760249407,26.63476510352559],[86.31153366514384,26.634412006921945],[86.31127969721788,26.634351992313725],[86.31000598457099,26.634431716519053],[86.30932867439746,26.634326880038675],[86.30884293232221,26.634168775853226],[86.30831867314535,26.633723775678888],[86.30798142421301,26.63358442559624],[86.3077277684608,26.633524535654313],[86.30747311233937,26.63352103722938],[86.30704789597817,26.633593438091665],[86.30670846044515,26.63358731457711],[86.30645480470878,26.633527299580383],[86.30626548428503,26.63342939828238],[86.30599275740421,26.633197770560873],[86.30584913939666,26.633002964705714],[86.30571509099136,26.633002340567206],[86.30570827580046,26.632984210749125],[86.30551582357405,26.632459496092288],[86.30541766099292,26.632283008133832],[86.30534369318232,26.632052441139365],[86.30504414202568,26.631637884368907],[86.30491846995706,26.631596624350625],[86.30453614300434,26.63158118581444],[86.30445323734882,26.631540174556243],[86.30429055186052,26.63138138012536],[86.30428035697862,26.63115106200138],[86.30424878046475,26.630920682829803],[86.30440552237476,26.63075438234562],[86.30505463103303,26.630529559507217],[86.30534060815539,26.630330060528483],[86.30563046025345,26.630053788832157],[86.30570785981119,26.62976970474706],[86.30563933027703,26.629421852857796],[86.30552828529697,26.629073564680088],[86.30543018428796,26.62889932647412],[86.30543918494625,26.628707457676583],[86.30574867038175,26.628469697493024],[86.30594055243539,26.62845931769959],[86.30626379345347,26.628375101874248],[86.3066117314757,26.628216488946922],[86.30670219964728,26.628104080442753],[86.30684330997728,26.627822620972285],[86.30685406140198,26.627592428682412],[86.30676702458042,26.62718793535351],[86.30659145414401,26.626676912501736],[86.30654887610534,26.626658657670998],[86.3034038375133,26.62524827577826],[86.30006641562336,26.623744368930073],[86.29676600716884,26.622254089681533],[86.29467392137124,26.62131377277281],[86.2938634332236,26.620925980276944],[86.2932572139745,26.621029079164124],[86.29268619496666,26.62116850106911],[86.29040124546383,26.62172600083388],[86.29029877096906,26.62175032157041],[86.28795311112437,26.62231882439049],[86.28810629803628,26.62274838639973],[86.28826954620116,26.622889238548282],[86.2885389588319,26.62303277828024],[86.28863968449822,26.623150687050902],[86.28874979215853,26.623519168706775],[86.28882913473505,26.62363695251112],[86.28890303989837,26.623869832733543],[86.28882845256945,26.62409746284782],[86.28866920997403,26.624320155310784],[86.2887246074925,26.624494205680485],[86.28884377788229,26.62467313202477],[86.28921911540938,26.625720185066044],[86.28943351191309,26.626132116316274],[86.29011770879086,26.626941410012403],[86.29029865381223,26.62728538422884],[86.29048853974112,26.62764523789066],[86.29054943803732,26.6277065048872],[86.29060233520107,26.627937009538957],[86.29053318610727,26.628049543079868],[86.29037969416599,26.62813907139956],[86.29029860243361,26.628154451660826],[86.290122288437,26.62818746341434],[86.28955226694035,26.62810788271964],[86.28936394821346,26.628043803526186],[86.28885588802639,26.628005109642356],[86.28866219313899,26.628056064466342],[86.28853108355166,26.62812764934568],[86.28841960696025,26.62823762019244],[86.28825930098276,26.628480756134458],[86.28820891026491,26.628651994508395],[86.28824586272924,26.62876727805191],[86.2882853780928,26.628826169343746],[86.28845081449158,26.62892863509094],[86.2888908513106,26.62905948151002],[86.28909942823363,26.629144004310035],[86.28915526924783,26.62976056001418],[86.28918397054794,26.630047331389715],[86.28913332914172,26.63021869501007],[86.28901922778999,26.630387433310034],[86.28901378927462,26.63050246654575],[86.28911164007256,26.630676829550488],[86.28910082602256,26.630907022257198],[86.2889994807868,26.631247373119283],[86.28886330918044,26.631434054202302],[86.28906001017697,26.631766899955867],[86.28936181128185,26.632122813598258],[86.28941752160725,26.632299114646038],[86.28939301890149,26.63281370399962],[86.28942522109446,26.632983190637084],[86.2894272836357,26.632994443810528],[86.28938327045552,26.633163557087332],[86.28967663075389,26.633453951456108],[86.28971689769293,26.633607558410645],[86.28969470323662,26.633682018548658],[86.28952157971592,26.63391140017032],[86.2893892242625,26.634292263185074],[86.28938703777872,26.63444349497768],[86.28944856229514,26.63459728998563],[86.28969965722565,26.63486942901993],[86.28976011933979,26.635097745795267],[86.28975824550322,26.635251227993976],[86.28953642328722,26.635936368983746],[86.2895109807467,26.63624320932443],[86.2895500610317,26.636473651615113],[86.28969368048323,26.636855887298626],[86.28990157215324,26.637166163754507],[86.29015154298092,26.637512763116238],[86.29029897345158,26.637642112727427],[86.29057101332685,26.63788055445472],[86.29101005295955,26.63832518059466],[86.29147253792058,26.63863676709788],[86.29201618058516,26.63917892090265],[86.29220493859555,26.639333401511742],[86.29249961090866,26.639508638135055],[86.29329578474186,26.640205521819826],[86.29342108216406,26.640359753003413],[86.29358733310484,26.640590819112],[86.29369012425298,26.64082157348667],[86.29395997823093,26.64126532559625],[86.29389458005105,26.641380173031713],[86.2938503783017,26.641531155469263],[86.29386732682899,26.64183824515357],[86.29405271104288,26.642222918703524],[86.29424190664504,26.642359269506386],[86.29443072744641,26.64249343199089],[86.29410686463724,26.642929750391662],[86.29404009383323,26.64315969432331],[86.29392755890024,26.6436353974453],[86.29388298199562,26.643788692872594],[86.29387673581286,26.644246889388906],[86.29378758159177,26.644551230157553],[86.29359139016022,26.64495203723409],[86.29318287247942,26.645367663199536],[86.29300818780612,26.645727958715813],[86.29321058322643,26.646419721687504],[86.29320433707588,26.646877919071844],[86.29326180122894,26.647336428446124],[86.2933020054428,26.647490160134417],[86.29350883569873,26.64787489618978],[86.29361106362757,26.64814403653379],[86.2940775462435,26.64816891385977],[86.29484282281007,26.648023739067174],[86.29501225985882,26.64804486781787],[86.29518069791413,26.64812470257673],[86.29539077633471,26.648279245619165],[86.29572815098635,26.64841634488563],[86.29589715025081,26.648457855563993],[86.29615249252683,26.648402648577687],[86.2963213674904,26.648462164795234],[86.2964881181239,26.648675226045945],[86.29648293385198,26.64905665021458],[86.29673265441092,26.649403249260533],[86.29694298186207,26.649521782182468],[86.297321435855,26.649774102544217],[86.29782706104285,26.650027171104558],[86.2980807792306,26.650089373996263],[86.29824921635873,26.650166957513893],[86.29852206806663,26.650380455241432],[86.29877135155324,26.65074737272467],[86.29969401005403,26.651521716011846],[86.30068119070285,26.652221785926457],[86.30141902660108,26.65255500178187],[86.30184218169414,26.65263608334991],[86.3021808679699,26.6526602743355],[86.3028599273631,26.652647826498796],[86.30371042263282,26.652484894255146]]]}},{"type":"Feature","properties":{"province":"Madhesh Province","district":"Siraha","municipality":"Aurahi Rural Municipality","ward":"1","wardNumber":1,"sourceMunicipality":"Aurahi","sourceType":"Gaunpalika"},"geometry":{"type":"Polygon","coordinates":[[[86.32953080355634,26.655357969633894],[86.32972187285966,26.655340836937242],[86.33080357961249,26.655372960225513],[86.33118609309209,26.655320565721517],[86.3314407487001,26.655324064291545],[86.33182163821289,26.655386766092757],[86.33198082131538,26.65539426723886],[86.33209136182778,26.65539926690365],[86.33237296423084,26.65541189329432],[86.3338386848163,26.655292342758177],[86.33479653020441,26.655073330598587],[86.33606912028446,26.655124394650738],[86.33848287928012,26.655512608236965],[86.3394975652664,26.655790429223334],[86.34013248557369,26.6559107703766],[86.34032342992649,26.655911643613365],[86.34057771061529,26.655933147292867],[86.34100198985512,26.655937332113574],[86.34121381762066,26.65595864858124],[86.3412158167208,26.655825484212876],[86.34124873482503,26.65341921478258],[86.34121240316713,26.652960830160723],[86.3412328913016,26.651471080482928],[86.34117773783758,26.650841020719074],[86.34100184687594,26.649749890334967],[86.34098689839286,26.64929156787844],[86.34089097875716,26.6485461631787],[86.34089478886922,26.648259515897035],[86.34089916096927,26.647934482793556],[86.34088046385013,26.647742551877],[86.34089614261556,26.64659583984062],[86.34101411162462,26.645738586876853],[86.3408566671506,26.644819131199377],[86.34073586772276,26.644360310862794],[86.34062724770888,26.642985032581343],[86.34044654682177,26.642237002634612],[86.34044879572751,26.642065451920587],[86.34034631691726,26.641816692950307],[86.34005370650378,26.64146996865215],[86.33973890096034,26.641236028884233],[86.33965424442391,26.641217523975023],[86.33946261340486,26.641273105252033],[86.33931106081911,26.641480104545717],[86.33907666354267,26.641555754695116],[86.33888678117371,26.64149617660295],[86.33876073397856,26.641398586215004],[86.33813449648231,26.64064837339767],[86.33792928955528,26.640130535772997],[86.33780436703134,26.63995617352514],[86.33764024021318,26.639553556897095],[86.33735093987816,26.638976577771906],[86.33724677456516,26.638842915043398],[86.33707802501269,26.638765393289294],[86.33673802606094,26.638799907115274],[86.33589021725922,26.638753090140202],[86.3357208418708,26.638711704570447],[86.3355524676536,26.63861611594999],[86.33529999776125,26.638459197604284],[86.3350913567287,26.63820987671425],[86.33465381485007,26.637632211568643],[86.33461304828897,26.637516865458988],[86.33430111658684,26.63705492087475],[86.33411466929067,26.636708695540186],[86.33346973455053,26.635786931611403],[86.33315611585304,26.635440083202834],[86.33290639536825,26.635093547097018],[86.33278078606592,26.634977826924846],[86.332489236306,26.634572397969247],[86.33211290728117,26.63416878388286],[86.33198060689061,26.634014676894054],[86.331716193476,26.63370421389802],[86.33129909741926,26.633183065052954],[86.3311699226313,26.632981569614056],[86.33114003670296,26.63293399378452],[86.33093764512904,26.632542505575312],[86.3307806470514,26.63226867765101],[86.33035636097074,26.631792604285398],[86.3302378780904,26.631597923419424],[86.32999478644011,26.631339474711645],[86.32946264961517,26.630899038994247],[86.32942638420216,26.63076568728437],[86.32935879295786,26.63039964349032],[86.32891212369805,26.629941575898258],[86.32867365724167,26.62958828761465],[86.32859968972443,26.629357720424967],[86.32849939659788,26.62877930153795],[86.328351398386,26.6283136036871],[86.32823185298463,26.628139241649503],[86.32805997289948,26.62772987328649],[86.32794917570968,26.627243981757665],[86.32715057320989,26.627267308871748],[86.32676618319395,26.62728581863084],[86.32654454050348,26.627284757955017],[86.32638929604113,26.627304390387504],[86.32522931164138,26.62733728698632],[86.32369231515055,26.627411262797132],[86.32265781443454,26.62745153507097],[86.32227330012202,26.627490300408763],[86.32025644080136,26.62752589487692],[86.31692441540487,26.62755062396921],[86.31665087889952,26.62756288014995],[86.31598582407483,26.62755969873773],[86.31474449678058,26.627601161277664],[86.31379158809271,26.627603359088578],[86.31344433582439,26.627601675193763],[86.3101640169438,26.627637781889653],[86.30885622857608,26.62765855154948],[86.30847302500017,26.62753026843444],[86.30666785707717,26.62671117162197],[86.30659145414401,26.626676912501736],[86.30676702458042,26.62718793535351],[86.30685406140198,26.627592428682412],[86.30684330997728,26.627822620972285],[86.30670219964728,26.628104080442753],[86.3066117314757,26.628216488946922],[86.30626379345347,26.628375101874248],[86.30594055243539,26.62845931769959],[86.30574867038175,26.628469697493024],[86.30543918494625,26.628707457676583],[86.30543018428796,26.62889932647412],[86.30552828529697,26.629073564680088],[86.30563933027703,26.629421852857796],[86.30570785981119,26.62976970474706],[86.30563046025345,26.630053788832157],[86.30534060815539,26.630330060528483],[86.30505463103303,26.630529559507217],[86.30440552237476,26.63075438234562],[86.30424878046475,26.630920682829803],[86.30428035697862,26.63115106200138],[86.30429055186052,26.63138138012536],[86.30445323734882,26.631540174556243],[86.30453614300434,26.63158118581444],[86.30491846995706,26.631596624350625],[86.30504414202568,26.631637884368907],[86.30534369318232,26.632052441139365],[86.30541766099292,26.632283008133832],[86.30551582357405,26.632459496092288],[86.30570827580046,26.632984210749125],[86.30571509099136,26.633002340567206],[86.30584913939666,26.633002964705714],[86.30599275740421,26.633197770560873],[86.30626548428503,26.63342939828238],[86.30645480470878,26.633527299580383],[86.30670846044515,26.63358731457711],[86.30704789597817,26.633593438091665],[86.30747311233937,26.63352103722938],[86.3077277684608,26.633524535654313],[86.30798142421301,26.63358442559624],[86.30831867314535,26.633723775678888],[86.30884293232221,26.634168775853226],[86.30932867439746,26.634326880038675],[86.31000598457099,26.634431716519053],[86.31127969721788,26.634351992313725],[86.31153366514384,26.634412006921945],[86.31220760249407,26.63476510352559],[86.31254604000837,26.63482543041766],[86.31280075689226,26.634808610458762],[86.31313906926982,26.63488925511262],[86.3135604120803,26.63510581496807],[86.31372716382381,26.63531881323249],[86.31380813369489,26.635585452741783],[86.31378450281768,26.635756941044164],[86.31354248460768,26.636385566128787],[86.31340719296439,26.63695604680749],[86.31344502367784,26.637301585615955],[86.31352655625881,26.637529902157535],[86.31367279976125,26.637704514391245],[86.31396884584908,26.637764591287056],[86.31453774416792,26.63804047864333],[86.3147456358424,26.63834850495398],[86.31490857687002,26.638827830744184],[86.31490526615593,26.639076154320787],[86.31466318613539,26.63970252757297],[86.31461267460666,26.640275634276193],[86.3143023239901,26.64124711051324],[86.31421204613193,26.641646228718255],[86.31405799569768,26.642045034281406],[86.31389907192698,26.642789192205168],[86.31389357586512,26.64318868482256],[86.31371520563589,26.64381768371062],[86.31362230426474,26.644390602756143],[86.31348863703776,26.64484592502013],[86.31347989138027,26.645475673027217],[86.31341386950197,26.645646911539846],[86.31336704441064,26.64597175679684],[86.31327739159424,26.64631448341991],[86.31325207286837,26.64660100553311],[86.3131154695407,26.64728658324308],[86.31295979470474,26.64780054809514],[86.31291090716927,26.64825855814388],[86.31284394918639,26.64848625038765],[86.31286039654468,26.64883166424667],[86.31292092188032,26.649059980694044],[86.31297651217464,26.64963358635919],[86.31309912310924,26.649979561776384],[86.31328613282716,26.650269394604997],[86.31374568111544,26.650770474471514],[86.31384959707805,26.65094483760987],[86.3140394164069,26.65102248284399],[86.31481983061775,26.65133775530048],[86.31498914192231,26.651379203280282],[86.31541086053791,26.651555000049026],[86.31583214175593,26.651789564360527],[86.31610511920046,26.651984994327826],[86.3163978550469,26.652293394490577],[86.31671141122916,26.65264024261999],[86.31683533433285,26.652871121376023],[86.31700264714317,26.65304573403788],[86.31706473358862,26.653161141904178],[86.31718978151424,26.653315248091214],[86.31744000206093,26.65364377963265],[86.31818947570505,26.654683514915956],[86.31885766667543,26.655438354801692],[86.31923243451897,26.65595712825903],[86.3192935837348,26.656131240549673],[86.31931365535482,26.656226143056564],[86.31943489257998,26.65666689688342],[86.3196546097523,26.657643118358198],[86.31974715681076,26.658618716630784],[86.31989770969636,26.658486238672086],[86.32028522015308,26.65807273787359],[86.32105174760815,26.65787098297457],[86.3213719248879,26.657741566965232],[86.32220272448428,26.65750398899193],[86.32245750388509,26.657487105901765],[86.32277674453206,26.657414143261903],[86.3237991132594,26.657121046531273],[86.32437257200017,26.657071838604868],[86.32469268665831,26.656942422718675],[86.32526764400215,26.65679612337718],[86.32548072040514,26.6567226621747],[86.32569404764936,26.656649201066916],[86.32614195908552,26.65648196001114],[86.32659043195372,26.656258389233074],[86.32722978687589,26.656055948375773],[86.32748456708731,26.65603912863093],[86.32780418190231,26.6559480358836],[86.328381513511,26.65561218089252],[86.32857351980137,26.655538657459946],[86.32901974379871,26.655486512266336],[86.32953080355634,26.655357969633894]]]}},{"type":"Feature","properties":{"province":"Madhesh Province","district":"Siraha","municipality":"Aurahi Rural Municipality","ward":"4","wardNumber":4,"sourceMunicipality":"Aurahi","sourceType":"Gaunpalika"},"geometry":{"type":"Polygon","coordinates":[[[86.28116332121388,26.656391273912988],[86.28159003749016,26.65626248159887],[86.28227365790342,26.655963449441536],[86.28344782968966,26.655520119927004],[86.2841320754968,26.655182700754395],[86.28447582143437,26.654899989097895],[86.28451927360612,26.65482571724148],[86.28456728610901,26.654424161503027],[86.2846332463217,26.654271053100526],[86.28495635939744,26.65393169983247],[86.28523564526452,26.653705130490245],[86.28602599208051,26.653370462224455],[86.28696364269874,26.653133633078383],[86.2877379783329,26.652435482702035],[86.28799425838866,26.652323884192533],[86.28867600473312,26.65217827242561],[86.28893290896691,26.6520283507354],[86.28897592330662,26.651972083413195],[86.28897761015058,26.65185698726683],[86.2889234566324,26.651168223012803],[86.28901029981756,26.651035496008785],[86.28920230604598,26.650959658514648],[86.28962683586724,26.650966281094632],[86.29029901625077,26.650849928061373],[86.29056336203769,26.65080391155326],[86.29073229939353,26.6508634270551],[86.29113176106527,26.651115997537094],[86.29138554163104,26.65115788241156],[86.29185277355313,26.651106049361395],[86.29206634972286,26.65101227001083],[86.2930044991366,26.650642214096724],[86.29342996536992,26.65053142732604],[86.29360108931209,26.650437460693325],[86.29368711964538,26.65034311883298],[86.29367079648435,26.649979574822098],[86.29335873964796,26.649555891243228],[86.2932555745411,26.64932520011167],[86.29306737761208,26.64913233285139],[86.29304743258183,26.649055497854487],[86.293113079125,26.648902327090696],[86.2935420433171,26.64854552995717],[86.29360768996571,26.648392359902054],[86.29361106362757,26.64814403653379],[86.29350883569873,26.64787489618978],[86.2933020054428,26.647490160134417],[86.29326180122894,26.647336428446124],[86.29320433707588,26.646877919071844],[86.29321058322643,26.646419721687504],[86.29300818780612,26.645727958715813],[86.29318287247942,26.645367663199536],[86.29359139016022,26.64495203723409],[86.29378758159177,26.644551230157553],[86.29387673581286,26.644246889388906],[86.29388298199562,26.643788692872594],[86.29392755890024,26.6436353974453],[86.29404009383323,26.64315969432331],[86.29410686463724,26.642929750391662],[86.29443072744641,26.64249343199089],[86.29424190664504,26.642359269506386],[86.29405271104288,26.642222918703524],[86.29386732682899,26.64183824515357],[86.2938503783017,26.641531155469263],[86.29389458005105,26.641380173031713],[86.29395997823093,26.64126532559625],[86.29369012425298,26.64082157348667],[86.29358733310484,26.640590819112],[86.29342108216406,26.640359753003413],[86.29329578474186,26.640205521819826],[86.29249961090866,26.639508638135055],[86.29220493859555,26.639333401511742],[86.29201618058516,26.63917892090265],[86.29147253792058,26.63863676709788],[86.29101005295955,26.63832518059466],[86.29057101332685,26.63788055445472],[86.29029897345158,26.637642112727427],[86.29015154298092,26.637512763116238],[86.28990157215324,26.637166163754507],[86.28969368048323,26.636855887298626],[86.2895500610317,26.636473651615113],[86.2895109807467,26.63624320932443],[86.28953642328722,26.635936368983746],[86.28975824550322,26.635251227993976],[86.28976011933979,26.635097745795267],[86.28969965722565,26.63486942901993],[86.28944856229514,26.63459728998563],[86.28938703777872,26.63444349497768],[86.2893892242625,26.634292263185074],[86.28952157971592,26.63391140017032],[86.28969470323662,26.633682018548658],[86.28971689769293,26.633607558410645],[86.28967663075389,26.633453951456108],[86.28938327045552,26.633163557087332],[86.2894272836357,26.632994443810528],[86.28942522109446,26.632983190637084],[86.28939301890149,26.63281370399962],[86.28941752160725,26.632299114646038],[86.28936181128185,26.632122813598258],[86.28906001017697,26.631766899955867],[86.28886330918044,26.631434054202302],[86.2889994807868,26.631247373119283],[86.28910082602256,26.630907022257198],[86.28911164007256,26.630676829550488],[86.28901378927462,26.63050246654575],[86.28901922778999,26.630387433310034],[86.28913332914172,26.63021869501007],[86.28918397054794,26.630047331389715],[86.28915526924783,26.62976056001418],[86.28909942823363,26.629144004310035],[86.2888908513106,26.62905948151002],[86.28845081449158,26.62892863509094],[86.2882853780928,26.628826169343746],[86.28824586272924,26.62876727805191],[86.28820891026491,26.628651994508395],[86.28825930098276,26.628480756134458],[86.28841960696025,26.62823762019244],[86.28853108355166,26.62812764934568],[86.28866219313899,26.628056064466342],[86.28885588802639,26.628005109642356],[86.28936394821346,26.628043803526186],[86.28955226694035,26.62810788271964],[86.290122288437,26.62818746341434],[86.29029860243361,26.628154451660826],[86.29037969416599,26.62813907139956],[86.29053318610727,26.628049543079868],[86.29060233520107,26.627937009538957],[86.29054943803732,26.6277065048872],[86.29048853974112,26.62764523789066],[86.29029865381223,26.62728538422884],[86.29011770879086,26.626941410012403],[86.28943351191309,26.626132116316274],[86.28921911540938,26.625720185066044],[86.28884377788229,26.62467313202477],[86.2887246074925,26.624494205680485],[86.28866920997403,26.624320155310784],[86.28882845256945,26.62409746284782],[86.28890303989837,26.623869832733543],[86.28882913473505,26.62363695251112],[86.28874979215853,26.623519168706775],[86.28863968449822,26.623150687050902],[86.2885389588319,26.62303277828024],[86.28826954620116,26.622889238548282],[86.28810629803628,26.62274838639973],[86.28795311112437,26.62231882439049],[86.2869982047571,26.62255109062819],[86.28407571122257,26.623233945546254],[86.28326135433909,26.623430824258133],[86.2807169361308,26.624047843734434],[86.27784802455635,26.624733136956507],[86.27732108430187,26.6248591172656],[86.27698796460658,26.624956774029712],[86.2766109530101,26.62500229143098],[86.27519343439872,26.624848323371694],[86.27472851434432,26.624787309483377],[86.2740419516598,26.624722860392534],[86.27084472014644,26.624347657718243],[86.27073455444068,26.624335780271295],[86.26740515017741,26.623966705900123],[86.26393563129366,26.62356956231875],[86.26157439356572,26.62330450878714],[86.26168012585427,26.62381071820347],[86.26171707844145,26.62392606422595],[86.26166093616031,26.624212461789394],[86.26171920949484,26.62432786996913],[86.26208559696799,26.624668341418097],[86.26230611792768,26.62494492028173],[86.26263380326587,26.625206181065558],[86.2626715057162,26.62530345901959],[86.26257297316982,26.625587355953368],[86.26225967574534,26.625919831524556],[86.2621666443446,26.626088632308292],[86.26216120603739,26.62620372902995],[86.26238072693177,26.626498375684402],[86.26239654660769,26.626613534537473],[86.2623165225534,26.626956260769795],[86.26256098853159,26.627176448040725],[86.26271623676371,26.627488788185648],[86.26313232794813,26.62767602590404],[86.26327638223482,26.627778367366993],[86.26353673068283,26.628113838595965],[86.26357187104801,26.628267507655554],[86.26356068204132,26.628497700585122],[86.2636504063785,26.62884580169605],[86.26353086657267,26.629129573713342],[86.263522553642,26.629301124588167],[86.26374989312268,26.629884731257988],[86.26373870511716,26.6301126108637],[86.26391902356755,26.630350553930803],[86.26416811619679,26.63047377489889],[86.26437275492592,26.630635070264717],[86.2644726680259,26.630773296811853],[86.26452806563492,26.63094741045592],[86.26445060302238,26.631231431957122],[86.26446104742861,26.63146174919995],[86.26462254613338,26.631640862571487],[86.2648503804307,26.631763959025726],[86.2652729100157,26.631820283873704],[86.2655821502627,26.632022777763137],[86.26592077423763,26.632053908325112],[86.26625645941621,26.6321436810798],[86.26627496729228,26.63220244847269],[86.26622526387892,26.632353492880984],[86.26609346673467,26.632445271810727],[86.26589070829958,26.632685781495383],[86.26577398171115,26.632965114838864],[86.26576541694682,26.63298312040553],[86.26568645256646,26.633149732266936],[86.26538209773545,26.633662886158845],[86.26538072445271,26.6337779829031],[86.26558892832735,26.63406581524229],[86.26584064793963,26.63427924971422],[86.26594331315316,26.634530322522426],[86.26591993240032,26.63470174816762],[86.26596063576535,26.63481709409183],[86.26610856505691,26.634856228814765],[86.26623661088293,26.63482077982597],[86.26636590660324,26.634688239393782],[86.2664511869091,26.634650290301806],[86.26670434323782,26.634787078120546],[86.26691379791032,26.63498000742765],[86.26723141453658,26.635060653026052],[86.267294562756,26.635099351170165],[86.26733582866167,26.635176373022478],[86.26729012715403,26.63540631620416],[86.26703047414428,26.635745856077627],[86.266961329527,26.63614728728276],[86.26682753671459,26.63660485996258],[86.26684073619649,26.637178278223878],[86.2667730273697,26.637464613507355],[86.2667706535112,26.637636164161844],[86.26695816259276,26.637887735309477],[86.26714879487419,26.637927057938626],[86.2672750926098,26.63802477252256],[86.26729485102885,26.638119675383614],[86.26703644760379,26.63836668843464],[86.26699287061253,26.638461278470334],[86.26696911346902,26.638632704766632],[86.26701019220506,26.638748050544397],[86.26713617642065,26.638825446348903],[86.26726353640406,26.638846389265524],[86.26760465921714,26.638735290929105],[86.26828353193892,26.63878167189351],[86.26870731211605,26.63884474881508],[86.26938674665406,26.638852744040605],[86.26964227726572,26.638817981782196],[86.2701472779731,26.63914782348754],[86.27022987195254,26.639301805461315],[86.27046152100766,26.639458723696023],[86.27071436511892,26.639595448969168],[86.27086010799783,26.639788066425243],[86.27107049874087,26.639944922822],[86.27111164066369,26.640039950461798],[86.2710461179331,26.640172739629058],[86.27083160409208,26.640322911339144],[86.27078815195041,26.640399433881605],[86.27076377118784,26.640629564820344],[86.27080447450689,26.64074265976462],[86.27080210136849,26.640916461106652],[86.27065136063567,26.641067006200576],[86.27047986202473,26.641178979183977],[86.27037094931912,26.641370223925314],[86.27036795150723,26.64159822763003],[86.27038652315437,26.641790159516095],[86.27046699379643,26.64211569116705],[86.27061086307292,26.642461791735183],[86.27064925589168,26.642748625614388],[86.27071059323399,26.64292280063337],[86.2708372022909,26.642961811393],[86.27113699692126,26.642794008501074],[86.27130724615542,26.64277681428671],[86.27137039409043,26.64281551302481],[86.2714116605935,26.642892471974662],[86.27143035731538,26.643064147282],[86.2715142638244,26.643161550191948],[86.27157753698263,26.643179992502226],[86.27172652895466,26.64316273623156],[86.27206815146454,26.643015502037255],[86.27232380646456,26.642960358218478],[86.27249255557507,26.643037941665124],[86.2726165416137,26.64328913908519],[86.27265362299873,26.643691131569803],[86.27260785871701,26.643918886384004],[86.27245599403513,26.644148330478455],[86.27228380824835,26.64431681958812],[86.27204853735203,26.644428479471763],[86.27194018719825,26.64458146323709],[86.2719377509671,26.644771080979556],[86.27210194094992,26.645175948453684],[86.27209887957542,26.645403890674128],[86.27197027197124,26.645480038994382],[86.27182178038704,26.645476977383264],[86.27137992830299,26.64518583397386],[86.27125144392754,26.645241601718524],[86.27116435254219,26.645412714813872],[86.27096428742682,26.64605953155978],[86.27093890680302,26.646346116295085],[86.2710206900415,26.64657674568208],[86.27125265089732,26.646695340440328],[86.27131405036174,26.646867202527343],[86.27107640430039,26.647152664107363],[86.27098825031106,26.64738023201367],[86.27090184526679,26.64749264065109],[86.2707518540024,26.647568602069622],[86.27056053464916,26.647585671749802],[86.27005259865297,26.647463453769863],[86.26985996669984,26.647577613685428],[86.26977312403586,26.647710341677424],[86.26976775287277,26.64811214652787],[86.26984916029461,26.648340525304775],[86.26995295055154,26.648514888089426],[86.26996465066348,26.64920346510856],[86.27004337279222,26.649662098608854],[86.2699322110229,26.65000688906187],[86.26995190744161,26.650119859622087],[86.27007701801925,26.650294284698763],[86.27028697147745,26.650469208379036],[86.270919081698,26.65082005543398],[86.2713781931878,26.651418351259196],[86.27158827173129,26.651575207908092],[86.2717570847855,26.651652791448427],[86.27188281925707,26.651768573663663],[86.27185912554087,26.651939999278614],[86.27162179279915,26.652225460635584],[86.27155570807919,26.6523966990753],[86.27157278073966,26.652683470753658],[86.27171421375076,26.65320112096493],[86.27173228538575,26.653431438765505],[86.27181506740945,26.653603425584844],[86.27202689519291,26.653624742472015],[86.27219789455611,26.653551219381843],[86.27262742106623,26.65321255277629],[86.27288388770587,26.65308063598194],[86.27296898194948,26.653081073036233],[86.27313760677171,26.653179037518342],[86.27332274156394,26.65360209736148],[86.27357277533801,26.653948759252874],[86.27386282472018,26.654469408898137],[86.2740466482403,26.654987247005327],[86.27418695726021,26.655620056468806],[86.2743917886721,26.656138018484906],[86.27439110165346,26.65619672362238],[86.27430519583909,26.6562707460774],[86.274155829843,26.656308445692506],[86.27402653395941,26.656440924130436],[86.27410763044799,26.656728007690123],[86.27423405194186,26.656805466466185],[86.27453209740386,26.656752760001073],[86.27478887664846,26.656620843557555],[86.27547074833528,26.656457288943923],[86.27580887317148,26.656576383155425],[86.27606009213936,26.656828204708848],[86.27614468593907,26.656867027112416],[86.27639934143657,26.65687058836579],[86.27656852898629,26.656930166252987],[86.27694729505296,26.657182611665185],[86.27713586643587,26.657357348932578],[86.27725991504998,26.657606295887383],[86.27729830761602,26.657893191406387],[86.27740078528356,26.658182650704994],[86.27765150526878,26.65847060813078],[86.27783926478362,26.658722116871477],[86.27806966357267,26.658935490280943],[86.27826042178674,26.658974812050083],[86.27936457389255,26.658989429907304],[86.27944979199378,26.65897179896191],[86.27979235211949,26.65878392820806],[86.2802829658867,26.658617061263772],[86.28022419046953,26.658273648898344],[86.28016453945251,26.657966371649998],[86.28019448014932,26.657354754288],[86.28028332190233,26.657050475871078],[86.2803917345481,26.656897555318324],[86.28067151987474,26.656634850697507],[86.2808003161596,26.656540696115258],[86.28116332121388,26.656391273912988]]]}},{"type":"Feature","properties":{"province":"Madhesh Province","district":"Siraha","municipality":"Aurahi Rural Municipality","ward":"3","wardNumber":3,"sourceMunicipality":"Aurahi","sourceType":"Gaunpalika"},"geometry":{"type":"Polygon","coordinates":[[[86.31528701085641,26.671545620408633],[86.31558649253995,26.671357437844307],[86.315947061187,26.671363685132384],[86.3163686546797,26.67155767582242],[86.31687615453023,26.671679644068615],[86.31730068371418,26.671645566654778],[86.31763855747259,26.671764597717534],[86.3180625876175,26.67176884522125],[86.319421206557,26.67168955795981],[86.31967430079169,26.67180590144254],[86.3202048687077,26.67179264222294],[86.32046046084231,26.671701300327495],[86.3208447857033,26.671513490999256],[86.32087060319473,26.67117051529979],[86.32083039925678,26.671016907766052],[86.32085577871574,26.67071219324637],[86.32094243372097,26.670559084486655],[86.32111355769004,26.670465117898072],[86.32130500200492,26.670429917656218],[86.32149794507262,26.67025924082756],[86.32171551899557,26.669860684447197],[86.32176215707435,26.66955621945061],[86.32160052727879,26.66894147772251],[86.32149761208613,26.66871072414625],[86.32139350976902,26.668576998174284],[86.32118336895938,26.668420266584302],[86.32092833914214,26.6684754734786],[86.3207390184579,26.668357190757348],[86.32011796516376,26.6672029832312],[86.32007888537183,26.66695447313412],[86.32023362315104,26.666496961924956],[86.32037203807762,26.665657901676052],[86.32038146979355,26.664969449637056],[86.32055534194804,26.66466560812139],[86.3205996053438,26.664514500701497],[86.3204383516847,26.66389975951035],[86.32044047507513,26.663746277112278],[86.32044284887812,26.66355665931927],[86.32036412674658,26.663116092934914],[86.32033110577235,26.662427453988087],[86.32034372385948,26.66151099735345],[86.32039261098775,26.661052986626718],[86.32037678682177,26.660651119494567],[86.32029750329094,26.66024893972528],[86.32013275093483,26.65990271474892],[86.3198670818633,26.659154310102412],[86.31974715681076,26.658618716630784],[86.3196546097523,26.657643118358198],[86.31943489257998,26.65666689688342],[86.31931365535482,26.656226143056564],[86.3192935837348,26.656131240549673],[86.31923243451897,26.65595712825903],[86.31885766667543,26.655438354801692],[86.31818947570505,26.654683514915956],[86.31744000206093,26.65364377963265],[86.31718978151424,26.653315248091214],[86.31706473358862,26.653161141904178],[86.31700264714317,26.65304573403788],[86.31683533433285,26.652871121376023],[86.31671141122916,26.65264024261999],[86.3163978550469,26.652293394490577],[86.31610511920046,26.651984994327826],[86.31583214175593,26.651789564360527],[86.31541086053791,26.651555000049026],[86.31498914192231,26.651379203280282],[86.31481983061775,26.65133775530048],[86.3140394164069,26.65102248284399],[86.31384959707805,26.65094483760987],[86.31331827862738,26.650994169682303],[86.31263747014883,26.651139907187748],[86.31214723074311,26.651304585669543],[86.31191227246153,26.651436626971957],[86.31114686964135,26.65154129054946],[86.31089059046901,26.651652950486962],[86.31063581055382,26.651667520705058],[86.31012393925685,26.65187271043676],[86.30961331655492,26.651980810468697],[86.30867941498327,26.652025958698708],[86.30825451044514,26.65208035369422],[86.3076605440581,26.652091050278695],[86.30689557950798,26.652197902627368],[86.30642759798583,26.65230625145987],[86.3058320705231,26.652434294810366],[86.30498244893442,26.65252045405615],[86.30464320093947,26.652516519366895],[86.30430476359234,26.652453942271734],[86.30405004602409,26.65245269439589],[86.30371042263282,26.652484894255146],[86.3028599273631,26.652647826498796],[86.3021808679699,26.6526602743355],[86.30184218169414,26.65263608334991],[86.30141902660108,26.65255500178187],[86.30068119070285,26.652221785926457],[86.29969401005403,26.651521716011846],[86.29877135155324,26.65074737272467],[86.29852206806663,26.650380455241432],[86.29824921635873,26.650166957513893],[86.2980807792306,26.650089373996263],[86.29782706104285,26.650027171104558],[86.297321435855,26.649774102544217],[86.29694298186207,26.649521782182468],[86.29673265441092,26.649403249260533],[86.29648293385198,26.64905665021458],[86.2964881181239,26.648675226045945],[86.2963213674904,26.648462164795234],[86.29615249252683,26.648402648577687],[86.29589715025081,26.648457855563993],[86.29572815098635,26.64841634488563],[86.29539077633471,26.648279245619165],[86.29518069791413,26.64812470257673],[86.29501225985882,26.64804486781787],[86.29484282281007,26.648023739067174],[86.2940775462435,26.64816891385977],[86.29361106362757,26.64814403653379],[86.29360768996571,26.648392359902054],[86.2935420433171,26.64854552995717],[86.293113079125,26.648902327090696],[86.29304743258183,26.649055497854487],[86.29306737761208,26.64913233285139],[86.2932555745411,26.64932520011167],[86.29335873964796,26.649555891243228],[86.29367079648435,26.649979574822098],[86.29368711964538,26.65034311883298],[86.29360108931209,26.650437460693325],[86.29342996536992,26.65053142732604],[86.2930044991366,26.650642214096724],[86.29206634972286,26.65101227001083],[86.29185277355313,26.651106049361395],[86.29138554163104,26.65115788241156],[86.29113176106527,26.651115997537094],[86.29073229939353,26.6508634270551],[86.29056336203769,26.65080391155326],[86.29029901625077,26.650849928061373],[86.28962683586724,26.650966281094632],[86.28920230604598,26.650959658514648],[86.28901029981756,26.651035496008785],[86.2889234566324,26.651168223012803],[86.28897761015058,26.65185698726683],[86.28897592330662,26.651972083413195],[86.28893290896691,26.6520283507354],[86.28867600473312,26.65217827242561],[86.28799425838866,26.652323884192533],[86.2877379783329,26.652435482702035],[86.28696364269874,26.653133633078383],[86.28602599208051,26.653370462224455],[86.28523564526452,26.653705130490245],[86.28495635939744,26.65393169983247],[86.2846332463217,26.654271053100526],[86.28456728610901,26.654424161503027],[86.28451927360612,26.65482571724148],[86.28447582143437,26.654899989097895],[86.2841320754968,26.655182700754395],[86.28344782968966,26.655520119927004],[86.28227365790342,26.655963449441536],[86.28159003749016,26.65626248159887],[86.28116332121388,26.656391273912988],[86.2808003161596,26.656540696115258],[86.28067151987474,26.656634850697507],[86.2803917345481,26.656897555318324],[86.28028332190233,26.657050475871078],[86.28019448014932,26.657354754288],[86.28016453945251,26.657966371649998],[86.28022419046953,26.658273648898344],[86.2802829658867,26.658617061263772],[86.28055837993297,26.65867713857739],[86.28096090230883,26.658740152762316],[86.28155355787199,26.658880812824158],[86.2816166438121,26.658939830121096],[86.28169911348638,26.659111816984748],[86.28169049295242,26.659743814913888],[86.28144822607382,26.660370126684178],[86.28146692198843,26.660543989969298],[86.28155032900558,26.66065958560773],[86.28176084452659,26.660796123707588],[86.28195210191699,26.660797059330783],[86.28212147643741,26.660838569768753],[86.28237438324726,26.66097523206933],[86.28275189988673,26.66132251819806],[86.28298042540032,26.6616893730746],[86.28304363712574,26.661728071132167],[86.28310697198023,26.661748701692375],[86.28366235963698,26.661525755606174],[86.28383129711169,26.661585271446597],[86.2838498685653,26.66177501480969],[86.2837617763589,26.662004833244282],[86.2833739526525,26.66240239093562],[86.28341334557837,26.662630582893442],[86.28356002568971,26.662784813519014],[86.28381280747989,26.662941857274422],[86.28431986939488,26.663120466960926],[86.28474190118695,26.663334775993974],[86.28509628619159,26.66381741398125],[86.28543291156524,26.664031285560075],[86.28619319271588,26.664346557853893],[86.28642434197565,26.664539612116762],[86.28676202872559,26.6646970303214],[86.28710071611367,26.664777737323416],[86.28803499466801,26.66478916889882],[86.28820424369985,26.664848747247447],[86.28847703400275,26.66508031243857],[86.28858013660232,26.66531112925479],[86.2886399749606,26.665598087429256],[86.28861065896206,26.66617131923969],[86.28879329668283,26.66680419061294],[86.28885544485307,26.66691972348602],[86.28919138392446,26.66719223769827],[86.28923290025291,26.667269197046814],[86.28935907191645,26.667346593776116],[86.28974158643955,26.667350778101444],[86.29029897623569,26.66726999863401],[86.290337301878,26.667263433995572],[86.29050623901617,26.667322950298484],[86.2906747390295,26.66740053344971],[86.2909268330507,26.667575644506243],[86.29115673285672,26.667827341816338],[86.29136643704238,26.668002140094835],[86.29170368681848,26.668157370340236],[86.29191207834516,26.66844726564105],[86.29197135365071,26.66875460504108],[86.29203425277244,26.668811370982358],[86.29218180709744,26.66887082440743],[86.29228790843192,26.668873574235747],[86.29277852238972,26.668668321899744],[86.2928846861981,26.668668883406717],[86.2934968491434,26.668868310766683],[86.29370642737328,26.669061177236987],[86.2938312254766,26.66925367033906],[86.29423418542727,26.669257916916358],[86.29431852873583,26.66927867266481],[86.29473843558466,26.669590009761038],[86.29490549946401,26.66980075722426],[86.29509381978868,26.669975493753157],[86.29519942098676,26.67001444156622],[86.29560194388549,26.67003900751832],[86.29577075555451,26.670116590918177],[86.29598102154102,26.670253066812446],[86.29640199069603,26.670487630631225],[86.29690848989223,26.670666178215566],[86.29705585728932,26.6707639550568],[86.2973932943677,26.670901116999755],[86.29756123283558,26.671017024446037],[86.29833646175469,26.67173416419778],[86.2987778765143,26.672025308211794],[86.29888191537489,26.672161221715932],[86.29902584756265,26.672507321381136],[86.29908175029314,26.673080990054164],[86.29916253309437,26.67336807285782],[86.29926613603911,26.673542372861306],[86.2993683640398,26.6738295817522],[86.2994038835672,26.674346670518577],[86.29947735242293,26.67466082426159],[86.29952443483553,26.674864195915298],[86.29968974975995,26.67526681274134],[86.2998786955286,26.675439298980347],[86.29996210349435,26.675575150591175],[86.29996072865833,26.675690246390467],[86.29989601900971,26.675802842804046],[86.29970345169303,26.675953139069776],[86.29944729721461,26.67608505572735],[86.29931906441081,26.6761972772394],[86.29912412210595,26.676539442625113],[86.29897157234761,26.67693824857217],[86.29894887756086,26.677051031927565],[86.299090499751,26.67768377869718],[86.29908550418939,26.678141975907245],[86.29901798420819,26.67850283261912],[86.29900329307102,26.67862693141884],[86.29910207809823,26.678561911206668],[86.29952710733107,26.678507578349752],[86.30037691482089,26.678385345897816],[86.30063263247317,26.678273748038283],[86.3012280350161,26.67814570411659],[86.30224927816235,26.677873051198652],[86.30276064993019,26.677667860737724],[86.30395251647009,26.67728098538746],[86.30429351422468,26.677131312197155],[86.30480413584577,26.677005145357448],[86.30512443740336,26.67681708655819],[86.30648617929776,26.676433209966422],[86.30682686414622,26.67630166719519],[86.30750754732526,26.67613792508796],[86.30810432407495,26.67587903000161],[86.30868096745009,26.67552285759446],[86.3091924007421,26.67529959852615],[86.3104707975918,26.674779807793357],[86.31085912474617,26.67466201972923],[86.31132254183618,26.674522098072476],[86.31157919603496,26.67437205217003],[86.31177257662672,26.674183369415363],[86.31219973004038,26.673977741711603],[86.3125417265495,26.67377174012195],[86.31310011145543,26.673262022311715],[86.3134425453202,26.673035640362375],[86.31378435504311,26.67286802494623],[86.31455569119801,26.672302850431663],[86.31476995504588,26.67213229821847],[86.31528701085641,26.671545620408633]]]}},{"type":"Feature","properties":{"province":"Madhesh Province","district":"Siraha","municipality":"Aurahi Rural Municipality","ward":"2","wardNumber":2,"sourceMunicipality":"Aurahi","sourceType":"Gaunpalika"},"geometry":{"type":"Polygon","coordinates":[[[86.348519998339,26.690882012446295],[86.3487749653715,26.69084706206632],[86.34898679296805,26.690886445648708],[86.34905194033095,26.690755782047447],[86.34922631092788,26.690357038227475],[86.34956974455947,26.6900154964869],[86.3496573982616,26.689787866224442],[86.34965933405324,26.689616315814096],[86.34955635594717,26.689329170226262],[86.34936972014901,26.68894687206438],[86.34888397740262,26.688732439276258],[86.34854547792256,26.688651857360544],[86.34829076093456,26.688650734470848],[86.34803535546243,26.688703752335634],[86.34735248616649,26.689021165981533],[86.34709708131138,26.68907643490605],[86.34671519153325,26.689054369888005],[86.34658876940638,26.688974785238003],[86.34650517470722,26.688861502701837],[86.34630021683567,26.68822850631978],[86.34613440240174,26.68788465738973],[86.34575944447354,26.68725085048177],[86.34567847276107,26.686907375392874],[86.345914243718,26.686718816897066],[86.34632001435043,26.686513002414355],[86.34657729252906,26.68628618370701],[86.34672840722996,26.6860588650441],[86.34673352794778,26.685602918358228],[86.34653300358177,26.684570367212412],[86.34651643062165,26.6841707503764],[86.34643845639891,26.68357901519713],[86.34642269467534,26.6830823064807],[86.34628469445845,26.682165163830586],[86.346289815754,26.681709154592582],[86.34633701498998,26.681307599009426],[86.34640403550893,26.681003196436613],[86.3464974976455,26.68026091467823],[86.34647961205249,26.679976394099427],[86.34652393809507,26.679805031027072],[86.34649534932902,26.67860174077505],[86.34627400525673,26.67751267295408],[86.34625543326072,26.677304925240417],[86.34619297148474,26.67718951621093],[86.34611131221268,26.67690243288758],[86.34590248252293,26.676614788384914],[86.34573441986046,26.67646055777943],[86.34525005095955,26.676130965636627],[86.34448989480175,26.67579793810595],[86.34423580101905,26.675738048901806],[86.34349740240809,26.67535094226754],[86.34299033936469,26.675136384694987],[86.34277976116243,26.6749999725107],[86.34259069003234,26.674825297746736],[86.34247220705305,26.67466225136058],[86.34234046939775,26.67448101213616],[86.3423430931281,26.674289142749444],[86.34238698212724,26.67419449014595],[86.34249489511909,26.6740618877002],[86.34279487613637,26.673835254978663],[86.34343416992668,26.673650819379745],[86.34368888724397,26.673654254991046],[86.34413573615858,26.6735615353029],[86.34445435206042,26.673547152841138],[86.34464592179297,26.673491634799447],[86.34486037311677,26.673341338448473],[86.34513997087969,26.673055938681802],[86.34527132753053,26.672772104678483],[86.34534434516588,26.672083964177713],[86.34532714762447,26.67179719243459],[86.34518715109542,26.671166759156762],[86.3452393479572,26.67044010715664],[86.34530736903294,26.67013570459444],[86.34532893823715,26.670097443687116],[86.3455048716507,26.669642245327147],[86.34555051050896,26.66941217753286],[86.34563785261963,26.669241001527112],[86.34568342897842,26.6690132461066],[86.3456872386634,26.668726599940438],[86.34560626752523,26.668439516040962],[86.34548128222514,26.668265154334406],[86.34533816236659,26.667862662481653],[86.34526100186396,26.66728893201239],[86.3451605856846,26.66688668975995],[86.34508242515656,26.666389669706255],[86.34485764747453,26.66575661121125],[86.3447327253916,26.665584437078856],[86.34456915972008,26.665123241187224],[86.3444738638892,26.664321381324005],[86.34433330513731,26.66374740211074],[86.34436005954707,26.66334572114463],[86.34442664377447,26.66311802863857],[86.344492665246,26.6629467281746],[86.34473143432054,26.662546045050306],[86.34477638624051,26.66237468196779],[86.34478088402517,26.662031580897942],[86.34465908423303,26.6616292145265],[86.34468746232818,26.66111462557922],[86.34492779392549,26.66060109674673],[86.34531667827005,26.660088255216802],[86.34540402050462,26.65991701632395],[86.34525865176468,26.65968607538644],[86.34504957324093,26.65945488468878],[86.3450087437596,26.65934185156267],[86.34508338564954,26.658538552536708],[86.34519554519586,26.658083105306172],[86.34520035487346,26.657737691202094],[86.345159651526,26.657604340063642],[86.34497083089182,26.65744998409219],[86.34480145580046,26.65740859834047],[86.34437723870178,26.65740435193861],[86.34386667860457,26.657494571110707],[86.34361239817703,26.657473067213665],[86.34318936767822,26.657356037414612],[86.34287393741198,26.65716042118366],[86.34274845272871,26.65702669526693],[86.34232804584701,26.6567358020878],[86.34209845883454,26.656466037693537],[86.34184655161154,26.65625272800463],[86.34136180939034,26.655999970975078],[86.34121381762066,26.65595864858124],[86.34100198985512,26.655937332113574],[86.34057771061529,26.655933147292867],[86.34032342992649,26.655911643613365],[86.34013248557369,26.6559107703766],[86.3394975652664,26.655790429223334],[86.33848287928012,26.655512608236965],[86.33606912028446,26.655124394650738],[86.33479653020441,26.655073330598587],[86.3338386848163,26.655292342758177],[86.33237296423084,26.65541189329432],[86.33209136182778,26.65539926690365],[86.33198082131538,26.65539426723886],[86.33182163821289,26.655386766092757],[86.3314407487001,26.655324064291545],[86.33118609309209,26.655320565721517],[86.33080357961249,26.655372960225513],[86.32972187285966,26.655340836937242],[86.32953080355634,26.655357969633894],[86.32901974379871,26.655486512266336],[86.32857351980137,26.655538657459946],[86.328381513511,26.65561218089252],[86.32780418190231,26.6559480358836],[86.32748456708731,26.65603912863093],[86.32722978687589,26.656055948375773],[86.32659043195372,26.656258389233074],[86.32614195908552,26.65648196001114],[86.32569404764936,26.656649201066916],[86.32548072040514,26.6567226621747],[86.32526764400215,26.65679612337718],[86.32469268665831,26.656942422718675],[86.32437257200017,26.657071838604868],[86.3237991132594,26.657121046531273],[86.32277674453206,26.657414143261903],[86.32245750388509,26.657487105901765],[86.32220272448428,26.65750398899193],[86.3213719248879,26.657741566965232],[86.32105174760815,26.65787098297457],[86.32028522015308,26.65807273787359],[86.31989770969636,26.658486238672086],[86.31974715681076,26.658618716630784],[86.3198670818633,26.659154310102412],[86.32013275093483,26.65990271474892],[86.32029750329094,26.66024893972528],[86.32037678682177,26.660651119494567],[86.32039261098775,26.661052986626718],[86.32034372385948,26.66151099735345],[86.32033110577235,26.662427453988087],[86.32036412674658,26.663116092934914],[86.32044284887812,26.66355665931927],[86.3208628184776,26.663867870647696],[86.32103113108403,26.663983841081965],[86.32203663479308,26.66491185236454],[86.3227291441375,26.665454692007955],[86.32323595570556,26.66563311431248],[86.32357276895208,26.665828855807675],[86.32380160673883,26.666175330251452],[86.32421389325516,26.66703957984574],[86.32452751184312,26.667388741709864],[86.32461179266068,26.667427502094625],[86.32489089085686,26.667182740049334],[86.325214878492,26.66676667707908],[86.32575150649095,26.6663132253464],[86.3258371619064,26.66627752678304],[86.32611394958708,26.666204314650898],[86.32670891493534,26.666152918554545],[86.32696463284097,26.666061638583592],[86.32721953749164,26.6660447566369],[86.32790203263751,26.66576804260681],[86.32807253181531,26.665730467906045],[86.3284120928039,26.665716272502273],[86.32858146791187,26.66575771990561],[86.32872802309637,26.665891570348727],[86.32878854781815,26.6661221375425],[86.32885069721715,26.66623754623529],[86.32895529904962,26.666335072938978],[86.32916668911339,26.66639477595205],[86.32967618718303,26.66638145475859],[86.32984518730538,26.666440845499128],[86.330323370443,26.66715417416831],[86.3303641989933,26.667269520693406],[86.3303790855246,26.667727717238687],[86.33043967274871,26.667956096505236],[86.3308348873418,26.668535824363676],[86.33154340732519,26.669460151293357],[86.3319209238618,26.66978924417769],[86.33198113463216,26.66985951400433],[86.33200451863381,26.669886709243915],[86.33201740567841,26.670498513867123],[86.3319811446524,26.670669939468223],[86.3319813330345,26.670696947369112],[86.33205386240506,26.670918511970104],[86.33223706129031,26.671492740440122],[86.33233404258486,26.672163687092358],[86.33234961655387,26.672563304324516],[86.33246947998629,26.67311915365615],[86.33300581435007,26.674232287340946],[86.33304445673959,26.674501115357042],[86.33311548566182,26.674661724213664],[86.3331889514409,26.674826834482193],[86.3333336334516,26.675170621717957],[86.33352020698567,26.67555298157355],[86.33364606682575,26.675668702328707],[86.3338526489777,26.676186602249935],[86.33397407467359,26.67670187670915],[86.33405691994484,26.676876052295437],[86.33438517794501,26.677909227429854],[86.3347995283404,26.67882761742254],[86.33483960769851,26.679058059706453],[86.33496278295453,26.679440107614745],[86.33510746507243,26.67978620820006],[86.33537582168593,26.68047590807],[86.33566649750945,26.68105063640286],[86.33581111756797,26.681414741594864],[86.33597649570183,26.681817357709626],[86.33618045497933,26.682563136946772],[86.33617564623394,26.683021459398596],[86.33619634218145,26.6830779760659],[86.33632226470458,26.68319369547983],[86.33663157582049,26.68403712744769],[86.33673411749427,26.684342341310998],[86.3368178988761,26.68445787453196],[86.33714853070494,26.68526298238613],[86.33741944805293,26.68572248962694],[86.33750166784563,26.685953118712796],[86.33751855430167,26.686352861045258],[86.33747460308855,26.686506093900604],[86.33734000002073,26.68719167119934],[86.33726748457629,26.688049173994518],[86.33717658419148,26.688622092918624],[86.33716784127611,26.68942339100881],[86.33718666421898,26.689651519808592],[86.33730971392262,26.69005388676391],[86.33762402032917,26.690400735179747],[86.33796089625925,26.690650555313393],[86.33823568494046,26.690730888251615],[86.33874187289356,26.690983769999335],[86.33908018535264,26.6911004885452],[86.33967052923484,26.691412448791358],[86.33996395325273,26.69173885348985],[86.3401113834143,26.691836630801777],[86.34070378874979,26.691954472050675],[86.3411268818535,26.692073814786767],[86.34146481877258,26.692210851226594],[86.34180331890616,26.692289121230175],[86.34231169182831,26.692332128613895],[86.34265006653546,26.692430778563807],[86.34366799985314,26.692421890363786],[86.34394403789507,26.69238706496985],[86.34424127113208,26.69237036874983],[86.34439001205733,26.69235298722991],[86.34460265177938,26.692297531907254],[86.34520005187127,26.69193910718705],[86.34562551784113,26.6918101276845],[86.34588036023966,26.691793244864982],[86.34622035881756,26.691720282142093],[86.34707235203275,26.691383299508825],[86.34758266174674,26.691254818790878],[86.348519998339,26.690882012446295]]]}}]}