{"type":"FeatureCollection","features":[{"type":"Feature","properties":{"province":"Madhesh Province","district":"Parsa","municipality":"Bindabasini Rural Municipality","ward":"4","wardNumber":4,"sourceMunicipality":"Bindabasini","sourceType":"Gaunpalika"},"geometry":{"type":"Polygon","coordinates":[[[84.8062527542958,27.029404641711256],[84.80659475403922,27.029384696385808],[84.80670141876529,27.02940438942455],[84.8067213615501,27.029020464079224],[84.80679819443301,27.027257195557098],[84.80677111659125,27.026031710379705],[84.80691359788754,27.024193545199314],[84.80695379483372,27.023121104738294],[84.80697423905357,27.022890786742934],[84.80708040124948,27.02258319564517],[84.80718037331071,27.022205647478717],[84.8071840628185,27.02219208028343],[84.80727740734643,27.02184841659539],[84.80738644704496,27.021673989709026],[84.8074897967103,27.021594403831692],[84.80785293000066,27.021614908152724],[84.80814347449214,27.021712560992707],[84.80866373056746,27.02221289374047],[84.80905137390074,27.022580875335702],[84.80957194176152,27.022850952657855],[84.80987442742068,27.02294854291914],[84.81038336447902,27.022916281969184],[84.81080670595749,27.022733226078955],[84.81099464911898,27.02249065433015],[84.8111038743308,27.02199119501864],[84.81116477057401,27.021699608758816],[84.81104422362064,27.021147321474448],[84.81098970137128,27.020578842332096],[84.81077199306712,27.0200044867492],[84.81056635417562,27.01970996360279],[84.81024592109762,27.018969184226556],[84.81012475051213,27.018762249442787],[84.8099676923992,27.01874055613423],[84.80932539506517,27.018881975284348],[84.80890142944331,27.01942388562438],[84.80878057364136,27.019618693024047],[84.80859869586867,27.019910904644032],[84.80838067866988,27.019995680301502],[84.80796865162075,27.019822005965132],[84.80754561923318,27.01927140827005],[84.80724306807153,27.018729188001803],[84.8070193591799,27.018376084753672],[84.80694651915643,27.018148518328207],[84.80699515884562,27.01745525139949],[84.8069473907155,27.01720724128323],[84.80706286666269,27.016443641830747],[84.8071108210221,27.016192818099633],[84.80718353399756,27.016052463718985],[84.80738985887798,27.015739745973725],[84.807920116432,27.016052711280818],[84.80809761960333,27.01611041468252],[84.80819440503015,27.01606696436843],[84.80827543342873,27.015872344199224],[84.80857616797493,27.015633648044926],[84.8083243246051,27.01547935349674],[84.80797275774104,27.015307554621742],[84.80748889200832,27.015046166433358],[84.8067505574472,27.0147976590463],[84.80647158031132,27.014819604149686],[84.80619947990421,27.014660870570996],[84.80593338063316,27.014368973223604],[84.80582427688174,27.014087453548182],[84.80560669690722,27.013966793977314],[84.80518285312375,27.01391290505738],[84.8047346261131,27.013782180769116],[84.8043597375719,27.013608317678518],[84.80402061199268,27.013328111800618],[84.80343964754975,27.01314187157751],[84.80319749626591,27.01310930076808],[84.8029493421572,27.013040844305323],[84.80270637815397,27.012895427251806],[84.80262222153758,27.012844037324733],[84.80236831523692,27.012583648967706],[84.80162997973102,27.01223798791473],[84.80142427833782,27.01193439938691],[84.80135768930688,27.011517214694123],[84.80136975590044,27.011354604457477],[84.80144246909103,27.011214250172003],[84.80163660145881,27.010867772588863],[84.80160008640753,27.01060163190237],[84.80142320820953,27.010273099016153],[84.80123788735445,27.009642163851147],[84.80083836306038,27.009100443364073],[84.80076846116576,27.008746464751727],[84.80052086897027,27.008571789375466],[84.80037581618805,27.00855003381135],[84.80010627993921,27.008659942058376],[84.79981336144056,27.0089257085215],[84.79970419773011,27.00926718375942],[84.799507256534,27.010455596876422],[84.79950675759153,27.01074230628908],[84.79942116461264,27.010934612848978],[84.7994214780324,27.011153552293507],[84.79933157034864,27.011354861667023],[84.79853778200984,27.01198923842855],[84.79812850775564,27.012117965343396],[84.79762151004682,27.01214566307168],[84.79737929510203,27.012016125945056],[84.79736753984723,27.01187170805753],[84.79735516045649,27.011722851500608],[84.7973554712745,27.011321046577095],[84.79718659479532,27.010965379767548],[84.79705298193338,27.01070430412409],[84.79693231252665,27.010553697287875],[84.79647845835743,27.01052475266108],[84.79617565957497,27.010469988272146],[84.79609394144948,27.010407219484215],[84.79606668104245,27.01038483879969],[84.79615152423764,27.010178965309606],[84.79628475959377,27.010038235301995],[84.79670872695878,27.009852991823074],[84.79685440341265,27.00943236761792],[84.79681795178469,27.009267757577046],[84.79657586234947,27.009063698306075],[84.79650977524194,27.00889483658747],[84.7965584162119,27.0085582375724],[84.79665526338471,27.008352238810172],[84.79640460770226,27.008103104110145],[84.7963651551828,27.00804689996606],[84.79619871848935,27.007851467914744],[84.79610912353888,27.007829399894565],[84.79594268614288,27.007552694014333],[84.7958147627428,27.00727805132567],[84.79568640214445,27.007127569902387],[84.79553284624271,27.007058425111747],[84.79532764544159,27.007082182757394],[84.79502021959182,27.006910133174006],[84.79498207990828,27.00677265577911],[84.79499502193298,27.006736457053243],[84.79491780451251,27.006416363996067],[84.79489229573882,27.006369037156624],[84.79485371808953,27.006346780737942],[84.79476437166858,27.006013120769293],[84.79481576415225,27.00570359235575],[84.79477743657671,27.005358553500947],[84.79468802644335,27.005013702473],[84.79463688223406,27.004910109885884],[84.79447000722446,27.004646970409276],[84.79443174335003,27.004498238988546],[84.7942651176875,27.00418764829138],[84.79418846411991,27.003946577754576],[84.79407317025084,27.00376214893455],[84.79398382472817,27.003692691742565],[84.7938303939248,27.00364836649603],[84.79345869547696,27.003738519732945],[84.79330482670905,27.00380710270029],[84.79304867139362,27.004025229776925],[84.79297170538341,27.004107004642755],[84.79276644441501,27.004381210407015],[84.79245895716707,27.004554512331318],[84.79199803875362,27.00468123908044],[84.79161439795756,27.00467892763512],[84.79146021723591,27.004713625835727],[84.79114016233767,27.0048869903083],[84.79108889461266,27.00494369427085],[84.79083255141389,27.005231842949694],[84.79080704211422,27.005277105748924],[84.7908194236724,27.005597575353722],[84.79095966389404,27.005919544379353],[84.7912025042003,27.006231948031886],[84.79135624817098,27.006231072071152],[84.79162559545729,27.006012881790575],[84.791664047535,27.006012631687256],[84.79174038774633,27.005944486550653],[84.79211221053544,27.005773122146437],[84.79222744071478,27.005853707996],[84.79222719141268,27.005910161648586],[84.79217610965743,27.0059894353738],[84.79190719966401,27.006185056508176],[84.79186843536635,27.006232695677838],[84.79157382902456,27.00644882299703],[84.7914198971261,27.00650609020797],[84.79129147675252,27.006793487326267],[84.79130441877801,27.0068408143013],[84.79138119755063,27.006921712225907],[84.79176577645482,27.006955595637834],[84.79181704497822,27.006989168608985],[84.79181704592828,27.0070816957804],[84.79158652435204,27.007265812911115],[84.79129154259525,27.007425485923292],[84.79117593788015,27.007471312255774],[84.79088176672595,27.00739172776096],[84.79089414630256,27.007357779850636],[84.79084312636571,27.007184229321492],[84.79066374720071,27.006943721638166],[84.79054895491268,27.006919527427126],[84.79011366956051,27.006838505250727],[84.7901008521115,27.006723471587037],[84.79019082081716,27.006345984807403],[84.79021701704414,27.006034330650827],[84.7902428371645,27.005677538632735],[84.7902177026889,27.00550617525476],[84.79017993701056,27.00524228527189],[84.79014117278025,27.005104808137148],[84.7897536549868,27.005003154057256],[84.78955258118296,27.00498846299903],[84.78909247457865,27.00487368073083],[84.78893879339215,27.00488355926101],[84.78867007006507,27.00510400000455],[84.78865719095683,27.005241790992304],[84.78863161960483,27.005275863344018],[84.78863155789185,27.005539878587964],[84.78864387538175,27.005677481160205],[84.78869489557007,27.005952624831256],[84.78880918974538,27.00643726639279],[84.78879668577942,27.00653892161942],[84.78869358572318,27.006665834643186],[84.78849107475578,27.006714412051387],[84.7883615275133,27.006746733983334],[84.78815682700456,27.006756862812914],[84.78784958873692,27.006699972547572],[84.78769634552897,27.006678278668588],[84.78741524181038,27.00648122255451],[84.787364223209,27.006481472415963],[84.78705729630438,27.006286853645282],[84.78680145272679,27.00619338955542],[84.78664802181609,27.00622815056903],[84.7865582386962,27.006366441554267],[84.78661976317073,27.006609824939808],[84.78665977829861,27.006747240994375],[84.7867386202158,27.00702219618538],[84.78680420770552,27.00721819110282],[84.78692269026236,27.0075832356595],[84.78696220611224,27.0077342167012],[84.78702804360806,27.007961846432018],[84.7870006592833,27.008101949563756],[84.78708938100434,27.008449051397083],[84.78741538026483,27.009478728556793],[84.78755230667916,27.009947552740893],[84.78773287576104,27.010551417299375],[84.78794239142097,27.010775920160615],[84.78803936511113,27.010949283402343],[84.78804699591412,27.01159247232939],[84.78796071437459,27.01168331122401],[84.78747247603819,27.01223903923588],[84.78746172422389,27.012774071197043],[84.78713923168874,27.012875227454145],[84.78721444842311,27.013274281892244],[84.78752825082351,27.01336286933598],[84.78825320662838,27.01378761681101],[84.78834955404169,27.013863826084634],[84.78848273013202,27.014156536266384],[84.78847003860535,27.01451326659971],[84.78839238834581,27.015026105355645],[84.78837306863709,27.015152580289584],[84.78851843622691,27.01557614165866],[84.78891689720197,27.016059219044],[84.78909759044248,27.01649159569726],[84.78904926214294,27.016785306842568],[84.78892196499055,27.016871770220398],[84.78854770351084,27.016871584293078],[84.78791934707122,27.0166765289548],[84.78753264221358,27.01661094891048],[84.78735857853513,27.016670591904255],[84.78704927763835,27.01677393585624],[84.78681938244434,27.016980623112183],[84.78678324501848,27.01720656396455],[84.78680681788107,27.01751115405543],[84.78677030537747,27.017791235990252],[84.78666158044913,27.018367468061594],[84.78654078797858,27.018756333408337],[84.78641968086852,27.018831543313546],[84.78625462059124,27.018832481131874],[84.78606936574072,27.018831232144926],[84.7858641018682,27.018669872821302],[84.78567040405501,27.018366284164568],[84.78570772550844,27.017124606241975],[84.7856955322949,27.016822142643804],[84.78562331519397,27.0161273132859],[84.78552696553814,27.015868362900303],[84.78528531376104,27.015727447059785],[84.78493380986909,27.015742952755417],[84.78447733064365,27.015878682213163],[84.78435397369378,27.01599221610295],[84.78431095886985,27.016143698370897],[84.78419229129966,27.01648067275633],[84.7840553052388,27.01679970417514],[84.78394782874426,27.01702602100319],[84.78375932395748,27.017277658267638],[84.78361946348298,27.018007498065028],[84.7834958567581,27.01826326107912],[84.78322600996047,27.018781664823596],[84.7827722841155,27.019413977754347],[84.78284474817531,27.019594155153293],[84.78291733899053,27.019968451964996],[84.78291702765806,27.02029348549076],[84.78295291932467,27.021008820060747],[84.7828923392583,27.021997799059815],[84.78278617514411,27.02204581335783],[84.78294948663168,27.022238994036233],[84.7830561510055,27.0223535274296],[84.78331449767451,27.02281253690129],[84.78344423455054,27.023157200329265],[84.78372302585069,27.023559692350222],[84.78404721121977,27.02442013150412],[84.78404871299347,27.024821874849003],[84.78381706883329,27.02539654447283],[84.78371115528871,27.02557090822213],[84.7836061809298,27.02597327743478],[84.78367164373961,27.026318316302035],[84.78380131849299,27.026660666300497],[84.78405947731798,27.027178379825482],[84.78431744922878,27.027578746455653],[84.78440416934154,27.02780850099288],[84.78440429470248,27.027923597682346],[84.78440517120241,27.028038693784694],[84.78449157844172,27.02825038050669],[84.78459955664493,27.02853646461907],[84.78464269822115,27.028669378631168],[84.78475042626721,27.028937394512845],[84.7848152632407,27.029110882120985],[84.78481582754613,27.029282370667914],[84.78485978216875,27.029532694211373],[84.78483971325734,27.029722499402205],[84.78503115816366,27.029703306243583],[84.78520190782226,27.029702367580555],[84.78556472894321,27.029684485832053],[84.78562900247647,27.02968192221664],[84.78733556547486,27.029697171262857],[84.78771989417584,27.029676975648105],[84.78797530047709,27.029619083019174],[84.78906338660873,27.029597198193223],[84.78975401421218,27.029498541522315],[84.78989500393973,27.02947965989787],[84.79047259055962,27.029440271849335],[84.79083578613054,27.02938181586729],[84.79094226224088,27.02938118985596],[84.79119929392779,27.02937975148123],[84.79151959863088,27.029303477726366],[84.7920320988739,27.02924414612875],[84.79235284091675,27.029147491685876],[84.7928014431182,27.029050211161916],[84.79305778710791,27.029030704729664],[84.79369820831066,27.028875781800075],[84.79376260696833,27.02889578683026],[84.79401926346102,27.028837894295403],[84.7942757331689,27.028836455307175],[84.79498074110846,27.02872185695661],[84.79537050896772,27.02868578213385],[84.79542971800034,27.02868090517481],[84.79594215536679,27.028603568865048],[84.79624145268502,27.028604129877728],[84.79641201442482,27.028487970472476],[84.79677558524617,27.028391128089655],[84.79884759361681,27.028043080516937],[84.79910381260488,27.027926482868754],[84.79978731170934,27.02771491830935],[84.80132662624368,27.027692593513162],[84.80201056555056,27.027729351610358],[84.80278159853421,27.027957416440636],[84.80331710935208,27.028204924877418],[84.80383242457835,27.028624046231762],[84.80391839377668,27.02866193203151],[84.80449817202664,27.029198087437415],[84.80505606603822,27.029578634472372],[84.8052271282353,27.029618270643187],[84.80565497268425,27.029615830605135],[84.8062527542958,27.029404641711256]]]}},{"type":"Feature","properties":{"province":"Madhesh Province","district":"Parsa","municipality":"Bindabasini Rural Municipality","ward":"3","wardNumber":3,"sourceMunicipality":"Bindabasini","sourceType":"Gaunpalika"},"geometry":{"type":"Polygon","coordinates":[[[84.81056428578115,27.04567465762903],[84.81056065499477,27.044832784536563],[84.8104926893416,27.044142456945917],[84.81036232729838,27.043721084326986],[84.81010379261518,27.04326213760672],[84.81005889895174,27.042804127991598],[84.81013160124988,27.040122151972444],[84.81017230204917,27.039738226238203],[84.81015041814317,27.039584868813353],[84.81017054882429,27.039316102581743],[84.81016435311733,27.038013782263494],[84.81029020950064,27.03755483461298],[84.81046064710377,27.037420669114912],[84.8106735364592,27.03722754919714],[84.81101359717205,27.03684412318426],[84.81122573583562,27.036461509717583],[84.81173610753135,27.035923537151724],[84.81213969033863,27.035347866782427],[84.81311917090397,27.03450248953748],[84.81343741157896,27.03414175715417],[84.8136936285021,27.03384910792291],[84.8141406027262,27.03335220977862],[84.81428890607,27.03312107929717],[84.81441588922931,27.032813363407357],[84.81445671449994,27.032278205411455],[84.81471092802221,27.03135799724458],[84.81477538812683,27.03120413845747],[84.81498871507948,27.03089817270709],[84.81505248794039,27.030744315074635],[84.81513676644593,27.030283367111362],[84.81520035182018,27.030188213253425],[84.81524368106115,27.03016989587544],[84.81584333781515,27.030225097335713],[84.81644324612583,27.030223844715785],[84.81695724682369,27.030279546712304],[84.81747149762292,27.03020202138579],[84.81781387251193,27.030048850621846],[84.81798474768392,27.02989442922041],[84.81804826981592,27.0297021224802],[84.81804632908059,27.029090443253594],[84.81787238788858,27.028565538970728],[84.81779679683281,27.028572729223658],[84.81743097543281,27.028613242835895],[84.81701913698417,27.028649504350852],[84.81660473491098,27.0285097155442],[84.81640015873478,27.028364110841267],[84.81608854342608,27.028149361315872],[84.81584088938772,27.02797018413283],[84.815321571646,27.027528431239716],[84.81501470795014,27.027268481285695],[84.81448501187374,27.026779464357947],[84.81428056021974,27.0265639643904],[84.81384783685712,27.02606988344735],[84.81373429580316,27.02605475456798],[84.8135409750688,27.026243185270562],[84.8133953618655,27.026675187527935],[84.81336260106366,27.027018476781915],[84.81330339264478,27.027287430395987],[84.81321192556203,27.02806215863447],[84.81313946245255,27.02823414698413],[84.8128242855469,27.028484221620612],[84.81254568433916,27.02864614482961],[84.81232185215703,27.028629329065947],[84.8120188644148,27.028380507066014],[84.8118736853019,27.02817375917283],[84.81187399670239,27.028045096417195],[84.81203155293375,27.02769880600966],[84.81235867113112,27.02717777719216],[84.81258324985535,27.02633902932268],[84.81240199335133,27.025852512632657],[84.8123536618694,27.025525541001965],[84.81264026261424,27.024636779056788],[84.81280413263022,27.024028599414248],[84.81269527890628,27.02371100697658],[84.81231370081167,27.023564215455878],[84.81149602635207,27.023686316346645],[84.81115440225848,27.02402685562517],[84.81094432730471,27.024513373926055],[84.81104699392695,27.025296041313116],[84.81114553054772,27.025507665291745],[84.81112771254018,27.025728980293284],[84.81102361326013,27.025982368438836],[84.81086605588905,27.026157107100016],[84.8104537805125,27.026220440162106],[84.80970319233315,27.02612316444129],[84.80931605009958,27.02608027837532],[84.80892859412123,27.02592673461373],[84.80887482400333,27.025811950973754],[84.80864386245668,27.025325746152546],[84.80830517207161,27.02449250257171],[84.80773795868224,27.02341906452231],[84.80769450502694,27.023338040373716],[84.80746485649621,27.02303464010601],[84.8071921925021,27.022530617319212],[84.80718037331071,27.022205647478717],[84.80708040124948,27.02258319564517],[84.80697423905357,27.022890786742934],[84.80695379483372,27.023121104738294],[84.80691359788754,27.024193545199314],[84.80677111659125,27.026031710379705],[84.80679819443301,27.027257195557098],[84.8067213615501,27.029020464079224],[84.80670141876529,27.02940438942455],[84.80659475403922,27.029384696385808],[84.8062527542958,27.029404641711256],[84.80565497268425,27.029615830605135],[84.8052271282353,27.029618270643187],[84.80505606603822,27.029578634472372],[84.80449817202664,27.029198087437415],[84.80391839377668,27.02866193203151],[84.80383242457835,27.028624046231762],[84.80331710935208,27.028204924877418],[84.80278159853421,27.027957416440636],[84.80201056555056,27.027729351610358],[84.80132662624368,27.027692593513162],[84.79978731170934,27.02771491830935],[84.79910381260488,27.027926482868754],[84.79884759361681,27.028043080516937],[84.79677558524617,27.028391128089655],[84.79641201442482,27.028487970472476],[84.79624145268502,27.028604129877728],[84.79594215536679,27.028603568865048],[84.79542971800034,27.02868090517481],[84.79537050896772,27.02868578213385],[84.79498074110846,27.02872185695661],[84.7942757331689,27.028836455307175],[84.79401926346102,27.028837894295403],[84.79376260696833,27.02889578683026],[84.79369820831066,27.028875781800075],[84.79305778710791,27.029030704729664],[84.7928014431182,27.029050211161916],[84.79235284091675,27.029147491685876],[84.7920320988739,27.02924414612875],[84.79151959863088,27.029303477726366],[84.79119929392779,27.02937975148123],[84.79094226224088,27.02938118985596],[84.79083578613054,27.02938181586729],[84.79047259055962,27.029440271849335],[84.78989500393973,27.02947965989787],[84.78975401421218,27.029498541522315],[84.78906338660873,27.029597198193223],[84.78797530047709,27.029619083019174],[84.78771989417584,27.029676975648105],[84.78733556547486,27.029697171262857],[84.78562900247647,27.02968192221664],[84.78556472894321,27.029684485832053],[84.78520190782226,27.029702367580555],[84.78503115816366,27.029703306243583],[84.78483971325734,27.029722499402205],[84.78484096472113,27.029990953273085],[84.7848422789549,27.030277663160952],[84.78479963811279,27.03039300972187],[84.78482646139497,27.030449338066756],[84.78467321846145,27.030700725103934],[84.78426875880075,27.03089259605686],[84.78418385331776,27.03100819208905],[84.78407844026412,27.031257078464826],[84.78389369251937,27.032867490119752],[84.78389600775076,27.033384391683466],[84.78393983780975,27.033614396606588],[84.78406913615818,27.03390029316613],[84.78419774613863,27.033996695559768],[84.78441094965262,27.034033830962375],[84.78483785572791,27.033974999865016],[84.78586173200813,27.03395348998487],[84.78680088957186,27.034065644054365],[84.78697232719679,27.03416173428871],[84.78716521107765,27.03435247731677],[84.78731595545445,27.03463831094785],[84.78729476131052,27.034753532471377],[84.78716733985466,27.03492589569177],[84.78674193438617,27.035099760413804],[84.786421629653,27.03517828528096],[84.78603886505209,27.03540841614341],[84.78589024903904,27.035601099001564],[84.78570162058023,27.036290614822672],[84.78563909907189,27.03663627904817],[84.78564003832281,27.036864283262933],[84.78574970597707,27.03749796948988],[84.78590126404735,27.037898898959444],[84.78605119423386,27.038071949819244],[84.78628653169675,27.0382037369171],[84.78682047744147,27.038318081083794],[84.78733366659094,27.03852739140514],[84.78793169943735,27.038697876190362],[84.78810301293245,27.03877364791813],[84.78870123386673,27.039077235331796],[84.7887876415873,27.039250598558805],[84.78878814196838,27.03932730851138],[84.78866078295111,27.03949960946843],[84.78859676018116,27.039538308428398],[84.7884475800204,27.039557189797566],[84.78831965875894,27.039557940846688],[84.78742214014885,27.039274047478994],[84.7872305073219,27.039275111615805],[84.78710258577881,27.03937064017823],[84.78678459659014,27.03985096968095],[84.7867223251928,27.040137991272754],[84.78672564168563,27.040885086158614],[84.78681248768234,27.04122993768881],[84.7868983949844,27.041344595623446],[84.78706902007887,27.041323339287047],[84.78732530162681,27.04138054243103],[84.78775270970849,27.0415700343247],[84.78869380645622,27.042047796103237],[84.78886530834487,27.042238663711277],[84.78914478724273,27.042638905262823],[84.78975420040572,27.043174935653077],[84.79030234053694,27.04351722241446],[84.7904317639696,27.043728658812764],[84.7904544619691,27.043997112992916],[84.7902219418849,27.04462823599801],[84.79033067079583,27.045031667294413],[84.7905459385118,27.045260733706044],[84.79071737690595,27.045356761115475],[84.79099529066367,27.045355197645655],[84.79125100975759,27.04523866176826],[84.79131478218869,27.04516376456185],[84.79148546997786,27.04506573560135],[84.79165690791338,27.045067047482025],[84.79182828302203,27.045142819481374],[84.79195701813572,27.045257227061104],[84.79219442029833,27.04567797561063],[84.7924307578561,27.045945178007504],[84.79305192445662,27.046174242979628],[84.79399251882732,27.04611472241392],[84.7945687916587,27.04588352680036],[84.79484720708713,27.045863895183086],[84.79493242574108,27.045883713830147],[84.79503952742158,27.045883088148432],[84.79523284902106,27.04603550652207],[84.79531838057575,27.046093711070075],[84.79536177211942,27.046170171450246],[84.79544824234294,27.046456379445953],[84.79553471232965,27.046552970052144],[84.79559904865046,27.04657066299553],[84.79598306297136,27.04641724150318],[84.796046773574,27.046340093471386],[84.79630280466394,27.046185172344035],[84.79732473764275,27.045244891655486],[84.79775133077058,27.045052833796227],[84.79800792514776,27.044976935824515],[84.7982645187569,27.044993502604346],[84.79850066855067,27.04514792192568],[84.79860802173866,27.045262392599902],[84.79888706226286,27.045509213845435],[84.79897315704514,27.045567292861893],[84.79923012593758,27.045624559506845],[84.80102672347024,27.045677505532556],[84.8029079127654,27.04557871989047],[84.8035926644355,27.045615415926655],[84.80453344658281,27.04559421815793],[84.80624545127289,27.04589592566141],[84.80718723567007,27.04600789304063],[84.80812933196525,27.046255274675488],[84.80847183248056,27.046293909134594],[84.80907092857946,27.046425883460145],[84.80975586727818,27.04650096592336],[84.81026974420894,27.046615372760503],[84.81039797867219,27.04665300841001],[84.81061205724399,27.04671046206098],[84.81061024248342,27.046288399693893],[84.81060811499884,27.045904661928223],[84.81056428578115,27.04567465762903]]]}},{"type":"Feature","properties":{"province":"Madhesh Province","district":"Parsa","municipality":"Bindabasini Rural Municipality","ward":"5","wardNumber":5,"sourceMunicipality":"Bindabasini","sourceType":"Gaunpalika"},"geometry":{"type":"Polygon","coordinates":[[[84.76373551827412,27.05505652027004],[84.7641626748191,27.05493904630713],[84.76441858066535,27.054939921086593],[84.76458964369031,27.054880277770412],[84.76484555021791,27.05487890177803],[84.76510139374733,27.054782746952025],[84.76535779987375,27.054763240956284],[84.76561370580221,27.054667024373998],[84.7657845180752,27.054666085764968],[84.76601972926441,27.054588061715744],[84.76604073716864,27.054531545492946],[84.76595332680618,27.053728434769855],[84.76597395801033,27.053421344291063],[84.76593043986328,27.052961208998568],[84.76530695168512,27.050896916496164],[84.76526312260962,27.050666912140425],[84.76532739584144,27.050571758416616],[84.76558367666766,27.05053199656011],[84.76583939579236,27.05051255226322],[84.76609605214442,27.050434402993464],[84.76686433395258,27.0504324622278],[84.76712049066502,27.050469410239398],[84.76737683456473,27.050449966058206],[84.76771871026064,27.050486475727208],[84.7685728358125,27.05040732405904],[84.76974714216907,27.05042344966173],[84.76976858686932,27.05042332478785],[84.77117716477935,27.050131171596963],[84.7714331961915,27.05005302241223],[84.77177513425006,27.050015010283357],[84.77190249291756,27.049937549000095],[84.77201615915118,27.04978344107987],[84.77228531888623,27.049418583318882],[84.77258236335008,27.048900054652336],[84.7729435555349,27.04843985601855],[84.77300739134694,27.048285997419992],[84.77347405965611,27.04759498030401],[84.7736439328359,27.04736378701363],[84.7738565100787,27.047114338211415],[84.7740272595053,27.04701862135516],[84.77430454825117,27.046919966230636],[84.77473133033047,27.04684312966928],[84.77507220457278,27.046649383913717],[84.77532829778983,27.04659155410765],[84.776011611633,27.0466081189618],[84.77635267360058,27.046531719933455],[84.77695026746443,27.046451631900823],[84.77729170483141,27.046336910047458],[84.77780326711101,27.04621893582307],[84.77848708043862,27.046217495010723],[84.7790850497547,27.046290826884658],[84.77917026860025,27.046310707483535],[84.77961937153079,27.04634659206041],[84.77978980833711,27.046309517881937],[84.78049469295001,27.04634402500735],[84.7806652550624,27.04630688858266],[84.7812632867268,27.046303572988673],[84.78194641279292,27.046378780481064],[84.78297178938949,27.046375276006],[84.78459513592216,27.046619029513383],[84.78474506591809,27.046694925550103],[84.78532209027479,27.046750440111246],[84.78540705919833,27.046731871657038],[84.78574899771064,27.046768319205427],[84.7872014685758,27.047013010877848],[84.78779937642608,27.047068337584584],[84.78799188428887,27.047202688506058],[84.78809798529531,27.047048517410847],[84.78826729587095,27.046663904575784],[84.78858246923299,27.045589962760488],[84.7885814061508,27.04543873011947],[84.78868594161574,27.044977719273522],[84.7887233875688,27.043751796541272],[84.78863616638252,27.043445331991723],[84.78852918974493,27.0432924119451],[84.78844309513077,27.043236521317148],[84.78825096147564,27.043158561135286],[84.78773858658165,27.043161438939347],[84.78716224898795,27.043029214683685],[84.78684125511003,27.042818842110577],[84.7867764184,27.04274250730516],[84.78664737083446,27.042492683623063],[84.78660260189405,27.042034674154888],[84.78666537377919,27.04172733403823],[84.7867290836751,27.04165024880728],[84.7868983949844,27.041344595623446],[84.78681248768234,27.04122993768881],[84.78672564168563,27.040885086158614],[84.7867223251928,27.040137991272754],[84.78678459659014,27.03985096968095],[84.78710258577881,27.03937064017823],[84.7872305073219,27.039275111615805],[84.78742214014885,27.039274047478994],[84.78831965875894,27.039557940846688],[84.7884475800204,27.039557189797566],[84.78859676018116,27.039538308428398],[84.78866078295111,27.03949960946843],[84.78878814196838,27.03932730851138],[84.7887876415873,27.039250598558805],[84.78870123386673,27.039077235331796],[84.78810301293245,27.03877364791813],[84.78793169943735,27.038697876190362],[84.78733366659094,27.03852739140514],[84.78682047744147,27.038318081083794],[84.78628653169675,27.0382037369171],[84.78605119423386,27.038071949819244],[84.78590126404735,27.037898898959444],[84.78574970597707,27.03749796948988],[84.78564003832281,27.036864283262933],[84.78563909907189,27.03663627904817],[84.78570162058023,27.036290614822672],[84.78589024903904,27.035601099001564],[84.78603886505209,27.03540841614341],[84.786421629653,27.03517828528096],[84.78674193438617,27.035099760413804],[84.78716733985466,27.03492589569177],[84.78729476131052,27.034753532471377],[84.78731595545445,27.03463831094785],[84.78716521107765,27.03435247731677],[84.78697232719679,27.03416173428871],[84.78680088957186,27.034065644054365],[84.78586173200813,27.03395348998487],[84.78483785572791,27.033974999865016],[84.78441094965262,27.034033830962375],[84.78419774613863,27.033996695559768],[84.78406913615818,27.03390029316613],[84.78393983780975,27.033614396606588],[84.78389600775076,27.033384391683466],[84.78389369251937,27.032867490119752],[84.78407844026412,27.031257078464826],[84.78418385331776,27.03100819208905],[84.78426875880075,27.03089259605686],[84.78467321846145,27.030700725103934],[84.78482646139497,27.030449338066756],[84.78479963811279,27.03039300972187],[84.7848422789549,27.030277663160952],[84.78484096472113,27.029990953273085],[84.78483971325734,27.029722499402205],[84.78485978216875,27.029532694211373],[84.78481582754613,27.029282370667914],[84.7848152632407,27.029110882120985],[84.78475042626721,27.028937394512845],[84.78464269822115,27.028669378631168],[84.78459955664493,27.02853646461907],[84.78449157844172,27.02825038050669],[84.78440517120241,27.028038693784694],[84.78440429470248,27.027923597682346],[84.78440416934154,27.02780850099288],[84.78431744922878,27.027578746455653],[84.78405947731798,27.027178379825482],[84.78380131849299,27.026660666300497],[84.78367164373961,27.026318316302035],[84.7836061809298,27.02597327743478],[84.78371115528871,27.02557090822213],[84.78381706883329,27.02539654447283],[84.78404871299347,27.024821874849003],[84.78404721121977,27.02442013150412],[84.78372302585069,27.023559692350222],[84.78344423455054,27.023157200329265],[84.78331449767451,27.02281253690129],[84.7830561510055,27.0223535274296],[84.78294948663168,27.022238994036233],[84.78278617514411,27.02204581335783],[84.78246524554753,27.02219204532126],[84.78181769681139,27.02240786095744],[84.78082389647533,27.022754216059397],[84.78007674838301,27.023056307794228],[84.77930321630566,27.02336533809937],[84.77884367371723,27.023519135359276],[84.77820956666173,27.02376864793182],[84.77778278583791,27.023920006569632],[84.77729904653778,27.024137135103192],[84.77683650262023,27.0243112502807],[84.7766598757326,27.024377645344906],[84.7762217156339,27.02453131676635],[84.7757863073589,27.024709808304802],[84.77523579414046,27.024922748224004],[84.77478450369246,27.025094550020853],[84.77431939631786,27.025264163951693],[84.77416477728225,27.025325932739392],[84.77377138432034,27.02547935428247],[84.7736048234067,27.02553893466621],[84.77332153277217,27.025675913377704],[84.77321568119997,27.02567203791558],[84.77291444585524,27.025666912301364],[84.77260301772343,27.02556250806086],[84.77193477189667,27.02524116532997],[84.77148316862583,27.025178148407036],[84.77121513140214,27.025053238155042],[84.7707504597614,27.02473527128322],[84.7704870506278,27.02455165540095],[84.7695797769209,27.023834323195977],[84.76933849983492,27.02365277056461],[84.76874815595066,27.023116552633034],[84.76832912609612,27.022748633369453],[84.76792647555467,27.0222858739081],[84.76771714759897,27.021991287746904],[84.76750775788176,27.021775787559154],[84.76661074140492,27.021803236849],[84.76643874016281,27.021722901264518],[84.76614900816882,27.021559729372182],[84.76567633388643,27.021266519894443],[84.76527931182383,27.021072401351127],[84.76495181598318,27.020814576844103],[84.76481213836566,27.020573881246264],[84.7646911555642,27.02029229919372],[84.76461625172527,27.02002865935374],[84.76450877424566,27.01978996492357],[84.76439066733391,27.019650674267947],[84.76415464167098,27.01922986368921],[84.76398357657524,27.01862356139164],[84.76389222965204,27.018355482525365],[84.76387634824667,27.01824044847687],[84.76366164277918,27.017979748032282],[84.76339022981198,27.017728425081273],[84.7632402365743,27.017535118777737],[84.76309549477206,27.017283107552924],[84.7626507053292,27.016922128182625],[84.76252653452127,27.01682122359613],[84.76251427994822,27.01677839917624],[84.76233921743223,27.017163075019475],[84.76202172787397,27.01773812003279],[84.76189555857434,27.018084159796256],[84.76183334939651,27.018486277741285],[84.76191975739589,27.018774737792185],[84.76224194033313,27.019174791219882],[84.76236998758453,27.01928919935084],[84.762670474542,27.01974802133504],[84.76303698718009,27.020551881211524],[84.76314596733681,27.021011766083124],[84.76333922646018,27.021356054195817],[84.7635317357279,27.021508535939965],[84.76370311145737,27.021584244882142],[84.76402385510531,27.021871515270128],[84.76458149970712,27.02242598944302],[84.76481733795465,27.0227317031288],[84.76490286930978,27.02278765701397],[84.76520316865492,27.02313138173072],[84.7653751704256,27.02339908481187],[84.76543944448689,27.023590578770634],[84.76552666554484,27.023994134037853],[84.76552779154663,27.024165684289425],[84.76531696784778,27.024855263160372],[84.76502042326341,27.025258695339],[84.76497772045435,27.025374042020125],[84.76495802697174,27.0257195183875],[84.76510895952077,27.026235606860375],[84.7650884535423,27.026465924898588],[84.76496115646368,27.026543385006658],[84.76474720328392,27.026506187746637],[84.76463991379669,27.02638940364877],[84.76451098969187,27.026141768538892],[84.76431810604562,27.02595096362437],[84.76416836369047,27.02589307194446],[84.764062012077,27.025914016385457],[84.76391345803803,27.026124703456457],[84.76393640659181,27.026623412816853],[84.7638523773425,27.026966951176817],[84.76376784677494,27.02714125266368],[84.76353413766532,27.027429213267197],[84.7634069045001,27.02771654846797],[84.76310942213075,27.028081593603325],[84.7624279860676,27.028505158197063],[84.76232151033383,27.02860049928225],[84.7622364794981,27.028792868512095],[84.7622162227171,27.028966794791057],[84.76225880126097,27.029022936445447],[84.76230256828534,27.029252941183294],[84.76249582794877,27.02959729127543],[84.76277549600152,27.030230038566916],[84.76279900692374,27.03080320706873],[84.76290804964773,27.031378250973127],[84.76305910672231,27.031722788839605],[84.76314563957988,27.032124094388465],[84.7634261207365,27.032871938656964],[84.76353378604625,27.033042925522242],[84.76359849849919,27.03329312351661],[84.7636139416495,27.03333594932411],[84.76372761026404,27.033655854828545],[84.76454742034312,27.03577991414085],[84.76468034480182,27.03595302684167],[84.76497595436707,27.036335138375712],[84.76639216987358,27.038112843051294],[84.76660781403234,27.03868726122589],[84.7665883717953,27.039260742164284],[84.76622968172968,27.040355190367375],[84.76597509078947,27.040814701125452],[84.76574238276271,27.041448075867034],[84.76561502491874,27.04162256496747],[84.76533948772732,27.042064258396902],[84.7652971608994,27.042235996439445],[84.76514866964087,27.042467065188074],[84.7648945166554,27.042985343305407],[84.76483111920648,27.043213660862662],[84.76455583294923,27.043790768352675],[84.7639219827608,27.045575170524987],[84.76375411280009,27.04637965721364],[84.76354247529488,27.046956390029756],[84.76337391498315,27.047474230256405],[84.76318209501498,27.04762646316566],[84.76284103386375,27.047799889969447],[84.76207319008314,27.04805234212464],[84.7615616281129,27.048265031129894],[84.76098654439677,27.048688033014944],[84.76064679706249,27.04915035711604],[84.76049811814214,27.049437817317806],[84.76033906151926,27.049781793884446],[84.76028629314146,27.04989714024567],[84.76022289541403,27.050127770718756],[84.76030961715111,27.05064417241497],[84.7603094931345,27.050815722648466],[84.76024578294913,27.050989899044097],[84.76003301770176,27.051219030028],[84.75975572914349,27.051412400034117],[84.75964962847556,27.051564195602236],[84.7595431537756,27.051853717791243],[84.75952227195096,27.052025330732747],[84.7597370401006,27.052656265904993],[84.75973854438921,27.053344655276263],[84.75946263436668,27.054208410253825],[84.75927187858747,27.054611216829695],[84.75927162847279,27.054667671212822],[84.7591865351685,27.054762887051435],[84.75948595859293,27.054955442183036],[84.76059655410705,27.055141243570727],[84.76093880516952,27.055236457837776],[84.7614295478418,27.055292535109928],[84.76192097926972,27.05544557787641],[84.76209191673173,27.05546277031249],[84.76260541911239,27.055710465879226],[84.762776356779,27.055729846071404],[84.76283969101775,27.0554992782059],[84.76286076103347,27.055345670170507],[84.7629671115762,27.055229948462863],[84.76313786143538,27.05513423195228],[84.76373551827412,27.05505652027004]]]}},{"type":"Feature","properties":{"province":"Madhesh Province","district":"Parsa","municipality":"Bindabasini Rural Municipality","ward":"1","wardNumber":1,"sourceMunicipality":"Bindabasini","sourceType":"Gaunpalika"},"geometry":{"type":"Polygon","coordinates":[[[84.81174689769452,27.084308820520583],[84.81151155980922,27.084021236935904],[84.81129697890754,27.083638687393485],[84.8113176092761,27.083180427426168],[84.81127377991997,27.082873712743083],[84.81127221219239,27.08195506773693],[84.81125039099615,27.08172493771336],[84.81107826238646,27.081114258467437],[84.81131259578693,27.080652434423943],[84.81171792936996,27.080038377403437],[84.81201653740072,27.079655138553775],[84.81214408325549,27.079424195942064],[84.81237904328914,27.079136172233074],[84.81246457383733,27.07909953631857],[84.81276343394201,27.07902107518302],[84.81319108991246,27.07896218131631],[84.81361893427699,27.07884677035862],[84.81387534133657,27.07882501281912],[84.81558540423829,27.07843814324236],[84.81592696702019,27.078418011153698],[84.816697438209,27.078510660272336],[84.81686868811789,27.07856836425755],[84.81721050117802,27.07858443024464],[84.81789437642527,27.07839080836667],[84.8184072511638,27.078180181525124],[84.81866396993094,27.078025197615787],[84.81879170355815,27.077909350422807],[84.8188773606872,27.07789078279522],[84.81915464741273,27.077449026266457],[84.81943036942072,27.076528692230735],[84.81947200623853,27.075840052255067],[84.81938566054455,27.075495201821113],[84.81917158044305,27.075189424606886],[84.81876342666307,27.074196384195165],[84.81876248657869,27.07381277158281],[84.818718969532,27.073544318508027],[84.81865475748691,27.073391210512778],[84.81846149768249,27.073162144461417],[84.81794737001533,27.07268656911067],[84.81687640813267,27.07148296917654],[84.81646925656804,27.07096844413643],[84.81608348849802,27.070625344745096],[84.81559017928763,27.069975906397207],[84.81539616760828,27.069209556297913],[84.81524648542016,27.068903466701272],[84.81507366993189,27.068292788068582],[84.8148163229842,27.067833716802532],[84.81447212817848,27.066610108588744],[84.81434320475198,27.06630389367558],[84.81421378055545,27.065844196632884],[84.81404146498208,27.065461522843673],[84.813912040046,27.065001825437704],[84.81393267052012,27.064541189565425],[84.81399606717768,27.064157076421022],[84.81416556415961,27.063621106199406],[84.81425078222621,27.06346712302963],[84.81414355486436,27.063199169513688],[84.81382174764363,27.062894081302538],[84.81377898196398,27.06281755846595],[84.81360779260201,27.06268314480028],[84.81335013454228,27.06243407271608],[84.81326535395456,27.06256773714364],[84.81258342150777,27.063720578526286],[84.81207148723456,27.064488744120887],[84.81158106023838,27.06510105031508],[84.81121893050535,27.065658403153854],[84.81076964095736,27.065773876014656],[84.81008563985075,27.065852276590498],[84.80982892065504,27.065833459502397],[84.80967936615744,27.065911045931482],[84.80942296025633,27.06600732537371],[84.80844035219368,27.066642764970585],[84.80794904880388,27.067045135322594],[84.80754340122728,27.067257386301584],[84.80683726600974,27.067144106265072],[84.80591736542317,27.067126792027075],[84.80495432394831,27.06697656351855],[84.80476206622896,27.066975439310603],[84.80450509661107,27.066920486128787],[84.8041842915538,27.0669200496106],[84.80373487567995,27.066843591923277],[84.80161697347431,27.066772203474002],[84.80059072237526,27.066852543410498],[84.79982119006694,27.066967579821252],[84.79962880770734,27.067027347701362],[84.79873054044073,27.06712500475569],[84.79815289099864,27.06718246136602],[84.79742568720552,27.06720465794023],[84.79552255170941,27.067475056824957],[84.79547997410477,27.067513693330188],[84.79550185768382,27.067667050878843],[84.7955665702758,27.067993959263607],[84.79528865669727,27.068185141296606],[84.79460522036057,27.068532121452048],[84.79392078232608,27.068725617820416],[84.79349350062263,27.06874606276454],[84.79306553123502,27.068841029607327],[84.79242448507227,27.06920807804237],[84.79227530686452,27.069418827185178],[84.79261793300081,27.069552302698106],[84.79330262199295,27.06974254377282],[84.79362436631445,27.06995291681403],[84.79379568012648,27.070028688579946],[84.79403076641344,27.070201175955212],[84.79437439409695,27.070564906759166],[84.79452401283906,27.07067919008032],[84.79469570113689,27.07088812538698],[84.79488902420756,27.071309123850334],[84.79510391711723,27.07165553733989],[84.79516156371758,27.0717793231868],[84.79531837298076,27.07211473356032],[84.79540396688671,27.072191005617803],[84.79564105771657,27.072995491477204],[84.79581343574917,27.073396296065038],[84.79572828099562,27.073742148151677],[84.79551495357526,27.073971341143736],[84.79515169605284,27.074126825968463],[84.79476661749672,27.0741471459414],[84.79438141268199,27.074052182190524],[84.79406054496614,27.074051808128424],[84.79399689742475,27.074149211909464],[84.7939972108462,27.074359148805833],[84.79419053374654,27.074874924230702],[84.79427681723111,27.07521977554026],[84.79427850877524,27.076082028348893],[84.79419373017095,27.07648658533336],[84.79389618670707,27.07729182270299],[84.79389750295189,27.077923883666163],[84.7939405810797,27.078038667579737],[84.79394120861895,27.07840208676445],[84.79387787448552,27.078804267561136],[84.79366567542533,27.079552550467636],[84.79355963808355,27.0800700782315],[84.79358352744607,27.081221103845504],[84.79362735767134,27.08162265976711],[84.79369225811539,27.081967635704167],[84.79382136976677,27.082312236313665],[84.79409997299291,27.082579251727264],[84.7946356711541,27.08290353202749],[84.7951497988367,27.083304648398073],[84.79534280884606,27.08357216378704],[84.79529879061735,27.08315260266322],[84.7954695385571,27.08269121707234],[84.79572525559789,27.08230822820652],[84.79578859107941,27.08207766071503],[84.7958529890846,27.08200051253332],[84.79617298012123,27.081693984014994],[84.79647246413323,27.08152074416032],[84.79683478321361,27.08113719286189],[84.79721948559222,27.080886742245013],[84.79747601659325,27.080790463057085],[84.79807492473338,27.080789336106694],[84.79850289394327,27.080863606316374],[84.79910230333539,27.081112989441987],[84.79944536744111,27.08130285677153],[84.79950945315326,27.081361248912362],[84.79952977345427,27.081376940644876],[84.80006678540153,27.081798250308395],[84.80040916212775,27.081990368200525],[84.8009017827105,27.082466068156783],[84.80118007324202,27.08267669169543],[84.80141572271145,27.08292363832446],[84.80197230452555,27.083344823103676],[84.80229310956918,27.08324816837714],[84.80263529715164,27.083225910478667],[84.80314829819932,27.083283925195413],[84.80349092443721,27.08341508787609],[84.80381191792755,27.08360514296398],[84.80406857587178,27.083700732481596],[84.80441163996409,27.083890599095085],[84.80526714323275,27.084233322277264],[84.80560989436019,27.084290024966386],[84.80637923914526,27.084229191346758],[84.80706374046174,27.084380983846202],[84.80732052261085,27.084494641330256],[84.80742806311481,27.084552657623675],[84.80759912590723,27.08456978681028],[84.80811244026803,27.084760904393832],[84.8089685690064,27.085198404112532],[84.80965325814995,27.085368264661373],[84.80999619816772,27.085540063248413],[84.81018845612974,27.085538937930338],[84.81050913550116,27.085421964032044],[84.8119628566522,27.08539776488469],[84.81221963804099,27.085339871228737],[84.812390575661,27.085264411590693],[84.81249730117759,27.0851103032057],[84.81251805901994,27.085013086647074],[84.81174689769452,27.084308820520583]]]}},{"type":"Feature","properties":{"province":"Madhesh Province","district":"Parsa","municipality":"Bindabasini Rural Municipality","ward":"2","wardNumber":2,"sourceMunicipality":"Bindabasini","sourceType":"Gaunpalika"},"geometry":{"type":"Polygon","coordinates":[[[84.80059072237526,27.066852543410498],[84.80161697347431,27.066772203474002],[84.80373487567995,27.066843591923277],[84.8041842915538,27.0669200496106],[84.80450509661107,27.066920486128787],[84.80476206622896,27.066975439310603],[84.80495432394831,27.06697656351855],[84.80591736542317,27.067126792027075],[84.80683726600974,27.067144106265072],[84.80754340122728,27.067257386301584],[84.80794904880388,27.067045135322594],[84.80844035219368,27.066642764970585],[84.80942296025633,27.06600732537371],[84.80967936615744,27.065911045931482],[84.80982892065504,27.065833459502397],[84.81008563985075,27.065852276590498],[84.81076964095736,27.065773876014656],[84.81121893050535,27.065658403153854],[84.81158106023838,27.06510105031508],[84.81207148723456,27.064488744120887],[84.81258342150777,27.063720578526286],[84.81326535395456,27.06256773714364],[84.81335013454228,27.06243407271608],[84.81360779260201,27.06268314480028],[84.81377898196398,27.06281755846595],[84.81382174764363,27.062894081302538],[84.81414355486436,27.063199169513688],[84.81425078222621,27.06346712302963],[84.81440021122083,27.063120958494764],[84.81461297432358,27.062738219682004],[84.81474108332702,27.06258392394862],[84.81499736401682,27.0623726106904],[84.81516817601353,27.062276769885383],[84.81559514524645,27.062141165921872],[84.81636492632708,27.0618138794302],[84.81655668342432,27.061659270374648],[84.81666347123246,27.061430703403545],[84.81668347655524,27.06089335760847],[84.81672511460934,27.060547755799792],[84.81672336098814,27.059782593897694],[84.81676631361532,27.059628860683326],[84.81684695823638,27.057540433719726],[84.81680218819423,27.056849981526064],[84.81682263033021,27.056274311928636],[84.81677917692252,27.05610301142],[84.8167346571267,27.055356167330785],[84.81673440605402,27.055143980286225],[84.8167320875892,27.054051471123522],[84.81707233360837,27.053245858419235],[84.81732805025557,27.052786222533687],[84.81762634546537,27.052382727477244],[84.8177323206253,27.05213384139023],[84.81779559134254,27.051557859484994],[84.81777376951374,27.051327729633954],[84.81783697866048,27.050925611155026],[84.81785811055025,27.0507923221855],[84.8179848412091,27.050100868352914],[84.81801022347832,27.049782462294505],[84.81802572895187,27.049583716555805],[84.81802416460364,27.049279001727115],[84.81804492146219,27.049181848169777],[84.81802247449917,27.048951718315163],[84.81776200033438,27.04814967089055],[84.8175029653068,27.047632019171836],[84.81741674603157,27.047555809934025],[84.81722392487197,27.04748016365954],[84.81679607971746,27.04740364242786],[84.81628207854314,27.047271230704588],[84.81576876476379,27.047233596629578],[84.81529790374479,27.047139257804563],[84.81523375499964,27.04715763842198],[84.81429222229785,27.047084120585],[84.81326572034435,27.04710588055411],[84.81249575057575,27.0470494293328],[84.81163987292892,27.046957280550576],[84.8107837452953,27.046747847259052],[84.81061205724399,27.04671046206098],[84.81039797867219,27.04665300841001],[84.81026974420894,27.046615372760503],[84.80975586727818,27.04650096592336],[84.80907092857946,27.046425883460145],[84.80847183248056,27.046293909134594],[84.80812933196525,27.046255274675488],[84.80718723567007,27.04600789304063],[84.80624545127289,27.04589592566141],[84.80453344658281,27.04559421815793],[84.8035926644355,27.045615415926655],[84.8029079127654,27.04557871989047],[84.80102672347024,27.045677505532556],[84.79923012593758,27.045624559506845],[84.79897315704514,27.045567292861893],[84.79888706226286,27.045509213845435],[84.79860802173866,27.045262392599902],[84.79850066855067,27.04514792192568],[84.7982645187569,27.044993502604346],[84.79800792514776,27.044976935824515],[84.79775133077058,27.045052833796227],[84.79732473764275,27.045244891655486],[84.79630280466394,27.046185172344035],[84.796046773574,27.046340093471386],[84.79598306297136,27.04641724150318],[84.79559904865046,27.04657066299553],[84.79553471232965,27.046552970052144],[84.79544824234294,27.046456379445953],[84.79536177211942,27.046170171450246],[84.79531838057575,27.046093711070075],[84.79523284902106,27.04603550652207],[84.79503952742158,27.045883088148432],[84.79493242574108,27.045883713830147],[84.79484720708713,27.045863895183086],[84.7945687916587,27.04588352680036],[84.79399251882732,27.04611472241392],[84.79305192445662,27.046174242979628],[84.7924307578561,27.045945178007504],[84.79219442029833,27.04567797561063],[84.79195701813572,27.045257227061104],[84.79182828302203,27.045142819481374],[84.79165690791338,27.045067047482025],[84.79148546997786,27.04506573560135],[84.79131478218869,27.04516376456185],[84.79125100975759,27.04523866176826],[84.79099529066367,27.045355197645655],[84.79071737690595,27.045356761115475],[84.7905459385118,27.045260733706044],[84.79033067079583,27.045031667294413],[84.7902219418849,27.04462823599801],[84.7904544619691,27.043997112992916],[84.7904317639696,27.043728658812764],[84.79030234053694,27.04351722241446],[84.78975420040572,27.043174935653077],[84.78914478724273,27.042638905262823],[84.78886530834487,27.042238663711277],[84.78869380645622,27.042047796103237],[84.78775270970849,27.0415700343247],[84.78732530162681,27.04138054243103],[84.78706902007887,27.041323339287047],[84.7868983949844,27.041344595623446],[84.7867290836751,27.04165024880728],[84.78666537377919,27.04172733403823],[84.78660260189405,27.042034674154888],[84.78664737083446,27.042492683623063],[84.7867764184,27.04274250730516],[84.78684125511003,27.042818842110577],[84.78716224898795,27.043029214683685],[84.78773858658165,27.043161438939347],[84.78825096147564,27.043158561135286],[84.78844309513077,27.043236521317148],[84.78852918974493,27.0432924119451],[84.78863616638252,27.043445331991723],[84.7887233875688,27.043751796541272],[84.78868594161574,27.044977719273522],[84.7885814061508,27.04543873011947],[84.78858246923299,27.045589962760488],[84.78826729587095,27.046663904575784],[84.78809798529531,27.047048517410847],[84.78799188428887,27.047202688506058],[84.78788753545956,27.04760505717705],[84.78788853742726,27.047833061507493],[84.78795400012392,27.048178038240348],[84.78810530749676,27.048637609945995],[84.78836296622822,27.048981522191355],[84.78855578751717,27.049154260219698],[84.78904784437424,27.04940208155405],[84.78930412650578,27.049457034339877],[84.7895609716364,27.049591010225836],[84.78975416709297,27.04963508436573],[84.79030968410741,27.049762870344626],[84.79034576010643,27.049783001002513],[84.79063105308376,27.049932606101724],[84.7906110482917,27.050585047927022],[84.79052589384297,27.050930899738233],[84.79044098839508,27.051046496656],[84.79027005051049,27.051121957352418],[84.79001358137448,27.05112339617008],[84.78975411167515,27.051063879658148],[84.78967076833106,27.051046311815828],[84.78943586889982,27.050894143326897],[84.78917933662052,27.050798553442505],[84.78885915687236,27.050800305121005],[84.78866714879253,27.05074272680012],[84.78834709378923,27.050762546029866],[84.78821892177011,27.050822001417615],[84.7879417590637,27.051110212093885],[84.78785729197074,27.05137704083313],[84.78792200374296,27.051530147894617],[84.78805011316346,27.05164455608834],[84.78826375402217,27.051645618654792],[84.78839098703286,27.05135597008189],[84.78858305728254,27.051242060937433],[84.78875399458727,27.051261378913715],[84.78892493361582,27.051375536508857],[84.7890746769663,27.05160491634528],[84.78913888845248,27.051776153730145],[84.7891178192479,27.052006471503866],[84.78918265716156,27.05235144726904],[84.78918372273746,27.052868349473115],[84.78922711526175,27.0532134503023],[84.7892913891414,27.05338693900199],[84.78941993724445,27.053557738410664],[84.78963401626717,27.053710032988626],[84.78971936051718,27.053750168865268],[84.78975406066233,27.053749981673974],[84.78991161889925,27.05374910555034],[84.78999708688498,27.053710219288234],[84.79008293135469,27.053730099544953],[84.79085265098718,27.053574488502974],[84.7915370261731,27.053552605012253],[84.79179318334718,27.053591739763917],[84.79222146606287,27.05372477814555],[84.79247806097908,27.05382036735827],[84.79282100009462,27.054010297134592],[84.79322765010836,27.05429694205218],[84.79339921405362,27.05448781025869],[84.7938925862567,27.055178010973563],[84.79395723534125,27.05540789110514],[84.79415037094279,27.055808570934193],[84.79412992791468,27.056210438767586],[84.79419557849118,27.0566706366313],[84.79445267487834,27.05701673754522],[84.79494542039808,27.057530886352456],[84.79503189135406,27.057819283516427],[84.79496818081199,27.057991147055745],[84.79475466637854,27.058279044505813],[84.79426373753877,27.058645216889833],[84.79409286343225,27.058817767977235],[84.79398745268003,27.059603874059494],[84.79390229726046,27.059775863001846],[84.79371041555146,27.059910152798214],[84.79349646199792,27.059967732802765],[84.79304748545961,27.060026752354343],[84.7928547900901,27.060142974410855],[84.79268404054679,27.06033353110739],[84.79259894731037,27.060507832117487],[84.79257875434789,27.060853308638475],[84.7926003259911,27.061157898703588],[84.79260151606032,27.061677051083787],[84.79245283904797,27.06213606135038],[84.79226095709839,27.062367442461273],[84.792068512129,27.062519738529833],[84.79198304345641,27.062558499699552],[84.79172626179367,27.062521677865757],[84.79159771390273,27.062445717943323],[84.79149073675474,27.0622927981992],[84.79144734371586,27.061947634567403],[84.79146791235685,27.06164054483549],[84.79140326295722,27.06141060233937],[84.79136055988639,27.061352210064147],[84.79129616022637,27.061334517506694],[84.79123188673358,27.06133489269127],[84.7909762321833,27.061641046453413],[84.79089107615285,27.06181309682803],[84.79067756192518,27.06210093224081],[84.79052819503653,27.06219883665139],[84.79052857142759,27.062523869488277],[84.79061466637755,27.06265884641648],[84.79089283197463,27.062867219242417],[84.79108577856013,27.062963184756846],[84.79125690358262,27.063000569496833],[84.79142834215985,27.063096660367027],[84.79177115674455,27.06344007186247],[84.79172908034636,27.063729282192067],[84.79168650317838,27.06386263440866],[84.79151575337418,27.06405550379943],[84.79136594895837,27.06416916325286],[84.79117356670172,27.064246998894138],[84.79089608975642,27.0642282443445],[84.79051063491134,27.064095019163513],[84.79010360918572,27.063846759906898],[84.78975366688083,27.063571117766564],[84.78973909888299,27.063559865001828],[84.78943992520311,27.063234270443402],[84.7892681726202,27.062833528283704],[84.78920396195953,27.06275706780181],[84.78892642130454,27.06254644439962],[84.78871221724785,27.062470923803634],[84.78858479618079,27.062643161708767],[84.78847882124582,27.06298920122819],[84.78850120674049,27.063390757014105],[84.78880125674317,27.064023379262686],[84.7889082982224,27.064368105407194],[84.78890923716102,27.064769910756844],[84.7887184826894,27.065344330020153],[84.78874030383157,27.065574398048174],[84.78882571171415,27.06580415271139],[84.78895425977032,27.065977265220887],[84.78957473901336,27.066454528624508],[84.78968159208698,27.066587129250156],[84.78968165507153,27.066684095711846],[84.78975374351351,27.06671535479756],[84.78985309329545,27.066759992723718],[84.79000283602758,27.066912661882682],[84.79017458810611,27.067218626370515],[84.79023929988995,27.06727695542586],[84.79038923075652,27.06762143128848],[84.7909471260402,27.06825255250168],[84.79120459747509,27.068655169580545],[84.7916543894041,27.069151501453874],[84.79193274305695,27.069285352275568],[84.79210424333691,27.069381442629645],[84.79227530686452,27.069418827185178],[84.79242448507227,27.06920807804237],[84.79306553123502,27.068841029607327],[84.79349350062263,27.06874606276454],[84.79392078232608,27.068725617820416],[84.79460522036057,27.068532121452048],[84.79528865669727,27.068185141296606],[84.7955665702758,27.067993959263607],[84.79550185768382,27.067667050878843],[84.79547997410477,27.067513693330188],[84.79552255170941,27.067475056824957],[84.79742568720552,27.06720465794023],[84.79815289099864,27.06718246136602],[84.79873054044073,27.06712500475569],[84.79962880770734,27.067027347701362],[84.79982119006694,27.066967579821252],[84.80059072237526,27.066852543410498]]]}}]}