{"type":"FeatureCollection","features":[{"type":"Feature","properties":{"province":"Madhesh Province","district":"Siraha","municipality":"Bariyarpatti Rural Municipality","ward":"2","wardNumber":2,"sourceMunicipality":"Bariyarpatti","sourceType":"Gaunpalika"},"geometry":{"type":"Polygon","coordinates":[[[86.35980823025032,26.652282434850505],[86.359599650785,26.652012858217567],[86.35930572782873,26.651781293517363],[86.35926402472842,26.65172240113735],[86.35926546152922,26.651627623963105],[86.35928753141158,26.65155097580236],[86.35941670136233,26.651420623438753],[86.3597793938948,26.651252945923947],[86.35984416658754,26.651178735776412],[86.3600144149014,26.65112303003733],[86.36018335243602,26.65118248355927],[86.36037186102364,26.65137522554568],[86.36057944166465,26.651721512286155],[86.36068423063132,26.651819039928206],[86.36081077769765,26.651876117315595],[86.36162637815056,26.651164150334868],[86.36184164024915,26.650921263832956],[86.36199163172837,26.650827171888107],[86.36220402074406,26.65081010244478],[86.36254214512712,26.65089281048621],[86.36271245665823,26.650855172655717],[86.36303325900597,26.650669239535485],[86.36354544288876,26.650448044468522],[86.36395196229022,26.650188026353188],[86.36408450513346,26.64978903225827],[86.36423580704565,26.64956396479091],[86.36442925076351,26.649395538814705],[86.3648976689001,26.649248615650418],[86.36511205747907,26.649100632177475],[86.36519902510972,26.648929455777562],[86.36520383483526,26.648568287401982],[86.36529386229954,26.648189424853268],[86.36568224694676,26.647681021761347],[86.36596153281164,26.64743619720102],[86.36621962336369,26.6471551742016],[86.36645820501015,26.64677699823214],[86.36680088966146,26.646534673079596],[86.3672272925836,26.646369558109576],[86.36748038660893,26.64648577632887],[86.36762744128782,26.64658349108672],[86.36808649146197,26.647179223884407],[86.3682125382946,26.64725880837569],[86.36831813991714,26.647297631225364],[86.36857242029862,26.64731907186837],[86.36907973178089,26.647459045034793],[86.36933451209252,26.647444350752483],[86.36976141392219,26.647240786936024],[86.37042477528527,26.646812591329276],[86.37093702127278,26.646571014555388],[86.37134385376936,26.646310934415958],[86.37159975789199,26.64619914871974],[86.37228362653508,26.645809464914823],[86.37288146548474,26.6455321265885],[86.37328798539203,26.64527204646827],[86.37353838843109,26.645246035501557],[86.37366268362753,26.64519920776242],[86.37381686367989,26.645141189884484],[86.37396716749645,26.645047034822795],[86.37418605375356,26.64464847822012],[86.37431578764762,26.644515813385244],[86.37478576917225,26.644366638926375],[86.37521229815326,26.644296302027794],[86.37564038979167,26.644108554372767],[86.37581107627425,26.644073166859453],[86.37630369034531,26.643849659174148],[86.37671314738573,26.643508304010687],[86.37686738631147,26.643147696596092],[86.3768508754786,26.6428406692199],[86.37675058472688,26.642456432319232],[86.37662472385689,26.642320456637318],[86.37636988152862,26.642299014982132],[86.37592284355289,26.642330966599484],[86.37503182976856,26.64218712136517],[86.37477842368803,26.642068589586295],[86.3744847506596,26.641798638242424],[86.37440246795062,26.64162452578874],[86.37427692107724,26.64148854979409],[86.37419426365717,26.641334630101387],[86.37415637030952,26.641027478484133],[86.37424727346323,26.64064636511806],[86.37435687337558,26.640418860111538],[86.37446528606878,26.64028613219556],[86.37470268194981,26.64005918826923],[86.37487861584798,26.63969651689284],[86.37516033862457,26.63933659558099],[86.375335273739,26.6390326303559],[86.37544724670832,26.63864932911405],[86.37545099571,26.638421324371524],[86.37537039966811,26.63811398495615],[86.37530906236643,26.637960252462964],[86.3752462886049,26.637901236278683],[86.37469325640059,26.636517335410616],[86.37444478557272,26.63607377116808],[86.37426096198904,26.63557412593508],[86.3742216322726,26.635361751819715],[86.37413997401865,26.6351311225219],[86.37410002014613,26.634977452360324],[86.37410689142578,26.634519193059894],[86.37417647453866,26.634135767380098],[86.37427218792281,26.633447688754885],[86.37436359013208,26.63298305135902],[86.37463943806881,26.632835255183867],[86.37481212204274,26.63254935718332],[86.37491916019935,26.632434697166953],[86.3754328410263,26.631978682649947],[86.37645870424974,26.631202131891776],[86.37684396510916,26.63085840144917],[86.37731394470178,26.6305173584329],[86.37782899865957,26.62991011224033],[86.37811059416774,26.629337941266307],[86.3782631442102,26.628936697302944],[86.37854317782353,26.62853626413306],[86.37927274535663,26.62767931747751],[86.37978698746976,26.62716684859807],[86.38017343491279,26.626710272737373],[86.38051511913685,26.626463446870886],[86.38100779204588,26.625986989518157],[86.38158449700322,26.625589928641922],[86.38229049571228,26.624963112868077],[86.38244029846885,26.624830634170216],[86.3826965140723,26.624660206465208],[86.38257134116427,26.62446777654725],[86.38236444581621,26.62392962052958],[86.38224239498795,26.623391839016367],[86.38215904962863,26.623237981994773],[86.38207458026588,26.62317890364379],[86.38182061266775,26.623119138577813],[86.38150361978177,26.622982289665313],[86.38099711889642,26.622691146982223],[86.38080642425496,26.622670017627144],[86.38061485573377,26.622745917099007],[86.38036007563714,26.622762987150068],[86.37985301350597,26.62252817399212],[86.37940753885078,26.622523989554463],[86.37902514970106,26.622578760216886],[86.37832464485234,26.62259152102525],[86.37775274806353,26.62251000369577],[86.37737192042161,26.622390972602513],[86.37705542775554,26.622215799338388],[86.37680164676625,26.622119898547226],[86.376165289534,26.62211259072315],[86.37601854651679,26.62190203056221],[86.37602041919006,26.621728167455416],[86.3761080727366,26.62142382714332],[86.37600415631908,26.621190822367268],[86.3759409454955,26.62115218674739],[86.37560157199513,26.62115075243396],[86.3754100036391,26.62122440036423],[86.37526219877405,26.62114700504487],[86.3751347766675,26.621146443341416],[86.37498491148956,26.621278984198266],[86.37487650038777,26.62152674537897],[86.3748126652843,26.62154687651606],[86.37460096236148,26.621505304808387],[86.37422213292392,26.621196592823644],[86.37384130480734,26.621077561769162],[86.37366242660956,26.621009044025506],[86.37356551445178,26.62087094124001],[86.37332798526273,26.620497396681603],[86.37326608777279,26.620456510437357],[86.37311828351368,26.62043331820994],[86.37286125341721,26.62047958440207],[86.37253157360081,26.620715157214182],[86.37234325404066,26.62065114016018],[86.37218156837083,26.62047208936137],[86.37213385853998,26.62012648806227],[86.37199424233918,26.619929494551307],[86.37182799343505,26.61984747202082],[86.37172114259533,26.619862727899847],[86.37152501019993,26.619970323896315],[86.37146129874242,26.619967761131004],[86.37127579262844,26.619845039747347],[86.37123590236894,26.619786210390682],[86.37122095758312,26.619652921681894],[86.37123877130067,26.619269183955453],[86.37113691995954,26.619169468383102],[86.37103256898948,26.619128394351662],[86.37073564866971,26.61911576937989],[86.37002501791868,26.619318085975742],[86.36963087748705,26.619571414341593],[86.3695194629815,26.619681572819253],[86.36930226026315,26.619788982079093],[86.36917408888935,26.61980192468061],[86.36892487156092,26.61967895392985],[86.36879845073034,26.619653572918462],[86.36840937348255,26.619791741864248],[86.3679162516361,26.619428453552377],[86.36779089265944,26.619387255234447],[86.36753629939086,26.619377067009342],[86.36734798021992,26.6193107993845],[86.36710051352478,26.619149442422827],[86.36697340479218,26.61914431752701],[86.36675482678143,26.619269793658788],[86.36662846724244,26.619246663248948],[86.36656750728844,26.619185458722303],[86.36647746944942,26.618837419825077],[86.36627239247429,26.618678438202203],[86.36585548935254,26.618509580601085],[86.36571131043195,26.61840736448447],[86.36558595105586,26.61836391503263],[86.36529046817405,26.618315216770707],[86.36481160923512,26.618563607779425],[86.3645136260123,26.618571362786657],[86.3643608216311,26.61866095363328],[86.36428998520981,26.618811873246802],[86.36423703116498,26.619039627772064],[86.36412480473277,26.61916779212448],[86.36384101638906,26.619329092726623],[86.36344837620388,26.619544034927706],[86.36241081561303,26.6199254079024],[86.36162678610779,26.620335036496954],[86.36084250583325,26.6207446651859],[86.36066981806114,26.62079580660307],[86.35962394498596,26.621328348845182],[86.35768368886833,26.622344480294647],[86.35663950240911,26.622840949429715],[86.35534503672075,26.623230139814787],[86.35482597481108,26.623419701678042],[86.3542225080058,26.623588507158527],[86.35345104117778,26.623711426621554],[86.35284788610193,26.623880295268428],[86.35241966787204,26.623939316457914],[86.35199426354762,26.623941884379708],[86.35173679498615,26.623990401051316],[86.35020592560157,26.623987916750764],[86.34935217825713,26.624051757491298],[86.34892321004233,26.62413109752588],[86.34832618050969,26.624164488970635],[86.34634671000542,26.62420283296816],[86.34646519353593,26.624399764920962],[86.34671116701924,26.625039762522107],[86.34678807150198,26.625213937786935],[86.34703329434284,26.625874191680545],[86.34747046237611,26.626521814240018],[86.34765841279341,26.62704640426008],[86.34785167567115,26.62745583519646],[86.348511365375,26.62834146310862],[86.34861315316006,26.62844130384371],[86.34875526926027,26.62857965553605],[86.34898166682684,26.628743200821628],[86.34916179744938,26.62897876846126],[86.34941345923174,26.629505920744595],[86.34954307431848,26.629910537877496],[86.34973915006664,26.630263576759937],[86.34987589090565,26.630517024541117],[86.34995810823504,26.630578417062697],[86.35028141812195,26.630934330756336],[86.35089839872369,26.63137951737404],[86.35118038070792,26.63171486279686],[86.3513274411974,26.63219862865763],[86.35131131480708,26.63254391721863],[86.35114088351426,26.632983360889217],[86.35113069222196,26.63301036902704],[86.35119796771095,26.633055818496253],[86.35123867139886,26.633171164707687],[86.35134327370392,26.633286759783108],[86.3514692584423,26.633384412228164],[86.35161725031682,26.633423422027146],[86.35193474137711,26.63346549372731],[86.35227430172104,26.633451236053954],[86.35286714433005,26.6335555107952],[86.35320601826008,26.63357970093737],[86.35337501824176,26.63363909181344],[86.35415137125021,26.63427689615106],[86.3544013422238,26.63460311417185],[86.35471396166619,26.635026672873817],[86.35515243985728,26.635547821247485],[86.35548706711218,26.635912737647125],[86.35607441221883,26.63639624814582],[86.35626204627826,26.636647695179725],[86.35636658557343,26.636763289849032],[86.35655209597391,26.637163656071912],[86.3566111216204,26.637507067994928],[86.35660575030178,26.6379065603366],[86.35656111117923,26.638077923823197],[86.3562817008174,26.638358822298283],[86.3561317099945,26.6384529763429],[86.35549241759145,26.638673609944117],[86.35530147298375,26.638670486772643],[86.35504625551125,26.638723504283682],[86.35479035123072,26.63883522768715],[86.3546396107241,26.639003841238107],[86.35457365147877,26.639172829457774],[86.35452651469092,26.639515742917652],[86.35456765608966,26.63963102639804],[86.35467219572256,26.639746621318135],[86.35488202419616,26.639901101721684],[86.3552193363123,26.640058331811154],[86.35564180432766,26.64019799395761],[86.35614742913322,26.640471131294493],[86.35623177250838,26.640489572787907],[86.3565680238905,26.640723638313812],[86.35667356248128,26.64078277914853],[86.35684043848146,26.640975397095346],[86.35715349578186,26.641378636502214],[86.35738202017129,26.64172504860161],[86.35760711105978,26.642355856178398],[86.35773321984486,26.642433190604482],[86.35845292132261,26.642558344302934],[86.35868413244874,26.642712887509077],[86.35883000057355,26.642905379751483],[86.35887064282288,26.643056798939188],[86.35888090732324,26.643858221375485],[86.3588293976522,26.64454198538263],[86.35880782717653,26.644580247115474],[86.35876069008819,26.644920909455823],[86.35764404598501,26.645933969354925],[86.35712911489699,26.64638316903348],[86.35697681255847,26.646648811003917],[86.35692748914552,26.64716102429851],[86.35696388274803,26.647619408379423],[86.35685109851129,26.648131372919593],[86.35682378201307,26.648587194706646],[86.35705012131464,26.649102905853066],[86.3572372555439,26.649392801445337],[86.35731891333042,26.649621055015455],[86.35731760173675,26.649736213718818],[86.35699167789025,26.65030132045378],[86.35713479793468,26.650703812149565],[86.35728016668168,26.650934690890068],[86.35740290349977,26.65127835297676],[86.35757071657046,26.651432646689077],[86.35765493493412,26.651471407516414],[86.35778210650317,26.65147421935359],[86.3579505443988,26.65157199603329],[86.35805508369545,26.651687716657396],[86.35809622554501,26.651800687186572],[86.35809422668842,26.651933850878773],[86.35824053189825,26.652108338488944],[86.35857803207463,26.652245312516154],[86.3589169678835,26.6522896962574],[86.35917212305125,26.65225480861231],[86.3596794974148,26.652394719010577],[86.3597643405572,26.652377026091102],[86.35980823025032,26.652282434850505]]]}},{"type":"Feature","properties":{"province":"Madhesh Province","district":"Siraha","municipality":"Bariyarpatti Rural Municipality","ward":"5","wardNumber":5,"sourceMunicipality":"Bariyarpatti","sourceType":"Gaunpalika"},"geometry":{"type":"Polygon","coordinates":[[[86.38581964594435,26.65726355804052],[86.3859713863361,26.657074563258256],[86.386273055708,26.656809481918902],[86.38685220010059,26.656511763120687],[86.38710760524452,26.65649481796486],[86.38736388510863,26.656421419018386],[86.38793834424418,26.656408033707976],[86.38844965467716,26.6563560758932],[86.38921918142618,26.656097491454055],[86.38941262540037,26.655985456022062],[86.38977856766247,26.655682300735254],[86.3899720734662,26.655552197981702],[86.39016420505732,26.65549655456872],[86.39048226005225,26.65557695011692],[86.39092548639043,26.65579107060253],[86.39117833136558,26.655968182277245],[86.39134720589351,26.65604564062145],[86.39157879270503,26.656202371801793],[86.39187265332116,26.65645419304224],[86.39202108205,26.65647513421185],[86.39221333929575,26.65640148621014],[86.39247155507407,26.65621298992124],[86.39247436659585,26.656039189394658],[86.39237351256462,26.655693338946445],[86.39246241644236,26.655445389965532],[86.39256989302757,26.65537130427506],[86.39295371891598,26.655316596964173],[86.39342332528834,26.655169611671127],[86.39359688625476,26.654942292731864],[86.39375318688862,26.65448471938994],[86.39405966547983,26.653894605404773],[86.39442579546127,26.65361164303421],[86.39498093255912,26.65344477543212],[86.39534581226786,26.653220580822595],[86.3955416926861,26.652934745261625],[86.39576139192549,26.652477358227735],[86.39585085824251,26.652191085596236],[86.39598971047307,26.65144674085668],[86.39605629583231,26.651275439681392],[86.39604022282978,26.65093002633922],[86.39611267882908,26.65035691990035],[86.39608565498904,26.64932292841342],[86.39604763747168,26.649036094572047],[86.39598929880063,26.64865210735574],[86.39576389659314,26.648093571185115],[86.39566366700323,26.647691328952675],[86.39529483311014,26.646766498837614],[86.39517322056655,26.646364132194062],[86.39513607742745,26.646018593737303],[86.39499314550618,26.645613976458876],[86.3949355561438,26.645211858751857],[86.39476980507607,26.6449222133522],[86.39441510664355,26.64446020625949],[86.39429287051746,26.64411429383911],[86.39431918796048,26.64376906731052],[86.39455989464837,26.643311805443062],[86.39458396310484,26.64314037997491],[86.3945797723445,26.643004902522655],[86.39456951460285,26.642682057791173],[86.39413259655566,26.64204362518023],[86.39314953694543,26.64094237471858],[86.39277114533614,26.640649543181716],[86.39245783816956,26.640282501353433],[86.39195346140609,26.639874136874006],[86.39155306268738,26.639639822243602],[86.3909236385736,26.6390772888989],[86.39075688717905,26.63884640989311],[86.39050966504954,26.63832607224735],[86.39055542924922,26.63809831791615],[86.39068572408404,26.63792726585355],[86.39075224638432,26.637756027526915],[86.39092643061088,26.637470066595967],[86.3911870208117,26.63712802585774],[86.39142472912037,26.636883013860768],[86.39179048402514,26.63660011429961],[86.391942724208,26.63637054539797],[86.3920957757449,26.636104841421652],[86.39212196916156,26.635779870121215],[86.39204024802888,26.635549241386293],[86.39187393479205,26.635297981845167],[86.39158063641956,26.63500777474682],[86.39137199405363,26.6347382601718],[86.39128783797857,26.63467924324249],[86.39090900836004,26.634406667730236],[86.3905728207918,26.63415472223196],[86.389983850092,26.633725540261125],[86.3895845128324,26.633414578221664],[86.38936323906552,26.632982453835425],[86.38973512268002,26.632780952818596],[86.3902467421425,26.632516682062693],[86.39058711465776,26.632403020299265],[86.39118195565375,26.632310737224596],[86.39194679373207,26.632144742171388],[86.39237226016601,26.63201332467214],[86.39262710231003,26.631976060812967],[86.39322063018831,26.63196048703363],[86.39373043978428,26.63186776721348],[86.39415665487736,26.63165970137044],[86.3950918054738,26.63145600682773],[86.39549688682409,26.63120942959237],[86.39588245996846,26.630849882666855],[86.39637600718396,26.630258265987784],[86.39654862858524,26.629972304798017],[86.39646572110671,26.629800380930092],[86.39627970990658,26.629339059868496],[86.3959232615093,26.62893575723206],[86.39598772137525,26.628859297428424],[86.39617935328157,26.628783335565185],[86.39660481895608,26.628651917034954],[86.39753978137765,26.628430154368537],[86.39773147478888,26.628333873924475],[86.3978180045699,26.62818301589756],[86.39779949376592,26.627932380617626],[86.39765487375247,26.627550270064376],[86.39740502660463,26.627106766891494],[86.39719563465698,26.62685757164681],[86.39633387415324,26.626124802750912],[86.39553688540599,26.625297443454045],[86.39513742273623,26.624968539041877],[86.39473764904044,26.62469808896573],[86.39416800039186,26.624409010386696],[86.39366268644592,26.624079543496343],[86.39334631929506,26.623942757389365],[86.3921423754333,26.62349520063309],[86.39125498600771,26.623222818343905],[86.39081107274201,26.623103537775968],[86.39036659804097,26.623024894629836],[86.38966896583406,26.622848099820533],[86.38935016334703,26.622923500496423],[86.38892476035622,26.623034537608394],[86.38694698545723,26.62365361575827],[86.38592774187617,26.623800482502467],[86.38514095872006,26.624025119387056],[86.38431184688544,26.624249506813083],[86.38329091684314,26.6245859914318],[86.3826965140723,26.624660206465208],[86.38244029846885,26.624830634170216],[86.38229049571228,26.624963112868077],[86.38158449700322,26.625589928641922],[86.38100779204588,26.625986989518157],[86.38051511913685,26.626463446870886],[86.38017343491279,26.626710272737373],[86.37978698746976,26.62716684859807],[86.37927274535663,26.62767931747751],[86.37854317782353,26.62853626413306],[86.3782631442102,26.628936697302944],[86.37811059416774,26.629337941266307],[86.37782899865957,26.62991011224033],[86.37731394470178,26.6305173584329],[86.37684396510916,26.63085840144917],[86.37645870424974,26.631202131891776],[86.3754328410263,26.631978682649947],[86.37491916019935,26.632434697166953],[86.37481212204274,26.63254935718332],[86.37463943806881,26.632835255183867],[86.37436359013208,26.63298305135902],[86.37427218792281,26.633447688754885],[86.37417647453866,26.634135767380098],[86.37410689142578,26.634519193059894],[86.37410002014613,26.634977452360324],[86.37413997401865,26.6351311225219],[86.3742216322726,26.635361751819715],[86.37426096198904,26.63557412593508],[86.37444478557272,26.63607377116808],[86.37469325640059,26.636517335410616],[86.3752462886049,26.637901236278683],[86.37530906236643,26.637960252462964],[86.37537039966811,26.63811398495615],[86.37545099571,26.638421324371524],[86.37544724670832,26.63864932911405],[86.375335273739,26.6390326303559],[86.37516033862457,26.63933659558099],[86.37487861584798,26.63969651689284],[86.37470268194981,26.64005918826923],[86.37446528606878,26.64028613219556],[86.37435687337558,26.640418860111538],[86.37424727346323,26.64064636511806],[86.37415637030952,26.641027478484133],[86.37419426365717,26.641334630101387],[86.37427692107724,26.64148854979409],[86.37440246795062,26.64162452578874],[86.3744847506596,26.641798638242424],[86.37477842368803,26.642068589586295],[86.37503182976856,26.64218712136517],[86.37592284355289,26.642330966599484],[86.37636988152862,26.642299014982132],[86.37662472385689,26.642320456637318],[86.37675058472688,26.642456432319232],[86.3768508754786,26.6428406692199],[86.37686738631147,26.643147696596092],[86.37671314738573,26.643508304010687],[86.37630369034531,26.643849659174148],[86.37581107627425,26.644073166859453],[86.37564038979167,26.644108554372767],[86.37521229815326,26.644296302027794],[86.37478576917225,26.644366638926375],[86.37431578764762,26.644515813385244],[86.37418605375356,26.64464847822012],[86.37396716749645,26.645047034822795],[86.37381686367989,26.645141189884484],[86.37366268362753,26.64519920776242],[86.37353838843109,26.645246035501557],[86.37328798539203,26.64527204646827],[86.37288146548474,26.6455321265885],[86.37228362653508,26.645809464914823],[86.37159975789199,26.64619914871974],[86.37134385376936,26.646310934415958],[86.37093702127278,26.646571014555388],[86.37042477528527,26.646812591329276],[86.36976141392219,26.647240786936024],[86.36933451209252,26.647444350752483],[86.36907973178089,26.647459045034793],[86.36857242029862,26.64731907186837],[86.36831813991714,26.647297631225364],[86.3682125382946,26.64725880837569],[86.36808649146197,26.647179223884407],[86.36762744128782,26.64658349108672],[86.36748038660893,26.64648577632887],[86.3672272925836,26.646369558109576],[86.36680088966146,26.646534673079596],[86.36645820501015,26.64677699823214],[86.36621962336369,26.6471551742016],[86.36596153281164,26.64743619720102],[86.36568224694676,26.647681021761347],[86.36529386229954,26.648189424853268],[86.36520383483526,26.648568287401982],[86.36519902510972,26.648929455777562],[86.36511205747907,26.649100632177475],[86.3648976689001,26.649248615650418],[86.36442925076351,26.649395538814705],[86.36423580704565,26.64956396479091],[86.36408450513346,26.64978903225827],[86.36395196229022,26.650188026353188],[86.36426739195491,26.65038132969108],[86.3645816359238,26.650691979892475],[86.364981721811,26.650923981137066],[86.36565847041898,26.65108727169823],[86.36599765634715,26.65109102001337],[86.36625112558308,26.651189232863956],[86.36671086205459,26.651710443846024],[86.36687942430028,26.65178796480064],[86.3669645182649,26.65178833915718],[86.36700753290789,26.651732071694436],[86.36705360926365,26.651465930564207],[86.36704140752803,26.65078191747257],[86.36698281853104,26.650400118998782],[86.36700595064534,26.650249011332406],[86.36704940289921,26.65017242624327],[86.36711323789451,26.650154670533375],[86.36726179248508,26.65015754424108],[86.36734638644612,26.650196304669713],[86.36818851170837,26.650665058425414],[86.36841966061108,26.650837668988295],[86.36850287974806,26.650953139689715],[86.36851626792154,26.651544688143215],[86.36859886234865,26.65171655052448],[86.36870346473465,26.651832146178403],[86.36882307770037,26.652403812703174],[86.36921192148057,26.653493566084688],[86.36931489925112,26.653724257754302],[86.36950222186609,26.653993709722794],[86.36962808159136,26.65410942977739],[86.36983953405318,26.65415100189599],[86.37033183372068,26.65383259072738],[86.3707560509201,26.653839025388724],[86.37109336382233,26.654014261100063],[86.37160080030309,26.65413616652659],[86.37202283092309,26.65431408897808],[86.37256634946444,26.65491019559287],[86.37279387556691,26.655351385941696],[86.37347976517404,26.656444698916065],[86.3733909242165,26.65672872057788],[86.37319623207293,26.657012306483853],[86.37302198521398,26.657352470317402],[86.37314734601166,26.65750645201978],[86.37337868198581,26.657661057575325],[86.37346071452195,26.657871243113906],[86.37350141832468,26.658006969830826],[86.37362114936333,26.657937448216273],[86.37366278916771,26.657908314352184],[86.37405111407267,26.657645858661404],[86.37417953577425,26.65759002772848],[86.37449871347037,26.657573332439856],[86.37494369049492,26.6576949260346],[86.37519672134363,26.657849530949314],[86.37545019053192,26.657947681914386],[86.37579056466292,26.65795374235029],[86.37585477520797,26.657933673061464],[86.37596275049812,26.657821264699802],[86.37611549008773,26.657573627286503],[86.3762667311091,26.657423081409693],[86.37665155696534,26.657291538851105],[86.37690696265918,26.65727678155546],[86.3772255161316,26.65731891576214],[86.37728878951408,26.65735755128913],[86.37824307719461,26.657540032783007],[86.37849704575953,26.657620115910635],[86.37887987283823,26.6576240504617],[86.37938912257147,26.65770756922424],[86.37981290262876,26.65780871950031],[86.38027838678187,26.657966511222877],[86.38078769875304,26.658049967830358],[86.38123230040114,26.658187315382627],[86.38167833754372,26.658232135968316],[86.38263125179189,26.658511708124898],[86.3831385635107,26.658726078546085],[86.38332932181352,26.65876752609552],[86.38415137703444,26.65925641020787],[86.38465869029895,26.659473031119283],[86.38516512860858,26.65974610617972],[86.38554658096955,26.659826750934226],[86.38605770454396,26.65979511062583],[86.3863355542553,26.659701455510497],[86.38644346701537,26.659607176659808],[86.38651155107412,26.659320716835087],[86.386514986598,26.659090523771926],[86.38647509402003,26.658918786729632],[86.38633060062979,26.65862920306561],[86.38618791826168,26.6582267737563],[86.38591656498217,26.65787798679623],[86.38581383633564,26.65764729503881],[86.38581964594435,26.65726355804052]]]}},{"type":"Feature","properties":{"province":"Madhesh Province","district":"Siraha","municipality":"Bariyarpatti Rural Municipality","ward":"1","wardNumber":1,"sourceMunicipality":"Bariyarpatti","sourceType":"Gaunpalika"},"geometry":{"type":"Polygon","coordinates":[[[86.41584517834242,26.631761309337755],[86.41574326108625,26.631356817030596],[86.41574538422694,26.631128812055312],[86.41578958534676,26.63095744905275],[86.41562102253896,26.63083935365534],[86.41534441883152,26.630628294705925],[86.4152418181019,26.630551085834306],[86.41454662141679,26.63012609379196],[86.41422931763432,26.63004582314474],[86.41378334312085,26.630120662690675],[86.41327172304219,26.63040306344284],[86.41301669398003,26.630478775871325],[86.41257103218551,26.630495035632524],[86.41212686950645,26.630416454934164],[86.41193704831691,26.630318616219544],[86.41174797732147,26.630146254538182],[86.411434295545,26.629722821270654],[86.41116112988935,26.62947337573652],[86.41092954367987,26.629318958014572],[86.41042304323477,26.629084332424444],[86.409979130119,26.62894929765079],[86.40966163906731,26.62890735088075],[86.40838973793086,26.62889986293498],[86.40826275357556,26.628860977384985],[86.40811569921165,26.628745195449845],[86.40799015059446,26.62857314562976],[86.40786685043845,26.62818884740668],[86.40791966926342,26.627193554018753],[86.40790034681353,26.626983554951504],[86.40790446856751,26.62659981743201],[86.40780011572103,26.626445898511545],[86.40767381775458,26.626330241468285],[86.40748399828627,26.62625265748012],[86.40725316046952,26.626021467561554],[86.40708684593172,26.625695748935367],[86.40704589176629,26.62554207891835],[86.4070686476657,26.6253886586319],[86.40724301701249,26.624931085104492],[86.40756544220116,26.62451258325348],[86.40763015107592,26.624379668873356],[86.40769635911758,26.624149663442946],[86.40765590424463,26.62393953957812],[86.40759306805732,26.62388058515262],[86.40748715471521,26.623862143351715],[86.40712602403646,26.62393510604168],[86.40687249276682,26.62383926802284],[86.40672637467028,26.623626457709296],[86.40670923783912,26.623224589478326],[86.40660488567322,26.623070607999914],[86.4064575800185,26.622954888533126],[86.40635310257387,26.622821287598715],[86.4062283668343,26.622590471271163],[86.4059768341453,26.622302764865616],[86.40582946680139,26.622205049846016],[86.40540712235554,26.62202950277748],[86.40489781370673,26.622104155486173],[86.40470580725624,26.62219812258052],[86.40391384128111,26.62295785366639],[86.40329537122437,26.623318716342503],[86.40310261550871,26.62348945615979],[86.40290898626883,26.62377535451597],[86.40265214610999,26.62402255547026],[86.4019212677902,26.624992473047026],[86.40179297316377,26.625089002584996],[86.40160134146402,26.625162713480794],[86.40126221816,26.625181598292453],[86.40100918720171,26.62504506058682],[86.40042102856714,26.62452566444767],[86.39997661490605,26.624426765267543],[86.39965899909856,26.624405074991756],[86.3994055305301,26.6243069858877],[86.3992158348984,26.624191079381458],[86.39906915445144,26.624018842384096],[86.39892366050536,26.623749640112557],[86.39888445445435,26.623442425824926],[86.39892853053588,26.62329138083128],[86.39905763779772,26.623100072818726],[86.39914260562323,26.62306206079292],[86.39929103461728,26.62308300285838],[86.39962878518367,26.62321760110819],[86.39979822135876,26.623238605612915],[86.40005312667242,26.62318321140845],[86.4002455071392,26.623012471938257],[86.40041862765948,26.62268812544973],[86.40044281966333,26.62238122215184],[86.40042249937342,26.62230438731396],[86.40031752189401,26.62220917287581],[86.40021192069376,26.622170350554978],[86.39985147732366,26.622166540766084],[86.39972380592891,26.622224683990936],[86.39946890137529,26.622259759261183],[86.39936379910523,26.622182550380828],[86.39930246212697,26.621972364444257],[86.39932521841541,26.621819006212842],[86.39958449336493,26.621341488803914],[86.39960799943226,26.621113609248802],[86.39944305786341,26.620652413325043],[86.39932150680457,26.620116881753052],[86.39934357631611,26.62004023414674],[86.39940747397883,26.620002097798476],[86.39964037175608,26.620023413501148],[86.39972558947228,26.62000346890483],[86.39987489282893,26.619909252492043],[86.39987851415748,26.619563839024707],[86.39939614422043,26.61904494188026],[86.39910334530153,26.61865989435746],[86.39883405119731,26.61804702975795],[86.39866754934876,26.61775738385977],[86.39827008543627,26.617220793417516],[86.39791763490653,26.616472077094127],[86.39779308560132,26.61622094229427],[86.39733147444743,26.615758498676954],[86.39707813039867,26.61564221741774],[86.39650629709934,26.61560152374533],[86.39631603943498,26.615542009071536],[86.39621099989898,26.615464799929754],[86.39621299755363,26.615254925584154],[86.39634148033873,26.61512226059551],[86.39666146923561,26.61493170087902],[86.39681239572712,26.61470438219692],[86.39681514362448,26.6144176733071],[86.39667158497302,26.61395660210311],[86.39669359158121,26.613879829534444],[86.39675755177889,26.613841817070984],[86.3971609484782,26.613786984468433],[86.3973311968066,26.61371102289809],[86.39750250644747,26.613540220703168],[86.39754595914481,26.613445567472805],[86.39752582577604,26.61335066501218],[86.39742141058004,26.613196746083208],[86.39691634671442,26.61282889300681],[86.39640972149768,26.612634904629726],[86.39628323692806,26.612557632887743],[86.39596580843121,26.61251787467364],[86.39571234064778,26.612419786362857],[86.39563011936876,26.61217108878008],[86.39567419594158,26.612017793726533],[86.39588933227898,26.611711701442278],[86.395954479226,26.611560718868173],[86.39597867132352,26.611253815452933],[86.39589638883423,26.611023186434988],[86.39572969851916,26.610715472619596],[86.39575463997765,26.610331860017173],[86.39569236579666,26.610178065626908],[86.39558751386969,26.610062470425394],[86.39505757004059,26.610001583374633],[86.39493064779452,26.609962635639665],[86.39474113979044,26.609826409991097],[86.39440544940304,26.609420920078627],[86.39417573594208,26.609054252375678],[86.39399128483879,26.60836267624887],[86.39392901054154,26.608208944054713],[86.3938658610052,26.608149989734375],[86.39335961049433,26.60784090484207],[86.39297859585022,26.607760197138102],[86.39278846250137,26.60768261460255],[86.39253543149678,26.607507752682434],[86.39221831432313,26.607388972022413],[86.39190269604829,26.60711895788752],[86.39169336515532,26.606811120334726],[86.39163215280544,26.606578364589343],[86.39163496183805,26.606273650469937],[86.39174324816737,26.606043831737335],[86.39189255171783,26.605949677404176],[86.39235940890423,26.605933605147076],[86.39269853262957,26.605975676807066],[86.39295331212709,26.605938350343685],[86.39306053732376,26.60584400897352],[86.3929995741721,26.60555480006873],[86.39304414926309,26.605324794278985],[86.39325916175106,26.60502089039418],[86.39353732202565,26.604773752283464],[86.39388162809828,26.604258284572868],[86.39401117178285,26.60403084183897],[86.39433877804764,26.60303667069383],[86.39466282526296,26.60242405032291],[86.3947912455745,26.60229138462025],[86.39496180598435,26.60221761172053],[86.39523796886571,26.602162342077897],[86.39540721851343,26.602219544774727],[86.39557496957694,26.602432417527815],[86.39567901066864,26.602645041787248],[86.39571865407693,26.602931938214628],[86.39578049069664,26.603105988211922],[86.39582256986215,26.603162629166647],[86.39588571839681,26.60322158365738],[86.39620633175166,26.602956564685392],[86.39654695366617,26.6028247725835],[86.39703794115592,26.60252211580471],[86.39723032137947,26.60235137613186],[86.39738093597268,26.60212174501488],[86.39750929312387,26.602007147325438],[86.39785047790357,26.60183703108419],[86.39799984338055,26.601724808656353],[86.39810725516055,26.601589830413253],[86.39821560412021,26.601341944429308],[86.39821803887982,26.60111168918782],[86.39822610221177,26.60089500032166],[86.39810999460946,26.60070719680555],[86.39802727968785,26.600919009932408],[86.39804009831423,26.601040983226184],[86.39794512827055,26.60119634235224],[86.39703179618948,26.60116990638458],[86.39592839857258,26.60147900890671],[86.3954845504551,26.601596798470464],[86.39521532884638,26.60169270461255],[86.39465068807341,26.60179867907167],[86.39326487577145,26.602203688096743],[86.3928209024403,26.602274025542332],[86.39226901693237,26.602465838165674],[86.39159683683964,26.602607512106143],[86.39130054285626,26.602714547035294],[86.38945756600155,26.603200958746083],[86.38729140993165,26.60377196234221],[86.38610748387488,26.604094194664317],[86.3850581054662,26.60436734853764],[86.38419716946355,26.604591611129216],[86.38376639028432,26.604734282939674],[86.38317448849918,26.604878456036964],[86.3826487992764,26.605029693490327],[86.38239414489746,26.60510303072817],[86.37987836330308,26.605769378595163],[86.37812910758433,26.606256101850022],[86.37651490060546,26.60667124122371],[86.37638035244112,26.60669550012788],[86.3737080771904,26.607435558019667],[86.37366218574776,26.607448875054246],[86.37277392738771,26.60770458456073],[86.37229069143379,26.607844693444136],[86.37174630767136,26.607966484746502],[86.37145632827443,26.60806901793425],[86.37047259870167,26.60834010812002],[86.3697085737956,26.60855799301828],[86.36941878117605,26.608626641022514],[86.36846143599176,26.60888203865739],[86.36814507237453,26.608975444638627],[86.3675742409791,26.609124181868783],[86.36642376477816,26.6094576664074],[86.36608114096263,26.60953519301057],[86.36565948858211,26.609666486597735],[86.3653259931059,26.609737260192986],[86.3643422012229,26.610014977271288],[86.36384139548653,26.610148272174122],[86.36344631614719,26.61023230058925],[86.363050985605,26.61036371838159],[86.36247115183335,26.610528210897254],[86.3620058593034,26.610659316126988],[86.36168955828497,26.61073696798975],[86.36142621234393,26.610798925949286],[86.3603106230734,26.611116718716907],[86.35919503398398,26.611427759316637],[86.3580794445324,26.61174555228498],[86.35750011011187,26.611891976229295],[86.35688538763289,26.612008829572716],[86.35613936717522,26.61208448471074],[86.35571809006872,26.612130002321244],[86.35479675552311,26.612236480299586],[86.35468265206121,26.61226530274592],[86.35420966772193,26.612301568991903],[86.35410350456748,26.61231007253059],[86.353840408843,26.61231795197888],[86.35298022181671,26.612431432446296],[86.352453843731,26.61247645076831],[86.35183074269058,26.61256842213033],[86.35070758530503,26.61265814744893],[86.35012831278695,26.612734551428865],[86.34974235939944,26.612748559168416],[86.3495491650333,26.612779320885636],[86.34849615818443,26.61290092952493],[86.34760971211915,26.61299846797158],[86.34658315203055,26.613097632721946],[86.34620595203577,26.613134272615614],[86.34578448789202,26.613211299624414],[86.34555609235605,26.613248625459136],[86.34494199477419,26.613309086962445],[86.3440906236819,26.613409000508323],[86.34336223414151,26.613475652184814],[86.34277452111728,26.613536114218128],[86.34204588231435,26.613643403561685],[86.34192296285877,26.613674413654497],[86.34183280977678,26.61406903020672],[86.34181430362435,26.61412317142699],[86.34169013856368,26.614486029625844],[86.34099383055757,26.615081023607292],[86.34081714421471,26.615348854016393],[86.34056093071564,26.615686268455516],[86.34034016534855,26.61591327539228],[86.34022575043399,26.616000739333153],[86.3400321185789,26.61609464427282],[86.33997910076317,26.616202676402448],[86.34003974882113,26.616297891379585],[86.34027621130559,26.61639379163777],[86.34034436526112,26.616716885752396],[86.34032536136087,26.616969647786185],[86.34040301763054,26.617222784141823],[86.34057695921827,26.617429029636295],[86.34087413231438,26.61763358741665],[86.34124045861745,26.6180303242158],[86.34135312729077,26.618252013494484],[86.34146573380005,26.618489581969715],[86.34153463637149,26.618686263828828],[86.34152338832862,26.61911063857722],[86.34159173029713,26.619467617899822],[86.34172246649939,26.61960815811697],[86.34190659645704,26.619633850501213],[86.34218813486339,26.619486242224575],[86.34233818780605,26.619319816598036],[86.34285706011418,26.619062610607088],[86.3430937092896,26.619072735782655],[86.34321612976983,26.61912743815916],[86.34324101388233,26.61917045041719],[86.34330322538663,26.61927685646107],[86.34331129254372,26.619349127352002],[86.3432037583475,26.61975718562905],[86.3431048530387,26.620205943875384],[86.34309304324938,26.620734161441725],[86.34387796364868,26.62149625155111],[86.34406134485704,26.621661799016266],[86.34422640898596,26.621953819900998],[86.34432945150562,26.622324490071374],[86.34445968910296,26.622562184260367],[86.34468771648794,26.623034945297032],[86.34550908339982,26.62348119218897],[86.34567601996388,26.623545147193312],[86.34608717364479,26.623849544747774],[86.34628762548076,26.62410549251314],[86.34634671000542,26.62420283296816],[86.34832618050969,26.624164488970635],[86.34892321004233,26.62413109752588],[86.34935217825713,26.624051757491298],[86.35020592560157,26.623987916750764],[86.35173679498615,26.623990401051316],[86.35199426354762,26.623941884379708],[86.35241966787204,26.623939316457914],[86.35284788610193,26.623880295268428],[86.35345104117778,26.623711426621554],[86.3542225080058,26.623588507158527],[86.35482597481108,26.623419701678042],[86.35534503672075,26.623230139814787],[86.35663950240911,26.622840949429715],[86.35768368886833,26.622344480294647],[86.35962394498596,26.621328348845182],[86.36066981806114,26.62079580660307],[86.36084250583325,26.6207446651859],[86.36162678610779,26.620335036496954],[86.36241081561303,26.6199254079024],[86.36344837620388,26.619544034927706],[86.36384101638906,26.619329092726623],[86.36412480473277,26.61916779212448],[86.36423703116498,26.619039627772064],[86.36428998520981,26.618811873246802],[86.3643608216311,26.61866095363328],[86.3645136260123,26.618571362786657],[86.36481160923512,26.618563607779425],[86.36529046817405,26.618315216770707],[86.36558595105586,26.61836391503263],[86.36571131043195,26.61840736448447],[86.36585548935254,26.618509580601085],[86.36627239247429,26.618678438202203],[86.36647746944942,26.618837419825077],[86.36656750728844,26.619185458722303],[86.36662846724244,26.619246663248948],[86.36675482678143,26.619269793658788],[86.36697340479218,26.61914431752701],[86.36710051352478,26.619149442422827],[86.36734798021992,26.6193107993845],[86.36753629939086,26.619377067009342],[86.36779089265944,26.619387255234447],[86.3679162516361,26.619428453552377],[86.36840937348255,26.619791741864248],[86.36879845073034,26.619653572918462],[86.36892487156092,26.61967895392985],[86.36917408888935,26.61980192468061],[86.36930226026315,26.619788982079093],[86.3695194629815,26.619681572819253],[86.36963087748705,26.619571414341593],[86.37002501791868,26.619318085975742],[86.37073564866971,26.61911576937989],[86.37103256898948,26.619128394351662],[86.37113691995954,26.619169468383102],[86.37123877130067,26.619269183955453],[86.37122095758312,26.619652921681894],[86.37123590236894,26.619786210390682],[86.37127579262844,26.619845039747347],[86.37146129874242,26.619967761131004],[86.37152501019993,26.619970323896315],[86.37172114259533,26.619862727899847],[86.37182799343505,26.61984747202082],[86.37199424233918,26.619929494551307],[86.37213385853998,26.62012648806227],[86.37218156837083,26.62047208936137],[86.37234325404066,26.62065114016018],[86.37253157360081,26.620715157214182],[86.37286125341721,26.62047958440207],[86.37311828351368,26.62043331820994],[86.37326608777279,26.620456510437357],[86.37332798526273,26.620497396681603],[86.37356551445178,26.62087094124001],[86.37366242660956,26.621009044025506],[86.37384130480734,26.621077561769162],[86.37422213292392,26.621196592823644],[86.37460096236148,26.621505304808387],[86.3748126652843,26.62154687651606],[86.37487650038777,26.62152674537897],[86.37498491148956,26.621278984198266],[86.3751347766675,26.621146443341416],[86.37526219877405,26.62114700504487],[86.3754100036391,26.62122440036423],[86.37560157199513,26.62115075243396],[86.3759409454955,26.62115218674739],[86.37600415631908,26.621190822367268],[86.3761080727366,26.62142382714332],[86.37602041919006,26.621728167455416],[86.37601854651679,26.62190203056221],[86.376165289534,26.62211259072315],[86.37680164676625,26.622119898547226],[86.37705542775554,26.622215799338388],[86.37737192042161,26.622390972602513],[86.37775274806353,26.62251000369577],[86.37832464485234,26.62259152102525],[86.37902514970106,26.622578760216886],[86.37940753885078,26.622523989554463],[86.37985301350597,26.62252817399212],[86.38036007563714,26.622762987150068],[86.38061485573377,26.622745917099007],[86.38080642425496,26.622670017627144],[86.38099711889642,26.622691146982223],[86.38150361978177,26.622982289665313],[86.38182061266775,26.623119138577813],[86.38207458026588,26.62317890364379],[86.38215904962863,26.623237981994773],[86.38224239498795,26.623391839016367],[86.38236444581621,26.62392962052958],[86.38257134116427,26.62446777654725],[86.3826965140723,26.624660206465208],[86.38329091684314,26.6245859914318],[86.38431184688544,26.624249506813083],[86.38514095872006,26.624025119387056],[86.38592774187617,26.623800482502467],[86.38694698545723,26.62365361575827],[86.38892476035622,26.623034537608394],[86.38935016334703,26.622923500496423],[86.38966896583406,26.622848099820533],[86.39036659804097,26.623024894629836],[86.39081107274201,26.623103537775968],[86.39125498600771,26.623222818343905],[86.3921423754333,26.62349520063309],[86.39334631929506,26.623942757389365],[86.39366268644592,26.624079543496343],[86.39416800039186,26.624409010386696],[86.39473764904044,26.62469808896573],[86.39513742273623,26.624968539041877],[86.39553688540599,26.625297443454045],[86.39633387415324,26.626124802750912],[86.39719563465698,26.62685757164681],[86.39740502660463,26.627106766891494],[86.39765487375247,26.627550270064376],[86.39779949376592,26.627932380617626],[86.3978180045699,26.62818301589756],[86.39773147478888,26.628333873924475],[86.39753978137765,26.628430154368537],[86.39660481895608,26.628651917034954],[86.39617935328157,26.628783335565185],[86.39598772137525,26.628859297428424],[86.3959232615093,26.62893575723206],[86.39627970990658,26.629339059868496],[86.39646572110671,26.629800380930092],[86.39654862858524,26.629972304798017],[86.3967150059101,26.630280018923987],[86.39686156169888,26.630472511564385],[86.39717767965163,26.63066568984375],[86.39736768630277,26.630725205304024],[86.39800073375315,26.63101453317026],[86.3995184853009,26.631867454552502],[86.39989912491156,26.631966104677],[86.40022424518766,26.632069068387118],[86.40076556902457,26.63223836258059],[86.40116659272948,26.632413972651378],[86.40173661489266,26.632628466374953],[86.4021809657883,26.632725114785256],[86.40243524598706,26.632746493341806],[86.40281726045583,26.632711979402014],[86.40326248455102,26.6327138506885],[86.40383431843611,26.63277492463482],[86.40440665173328,26.63277960719847],[86.40459722183056,26.63279842340104],[86.40482593003742,26.632819677392558],[86.40504188405309,26.632840930407315],[86.40561477979963,26.632804914405295],[86.40612565090858,26.632617416012522],[86.40644389099018,26.632580401671287],[86.40701940885857,26.63227799404057],[86.40733939826542,26.632089748378448],[86.40746781812504,26.631975150646536],[86.40778724528636,26.63182291458156],[86.4080425869717,26.631749515455446],[86.40842472550628,26.631694744941917],[86.40919043852837,26.631469795585854],[86.40950799281933,26.631509492026037],[86.41039800422402,26.631533489207577],[86.41090575375168,26.631652955901725],[86.41107456577215,26.631730414822652],[86.41128476929312,26.631884769985746],[86.4114737788235,26.632077449484285],[86.4115358036025,26.632231181361938],[86.41163815760709,26.632595099627462],[86.41191200948259,26.632767772195336],[86.41222837738542,26.63292256449048],[86.41243088953459,26.632982079596157],[86.41274475841942,26.633315236345467],[86.4131664153418,26.633569807186326],[86.41348115872172,26.63386001419239],[86.4141763548756,26.6342895075132],[86.4144291361004,26.634407914354995],[86.41480615287007,26.63473681911208],[86.41534447831548,26.63508666625028],[86.4154997240517,26.635186568947173],[86.41587755291152,26.635479338542414],[86.41669498531336,26.63620054143127],[86.41690525179185,26.636354896239677],[86.41713552581986,26.63657020721647],[86.41716196789343,26.636245361524953],[86.41718572540084,26.63609194138321],[86.41714964425896,26.63570801627148],[86.41678424683754,26.63462976629968],[86.41676554986658,26.63447615898862],[86.4166399401282,26.634360564211935],[86.41644912064189,26.634337183954592],[86.41625973719222,26.63422127692402],[86.41619658845809,26.6341623231833],[86.41603177472604,26.633852421614513],[86.4159993797382,26.633240492364383],[86.41593922962815,26.63302355384067],[86.41593979142641,26.63298066633801],[86.41594615940599,26.63227864754792],[86.41590464324193,26.6321633640417],[86.41575796284344,26.6319889396253],[86.41584517834242,26.631761309337755]]]}},{"type":"Feature","properties":{"province":"Madhesh Province","district":"Siraha","municipality":"Bariyarpatti Rural Municipality","ward":"3","wardNumber":3,"sourceMunicipality":"Bariyarpatti","sourceType":"Gaunpalika"},"geometry":{"type":"Polygon","coordinates":[[[86.34769739646585,26.658241250065075],[86.34743622516001,26.657167812771572],[86.34720994808826,26.65663178290667],[86.34710597054035,26.656477801009192],[86.3469826719599,26.65617014913465],[86.34677571617621,26.655787789124304],[86.34646197245813,26.655459008408958],[86.34631710400048,26.65518974403827],[86.34648816494835,26.655095714634957],[86.34657394538004,26.655039697066286],[86.34682934980476,26.654966360368533],[86.34708363090111,26.654987864149806],[86.34750872237244,26.654953661480953],[86.34776400191586,26.65489839291508],[86.34793350214544,26.65491945999859],[86.34827412432556,26.654828491670393],[86.34912362137052,26.65477815617428],[86.34980467974263,26.654632292946168],[86.35108482664886,26.65411212686564],[86.35132078541739,26.65392363151553],[86.35140769028449,26.653770586248513],[86.35147671003605,26.65338928584235],[86.35173742367436,26.652934524247115],[86.35182645247804,26.652630183690167],[86.35189622168544,26.652174487157204],[86.35206853205518,26.6519676121729],[86.35232437340896,26.651876207383566],[86.3526633109217,26.651918404058645],[86.35308752800482,26.651922525572058],[86.35353375232657,26.651872631146134],[86.35369624859554,26.651848559495473],[86.3540014214085,26.651802543073295],[86.35504991928732,26.651150402676773],[86.3554748858673,26.65108006533998],[86.35632388240964,26.651054549350487],[86.3564739983123,26.650942326506623],[86.35688276611943,26.650510758352393],[86.35699167789025,26.65030132045378],[86.35731760173675,26.649736213718818],[86.35731891333042,26.649621055015455],[86.3572372555439,26.649392801445337],[86.35705012131464,26.649102905853066],[86.35682378201307,26.648587194706646],[86.35685109851129,26.648131372919593],[86.35696388274803,26.647619408379423],[86.35692748914552,26.64716102429851],[86.35697681255847,26.646648811003917],[86.35712911489699,26.64638316903348],[86.35764404598501,26.645933969354925],[86.35876069008819,26.644920909455823],[86.35880782717653,26.644580247115474],[86.3588293976522,26.64454198538263],[86.35888090732324,26.643858221375485],[86.35887064282288,26.643056798939188],[86.35883000057355,26.642905379751483],[86.35868413244874,26.642712887509077],[86.35845292132261,26.642558344302934],[86.35773321984486,26.642433190604482],[86.35760711105978,26.642355856178398],[86.35738202017129,26.64172504860161],[86.35715349578186,26.641378636502214],[86.35684043848146,26.640975397095346],[86.35667356248128,26.64078277914853],[86.3565680238905,26.640723638313812],[86.35623177250838,26.640489572787907],[86.35614742913322,26.640471131294493],[86.35564180432766,26.64019799395761],[86.3552193363123,26.640058331811154],[86.35488202419616,26.639901101721684],[86.35467219572256,26.639746621318135],[86.35456765608966,26.63963102639804],[86.35452651469092,26.639515742917652],[86.35457365147877,26.639172829457774],[86.3546396107241,26.639003841238107],[86.35479035123072,26.63883522768715],[86.35504625551125,26.638723504283682],[86.35530147298375,26.638670486772643],[86.35549241759145,26.638673609944117],[86.3561317099945,26.6384529763429],[86.3562817008174,26.638358822298283],[86.35656111117923,26.638077923823197],[86.35660575030178,26.6379065603366],[86.3566111216204,26.637507067994928],[86.35655209597391,26.637163656071912],[86.35636658557343,26.636763289849032],[86.35626204627826,26.636647695179725],[86.35607441221883,26.63639624814582],[86.35548706711218,26.635912737647125],[86.35515243985728,26.635547821247485],[86.35471396166619,26.635026672873817],[86.3544013422238,26.63460311417185],[86.35415137125021,26.63427689615106],[86.35337501824176,26.63363909181344],[86.35320601826008,26.63357970093737],[86.35286714433005,26.6335555107952],[86.35227430172104,26.633451236053954],[86.35193474137711,26.63346549372731],[86.35161725031682,26.633423422027146],[86.3514692584423,26.633384412228164],[86.35134327370392,26.633286759783108],[86.35123867139886,26.633171164707687],[86.35119796771095,26.633055818496253],[86.35113069222196,26.63301036902704],[86.35114088351426,26.632983360889217],[86.35131131480708,26.63254391721863],[86.3513274411974,26.63219862865763],[86.35118038070792,26.63171486279686],[86.35089839872369,26.63137951737404],[86.35028141812195,26.630934330756336],[86.34995810823504,26.630578417062697],[86.34987589090565,26.630517024541117],[86.34973915006664,26.630263576759937],[86.34954307431848,26.629910537877496],[86.34941345923174,26.629505920744595],[86.34916179744938,26.62897876846126],[86.34898166682684,26.628743200821628],[86.34875526926027,26.62857965553605],[86.34861315316006,26.62844130384371],[86.348511365375,26.62834146310862],[86.34785167567115,26.62745583519646],[86.34765841279341,26.62704640426008],[86.34747046237611,26.626521814240018],[86.34703329434284,26.625874191680545],[86.34678807150198,26.625213937786935],[86.34671116701924,26.625039762522107],[86.34646519353593,26.624399764920962],[86.34634671000542,26.62420283296816],[86.34628762548076,26.62410549251314],[86.34608717364479,26.623849544747774],[86.34567601996388,26.623545147193312],[86.34550908339982,26.62348119218897],[86.34468771648794,26.623034945297032],[86.34474580115095,26.62315485461343],[86.34476243581385,26.623425809149307],[86.34460613164983,26.623637310127773],[86.34449421915295,26.62383543198605],[86.34470717353855,26.624034988635955],[86.34501741204474,26.62408387482803],[86.3453647263297,26.624071930300172],[86.34576349576604,26.624060235383737],[86.34586684746037,26.62411487456616],[86.34588791914533,26.624272983233073],[86.34583565233514,26.624412712719167],[86.34562770385844,26.624590079193155],[86.34534647727581,26.624690361567996],[86.34491819554395,26.624641039552788],[86.34354363403858,26.6246933820148],[86.34302582208676,26.624824238347482],[86.34240472223726,26.624947780786265],[86.34040768836901,26.625362923722633],[86.33988243579732,26.625466647595633],[86.33949804665136,26.625546112520414],[86.3384549819079,26.62576024885039],[86.3379593027078,26.625870848993284],[86.33744918071473,26.625961005337725],[86.33659856118786,26.626142192945036],[86.33559988742287,26.626345200276635],[86.33508151331654,26.626453424604538],[86.33429816735784,26.626616856323523],[86.3335292016537,26.62673965002802],[86.33315218941715,26.626778540620645],[86.33273078652398,26.626842000699696],[86.33231682371823,26.626873952552554],[86.33198051482529,26.626926533765374],[86.33157736836326,26.626990119439387],[86.33108944224068,26.627046578179755],[86.33038724950073,26.627122232532095],[86.33010658545018,26.62712092283064],[86.33008614012574,26.627123111149356],[86.3292936651746,26.627178073059255],[86.32904982587155,26.627156631846013],[86.32849531186048,26.627214904695215],[86.32800632137989,26.627241980129035],[86.32797806134188,26.627244043522715],[86.32794917570968,26.627243981757665],[86.32805997289948,26.62772987328649],[86.32823185298463,26.628139241649503],[86.328351398386,26.6283136036871],[86.32849939659788,26.62877930153795],[86.32859968972443,26.629357720424967],[86.32867365724167,26.62958828761465],[86.32891212369805,26.629941575898258],[86.32935879295786,26.63039964349032],[86.32942638420216,26.63076568728437],[86.32946264961517,26.630899038994247],[86.32999478644011,26.631339474711645],[86.3302378780904,26.631597923419424],[86.33035636097074,26.631792604285398],[86.3307806470514,26.63226867765101],[86.33093764512904,26.632542505575312],[86.33114003670296,26.63293399378452],[86.3311699226313,26.632981569614056],[86.33129909741926,26.633183065052954],[86.331716193476,26.63370421389802],[86.33198060689061,26.634014676894054],[86.33211290728117,26.63416878388286],[86.332489236306,26.634572397969247],[86.33278078606592,26.634977826924846],[86.33290639536825,26.635093547097018],[86.33315611585304,26.635440083202834],[86.33346973455053,26.635786931611403],[86.33411466929067,26.636708695540186],[86.33430111658684,26.63705492087475],[86.33461304828897,26.637516865458988],[86.33465381485007,26.637632211568643],[86.3350913567287,26.63820987671425],[86.33529999776125,26.638459197604284],[86.3355524676536,26.63861611594999],[86.3357208418708,26.638711704570447],[86.33589021725922,26.638753090140202],[86.33673802606094,26.638799907115274],[86.33707802501269,26.638765393289294],[86.33724677456516,26.638842915043398],[86.33735093987816,26.638976577771906],[86.33764024021318,26.639553556897095],[86.33780436703134,26.63995617352514],[86.33792928955528,26.640130535772997],[86.33813449648231,26.64064837339767],[86.33876073397856,26.641398586215004],[86.33888678117371,26.64149617660295],[86.33907666354267,26.641555754695116],[86.33931106081911,26.641480104545717],[86.33946261340486,26.641273105252033],[86.33965424442391,26.641217523975023],[86.33973890096034,26.641236028884233],[86.34005370650378,26.64146996865215],[86.34034631691726,26.641816692950307],[86.34044879572751,26.642065451920587],[86.34044654682177,26.642237002634612],[86.34062724770888,26.642985032581343],[86.34073586772276,26.644360310862794],[86.3408566671506,26.644819131199377],[86.34101411162462,26.645738586876853],[86.34089614261556,26.64659583984062],[86.34088046385013,26.647742551877],[86.34089916096927,26.647934482793556],[86.34089478886922,26.648259515897035],[86.34089097875716,26.6485461631787],[86.34098689839286,26.64929156787844],[86.34100184687594,26.649749890334967],[86.34117773783758,26.650841020719074],[86.3412328913016,26.651471080482928],[86.34121240316713,26.652960830160723],[86.34124873482503,26.65341921478258],[86.3412158167208,26.655825484212876],[86.34121381762066,26.65595864858124],[86.34136180939034,26.655999970975078],[86.34184655161154,26.65625272800463],[86.34209845883454,26.656466037693537],[86.34232804584701,26.6567358020878],[86.34274845272871,26.65702669526693],[86.34287393741198,26.65716042118366],[86.34318936767822,26.657356037414612],[86.34361239817703,26.657473067213665],[86.34386667860457,26.657494571110707],[86.34437723870178,26.65740435193861],[86.34480145580046,26.65740859834047],[86.34497083089182,26.65744998409219],[86.345159651526,26.657604340063642],[86.34520035487346,26.657737691202094],[86.34519554519586,26.658083105306172],[86.34508338564954,26.658538552536708],[86.3450087437596,26.65934185156267],[86.34504957324093,26.65945488468878],[86.34525865176468,26.65968607538644],[86.34540402050462,26.65991701632395],[86.34531667827005,26.660088255216802],[86.34492779392549,26.66060109674673],[86.34468746232818,26.66111462557922],[86.34465908423303,26.6616292145265],[86.34478088402517,26.662031580897942],[86.34477638624051,26.66237468196779],[86.34473143432054,26.662546045050306],[86.344492665246,26.6629467281746],[86.34442664377447,26.66311802863857],[86.34436005954707,26.66334572114463],[86.34433330513731,26.66374740211074],[86.3444738638892,26.664321381324005],[86.34456915972008,26.665123241187224],[86.3447327253916,26.665584437078856],[86.34485764747453,26.66575661121125],[86.34508242515656,26.666389669706255],[86.34537516091034,26.666718326110654],[86.3462709406388,26.66793017210791],[86.34654285592275,26.668220317082486],[86.34664783374609,26.66831559351353],[86.34698520819644,26.668472949083302],[86.3470689902081,26.66855003336799],[86.34740680201722,26.668687007892622],[86.34816727056031,26.668943324590945],[86.34918639155433,26.66891411751875],[86.34961185716145,26.668823524499263],[86.3497827940092,26.66874981372734],[86.35001831501805,26.66859739145551],[86.35010478193325,26.668464601131188],[86.34989670206988,26.668156638202714],[86.34968699870193,26.667984089727618],[86.3494572864831,26.66771444994651],[86.34939669873188,26.667483946194757],[86.34953842410137,26.6664168187698],[86.3493973029947,26.665878912240622],[86.3493388391806,26.665497175641903],[86.34943211550244,26.664885869898452],[86.34973840539874,26.664203229167438],[86.34961716852536,26.663762538434128],[86.34914160745055,26.662839334815864],[86.34864878747786,26.661613605185533],[86.34852655067505,26.661229305958503],[86.34819767057041,26.660462521577177],[86.348158152721,26.66023207969935],[86.34807543379829,26.660078222676635],[86.34789379558552,26.659388897164323],[86.34777580578412,26.65869988384829],[86.3477145316959,26.658546151886657],[86.34769739646585,26.658241250065075]]]}},{"type":"Feature","properties":{"province":"Madhesh Province","district":"Siraha","municipality":"Bariyarpatti Rural Municipality","ward":"4","wardNumber":4,"sourceMunicipality":"Bariyarpatti","sourceType":"Gaunpalika"},"geometry":{"type":"Polygon","coordinates":[[[86.37824840750093,26.67757653996222],[86.37869669353745,26.677447559319656],[86.37882424046082,26.677448120718214],[86.37929303465214,26.677359839732084],[86.37978852179116,26.676924082191455],[86.38094755928704,26.67617066034454],[86.3812898071499,26.676023113532608],[86.38118789175972,26.675751785297184],[86.38119039051013,26.67558023430323],[86.38114987365721,26.675464889149254],[86.38098337260047,26.675231697474555],[86.38094391827157,26.675039703823156],[86.38103051150077,26.674945237413336],[86.38115849482583,26.67490741286459],[86.38130711150313,26.67491034950512],[86.38137169680262,26.674872212656513],[86.38148117121992,26.674660524366054],[86.38149241621673,26.673972071971143],[86.38134948437298,26.67362603452175],[86.38127026389778,26.673280308298505],[86.38129914296064,26.67281998585544],[86.38128838062107,26.672187863018806],[86.38131444958124,26.671901278190912],[86.3813819707973,26.67167133513106],[86.38138571866887,26.6714433307521],[86.38122221685992,26.671056593668755],[86.38095130108998,26.670746193090025],[86.38069939494038,26.670571269644554],[86.38038284071911,26.67043441992274],[86.38025398167582,26.670508380460408],[86.38020746859259,26.670756516398214],[86.38005735226284,26.670850670666013],[86.37992949311885,26.670868177259823],[86.37984521201388,26.670829416549264],[86.37976186808197,26.670732014559228],[86.37968083577958,26.670501385222956],[86.37968458361675,26.670271129821323],[86.3796245588127,26.670040625486394],[86.37965250124971,26.669638881870256],[86.37957140611634,26.6694083148175],[86.37959428812093,26.669311348478992],[86.37980936422545,26.669142984382066],[86.3799163402422,26.669105097538555],[86.38002400331847,26.669010755860153],[86.3800685806562,26.668895784082004],[86.38005000909732,26.668724171195375],[86.37976352041734,26.668029908147126],[86.37974563588978,26.667801841305952],[86.37968573593713,26.667551018277283],[86.37979371054763,26.667438609575466],[86.38000622618212,26.667459863210247],[86.38011232785193,26.667480618284394],[86.38022117766094,26.667309567276178],[86.38037604141067,26.66690838470925],[86.3803595312748,26.666601295133418],[86.38031813965456,26.66652439766644],[86.38012981874023,26.666331780683137],[86.37939191904827,26.665881531275048],[86.37907711291193,26.66561151856067],[86.37897594697155,26.66526579254703],[86.37898269333851,26.664825538248824],[86.3788786538129,26.664669368561903],[86.37853902870839,26.664627234978074],[86.37836871747503,26.66464455434055],[86.37788035141057,26.66458147837478],[86.37777524959954,26.6645042695192],[86.3777846187664,26.66387220907717],[86.3773607572947,26.662394092302193],[86.37725671758024,26.66224011066686],[86.37708703062042,26.662198725449542],[86.3767455322191,26.662271687535437],[86.37614612915196,26.66253320817615],[86.37563244485413,26.662736398560035],[86.3752905718013,26.66282974235903],[86.37469273059662,26.66297610415178],[86.37384473233706,26.662794059241133],[86.37369361286858,26.662633200881732],[86.37366278864891,26.662594627566268],[86.37350710423861,26.6624020731162],[86.37344489229285,26.66228666455657],[86.37338699083223,26.661848412041188],[86.37332958801599,26.661371897010163],[86.37324630651746,26.661256426431006],[86.3730989386407,26.66116096322809],[86.37280320462655,26.66108063039488],[86.37257318018413,26.660810990875053],[86.37249058561478,26.66063681575478],[86.37251477829616,26.660408936159357],[86.37284070190192,26.65984376608798],[86.37306021237785,26.659275847801673],[86.373130793955,26.65876150852599],[86.3732422661196,26.658364640365278],[86.37328571900991,26.658288117558726],[86.37350141832468,26.658006969830826],[86.37346071452195,26.657871243113906],[86.37337868198581,26.657661057575325],[86.37314734601166,26.65750645201978],[86.37302198521398,26.657352470317402],[86.37319623207293,26.657012306483853],[86.3733909242165,26.65672872057788],[86.37347976517404,26.656444698916065],[86.37279387556691,26.655351385941696],[86.37256634946444,26.65491019559287],[86.37202283092309,26.65431408897808],[86.37160080030309,26.65413616652659],[86.37109336382233,26.654014261100063],[86.3707560509201,26.653839025388724],[86.37033183372068,26.65383259072738],[86.36983953405318,26.65415100189599],[86.36962808159136,26.65410942977739],[86.36950222186609,26.653993709722794],[86.36931489925112,26.653724257754302],[86.36921192148057,26.653493566084688],[86.36882307770037,26.652403812703174],[86.36870346473465,26.651832146178403],[86.36859886234865,26.65171655052448],[86.36851626792154,26.651544688143215],[86.36850287974806,26.650953139689715],[86.36841966061108,26.650837668988295],[86.36818851170837,26.650665058425414],[86.36734638644612,26.650196304669713],[86.36726179248508,26.65015754424108],[86.36711323789451,26.650154670533375],[86.36704940289921,26.65017242624327],[86.36700595064534,26.650249011332406],[86.36698281853104,26.650400118998782],[86.36704140752803,26.65078191747257],[86.36705360926365,26.651465930564207],[86.36700753290789,26.651732071694436],[86.3669645182649,26.65178833915718],[86.36687942430028,26.65178796480064],[86.36671086205459,26.651710443846024],[86.36625112558308,26.651189232863956],[86.36599765634715,26.65109102001337],[86.36565847041898,26.65108727169823],[86.364981721811,26.650923981137066],[86.3645816359238,26.650691979892475],[86.36426739195491,26.65038132969108],[86.36395196229022,26.650188026353188],[86.36354544288876,26.650448044468522],[86.36303325900597,26.650669239535485],[86.36271245665823,26.650855172655717],[86.36254214512712,26.65089281048621],[86.36220402074406,26.65081010244478],[86.36199163172837,26.650827171888107],[86.36184164024915,26.650921263832956],[86.36162637815056,26.651164150334868],[86.36081077769765,26.651876117315595],[86.36068423063132,26.651819039928206],[86.36057944166465,26.651721512286155],[86.36037186102364,26.65137522554568],[86.36018335243602,26.65118248355927],[86.3600144149014,26.65112303003733],[86.35984416658754,26.651178735776412],[86.3597793938948,26.651252945923947],[86.35941670136233,26.651420623438753],[86.35928753141158,26.65155097580236],[86.35926546152922,26.651627623963105],[86.35926402472842,26.65172240113735],[86.35930572782873,26.651781293517363],[86.359599650785,26.652012858217567],[86.35980823025032,26.652282434850505],[86.3597643405572,26.652377026091102],[86.3596794974148,26.652394719010577],[86.35917212305125,26.65225480861231],[86.3589169678835,26.6522896962574],[86.35857803207463,26.652245312516154],[86.35824053189825,26.652108338488944],[86.35809422668842,26.651933850878773],[86.35809622554501,26.651800687186572],[86.35805508369545,26.651687716657396],[86.3579505443988,26.65157199603329],[86.35778210650317,26.65147421935359],[86.35765493493412,26.651471407516414],[86.35757071657046,26.651432646689077],[86.35740290349977,26.65127835297676],[86.35728016668168,26.650934690890068],[86.35713479793468,26.650703812149565],[86.35699167789025,26.65030132045378],[86.35688276611943,26.650510758352393],[86.3564739983123,26.650942326506623],[86.35632388240964,26.651054549350487],[86.3554748858673,26.65108006533998],[86.35504991928732,26.651150402676773],[86.3540014214085,26.651802543073295],[86.35369624859554,26.651848559495473],[86.35353375232657,26.651872631146134],[86.35308752800482,26.651922525572058],[86.3526633109217,26.651918404058645],[86.35232437340896,26.651876207383566],[86.35206853205518,26.6519676121729],[86.35189622168544,26.652174487157204],[86.35182645247804,26.652630183690167],[86.35173742367436,26.652934524247115],[86.35147671003605,26.65338928584235],[86.35140769028449,26.653770586248513],[86.35132078541739,26.65392363151553],[86.35108482664886,26.65411212686564],[86.34980467974263,26.654632292946168],[86.34912362137052,26.65477815617428],[86.34827412432556,26.654828491670393],[86.34793350214544,26.65491945999859],[86.34776400191586,26.65489839291508],[86.34750872237244,26.654953661480953],[86.34708363090111,26.654987864149806],[86.34682934980476,26.654966360368533],[86.34657394538004,26.655039697066286],[86.34648816494835,26.655095714634957],[86.34631710400048,26.65518974403827],[86.34646197245813,26.655459008408958],[86.34677571617621,26.655787789124304],[86.3469826719599,26.65617014913465],[86.34710597054035,26.656477801009192],[86.34720994808826,26.65663178290667],[86.34743622516001,26.657167812771572],[86.34769739646585,26.658241250065075],[86.3477145316959,26.658546151886657],[86.34777580578412,26.65869988384829],[86.34789379558552,26.659388897164323],[86.34807543379829,26.660078222676635],[86.348158152721,26.66023207969935],[86.34819767057041,26.660462521577177],[86.34852655067505,26.661229305958503],[86.34864878747786,26.661613605185533],[86.34914160745055,26.662839334815864],[86.34961716852536,26.663762538434128],[86.34973840539874,26.664203229167438],[86.34943211550244,26.664885869898452],[86.3493388391806,26.665497175641903],[86.3493973029947,26.665878912240622],[86.34953842410137,26.6664168187698],[86.34939669873188,26.667483946194757],[86.3494572864831,26.66771444994651],[86.34968699870193,26.667984089727618],[86.34989670206988,26.668156638202714],[86.35010478193325,26.668464601131188],[86.35001831501805,26.66859739145551],[86.3497827940092,26.66874981372734],[86.34961185716145,26.668823524499263],[86.34918639155433,26.66891411751875],[86.34816727056031,26.668943324590945],[86.34740680201722,26.668687007892622],[86.3470689902081,26.66855003336799],[86.34698520819644,26.668472949083302],[86.34664783374609,26.66831559351353],[86.34654285592275,26.668220317082486],[86.3462709406388,26.66793017210791],[86.34537516091034,26.666718326110654],[86.34508242515656,26.666389669706255],[86.3451605856846,26.66688668975995],[86.34526100186396,26.66728893201239],[86.34533816236659,26.667862662481653],[86.34548128222514,26.668265154334406],[86.34560626752523,26.668439516040962],[86.3456872386634,26.668726599940438],[86.34568342897842,26.6690132461066],[86.34563785261963,26.669241001527112],[86.34555051050896,26.66941217753286],[86.3455048716507,26.669642245327147],[86.34532893823715,26.670097443687116],[86.34530736903294,26.67013570459444],[86.3452393479572,26.67044010715664],[86.34518715109542,26.671166759156762],[86.34532714762447,26.67179719243459],[86.34534434516588,26.672083964177713],[86.34527132753053,26.672772104678483],[86.34513997087969,26.673055938681802],[86.34486037311677,26.673341338448473],[86.34464592179297,26.673491634799447],[86.34445435206042,26.673547152841138],[86.34413573615858,26.6735615353029],[86.34368888724397,26.673654254991046],[86.34343416992668,26.673650819379745],[86.34279487613637,26.673835254978663],[86.34249489511909,26.6740618877002],[86.34238698212724,26.67419449014595],[86.3423430931281,26.674289142749444],[86.34234046939775,26.67448101213616],[86.34247220705305,26.67466225136058],[86.34259069003234,26.674825297746736],[86.34277976116243,26.6749999725107],[86.34299033936469,26.675136384694987],[86.34349740240809,26.67535094226754],[86.34423580101905,26.675738048901806],[86.34448989480175,26.67579793810595],[86.34525005095955,26.676130965636627],[86.34573441986046,26.67646055777943],[86.34590248252293,26.676614788384914],[86.34611131221268,26.67690243288758],[86.34619297148474,26.67718951621093],[86.34625543326072,26.677304925240417],[86.34672278975388,26.67725065362317],[86.34740378567484,26.67708672352329],[86.34774384719836,26.67705214711343],[86.34859484170025,26.676870897735085],[86.34876552869889,26.676794936360093],[86.34944652444894,26.676631005738624],[86.34995670917999,26.67655885459612],[86.35021149017803,26.67656216518402],[86.3508064555752,26.676492701106017],[86.35106023632027,26.676552590677908],[86.35156767416723,26.676746767361653],[86.35199082977192,26.67684572981695],[86.35207561036364,26.67684835474565],[86.35233151501272,26.676754761401682],[86.35267182527261,26.67668179925359],[86.35301132400907,26.67668560942665],[86.35352269566374,26.676518617545028],[86.35437812524681,26.675935561753917],[86.3546335914782,26.67586222523825],[86.35506037008112,26.675656472633463],[86.35540118029449,26.67554737508911],[86.35667764177435,26.67527321845647],[86.35712461592037,26.675162368496714],[86.3572539109231,26.675011697357636],[86.35738470472876,26.67470754442575],[86.35738520388091,26.674662406401584],[86.35739076252844,26.674249347753424],[86.35721106114191,26.673408727979268],[86.35700291904128,26.673118894422256],[86.35647834686378,26.67265607678184],[86.35620530739844,26.672442641693273],[86.35555212728713,26.672092045977553],[86.35502917934103,26.671532137133045],[86.35480209042363,26.671072817138086],[86.35470123670771,26.670688643183578],[86.3546385244222,26.670611621113867],[86.35449915263973,26.66992248255853],[86.35429213443722,26.669540060016864],[86.35417139649256,26.66906092059036],[86.35448982526879,26.669064605923623],[86.35457473070268,26.669044661760022],[86.3553362613345,26.66924452453649],[86.35676960556961,26.669946277878395],[86.35753013552497,26.670202532800296],[86.35812279090855,26.670322561896157],[86.35837757068327,26.670325935211178],[86.35922438189297,26.670485535779093],[86.35954249765105,26.670489221076465],[86.36000873093951,26.67053191546343],[86.36017872979747,26.670514658902736],[86.3608566027854,26.670616994321247],[86.36153560021904,26.670624552019664],[86.3627210352817,26.670846541793864],[86.36356859504171,26.670931620233276],[86.36382268868921,26.67099144775553],[86.36416225032829,26.67099519488003],[86.36500931010457,26.671116346640098],[86.36517930941196,26.671099027209365],[86.36560296421669,26.671161853960683],[86.36636368239438,26.671397852218586],[86.36746371172548,26.67167579765419],[86.36797058699896,26.671854094607433],[86.36856130543431,26.672107287886114],[86.36932021173527,26.67249664399925],[86.3699961482548,26.67273439340939],[86.37041930431512,26.672833355863297],[86.37071535066154,26.672911375568393],[86.37139497289766,26.67288054677346],[86.37224565571013,26.672737557819584],[86.3725852169881,26.672743556127287],[86.37300899700867,26.672786064138748],[86.37334743355493,26.67286652167899],[86.37366298961327,26.67306432641602],[86.37368924853324,26.67308020635083],[86.37377059260062,26.673206992639003],[86.37430047470212,26.67332896033323],[86.37465798407487,26.673599160703887],[86.3752603389921,26.674432523276348],[86.37536463047523,26.67466096445862],[86.37550649892816,26.674970866373293],[86.37581193391946,26.675818675031287],[86.3761222413843,26.676341511999492],[86.37620077515334,26.676745942788177],[86.37647194095626,26.6770744740858],[86.37684902032622,26.677405629863873],[86.37703884096503,26.677503531581223],[86.37748344079112,26.677586738925893],[86.37793029122106,26.677552598338718],[86.37824840750093,26.67757653996222]]]}}]}