{"type":"FeatureCollection","features":[{"type":"Feature","properties":{"province":"Madhesh Province","district":"Dhanusha","municipality":"Janaknandani Rural Municipality","ward":"6","wardNumber":6,"sourceMunicipality":"Janaknandani","sourceType":"Gaunpalika"},"geometry":{"type":"Polygon","coordinates":[[[86.17289153484583,26.664545126110678],[86.17357822013435,26.664397826704935],[86.17417150017403,26.664439645668047],[86.17509671480644,26.664663951946284],[86.17532817444226,26.664710401044786],[86.1754980491579,26.66471590107479],[86.1758407976555,26.664652504460477],[86.17618542203307,26.664550595377932],[86.17669992126847,26.664454249976743],[86.17772366888009,26.66437665504042],[86.17866844779722,26.664160894448017],[86.1796970703966,26.663970391329357],[86.18106106592126,26.66388566559698],[86.18183172081642,26.6637591830366],[86.1824276875853,26.663742297570742],[86.18311168550447,26.663653639811407],[86.18404808937677,26.663629685481787],[86.18430530674017,26.663581481429077],[86.18449962698325,26.66351258488449],[86.18429855048389,26.66325638636459],[86.18399393616909,26.66293860888373],[86.18343885381621,26.662515551810607],[86.18318682361677,26.662448660178708],[86.18300006666966,26.662346007065022],[86.1826853259979,26.662258421570264],[86.18187146231932,26.661924206747265],[86.18023854785484,26.661366308307716],[86.1801113771306,26.66136105848029],[86.17929570145085,26.661062916339958],[86.17910556908699,26.66103697300194],[86.17879164120804,26.660931319666613],[86.17829283112845,26.66068243910854],[86.17798302850545,26.66047975791416],[86.177860732555,26.66036166145161],[86.17723443890192,26.66010746834139],[86.17653355826185,26.66010116050626],[86.17607939490543,26.660276842283874],[86.1757824116911,26.660266153807616],[86.17553375637223,26.66012248958902],[86.17534512442799,26.660058159730774],[86.17483768925835,26.660001085843277],[86.17381056676066,26.660155390649777],[86.17297988887856,26.660202475037185],[86.17221486091076,26.660193542980863],[86.17132916069035,26.66004619553788],[86.1711407790674,26.65998186607096],[86.17101667020866,26.65990215583595],[86.17089443658888,26.659781810004105],[86.1705782529398,26.659254032880003],[86.17042556723473,26.658864857070988],[86.17019072052538,26.6579379623042],[86.16992691654421,26.65624346756618],[86.16983229884497,26.654554472537832],[86.1696979281967,26.653765867116412],[86.16964696904611,26.653476657675704],[86.16961426083415,26.652785704884387],[86.16961681752868,26.652250735615173],[86.1696527644229,26.651925890053814],[86.16962267612715,26.65070009224633],[86.16953376458896,26.65031347962417],[86.16949061836047,26.649852719663],[86.16934505829292,26.649310124959907],[86.16902856157591,26.648782347764676],[86.16866398636358,26.648385172394857],[86.1684180199868,26.648185115500805],[86.1681911853193,26.64802350806165],[86.16739469895674,26.647305555286867],[86.16689932629035,26.646982090240094],[86.16658802368065,26.64681779425464],[86.16583543363721,26.646540220439125],[86.16526403723982,26.646482709493927],[86.16525365899122,26.646484897726182],[86.16500650674278,26.646528599826897],[86.1646800146871,26.64668927575669],[86.16421828816304,26.6470161256926],[86.16367891140092,26.647647253684024],[86.16341350488919,26.64786688321766],[86.16308520035203,26.648063632205293],[86.16293302089049,26.64813496720722],[86.16249855208294,26.648328777929173],[86.16211435010531,26.64835366413021],[86.16179267093078,26.648399181015918],[86.16128260984031,26.648378116777508],[86.16045980802532,26.64821301365581],[86.16026861327121,26.648207326980526],[86.15982563826852,26.648112177463528],[86.1595706702495,26.648103865053464],[86.15887610222185,26.647923756429194],[86.15836672858443,26.647884625455383],[86.15792662924858,26.647735336057195],[86.1566642276039,26.647400561961167],[86.1561566668484,26.647323043874366],[86.15513641970686,26.647283166990853],[86.15450218721145,26.647182331863853],[86.15406102505312,26.6470510468155],[86.15356027811143,26.646822360131594],[86.15331324805408,26.646640308622484],[86.15282443895377,26.64614304225475],[86.15226716855804,26.645758247139145],[86.15196205431285,26.64544034473939],[86.15182262501384,26.64522515757635],[86.1515704642972,26.64467737379997],[86.15149062121787,26.644559527838606],[86.15132386165801,26.643540480321644],[86.15117098796473,26.643151304545505],[86.15114216192961,26.642844152353785],[86.15115941329694,26.64246047706214],[86.15121224243316,26.642232784855626],[86.15130783703574,26.64200765520804],[86.15159950160522,26.641673054478098],[86.15181801698054,26.641547952933962],[86.15263512498552,26.64136770447279],[86.15287652376868,26.641206592613262],[86.15311898459338,26.641022910943718],[86.15266925956855,26.64108349541512],[86.15215313551663,26.641197784311043],[86.15151296538585,26.64123011197972],[86.15100990425152,26.641057816472614],[86.15058562456285,26.64102368597556],[86.15039336714835,26.641033815123336],[86.14974982203735,26.641142853969253],[86.14955531410673,26.6412139390946],[86.14922688447318,26.641410624878382],[86.14898886113772,26.64149721488632],[86.14883486871538,26.641606936458626],[86.14837645504922,26.641857014331705],[86.14777511771722,26.64244706871831],[86.14749583515929,26.6429736004474],[86.1470925678706,26.643415859548824],[86.14688856016566,26.64369688171018],[86.14667642512978,26.644147077946997],[86.14656244827273,26.644315690986925],[86.14652831413073,26.644602151184355],[86.14606458701438,26.644967325080625],[86.14595248553601,26.64509530117371],[86.14582131331393,26.6451690111285],[86.1457133366273,26.64520220991283],[86.14533251038286,26.645150260803824],[86.14508179293851,26.645044919837556],[86.14476205165478,26.645052049543477],[86.14450189552618,26.645156582982683],[86.14423042551122,26.64550937683082],[86.1436232072412,26.64575401658052],[86.14304862314057,26.64575058380745],[86.14252993572202,26.64592351456814],[86.14188889017144,26.645976098475973],[86.14143829004462,26.64605468850085],[86.14105039962801,26.64615390907475],[86.14020697050962,26.646446815615654],[86.13962782375411,26.646540348970472],[86.13885148038855,26.646759170602444],[86.13853098924577,26.646784305700667],[86.13823075522109,26.646832135199656],[86.13800323332694,26.64668853268055],[86.13787993724355,26.646588505025733],[86.13776270432783,26.646353061680006],[86.13766154068308,26.64623502837898],[86.13738975337961,26.646129562143972],[86.13687962930494,26.646110686817174],[86.13610253714401,26.64634976382179],[86.13577523242976,26.646530632757006],[86.13551688915058,26.64659678016434],[86.13506028712834,26.646810722501616],[86.13453653747581,26.64709874914741],[86.1342763188031,26.6472054704491],[86.13389211688086,26.647230231577563],[86.13325638433273,26.64716771921753],[86.13261315155337,26.647278882911166],[86.13243796367904,26.647388479139487],[86.13204694885891,26.647566660233924],[86.13165218333127,26.647821613882467],[86.1309925737093,26.648296135186662],[86.13059443166263,26.64862779809736],[86.13020110360284,26.64886237075954],[86.1298906195219,26.64913814283314],[86.12920937710626,26.64961253874096],[86.1276383142033,26.650478808245566],[86.12742054941853,26.650585716134497],[86.12656943146102,26.651054549607068],[86.12648015045647,26.651146640117418],[86.12630352504833,26.65129456028383],[86.12674356279291,26.651443975171592],[86.12715921611293,26.651669911804373],[86.1272822002304,26.65177012777033],[86.12810231354474,26.65199174773495],[86.12829013319862,26.652074083012206],[86.12877893642278,26.652092958537775],[86.12903384187152,26.65210127097112],[86.12960092617901,26.652276316851122],[86.12983107368042,26.65236121470167],[86.13083750673155,26.65270368089012],[86.13141772156665,26.653050339085134],[86.13191921998218,26.653261083500436],[86.1322558431984,26.653348918955345],[86.13259127975236,26.653457009696684],[86.1326738103773,26.65351846482655],[86.1327730986009,26.653674821948854],[86.13291728251306,26.654255866468418],[86.13334626155,26.655134308039678],[86.13342079180642,26.655367250188263],[86.1335038286136,26.65588927792981],[86.13370866033802,26.65654953216037],[86.13384765136666,26.65676484452817],[86.13404222736041,26.657174650568972],[86.13422905269965,26.657758070150255],[86.13434697848427,26.658451834879983],[86.13444146519561,26.65966456544774],[86.13427715934519,26.660004416561677],[86.13412404716115,26.660574585258583],[86.13420120264082,26.660751136491136],[86.13429899087183,26.66094588079571],[86.13439752878796,26.661122556188324],[86.13471421312221,26.6616503955907],[86.1349274210048,26.66211896879586],[86.13498356852602,26.662295395052983],[86.13497831770486,26.662408177993928],[86.13507266796424,26.662681882780376],[86.13521703496689,26.66278209861796],[86.13536058848763,26.662902632468036],[86.13611024113926,26.663275109755165],[86.13652408215872,26.663539432775877],[86.13744110884221,26.66397617796249],[86.13841072027944,26.66466368312837],[86.13874553168966,26.66478990377993],[86.13908403072472,26.664839352939932],[86.13934237378574,26.664773205550954],[86.13954150671678,26.66460734258988],[86.13974632834734,26.6643083776747],[86.13983323454246,26.664272742006975],[86.14047183649097,26.663795782573104],[86.1406462113825,26.663706568019727],[86.1409777036487,26.663430921049915],[86.14148200854243,26.66310438252421],[86.1415686654246,26.66306887146701],[86.14181012635696,26.662903195344988],[86.14302693195305,26.661874444576235],[86.1438968072451,26.661464315201748],[86.14413826757954,26.661298702188876],[86.14474604813081,26.661033743570506],[86.14500551744844,26.660947277928233],[86.14552070356926,26.660850995069985],[86.14594573391194,26.660864869829826],[86.14632481059874,26.660955142321033],[86.14664192669328,26.661004466687665],[86.14698280051661,26.66099746143755],[86.14732092497773,26.6610491606942],[86.14783111023479,26.661067973674484],[86.148432890624,26.66093617912608],[86.14869048447949,26.660885786983776],[86.1488647967104,26.660796508670547],[86.14946763969542,26.660646646239552],[86.14980588826248,26.66069603244568],[86.15014169969021,26.66080412383168],[86.15080457082013,26.661212112188228],[86.15163744193218,26.661625663005065],[86.15213456416951,26.661931122999114],[86.15275348303878,26.66237493524905],[86.15291835623643,26.66249784391796],[86.15315119186349,26.66252403747259],[86.15382981452788,26.662589050076722],[86.15417500214869,26.662487204265094],[86.15439514235605,26.662323779042598],[86.15450755756238,26.662193489812893],[86.15476883867139,26.662068637505737],[86.15584634666554,26.66130527842489],[86.15636778362843,26.66107583110005],[86.15748030733485,26.660486521601158],[86.15782568209,26.660384738478793],[86.15816724323453,26.660359665701233],[86.15857807966006,26.66022205850464],[86.15891576564879,26.660294076701813],[86.15950216903592,26.66050744636337],[86.16033547812393,26.660920934660997],[86.1619257520185,26.661537537926918],[86.16225906379847,26.66170201966371],[86.16317971610385,26.662064054517632],[86.16359886971688,26.66221321968287],[86.1644404919724,26.662437152365932],[86.16458598372203,26.662519237398868],[86.16481531810346,26.662622202868633],[86.16525379218999,26.662760176577123],[86.16565487794269,26.662884397101596],[86.16615556211894,26.663092765932785],[86.16657484133557,26.66322386270177],[86.16771682718861,26.663819713530412],[86.16805213892931,26.6639277418323],[86.16830154324944,26.664053339579493],[86.16893953174142,26.664515343634722],[86.1694394036981,26.664743968658026],[86.16977021442445,26.664949025337055],[86.16989326061184,26.66504911607066],[86.17005976020812,26.665131388352467],[86.17023188428176,26.665080434642476],[86.17108356909426,26.66505373073621],[86.17202641043774,26.664876481964143],[86.17289153484583,26.664545126110678]]]}},{"type":"Feature","properties":{"province":"Madhesh Province","district":"Dhanusha","municipality":"Janaknandani Rural Municipality","ward":"2","wardNumber":2,"sourceMunicipality":"Janaknandani","sourceType":"Gaunpalika"},"geometry":{"type":"Polygon","coordinates":[[[86.13261315155337,26.647278882911166],[86.13325638433273,26.64716771921753],[86.13389211688086,26.647230231577563],[86.1342763188031,26.6472054704491],[86.13453653747581,26.64709874914741],[86.13506028712834,26.646810722501616],[86.13551688915058,26.64659678016434],[86.13577523242976,26.646530632757006],[86.13610253714401,26.64634976382179],[86.13687962930494,26.646110686817174],[86.13738975337961,26.646129562143972],[86.13766154068308,26.64623502837898],[86.13776270432783,26.646353061680006],[86.13787993724355,26.646588505025733],[86.13800323332694,26.64668853268055],[86.13823075522109,26.646832135199656],[86.13853098924577,26.646784305700667],[86.13885148038855,26.646759170602444],[86.13962782375411,26.646540348970472],[86.14020697050962,26.646446815615654],[86.14105039962801,26.64615390907475],[86.14143829004462,26.64605468850085],[86.14188889017144,26.645976098475973],[86.14252993572202,26.64592351456814],[86.14304862314057,26.64575058380745],[86.1436232072412,26.64575401658052],[86.14423042551122,26.64550937683082],[86.14450189552618,26.645156582982683],[86.14476205165478,26.645052049543477],[86.14508179293851,26.645044919837556],[86.14533251038286,26.645150260803824],[86.1457133366273,26.64520220991283],[86.14582131331393,26.6451690111285],[86.14595248553601,26.64509530117371],[86.14606458701438,26.644967325080625],[86.14652831413073,26.644602151184355],[86.14656244827273,26.644315690986925],[86.14667642512978,26.644147077946997],[86.14688856016566,26.64369688171018],[86.1470925678706,26.643415859548824],[86.14749583515929,26.6429736004474],[86.14777511771722,26.64244706871831],[86.14837645504922,26.641857014331705],[86.14883486871538,26.641606936458626],[86.14898886113772,26.64149721488632],[86.1490159316517,26.641364237953578],[86.14915385408216,26.641139295689943],[86.14934204369186,26.640745366027538],[86.14952760719873,26.640407890440017],[86.14962282624157,26.64018276026256],[86.14972592153485,26.63978383000388],[86.14970947123925,26.639208098824696],[86.14944792866996,26.63839392469599],[86.1494352345772,26.638201930837564],[86.14941609628127,26.63768490396583],[86.14932618421788,26.637318672270062],[86.14926584843366,26.63723933680562],[86.14909759978393,26.637195450641027],[86.14866581888974,26.637330557220025],[86.14833901432458,26.637491107330625],[86.14790979611456,26.63756988470451],[86.14739892286387,26.63756901419435],[86.14705267236698,26.637691115731883],[86.14679776747805,26.637680553387774],[86.14648852707019,26.63745974140042],[86.14623337157192,26.637449178194355],[86.14597659099684,26.63747693842838],[86.14528202883365,26.63777759588988],[86.14502418503226,26.63782342442023],[86.14349237692541,26.637802995397465],[86.14338440093702,26.63783838186758],[86.14298557194304,26.63818592602528],[86.14263850974322,26.638326032712353],[86.14195069914594,26.638473144829657],[86.14161338727367,26.63840344004754],[86.14101898317566,26.638361495962332],[86.14064003119321,26.638268910085813],[86.14049654038124,26.638148376432124],[86.14026864316548,26.638007086762286],[86.13996209066315,26.637727569903785],[86.13968523343978,26.637256372125357],[86.13938468250065,26.636843753352995],[86.13928726887369,26.636637694333626],[86.13873056713426,26.636684025811423],[86.13796653949277,26.63677874801421],[86.13774383464818,26.636865463098605],[86.13696623921523,26.636935241202597],[86.1357316643107,26.63688936439082],[86.13441380859457,26.63685655551458],[86.13335892538002,26.63687500814864],[86.13273432281629,26.63688476703748],[86.13026317404112,26.637057028385076],[86.12845814288022,26.637170204264006],[86.12751430035614,26.637214038328374],[86.126847932706,26.63725968296829],[86.12648705163578,26.637282318669833],[86.12552676463447,26.637328340910617],[86.12357149135498,26.637422450062758],[86.12324174642353,26.637472342900786],[86.12250798081169,26.63758519530553],[86.122101269868,26.637596202353492],[86.12144903323991,26.63765316320075],[86.12029029902519,26.637709252808044],[86.11941260902036,26.638130447673745],[86.11850459431353,26.638406974641402],[86.11857813247352,26.639387136937817],[86.11856994984066,26.640001067635204],[86.11857364000495,26.640172617651675],[86.11862428811227,26.64053641167416],[86.11889764782104,26.6413732793188],[86.11896554966603,26.641563334954288],[86.11909073073812,26.64244209133709],[86.11912682614505,26.644126335782655],[86.11908718860704,26.644261563117553],[86.11898396457957,26.64441667274372],[86.11899879042738,26.645105249655945],[86.11889556759205,26.645260358320794],[86.1187744643427,26.64556882521342],[86.11877934433478,26.6457991427655],[86.11872201385994,26.646105733554734],[86.1187025710257,26.6461823812436],[86.11857802709328,26.646337427916986],[86.11849962741793,26.6466461446021],[86.1185584703992,26.64740949333456],[86.11843323852065,26.64752609072207],[86.11835133521134,26.647681325013767],[86.11827268529102,26.64799010399587],[86.11829725866849,26.648141460371182],[86.11842993436407,26.648370276132304],[86.11864770454498,26.6485950904467],[86.11879963584128,26.648726940376555],[86.119053915785,26.648665356792613],[86.1193064431916,26.64852693869302],[86.1198769611841,26.64832506231204],[86.12012955207938,26.64818664367637],[86.12057339933678,26.6480449101231],[86.12101486959693,26.64777001306782],[86.12118292909948,26.64767173295984],[86.12219735764485,26.647328059423096],[86.12295669288301,26.646989640779594],[86.12336315080958,26.646764132333413],[86.12357166366711,26.6467676945463],[86.12371859244027,26.64676856819985],[86.12405653419137,26.647298845968457],[86.12433076514205,26.647826498215945],[86.12440529558157,26.648059440920697],[86.1246577059843,26.64860503605394],[86.12471879232379,26.64866405245233],[86.1249922103355,26.64921202397433],[86.12514502031847,26.649601198870826],[86.12517378517086,26.649908414225944],[86.1253086501503,26.65022069147814],[86.1253911185376,26.65028220894487],[86.12543407716493,26.650742906454226],[86.12552836429671,26.65101667362368],[86.12569067607996,26.651193723613915],[86.12600510461643,26.651301752483974],[86.12630352504833,26.65129456028383],[86.12648015045647,26.651146640117418],[86.12656943146102,26.651054549607068],[86.12742054941853,26.650585716134497],[86.1276383142033,26.650478808245566],[86.12920937710626,26.64961253874096],[86.1298906195219,26.64913814283314],[86.13020110360284,26.64886237075954],[86.13059443166263,26.64862779809736],[86.1309925737093,26.648296135186662],[86.13165218333127,26.647821613882467],[86.13204694885891,26.647566660233924],[86.13243796367904,26.647388479139487],[86.13261315155337,26.647278882911166]]]}},{"type":"Feature","properties":{"province":"Madhesh Province","district":"Dhanusha","municipality":"Janaknandani Rural Municipality","ward":"1","wardNumber":1,"sourceMunicipality":"Janaknandani","sourceType":"Gaunpalika"},"geometry":{"type":"Polygon","coordinates":[[[86.15039336714835,26.641033815123336],[86.15058562456285,26.64102368597556],[86.15100990425152,26.641057816472614],[86.15151296538585,26.64123011197972],[86.15215313551663,26.641197784311043],[86.15266925956855,26.64108349541512],[86.15311898459338,26.641022910943718],[86.15375101847786,26.64022310779345],[86.15426563633429,26.639668565025566],[86.15458387198795,26.63922124303282],[86.15470047461243,26.638996175356954],[86.15479256884029,26.638847755702617],[86.15493730443022,26.638469393572453],[86.15552019018308,26.637341932173207],[86.15591863322088,26.63605536224563],[86.15595382940398,26.63575083522152],[86.15616489528523,26.634840128603305],[86.15616082717203,26.634456328260097],[86.15623090740453,26.63384727339059],[86.15620239348091,26.63354012126505],[86.15613192688448,26.63321240034476],[86.15607865435011,26.632986334722066],[86.15601288021283,26.632961140694345],[86.15594535446101,26.63287492844228],[86.1556710624577,26.63247606413388],[86.15534662437864,26.63184663228119],[86.15502805785209,26.630754439890847],[86.15501248791531,26.630657286223357],[86.15475176014884,26.630030416733646],[86.15461351658085,26.62948563327818],[86.15437417185218,26.628858889700695],[86.15431201964496,26.62847252634987],[86.15416477325702,26.628081163324783],[86.15411469018963,26.627848345436327],[86.15410705903574,26.627615776360923],[86.15401452267308,26.62738045848728],[86.15369008490089,26.626751026808293],[86.15333694577964,26.625888902093003],[86.15259578306143,26.624392407395643],[86.15251249748023,26.624003668651774],[86.15236068911821,26.623688952700935],[86.15219712377827,26.623220754384068],[86.15203987642114,26.623000879416235],[86.15175101479277,26.622488981701586],[86.15163647020744,26.62227160671876],[86.15152267594144,26.622036163644268],[86.15095627281289,26.621181792928976],[86.15093957763985,26.621104957823334],[86.15068666864838,26.620708406634424],[86.15053510941034,26.62039375300871],[86.15037648749279,26.620194133026043],[86.15017472339407,26.620010081378986],[86.14999753154369,26.619772012972387],[86.14988373741271,26.619536570051967],[86.14929638772658,26.61868207507649],[86.14893600261043,26.618298465668662],[86.14848126764385,26.61772011232176],[86.14794150113019,26.61713675891392],[86.14762813212144,26.616681190307645],[86.14755128959101,26.6165430254704],[86.14746069207432,26.616400235028458],[86.14685622149369,26.616376358371244],[86.1466914744693,26.616364044066383],[86.14643200216537,26.616177429368744],[86.14636697830232,26.616134104526324],[86.14598121022762,26.61587897091587],[86.14566846610879,26.61545735038646],[86.14531402027879,26.615121067557705],[86.14529188668281,26.615100623728384],[86.14505498532921,26.61487343440946],[86.1449607608343,26.614626863588622],[86.14488085207955,26.614267445528164],[86.14484164781972,26.61400761957897],[86.14462412777448,26.613710597153407],[86.1443103849977,26.61347396865655],[86.14407761148011,26.61336199988608],[86.14380482153565,26.613114305395968],[86.14358730188485,26.612853417986372],[86.14338247588913,26.612703188090194],[86.14309243523333,26.612911377507203],[86.14213008701037,26.61310425565323],[86.14096122746537,26.613368094768767],[86.13998518666168,26.613547344259857],[86.13899501622363,26.613762541446704],[86.13801860073119,26.613980177683818],[86.13757844120566,26.614074646934736],[86.13694608732878,26.61420837992761],[86.13705256908568,26.614626689179026],[86.1371862483627,26.61513539994581],[86.13750975055471,26.615913874764846],[86.13779304915228,26.616606325505273],[86.13794110915623,26.61709027863152],[86.13808648259946,26.617754784941603],[86.1383523436793,26.61894150660389],[86.13868660390303,26.620128601196193],[86.13899666317732,26.620895699289886],[86.13926583229107,26.621601590723838],[86.13953600024252,26.622205953561988],[86.13988557761817,26.623196741265296],[86.14015399752715,26.624038110541836],[86.14041253249042,26.62436020298086],[86.14133236821341,26.62436575815292],[86.14184061492317,26.62433043048918],[86.14184580817599,26.62460582363594],[86.14185056275191,26.624849644744625],[86.14173609104157,26.625465201993002],[86.1416933279439,26.62568845517395],[86.14147901334334,26.626808974301365],[86.14129308154388,26.627783011560513],[86.14115091271728,26.628448146490932],[86.14103569183732,26.629162982438125],[86.140992367007,26.62945844440003],[86.14076479670561,26.630506692023452],[86.14054917159935,26.631801136899124],[86.14028064986253,26.63298686258807],[86.14003907728497,26.634272054365397],[86.13979487650407,26.635392510761264],[86.1396065708518,26.636438757960352],[86.13936942323858,26.636613373335006],[86.13928726887369,26.636637694333626],[86.13938468250065,26.636843753352995],[86.13968523343978,26.637256372125357],[86.13996209066315,26.637727569903785],[86.14026864316548,26.638007086762286],[86.14049654038124,26.638148376432124],[86.14064003119321,26.638268910085813],[86.14101898317566,26.638361495962332],[86.14161338727367,26.63840344004754],[86.14195069914594,26.638473144829657],[86.14263850974322,26.638326032712353],[86.14298557194304,26.63818592602528],[86.14338440093702,26.63783838186758],[86.14349237692541,26.637802995397465],[86.14502418503226,26.63782342442023],[86.14528202883365,26.63777759588988],[86.14597659099684,26.63747693842838],[86.14623337157192,26.637449178194355],[86.14648852707019,26.63745974140042],[86.14679776747805,26.637680553387774],[86.14705267236698,26.637691115731883],[86.14739892286387,26.63756901419435],[86.14790979611456,26.63756988470451],[86.14833901432458,26.637491107330625],[86.14866581888974,26.637330557220025],[86.14909759978393,26.637195450641027],[86.14926584843366,26.63723933680562],[86.14932618421788,26.637318672270062],[86.14941609628127,26.63768490396583],[86.1494352345772,26.638201930837564],[86.14944792866996,26.63839392469599],[86.14970947123925,26.639208098824696],[86.14972592153485,26.63978383000388],[86.14962282624157,26.64018276026256],[86.14952760719873,26.640407890440017],[86.14934204369186,26.640745366027538],[86.14915385408216,26.641139295689943],[86.1490159316517,26.641364237953578],[86.14898886113772,26.64149721488632],[86.14922688447318,26.641410624878382],[86.14955531410673,26.6412139390946],[86.14974982203735,26.641142853969253],[86.15039336714835,26.641033815123336]]]}},{"type":"Feature","properties":{"province":"Madhesh Province","district":"Dhanusha","municipality":"Janaknandani Rural Municipality","ward":"4","wardNumber":4,"sourceMunicipality":"Janaknandani","sourceType":"Gaunpalika"},"geometry":{"type":"Polygon","coordinates":[[[86.12073214105322,26.67421703206947],[86.12115698295318,26.67419033281027],[86.12141301377231,26.674223465304944],[86.12183816875013,26.674196703366714],[86.12192238675327,26.674156628762407],[86.12206656179026,26.673943127025336],[86.12210013182639,26.673539257633642],[86.12198683637689,26.673236044453688],[86.12191474307869,26.67285412108451],[86.12190986381809,26.672623866088458],[86.12184258804264,26.672472196757983],[86.12186090493714,26.67233690680472],[86.12192399008003,26.672298894874096],[86.12209405170621,26.672277387335942],[86.12260486305034,26.67226700440118],[86.12285795416611,26.672148904699753],[86.12328423406953,26.672178534128808],[86.1235405782596,26.672214105245818],[86.123571777798,26.672284124802946],[86.12364962143607,26.67245848819095],[86.12377554267968,26.672502187669842],[86.12461209607078,26.672360575317597],[86.12551842240948,26.672086235720695],[86.12573443853853,26.672015337815402],[86.12616640684628,26.671878043317907],[86.12727793015401,26.67130473980744],[86.12760192205849,26.67120058098686],[86.1281249845528,26.67093293467171],[86.12825665626247,26.670841156360403],[86.12813673539382,26.670664356229484],[86.12762222482489,26.669801232213196],[86.12739794781876,26.669102341734874],[86.12741188606938,26.668795439074756],[86.12751060668485,26.66849128625176],[86.1275279828579,26.668109923699173],[86.12742374522938,26.667107005338725],[86.12746493689811,26.6661885476631],[86.12743279783774,26.66595585504857],[86.12746717666698,26.66519081742798],[86.12753031855453,26.664730744356508],[86.12759658113953,26.663735701495735],[86.12751166943005,26.663254373113784],[86.1274974751407,26.663098514918058],[86.12733009493721,26.662555732024373],[86.12719072923984,26.662340420606117],[86.12680433374875,26.66194305729285],[86.12581183962588,26.661291375800634],[86.12526125737631,26.660755285538958],[86.12459694293513,26.659904667016395],[86.12428107090592,26.65935650969495],[86.12416127581363,26.659179708679833],[86.12400002701038,26.658982340082655],[86.1237560597403,26.65872351651692],[86.12357186677141,26.658668188867317],[86.12354423165607,26.658661187429182],[86.12357180201236,26.658467255137257],[86.12355748007799,26.658121841705068],[86.12315488543508,26.657209639854425],[86.12310217328398,26.656751130226425],[86.12296837121093,26.65646586037944],[86.1222275918568,26.65567576041142],[86.12170914863994,26.655338479194523],[86.12124997491925,26.65477356768067],[86.12107603448135,26.65460320685526],[86.12092197627572,26.65437651633375],[86.12067781870672,26.653903254920603],[86.12045523204196,26.653445934891185],[86.1195368099558,26.65133644980185],[86.11927177094952,26.65088106821813],[86.11907500932138,26.650656379314402],[86.11896371556419,26.65042775067813],[86.11889349944356,26.650122536704657],[86.11874269355393,26.65004939150731],[86.11839643903006,26.64978769343995],[86.11821399041811,26.64921546381812],[86.11818847979141,26.649023408144846],[86.11799947463128,26.649141881990985],[86.11749360536781,26.649380269636485],[86.1169861723182,26.649541946761698],[86.11631124250506,26.64984247912992],[86.11605608689071,26.649865737894928],[86.11567757719244,26.650082367750578],[86.11529700211427,26.65020415722311],[86.1148555323119,26.6504790545743],[86.11466540078074,26.650538824102732],[86.1143930542953,26.650756077823164],[86.11348503976706,26.651095811742266],[86.11340157293776,26.65117427230416],[86.11336093455978,26.65127111418103],[86.11364297721919,26.651514370235866],[86.11428952988946,26.65188634870374],[86.11446490878265,26.652113162881236],[86.1145777661617,26.65241862695962],[86.11460765680488,26.65281830618719],[86.11472752038648,26.65344880276629],[86.11478235933903,26.654022533168103],[86.1146597553026,26.654254290046374],[86.11417433026428,26.654454416508468],[86.11366583431774,26.65457770688369],[86.1133474058698,26.654620847575124],[86.11303004164728,26.654722693135987],[86.1124567713848,26.654789093189702],[86.11182191743107,26.65497252782987],[86.11114323398925,26.655099196284606],[86.11099618098015,26.655197539161502],[86.11055452388968,26.65545443161048],[86.11036439277855,26.6555142012135],[86.1098586483072,26.65577296969261],[86.10922798600711,26.65614595962219],[86.10802511613308,26.656646305362088],[86.1077725255216,26.65678466135272],[86.10709747035897,26.657082943033743],[86.10656909284292,26.657264750724988],[86.10593761557367,26.657581287415166],[86.10562056434884,26.657683133131233],[86.1047987693671,26.658041433718605],[86.10397534729137,26.658325212101033],[86.10321707517139,26.658665819512166],[86.10245623791631,26.6588890791792],[86.10207641359877,26.659031000072062],[86.10195049333392,26.659109273588278],[86.10163375442471,26.659211119630076],[86.10112857331981,26.659449443714887],[86.10093831667893,26.6595114640817],[86.10081045761186,26.65951290285146],[86.10064120893982,26.65955472986135],[86.10084622860997,26.66016321909056],[86.10095639536083,26.660333268012153],[86.10102523560106,26.66056389774832],[86.10113540288174,26.66073388330278],[86.10122675190622,26.66101890448126],[86.10144896321505,26.661437962686836],[86.10153737200856,26.66158969417448],[86.10178521969894,26.66221650043522],[86.10181429660625,26.662562101909714],[86.10190564590911,26.662847059261765],[86.1018919572988,26.66319234817984],[86.10193835186242,26.663364210804104],[86.10209347333398,26.663647354990058],[86.10248662245289,26.66410129760395],[86.10315774842825,26.664624695086463],[86.10333218835373,26.664813123130536],[86.10342466395096,26.665156785852368],[86.10338990567224,26.665501950096623],[86.10322991469127,26.665965963387826],[86.10312744206843,26.66613914019755],[86.10300984268842,26.6666011511607],[86.10297508404338,26.666948504169586],[86.10291644037649,26.667178322158886],[86.10289874822125,26.66735212333618],[86.10310282951576,26.667922225974234],[86.10343476891936,26.668490890353993],[86.1034373343215,26.668606048782788],[86.10327315271282,26.66887813045611],[86.10323445290284,26.669051681621127],[86.10324321062117,26.669453549307207],[86.10333349618384,26.669682115455107],[86.10352875729326,26.66985035127617],[86.10378641454193,26.669960256083513],[86.10387157094361,26.669958629585242],[86.10412403643461,26.669840592701036],[86.10429478611903,26.669855219923573],[86.10480315739528,26.669750059229298],[86.10539268227856,26.66947159703785],[86.1056477123793,26.669466405147777],[86.10581858729964,26.669503602212025],[86.10616221419441,26.669629886296512],[86.10639986492777,26.669798433747093],[86.10670485488876,26.670118586969373],[86.10677325765654,26.670328897884858],[86.10674225238718,26.67084567504148],[86.10672712553712,26.671134510013815],[86.10683729229262,26.67130449642451],[86.10731415823686,26.671698107442662],[86.10752992607868,26.67182801906832],[86.10840749811263,26.67206151629001],[86.10855799185786,26.672136974889188],[86.10881552378395,26.672226623598114],[86.10992430464509,26.67234189684117],[86.1102476119467,26.672526760704105],[86.11051083776098,26.672887301548442],[86.11066139273501,26.672960447098404],[86.11078937724471,26.6729770753731],[86.11112749920979,26.672875354369413],[86.11155315478167,26.67286897348166],[86.11189659368749,26.673015576149446],[86.11202651693672,26.673108914614037],[86.1122994275867,26.672950365538522],[86.1123615738101,26.67287171709063],[86.11269907093869,26.67273160997318],[86.11347309613583,26.672142742763196],[86.11364240714198,26.672103166319438],[86.1144931539616,26.672085903638006],[86.11466396696866,26.67212316286103],[86.114919372238,26.67211790874447],[86.11517327652749,26.672056263281306],[86.11644980451659,26.67205062469893],[86.11678673767814,26.671892449903222],[86.11695604957136,26.671850623857104],[86.11729673647295,26.671863999106012],[86.11755439332346,26.671973966541177],[86.11783781366364,26.67227592785302],[86.11801556987693,26.672617901065117],[86.11810841960722,26.67296156412134],[86.11835238963465,26.673416819638234],[86.11857378661104,26.673795116648176],[86.11885633027967,26.674058753848726],[86.11911492600203,26.67420704520461],[86.1197127707088,26.674312319800098],[86.1204786747527,26.674296745845513],[86.12073214105322,26.67421703206947]]]}},{"type":"Feature","properties":{"province":"Madhesh Province","district":"Dhanusha","municipality":"Janaknandani Rural Municipality","ward":"3","wardNumber":3,"sourceMunicipality":"Janaknandani","sourceType":"Gaunpalika"},"geometry":{"type":"Polygon","coordinates":[[[86.10064120893982,26.65955472986135],[86.10081045761186,26.65951290285146],[86.10093831667893,26.6595114640817],[86.10112857331981,26.659449443714887],[86.10163375442471,26.659211119630076],[86.10195049333392,26.659109273588278],[86.10207641359877,26.659031000072062],[86.10245623791631,26.6588890791792],[86.10321707517139,26.658665819512166],[86.10397534729137,26.658325212101033],[86.1047987693671,26.658041433718605],[86.10562056434884,26.657683133131233],[86.10593761557367,26.657581287415166],[86.10656909284292,26.657264750724988],[86.10709747035897,26.657082943033743],[86.1077725255216,26.65678466135272],[86.10802511613308,26.656646305362088],[86.10922798600711,26.65614595962219],[86.1098586483072,26.65577296969261],[86.11036439277855,26.6555142012135],[86.11055452388968,26.65545443161048],[86.11099618098015,26.655197539161502],[86.11114323398925,26.655099196284606],[86.11182191743107,26.65497252782987],[86.1124567713848,26.654789093189702],[86.11303004164728,26.654722693135987],[86.1133474058698,26.654620847575124],[86.11366583431774,26.65457770688369],[86.11417433026428,26.654454416508468],[86.1146597553026,26.654254290046374],[86.11478235933903,26.654022533168103],[86.11472752038648,26.65344880276629],[86.11460765680488,26.65281830618719],[86.1145777661617,26.65241862695962],[86.11446490878265,26.652113162881236],[86.11428952988946,26.65188634870374],[86.11364297721919,26.651514370235866],[86.11336093455978,26.65127111418103],[86.11340157293776,26.65117427230416],[86.11348503976706,26.651095811742266],[86.1143930542953,26.650756077823164],[86.11466540078074,26.650538824102732],[86.1148555323119,26.6504790545743],[86.11529700211427,26.65020415722311],[86.11567757719244,26.650082367750578],[86.11605608689071,26.649865737894928],[86.11631124250506,26.64984247912992],[86.1169861723182,26.649541946761698],[86.11749360536781,26.649380269636485],[86.11799947463128,26.649141881990985],[86.11818847979141,26.649023408144846],[86.11852616347907,26.64888555207034],[86.11879963584128,26.648726940376555],[86.11864770454498,26.6485950904467],[86.11842993436407,26.648370276132304],[86.11829725866849,26.648141460371182],[86.11827268529102,26.64799010399587],[86.11835133521134,26.647681325013767],[86.11843323852065,26.64752609072207],[86.1185584703992,26.64740949333456],[86.11849962741793,26.6466461446021],[86.11857802709328,26.646337427916986],[86.1187025710257,26.6461823812436],[86.11872201385994,26.646105733554734],[86.11877934433478,26.6457991427655],[86.1187744643427,26.64556882521342],[86.11889556759205,26.645260358320794],[86.11899879042738,26.645105249655945],[86.11898396457957,26.64441667274372],[86.11908718860704,26.644261563117553],[86.11912682614505,26.644126335782655],[86.11909073073812,26.64244209133709],[86.11896554966603,26.641563334954288],[86.11889764782104,26.6413732793188],[86.11862428811227,26.64053641167416],[86.11857364000495,26.640172617651675],[86.11856994984066,26.640001067635204],[86.11857813247352,26.639387136937817],[86.11850459431353,26.638406974641402],[86.11821242793705,26.63859253241583],[86.11736631101594,26.638903319234206],[86.11666637141441,26.63916083867983],[86.11415984390788,26.6400820702739],[86.11352817935341,26.640312894129416],[86.11322800843136,26.64043524549342],[86.113131348984,26.64047075694596],[86.11249180575285,26.64070827008533],[86.1113278876477,26.641141221310676],[86.1105741160828,26.64140511758844],[86.11009319319372,26.641598554209935],[86.1098969347956,26.641676329391874],[86.10951248400802,26.641811622637732],[86.10924326151279,26.64191378028058],[86.10700464300359,26.642732729615872],[86.10601978902098,26.643105785257386],[86.10515816637033,26.64343220204617],[86.10370433046141,26.643960308847355],[86.10255810579862,26.64441589045826],[86.10227356515416,26.644488539881127],[86.10163471079659,26.644760000158165],[86.09936345828909,26.64584940417805],[86.09914019010318,26.64593149270423],[86.09753861564225,26.64670017139327],[86.09574478451823,26.647521741515042],[86.09455854674027,26.648105611816256],[86.09432027405468,26.648223836121446],[86.0929961108472,26.6488135224773],[86.09249555594802,26.64908798246189],[86.09226472375528,26.649174572414772],[86.09007793862841,26.650201207040343],[86.08905375856901,26.650691298206123],[86.0886533648228,26.650889609794536],[86.08855476685844,26.650934123841107],[86.08864886617255,26.65114468525962],[86.08902257110526,26.65169559291331],[86.0891566236264,26.65197861251404],[86.08953195486424,26.6526062934083],[86.08975110058202,26.652889812503958],[86.08998987746499,26.653114813928923],[86.09031362294975,26.653320058027035],[86.09082856342631,26.653521987690407],[86.09099943856947,26.65355693384342],[86.09125784624167,26.653684969257128],[86.09169088383184,26.654042132158327],[86.09184187674707,26.654135658892812],[86.09276922107638,26.654694564208203],[86.09302725460209,26.654822661270785],[86.09397053955126,26.655151437156672],[86.09439644498664,26.655181191931632],[86.09516009747264,26.655073215197017],[86.09553754405141,26.654836392338716],[86.0959783894084,26.65455924375312],[86.09621466401252,26.654671336811468],[86.09632420518629,26.654802937648142],[86.09690061559358,26.655865244055764],[86.09731664817744,26.656393832541248],[86.09772773901082,26.65671254774587],[86.0981780302279,26.656877841506606],[86.09852009367286,26.656947734065273],[86.09877750034507,26.6570396334449],[86.09910093341668,26.657244815696608],[86.09929669417212,26.65743118143076],[86.09955941876905,26.65777140327842],[86.09962619465209,26.65790494176624],[86.09974036557342,26.65824885469008],[86.09974405628489,26.658420405132716],[86.09981289676463,26.658648845911554],[86.09994694870088,26.658934116419704],[86.10020917304634,26.65925633331009],[86.10040286965518,26.65934779575934],[86.10064120893982,26.65955472986135]]]}},{"type":"Feature","properties":{"province":"Madhesh Province","district":"Dhanusha","municipality":"Janaknandani Rural Municipality","ward":"5","wardNumber":5,"sourceMunicipality":"Janaknandani","sourceType":"Gaunpalika"},"geometry":{"type":"Polygon","coordinates":[[[86.14635380803918,26.67553980010502],[86.14666666786768,26.675205324328275],[86.14689699691824,26.67481164348044],[86.14701147494031,26.674665661791042],[86.14759686615226,26.673915186310545],[86.14768533549888,26.673841225547594],[86.14802470407103,26.673394028869918],[86.14840421206065,26.67300353513354],[86.14874851899935,26.67244130424027],[86.14912952743921,26.672012424630786],[86.14944188731786,26.67169826758915],[86.14970623101344,26.671496642573892],[86.1510820360054,26.670721589420292],[86.15144716551963,26.67043931586995],[86.15165505185146,26.670280329449533],[86.15224782613471,26.669879768188636],[86.15279114527004,26.669630189966433],[86.15300784881018,26.669543412137145],[86.15332996501202,26.6694776397551],[86.15397451150386,26.669346033017067],[86.15423310425312,26.669279760799142],[86.15442854929233,26.669190669866737],[86.15610859378248,26.66875146274029],[86.1567531403844,26.668622043316848],[86.15740331151984,26.668357271304828],[86.15817715359424,26.668192590820382],[86.16043903365009,26.66760770914572],[86.16121912645647,26.66731211481652],[86.16154230609256,26.66722821190271],[86.16177932907816,26.667159565177318],[86.16227600797448,26.667006764759783],[86.16388846673506,26.6666663367265],[86.16414706021976,26.66660019044009],[86.16497035685839,26.666286714658803],[86.1652538344027,26.66621387849846],[86.16529353563392,26.666202874758067],[86.16599972896482,26.66609408626126],[86.16651654051635,26.665941348611394],[86.16741730475987,26.66576378757869],[86.16812162243735,26.665693384846293],[86.16838152880614,26.66558647600459],[86.16960634666471,26.665286688406724],[86.16980172859114,26.665197535634203],[86.17005976020812,26.665131388352467],[86.16989326061184,26.66504911607066],[86.16977021442445,26.664949025337055],[86.1694394036981,26.664743968658026],[86.16893953174142,26.664515343634722],[86.16830154324944,26.664053339579493],[86.16805213892931,26.6639277418323],[86.16771682718861,26.663819713530412],[86.16657484133557,26.66322386270177],[86.16615556211894,26.663092765932785],[86.16565487794269,26.662884397101596],[86.16525379218999,26.662760176577123],[86.16481531810346,26.662622202868633],[86.16458598372203,26.662519237398868],[86.1644404919724,26.662437152365932],[86.16359886971688,26.66221321968287],[86.16317971610385,26.662064054517632],[86.16225906379847,26.66170201966371],[86.1619257520185,26.661537537926918],[86.16033547812393,26.660920934660997],[86.15950216903592,26.66050744636337],[86.15891576564879,26.660294076701813],[86.15857807966006,26.66022205850464],[86.15816724323453,26.660359665701233],[86.15782568209,26.660384738478793],[86.15748030733485,26.660486521601158],[86.15636778362843,26.66107583110005],[86.15584634666554,26.66130527842489],[86.15476883867139,26.662068637505737],[86.15450755756238,26.662193489812893],[86.15439514235605,26.662323779042598],[86.15417500214869,26.662487204265094],[86.15382981452788,26.662589050076722],[86.15315119186349,26.66252403747259],[86.15291835623643,26.66249784391796],[86.15275348303878,26.66237493524905],[86.15213456416951,26.661931122999114],[86.15163744193218,26.661625663005065],[86.15080457082013,26.661212112188228],[86.15014169969021,26.66080412383168],[86.14980588826248,26.66069603244568],[86.14946763969542,26.660646646239552],[86.1488647967104,26.660796508670547],[86.14869048447949,26.660885786983776],[86.148432890624,26.66093617912608],[86.14783111023479,26.661067973674484],[86.14732092497773,26.6610491606942],[86.14698280051661,26.66099746143755],[86.14664192669328,26.661004466687665],[86.14632481059874,26.660955142321033],[86.14594573391194,26.660864869829826],[86.14552070356926,26.660850995069985],[86.14500551744844,26.660947277928233],[86.14474604813081,26.661033743570506],[86.14413826757954,26.661298702188876],[86.1438968072451,26.661464315201748],[86.14302693195305,26.661874444576235],[86.14181012635696,26.662903195344988],[86.1415686654246,26.66306887146701],[86.14148200854243,26.66310438252421],[86.1409777036487,26.663430921049915],[86.1406462113825,26.663706568019727],[86.14047183649097,26.663795782573104],[86.13983323454246,26.664272742006975],[86.13974632834734,26.6643083776747],[86.13954150671678,26.66460734258988],[86.13934237378574,26.664773205550954],[86.13908403072472,26.664839352939932],[86.13874553168966,26.66478990377993],[86.13841072027944,26.66466368312837],[86.13744110884221,26.66397617796249],[86.13652408215872,26.663539432775877],[86.13611024113926,26.663275109755165],[86.13536058848763,26.662902632468036],[86.13521703496689,26.66278209861796],[86.13507266796424,26.662681882780376],[86.13497831770486,26.662408177993928],[86.13498356852602,26.662295395052983],[86.1349274210048,26.66211896879586],[86.13471421312221,26.6616503955907],[86.13439752878796,26.661122556188324],[86.13429899087183,26.66094588079571],[86.13420120264082,26.660751136491136],[86.13412404716115,26.660574585258583],[86.13427715934519,26.660004416561677],[86.13444146519561,26.65966456544774],[86.13434697848427,26.658451834879983],[86.13422905269965,26.657758070150255],[86.13404222736041,26.657174650568972],[86.13384765136666,26.65676484452817],[86.13370866033802,26.65654953216037],[86.1335038286136,26.65588927792981],[86.13342079180642,26.655367250188263],[86.13334626155,26.655134308039678],[86.13291728251306,26.654255866468418],[86.1327730986009,26.653674821948854],[86.1326738103773,26.65351846482655],[86.13259127975236,26.653457009696684],[86.1322558431984,26.653348918955345],[86.13191921998218,26.653261083500436],[86.13141772156665,26.653050339085134],[86.13083750673155,26.65270368089012],[86.12983107368042,26.65236121470167],[86.12960092617901,26.652276316851122],[86.12903384187152,26.65210127097112],[86.12877893642278,26.652092958537775],[86.12829013319862,26.652074083012206],[86.12810231354474,26.65199174773495],[86.1272822002304,26.65177012777033],[86.12715921611293,26.651669911804373],[86.12674356279291,26.651443975171592],[86.12630352504833,26.65129456028383],[86.12600510461643,26.651301752483974],[86.12569067607996,26.651193723613915],[86.12552836429671,26.65101667362368],[86.12543407716493,26.650742906454226],[86.1253911185376,26.65028220894487],[86.1253086501503,26.65022069147814],[86.12517378517086,26.649908414225944],[86.12514502031847,26.649601198870826],[86.1249922103355,26.64921202397433],[86.12471879232379,26.64866405245233],[86.1246577059843,26.64860503605394],[86.12440529558157,26.648059440920697],[86.12433076514205,26.647826498215945],[86.12405653419137,26.647298845968457],[86.12371859244027,26.64676856819985],[86.12357166366711,26.6467676945463],[86.12336315080958,26.646764132333413],[86.12295669288301,26.646989640779594],[86.12219735764485,26.647328059423096],[86.12118292909948,26.64767173295984],[86.12101486959693,26.64777001306782],[86.12057339933678,26.6480449101231],[86.12012955207938,26.64818664367637],[86.1198769611841,26.64832506231204],[86.1193064431916,26.64852693869302],[86.119053915785,26.648665356792613],[86.11879963584128,26.648726940376555],[86.11852616347907,26.64888555207034],[86.11818847979141,26.649023408144846],[86.11821399041811,26.64921546381812],[86.11839643903006,26.64978769343995],[86.11874269355393,26.65004939150731],[86.11889349944356,26.650122536704657],[86.11896371556419,26.65042775067813],[86.11907500932138,26.650656379314402],[86.11927177094952,26.65088106821813],[86.1195368099558,26.65133644980185],[86.12045523204196,26.653445934891185],[86.12067781870672,26.653903254920603],[86.12092197627572,26.65437651633375],[86.12107603448135,26.65460320685526],[86.12124997491925,26.65477356768067],[86.12170914863994,26.655338479194523],[86.1222275918568,26.65567576041142],[86.12296837121093,26.65646586037944],[86.12310217328398,26.656751130226425],[86.12315488543508,26.657209639854425],[86.12355748007799,26.658121841705068],[86.12357180201236,26.658467255137257],[86.12354423165607,26.658661187429182],[86.12357186677141,26.658668188867317],[86.1237560597403,26.65872351651692],[86.12400002701038,26.658982340082655],[86.12416127581363,26.659179708679833],[86.12428107090592,26.65935650969495],[86.12459694293513,26.659904667016395],[86.12526125737631,26.660755285538958],[86.12581183962588,26.661291375800634],[86.12680433374875,26.66194305729285],[86.12719072923984,26.662340420606117],[86.12733009493721,26.662555732024373],[86.1274974751407,26.663098514918058],[86.12751166943005,26.663254373113784],[86.12759658113953,26.663735701495735],[86.12753031855453,26.664730744356508],[86.12746717666698,26.66519081742798],[86.12743279783774,26.66595585504857],[86.12746493689811,26.6661885476631],[86.12742374522938,26.667107005338725],[86.1275279828579,26.668109923699173],[86.12751060668485,26.66849128625176],[86.12741188606938,26.668795439074756],[86.12739794781876,26.669102341734874],[86.12762222482489,26.669801232213196],[86.12813673539382,26.670664356229484],[86.12825665626247,26.670841156360403],[86.12888588197937,26.670576323118432],[86.12921324963239,26.670395578921497],[86.12947271781677,26.670309114164677],[86.12966997553255,26.670181636818757],[86.13006036611114,26.67002383674766],[86.13045306898857,26.669807206901183],[86.13123447524332,26.669471101241136],[86.13181524741951,26.669336930815643],[86.13258121432872,26.669346113758653],[86.13389445080472,26.669968096087665],[86.13420181567612,26.670229544798044],[86.13451218098467,26.67043235137418],[86.13518162137224,26.671167748894657],[86.13527753407269,26.671400878952884],[86.13530742340026,26.671689963191685],[86.13524491106517,26.672608295727084],[86.13538384500566,26.67330443637505],[86.13550107795707,26.673537628810134],[86.13561843679749,26.67377307212709],[86.13580706870285,26.673837464652788],[86.13648519717277,26.674378804484398],[86.13679706278823,26.674545474890746],[86.13708892095431,26.674664632320233],[86.1373616462958,26.674776850238768],[86.13805446356669,26.674993219979406],[86.13837089277811,26.675062862060333],[86.13919538173988,26.67518751606702],[86.13951418533284,26.6751984532235],[86.14033817571307,26.675343363316134],[86.14078440048596,26.675359612984646],[86.14091369768371,26.675326539945242],[86.14199659329614,26.675384984222795],[86.14233778007628,26.6753779789744],[86.14282745857055,26.67537641108928],[86.14314357374876,26.675443803209934],[86.14352633832188,26.67545730317242],[86.14384508036727,26.675470553860208],[86.14407716560409,26.6755171279947],[86.14443517228862,26.675605025649602],[86.14522145850194,26.675634589218625],[86.145473050983,26.675719611085945],[86.14600543305998,26.675720544492698],[86.14613447968675,26.675687470532697],[86.14635380803918,26.67553980010502]]]}}]}