{"type":"FeatureCollection","features":[{"type":"Feature","properties":{"province":"Madhesh Province","district":"Siraha","municipality":"Naraha Rural Municipality","ward":"1","wardNumber":1,"sourceMunicipality":"Naraha","sourceType":"Gaunpalika"},"geometry":{"type":"Polygon","coordinates":[[[86.301651877962,26.78522007480643],[86.30153564143929,26.784643844507496],[86.30150012357603,26.78428030113128],[86.30144497303121,26.78383979688807],[86.30159765116437,26.783650927304706],[86.30237205301965,26.78322585760362],[86.30346657121642,26.78274814289427],[86.30424072377156,26.78232075982082],[86.30488526714632,26.782007911011192],[86.30553206026947,26.78156189851679],[86.30587668272062,26.78135589643297],[86.30579690079442,26.781086881541082],[86.30516966385743,26.780521721533965],[86.30494157732954,26.780231701718797],[86.30461195027306,26.77969054640352],[86.3044647702882,26.779590518234752],[86.30437992682911,26.77959014386854],[86.30418985564269,26.779510185042962],[86.30385466845117,26.779255801169693],[86.30379420618868,26.779081625933994],[86.30380770247855,26.77839554949464],[86.30368734161459,26.77802919318986],[86.30354322309692,26.777796000473842],[86.30329062915969,26.77765927626561],[86.30303628564795,26.777615140173502],[86.30269534883801,26.77762927342865],[86.3018402272856,26.777841781570455],[86.30149966557218,26.77785591490308],[86.3011617909407,26.77773469504198],[86.30101461034306,26.77763685525454],[86.30066210099794,26.777190415901483],[86.30022318546098,26.776781924776135],[86.29982522416023,26.77646846209177],[86.29972124676472,26.77635286698409],[86.2997025504311,26.776217326886506],[86.29949559710171,26.775927369636847],[86.29937023636496,26.7758093987982],[86.29903423665876,26.775593275780473],[86.2987825802421,26.775418226906204],[86.29872005623682,26.775359210632903],[86.29846989911319,26.77508707101601],[86.29828426454625,26.77479723742229],[86.29814245917632,26.774448887033145],[86.29806498820146,26.77404670685474],[86.29805535181646,26.773473351259042],[86.29796374615314,26.77272569533207],[86.29798417844508,26.77169420470052],[86.29796641913148,26.771522529495595],[86.29788576150352,26.771289587225418],[86.29777633526186,26.770370380227952],[86.29777989627775,26.77019882988196],[86.29780677818361,26.769912370941235],[86.29792212710373,26.769456861136085],[86.29823473091254,26.76871576542794],[86.29846217926249,26.76797429498977],[86.29868500457698,26.767462892397173],[86.29875665066153,26.76706146151915],[86.29900610657191,26.766263599922276],[86.29905530726255,26.76592074795895],[86.29916903098484,26.76552400525949],[86.29927894411298,26.76533494900636],[86.29926168455837,26.765124887258136],[86.29926680859766,26.764856308809453],[86.29926329501086,26.763942103057143],[86.29935551134795,26.763561052735387],[86.2994659234428,26.763333609783054],[86.29962509985586,26.762803889768282],[86.29991300929237,26.762198084404325],[86.29993576738367,26.76212143593035],[86.30011501333306,26.76163016498288],[86.30012526080245,26.761095320308947],[86.29991649462517,26.760900078154656],[86.29972592462457,26.760858567626848],[86.29934291003153,26.76088826773429],[86.29851029583247,26.761082833195825],[86.29799973460003,26.76109159161299],[86.29755432138373,26.761044269397104],[86.2972374551722,26.76094336801742],[86.29711165793901,26.76084571634725],[86.29700855509518,26.760689421290262],[86.29698948503851,26.760576450689197],[86.29699048406685,26.760517870684954],[86.29706063101871,26.760195338164067],[86.29723775344947,26.759816975084153],[86.29735272615753,26.759361589921937],[86.29735872532817,26.759056875636354],[86.29716795491014,26.758019823405522],[86.29716614155654,26.7580107579698],[86.29716689153298,26.757988188697944],[86.29656922963143,26.757549566410074],[86.29625386096279,26.757261359714796],[86.29577355122738,26.756491451717032],[86.29544035919221,26.755878086846387],[86.29537889576335,26.75564752027277],[86.29538126894607,26.755417389735108],[86.29544660395436,26.75526640801318],[86.2955753992547,26.755131616749676],[86.29600305071642,26.754849341643006],[86.29608989341182,26.75467810357555],[86.29615685069466,26.754371512238343],[86.29593381933327,26.753374909282748],[86.29560624632546,26.752149803100153],[86.2954481737988,26.75092331950081],[86.29544535908254,26.750862364386286],[86.2954060942463,26.75086667882149],[86.29500163579263,26.750957209555747],[86.29380683060837,26.751427609521798],[86.29337999088433,26.751635362722478],[86.29235693337712,26.751932773411628],[86.29158909435711,26.752233744806887],[86.2913536984229,26.752383791468247],[86.29126729389813,26.752536837275986],[86.29101157664124,26.752612298796006],[86.29079768702651,26.752744464739376],[86.29037159591968,26.752875508399153],[86.29030069597746,26.752906767735727],[86.29002997317416,26.753025118020435],[86.28985897523991,26.753119022398856],[86.28962364169757,26.7533074548951],[86.28906850432664,26.75357103855872],[86.28898478515183,26.75343518710615],[86.28881815766857,26.753091212618653],[86.28865059260215,26.752839827514286],[86.28831577660574,26.752300922800224],[86.28814777487474,26.752069856609662],[86.28781070992618,26.751781463555982],[86.28764058564728,26.75179865772389],[86.2873844935166,26.751892187657717],[86.28700016829964,26.75207987131913],[86.28661727910752,26.7521321405697],[86.28636199945703,26.752148898963455],[86.28585150127371,26.752202794587895],[86.28557433854652,26.7522962003527],[86.28506346508688,26.752368163615802],[86.28387078360679,26.75264657014963],[86.28353015969486,26.75268095864467],[86.28191119902785,26.75307234055785],[86.28123113892197,26.753048590281416],[86.28097567114139,26.75308572876735],[86.28061241561555,26.753273475046335],[86.27980143677607,26.753632839337847],[86.27946043852073,26.75372586975031],[86.27792394850866,26.754345630227405],[86.27732704505031,26.754496118006134],[86.2769013901365,26.754550388852053],[86.2763925155397,26.75445080221247],[86.27571526460952,26.754138029820457],[86.27520913732509,26.753751733543325],[86.27485019077368,26.75349935116497],[86.27395655373992,26.75360764205438],[86.27382975685337,26.75353024556702],[86.2736206759444,26.75318383351536],[86.27345167497397,26.753067801321976],[86.27294317545949,26.752911698173644],[86.27260380086844,26.752851308299398],[86.27200827157644,26.752884387085224],[86.27158342810971,26.752861884280172],[86.27135052964309,26.752765858855042],[86.27113982545242,26.75259099690588],[86.27101265347817,26.752551987283347],[86.2706510228158,26.752588501433912],[86.27039480501459,26.752700037155087],[86.27013771392733,26.752890595443443],[86.26971255941618,26.752926798200228],[86.26977489643734,26.753060273878745],[86.26996228193167,26.753445010221817],[86.27036005969116,26.754061061715394],[86.27059071021928,26.754369212476657],[86.27071494788075,26.75469718198721],[86.27073314558741,26.75500202139685],[86.27083568785393,26.755386258725572],[86.2709334220108,26.75623100552794],[86.27105622215338,26.756692139473916],[86.27156016457978,26.75732675807472],[86.27168377645933,26.757711120255443],[86.2717027240079,26.757941499815622],[86.27172517071872,26.75802058532498],[86.27174392804565,26.758086166571537],[86.27178757272249,26.75835049433913],[86.2719635211764,26.759098524783546],[86.27222331395377,26.759908008990017],[86.27242726813522,26.760313126010868],[86.27252762124827,26.760600271768617],[86.27254625528124,26.76073581204942],[86.27284555022436,26.76062677690164],[86.27327220405756,26.7605183032381],[86.27361476565433,26.760373381396004],[86.27376544336708,26.76026122235317],[86.27400409037575,26.75999833014105],[86.27424636049577,26.759561699874695],[86.27442023382208,26.759354886752515],[86.27501932448527,26.75911643622242],[86.27508453492672,26.759042226042588],[86.27525603383607,26.75895057246396],[86.27636430972919,26.758721431419136],[86.27653549601477,26.75864784490918],[86.27679102652824,26.75859495166762],[86.27712990045899,26.758639586487288],[86.2774662131817,26.75879925483414],[86.2777371280832,26.7590512011141],[86.27794383133568,26.759323154349318],[86.27836023826272,26.759733833012636],[86.27906281918179,26.76068322945002],[86.27916435995212,26.76091404629818],[86.27919768999432,26.761372367989775],[86.27906127090098,26.761829940980295],[86.27877835952381,26.762169293581056],[86.27862824397404,26.762261134331947],[86.27854058805427,26.762393861906837],[86.27845018396681,26.762677821414318],[86.2783995454152,26.76307937753762],[86.27841405497658,26.763424853240064],[86.27849252555973,26.763729942059413],[86.2785117216976,26.76384516306863],[86.27854817614056,26.764134310595118],[86.27866666276992,26.764595382340485],[86.27866203873283,26.764823386807883],[86.27877427663181,26.76557110461551],[86.27878291306537,26.76620316523712],[86.27894116575607,26.766779582849736],[86.27895792481681,26.767009963175916],[86.27918101301296,26.7675302387714],[86.27959160829388,26.768225313426267],[86.27965313281904,26.76834078371557],[86.27973522664236,26.76847663596054],[86.2800230880738,26.768940831147216],[86.28062250438218,26.769754251711554],[86.28115358695094,26.77079530150041],[86.28144144754886,26.771259497646838],[86.28245477186294,26.772598692756745],[86.28274163343563,26.77311934308319],[86.28280284510149,26.77323475082027],[86.2828848770157,26.77338867067256],[86.28335899561046,26.774086308081227],[86.2834807311906,26.774375828847095],[86.28397523429761,26.775130045321465],[86.28457571319623,26.775887011646052],[86.28476097200665,26.77617684467758],[86.284863637035,26.77635120727772],[86.28537333614808,26.777392132966327],[86.28574641603679,26.7778590158691],[86.28594949582975,26.77832052430946],[86.28656548367667,26.779364199228425],[86.28674711887962,26.779825645701752],[86.28678501010288,26.78005615075084],[86.2866767847544,26.780170622580272],[86.2865850687139,26.78051103611382],[86.2861929939773,26.78102150255659],[86.285768103291,26.78210288728136],[86.28576579118395,26.78221798295518],[86.28584251194025,26.78262016265652],[86.28630149709771,26.783031091832708],[86.28658898282713,26.783513292375638],[86.28675085983939,26.783918159875643],[86.28683351609746,26.784033692425346],[86.28714469713582,26.784403173229755],[86.28778631721292,26.785219031258897],[86.28816145872356,26.785568566854376],[86.28834984109115,26.785707168171825],[86.2884981454743,26.785728235800146],[86.28877468436718,26.785695785652173],[86.28920096367679,26.785607630496706],[86.28987996167135,26.78562000172887],[86.29030111548485,26.78564694281465],[86.29047399073306,26.785650067023738],[86.29090108410551,26.78557997955118],[86.2910698959563,26.785641746146112],[86.29166473911329,26.78568987914633],[86.29200261342557,26.785811161577037],[86.29276439424407,26.78601596360767],[86.29361551750551,26.78601107805219],[86.29412707902252,26.78596393453379],[86.29414846098108,26.78596405887793],[86.29500139632776,26.785864458822115],[86.29577005031601,26.785726034432276],[86.29696860847078,26.78536404107054],[86.29756632551609,26.785260879377823],[86.29807963597185,26.785116707123255],[86.29872005563827,26.785013795475926],[86.29880215019091,26.785167651987],[86.29888249477456,26.785398344258514],[86.2988779337291,26.78562853637069],[86.29901099203936,26.786432708688444],[86.2990511964755,26.786548117379656],[86.29913454013953,26.786645581986004],[86.29938713443725,26.786784558261182],[86.29981116463358,26.786849823084346],[86.30074619410156,26.786904079147085],[86.30170273192189,26.78694039225438],[86.30165033011797,26.786366786909287],[86.301651877962,26.78522007480643]]]}},{"type":"Feature","properties":{"province":"Madhesh Province","district":"Siraha","municipality":"Naraha Rural Municipality","ward":"5","wardNumber":5,"sourceMunicipality":"Naraha","sourceType":"Gaunpalika"},"geometry":{"type":"Polygon","coordinates":[[[86.28258579920988,26.790533707661268],[86.28361354404545,26.79009419264284],[86.28403901108648,26.790044424030732],[86.28470249939619,26.789770086625555],[86.28468561573263,26.789557836894836],[86.28454318489872,26.78925012285441],[86.28427445656123,26.788883080264377],[86.28384416465923,26.788108920421806],[86.28335603499531,26.78702973371359],[86.28298782914926,26.78633490776619],[86.28251464774857,26.785580816102687],[86.28214644125241,26.784885990999854],[86.28202183209356,26.78474989014773],[86.28158979064322,26.78405250271507],[86.28144698417067,26.78376504458946],[86.28128135889,26.78354979554718],[86.28111760755274,26.78324195695768],[86.28103907517674,26.782934554538556],[86.28089639418255,26.782626840659358],[86.28092146312562,26.782435097020308],[86.28100824391474,26.782340756000625],[86.28115873455131,26.782248914753538],[86.28226719877517,26.782019773514552],[86.28346331826054,26.781639836882263],[86.28402001821101,26.781401073510775],[86.28483681020835,26.780901856086345],[86.28543790004606,26.780548183997354],[86.286036490864,26.780347994092732],[86.2866767847544,26.780170622580272],[86.28678501010288,26.78005615075084],[86.28674711887962,26.779825645701752],[86.28656548367667,26.779364199228425],[86.28594949582975,26.77832052430946],[86.28574641603679,26.7778590158691],[86.28537333614808,26.777392132966327],[86.284863637035,26.77635120727772],[86.28476097200665,26.77617684467758],[86.28457571319623,26.775887011646052],[86.28397523429761,26.775130045321465],[86.2834807311906,26.774375828847095],[86.28335899561046,26.774086308081227],[86.2828848770157,26.77338867067256],[86.28280284510149,26.77323475082027],[86.28274163343563,26.77311934308319],[86.28245477186294,26.772598692756745],[86.28144144754886,26.771259497646838],[86.28115358695094,26.77079530150041],[86.28062250438218,26.769754251711554],[86.2800230880738,26.768940831147216],[86.27973522664236,26.76847663596054],[86.27965313281904,26.76834078371557],[86.27959160829388,26.768225313426267],[86.27918101301296,26.7675302387714],[86.27895792481681,26.767009963175916],[86.27894116575607,26.766779582849736],[86.27878291306537,26.76620316523712],[86.27877427663181,26.76557110461551],[86.27866203873283,26.764823386807883],[86.27866666276992,26.764595382340485],[86.27854817614056,26.764134310595118],[86.2785117216976,26.76384516306863],[86.27849252555973,26.763729942059413],[86.27841405497658,26.763424853240064],[86.2783995454152,26.76307937753762],[86.27845018396681,26.762677821414318],[86.27854058805427,26.762393861906837],[86.27862824397404,26.762261134331947],[86.27877835952381,26.762169293581056],[86.27906127090098,26.761829940980295],[86.27919768999432,26.761372367989775],[86.27916435995212,26.76091404629818],[86.27906281918179,26.76068322945002],[86.27836023826272,26.759733833012636],[86.27794383133568,26.759323154349318],[86.2777371280832,26.7590512011141],[86.2774662131817,26.75879925483414],[86.27712990045899,26.758639586487288],[86.27679102652824,26.75859495166762],[86.27653549601477,26.75864784490918],[86.27636430972919,26.758721431419136],[86.27525603383607,26.75895057246396],[86.27508453492672,26.759042226042588],[86.27501932448527,26.75911643622242],[86.27442023382208,26.759354886752515],[86.27424636049577,26.759561699874695],[86.27400409037575,26.75999833014105],[86.27376544336708,26.76026122235317],[86.27361476565433,26.760373381396004],[86.27327220405756,26.7605183032381],[86.27284555022436,26.76062677690164],[86.27254625528124,26.76073581204942],[86.27150006431553,26.76104197485418],[86.27111305178394,26.76130192964629],[86.27060155332462,26.76140759104793],[86.27002715788065,26.76147236587801],[86.26951440973471,26.76163679475322],[86.26887149187436,26.76194951838375],[86.26842251708064,26.76211200780103],[86.26745873439187,26.762553960386615],[86.26649607487963,26.7629192019706],[86.26501348251423,26.76382810885659],[86.26471731141129,26.763783598903654],[86.26433367231611,26.763853873961395],[86.26407907960885,26.763850313077192],[86.26380204206043,26.76392108633149],[86.26354613621017,26.76397391688767],[86.263268286417,26.764062820783217],[86.26299074906488,26.76415391325305],[86.262863014863,26.764171232098423],[86.26254452425017,26.76418548922919],[86.26211986834639,26.764176490648516],[86.26192992370109,26.76413491790267],[86.2618041269389,26.76405520875417],[86.26136115104212,26.763912983768858],[86.26066408169233,26.763749068143365],[86.26028450459395,26.763627473766878],[86.2596932243436,26.763482249634254],[86.25895270237075,26.763372224416354],[86.2586767273272,26.763368539224164],[86.25835879836102,26.763342097213883],[86.25759676875983,26.763252328168285],[86.25728027683164,26.763151301934176],[86.25690257432632,26.76293267924152],[86.2560897685751,26.762192532225583],[86.25559770250008,26.76134122465976],[86.25549610046447,26.761110408596394],[86.25529133359613,26.760743677359216],[86.25516634878272,26.76062564462579],[86.25485160729508,26.760447907353807],[86.25447434131335,26.76021115447797],[86.25422437200913,26.75997733825485],[86.25401735541469,26.75972570440754],[86.25359826181982,26.75945037744353],[86.25328351994666,26.759272640908698],[86.2526535978264,26.758935298543257],[86.25202261488913,26.758656535861746],[86.251452904508,26.758493305442386],[86.25124032751276,26.758507999894558],[86.25117636664486,26.75852569268699],[86.25100199370101,26.75875276118974],[86.25056290481432,26.759470476366573],[86.25051813936813,26.75958544874108],[86.25053489886001,26.75981351491448],[86.25116063391776,26.76036085741558],[86.25149413467557,26.760653752229928],[86.25211943218898,26.761219099290166],[86.2526738333062,26.76214755403331],[86.2529285026357,26.763245936440498],[86.25307224538645,26.763476940145665],[86.25319716817012,26.763594973827765],[86.25347051882335,26.763713755341296],[86.25364126837013,26.76365823729924],[86.25381101794156,26.76366136207923],[86.25406336147394,26.763780081608502],[86.25431651706154,26.76384234752765],[86.25550201404454,26.763977249718714],[86.25609835474884,26.76387427595403],[86.25661116561312,26.76371216059799],[86.25729422446716,26.763514845512393],[86.25752737256501,26.76353860058481],[86.25769387271933,26.76369295614138],[86.25779360012397,26.76402080180054],[86.2584611774971,26.765638269872763],[86.25882925729663,26.766333157387876],[86.25934589273628,26.767031107286304],[86.25947131413358,26.767128822261693],[86.2596615720717,26.767170457182207],[86.25992135130278,26.766907690670664],[86.26009559991098,26.766700939943938],[86.26031105108792,26.76653276391293],[86.26037482398445,26.766535326687716],[86.26047980133748,26.76659453057225],[86.26052000440284,26.766689620058322],[86.26061698261927,26.76715062946059],[86.2606044235445,26.767780315012974],[86.26071784856663,26.768471703477427],[86.26081688926652,26.768817617194763],[86.26095632118054,26.769278751134465],[86.26115821353292,26.769798964123254],[86.26152392037177,26.770609010822852],[86.26164765476244,26.77078343556803],[86.2618714928102,26.77126544985123],[86.26207807168124,26.771555408289263],[86.26246747268057,26.772252733748942],[86.2630667641239,26.7730661542999],[86.26380679981841,26.7742866922643],[86.2647357182498,26.775623324953553],[86.26535176896923,26.776669375949073],[86.26561755986656,26.77718996361788],[86.2658857879581,26.777577324637164],[86.266029843354,26.77781051711992],[86.26615526586458,26.7779082937888],[86.26676036761562,26.778414811701676],[86.26710869029695,26.779053182601604],[86.26758812146602,26.779502560046485],[86.26769028569123,26.779694865125343],[86.2677494980193,26.779927745697826],[86.26774618620809,26.78009929596342],[86.2676290258497,26.7806720276154],[86.26749210753704,26.78118824348412],[86.26750561758074,26.781590236386005],[86.26756376726476,26.781879383322167],[86.26766412030999,26.782168842002267],[86.26822008470819,26.783040779595524],[86.26865200076065,26.78373597934575],[86.26885801768798,26.784066574363646],[86.26926992608466,26.78470532082889],[86.26955678749239,26.785228220649195],[86.27015620419492,26.786041578822434],[86.27025911927234,26.786216003508848],[86.27037854262848,26.786620683656047],[86.27035291181025,26.786850751824616],[86.27026469388089,26.787021865831043],[86.26994026751085,26.787361030878674],[86.26959545755818,26.78764374238111],[86.26995090301936,26.787916443630944],[86.27020093540025,26.78815019698025],[86.27030391200972,26.788306554293992],[86.2705269381445,26.78884714856191],[86.27088294595053,26.789081463781354],[86.27107045410482,26.789258514173103],[86.27123564207672,26.789489579794168],[86.27135725260179,26.78977916370801],[86.27150243274502,26.789953713498335],[86.27162416898655,26.790243234621865],[86.27170676285252,26.79036101845925],[86.27195579455959,26.790651288878816],[86.27222777210727,26.79084678058476],[86.27283899724546,26.79104858421829],[86.27351455851218,26.79121225013339],[86.27402355696307,26.791221622584548],[86.27453499253257,26.79109557996096],[86.27513364558983,26.79085487805795],[86.27577762532474,26.790442813553405],[86.27609805348607,26.790333840777926],[86.27626799003072,26.790316646348412],[86.27641591882981,26.79033771355942],[86.27717926008896,26.790350583991533],[86.27760154141014,26.790451984728946],[86.27785388437185,26.79057070438986],[86.27819125912531,26.79067173060197],[86.27869838320252,26.790775881420647],[86.27911872606497,26.790974434657688],[86.27979297529511,26.79121481078326],[86.28046897462839,26.79136047171619],[86.28097997162375,26.791252497324784],[86.28132234489567,26.791105200827484],[86.2815589296048,26.790934835401398],[86.28207292683898,26.790696010136685],[86.28258579920988,26.790533707661268]]]}},{"type":"Feature","properties":{"province":"Madhesh Province","district":"Siraha","municipality":"Naraha Rural Municipality","ward":"4","wardNumber":4,"sourceMunicipality":"Naraha","sourceType":"Gaunpalika"},"geometry":{"type":"Polygon","coordinates":[[[86.26463135555632,26.794333632804758],[86.2645758157046,26.792798369434582],[86.26449984413713,26.792337485364097],[86.26437998285876,26.791953123129755],[86.26442381095573,26.79187660038024],[86.26466002054418,26.79172655451723],[86.2649367455969,26.79167378563519],[86.26587083599492,26.791631263734452],[86.26638183402693,26.791523289069556],[86.26766167130208,26.79115966979377],[86.26785492708399,26.791029754648786],[86.26785636463191,26.790953044216515],[86.26762640386119,26.790775745025396],[86.26735430171811,26.790598320433922],[86.26710152110877,26.79049991924275],[86.26699785648427,26.7903820108291],[86.26697791063542,26.790305175590905],[86.26708707408744,26.790154442825926],[86.26732047132629,26.790137622788173],[86.26744876745823,26.790081854762388],[86.26743000938555,26.789966634289748],[86.26715628285221,26.789847851900664],[86.26703111029623,26.789750136991504],[86.26688661733112,26.789537201367573],[86.26684747641478,26.789363212430146],[86.26695663924237,26.789212479793555],[86.26708593456532,26.78910038364215],[86.26742812084954,26.788950836181705],[86.26766589193197,26.788724079591525],[86.26769645941259,26.78822762050538],[86.26759654384664,26.787917780350238],[86.26766300345697,26.787766985435344],[86.2677921737935,26.78765251342972],[86.26824008628961,26.78752615948532],[86.26874914676964,26.78753328084449],[86.26921438002802,26.78759885818371],[86.26959545755818,26.78764374238111],[86.26994026751085,26.787361030878674],[86.27026469388089,26.787021865831043],[86.27035291181025,26.786850751824616],[86.27037854262848,26.786620683656047],[86.27025911927234,26.786216003508848],[86.27015620419492,26.786041578822434],[86.26955678749239,26.785228220649195],[86.26926992608466,26.78470532082889],[86.26885801768798,26.784066574363646],[86.26865200076065,26.78373597934575],[86.26822008470819,26.783040779595524],[86.26766412030999,26.782168842002267],[86.26756376726476,26.781879383322167],[86.26750561758074,26.781590236386005],[86.26749210753704,26.78118824348412],[86.2676290258497,26.7806720276154],[86.26774618620809,26.78009929596342],[86.2677494980193,26.779927745697826],[86.26769028569123,26.779694865125343],[86.26758812146602,26.779502560046485],[86.26710869029695,26.779053182601604],[86.26676036761562,26.778414811701676],[86.26615526586458,26.7779082937888],[86.266029843354,26.77781051711992],[86.2658857879581,26.777577324637164],[86.26561755986656,26.77718996361788],[86.26535176896923,26.776669375949073],[86.2647357182498,26.775623324953553],[86.26380679981841,26.7742866922643],[86.2630667641239,26.7730661542999],[86.26246747268057,26.772252733748942],[86.26207807168124,26.771555408289263],[86.2618714928102,26.77126544985123],[86.26164765476244,26.77078343556803],[86.26152392037177,26.770609010822852],[86.26115821353292,26.769798964123254],[86.26095632118054,26.769278751134465],[86.26081688926652,26.768817617194763],[86.26071784856663,26.768471703477427],[86.2606044235445,26.767780315012974],[86.26061698261927,26.76715062946059],[86.26052000440284,26.766689620058322],[86.26047980133748,26.76659453057225],[86.26037482398445,26.766535326687716],[86.26031105108792,26.76653276391293],[86.26009559991098,26.766700939943938],[86.25992135130278,26.766907690670664],[86.2596615720717,26.767170457182207],[86.25947131413358,26.767128822261693],[86.25934589273628,26.767031107286304],[86.25882925729663,26.766333157387876],[86.2584611774971,26.765638269872763],[86.25779360012397,26.76402080180054],[86.25769387271933,26.76369295614138],[86.25752737256501,26.76353860058481],[86.25729422446716,26.763514845512393],[86.25661116561312,26.76371216059799],[86.25609835474884,26.76387427595403],[86.25550201404454,26.763977249718714],[86.25431651706154,26.76384234752765],[86.25406336147394,26.763780081608502],[86.25381101794156,26.76366136207923],[86.25364126837013,26.76365823729924],[86.25347051882335,26.763713755341296],[86.25319716817012,26.763594973827765],[86.25307224538645,26.763476940145665],[86.2529285026357,26.763245936440498],[86.2526738333062,26.76214755403331],[86.25211943218898,26.761219099290166],[86.25149413467557,26.760653752229928],[86.25116063391776,26.76036085741558],[86.25053489886001,26.75981351491448],[86.25051813936813,26.75958544874108],[86.25056290481432,26.759470476366573],[86.25100199370101,26.75875276118974],[86.25117636664486,26.75852569268699],[86.25124032751276,26.758507999894558],[86.251452904508,26.758493305442386],[86.25202261488913,26.758656535861746],[86.2526535978264,26.758935298543257],[86.25328351994666,26.759272640908698],[86.25359826181982,26.75945037744353],[86.25401735541469,26.75972570440754],[86.25422437200913,26.75997733825485],[86.25447434131335,26.76021115447797],[86.25485160729508,26.760447907353807],[86.25516634878272,26.76062564462579],[86.25529133359613,26.760743677359216],[86.25549610046447,26.761110408596394],[86.25559770250008,26.76134122465976],[86.2560897685751,26.762192532225583],[86.25690257432632,26.76293267924152],[86.25728027683164,26.763151301934176],[86.25759676875983,26.763252328168285],[86.25835879836102,26.763342097213883],[86.2586767273272,26.763368539224164],[86.25895270237075,26.763372224416354],[86.2596932243436,26.763482249634254],[86.26028450459395,26.763627473766878],[86.26066408169233,26.763749068143365],[86.26136115104212,26.763912983768858],[86.2618041269389,26.76405520875417],[86.26192992370109,26.76413491790267],[86.26211986834639,26.764176490648516],[86.26254452425017,26.76418548922919],[86.262863014863,26.764171232098423],[86.26299074906488,26.76415391325305],[86.263268286417,26.764062820783217],[86.26354613621017,26.76397391688767],[86.26380204206043,26.76392108633149],[86.26407907960885,26.763850313077192],[86.26433367231611,26.763853873961395],[86.26471731141129,26.763783598903654],[86.26501348251423,26.76382810885659],[86.26649607487963,26.7629192019706],[86.26745873439187,26.762553960386615],[86.26842251708064,26.76211200780103],[86.26887149187436,26.76194951838375],[86.26951440973471,26.76163679475322],[86.27002715788065,26.76147236587801],[86.27060155332462,26.76140759104793],[86.27111305178394,26.76130192964629],[86.27150006431553,26.76104197485418],[86.27254625528124,26.76073581204942],[86.27252762124827,26.760600271768617],[86.27242726813522,26.760313126010868],[86.27222331395377,26.759908008990017],[86.2719635211764,26.759098524783546],[86.27178757272249,26.75835049433913],[86.27174392804565,26.758086166571537],[86.27172517071872,26.75802058532498],[86.2717027240079,26.757941499815622],[86.27168377645933,26.757711120255443],[86.27156016457978,26.75732675807472],[86.27105622215338,26.756692139473916],[86.2709334220108,26.75623100552794],[86.27083568785393,26.755386258725572],[86.27073314558741,26.75500202139685],[86.27071494788075,26.75469718198721],[86.27059071021928,26.754369212476657],[86.27010034613487,26.75452019882124],[86.26986488693714,26.75467018337396],[86.26918370185084,26.754779596934767],[86.26850183041545,26.75494765319789],[86.26790417819709,26.75521092431533],[86.26766859432307,26.755383539697185],[86.26681503769713,26.75570195445858],[86.26579628858127,26.755561236445676],[86.26443629209754,26.755549747312383],[86.26409648014767,26.755509551375454],[86.26367151241395,26.755507367043087],[86.26316220115233,26.755425785929436],[86.26180270396743,26.755339711839863],[86.26129345429396,26.755240000600335],[86.26044376859541,26.755215251786968],[86.25995471491355,26.755210443128153],[86.2572137765415,26.755114942583457],[86.25628024696839,26.754972347824367],[86.25543043611329,26.754909213150597],[86.25500540569003,26.75490477886967],[86.25415584500809,26.754861899327334],[86.25381522148616,26.754896288275496],[86.25351717541982,26.754951120209462],[86.25317686400724,26.75498769678082],[86.2523257424979,26.755078044427023],[86.25198486861184,26.75515075635067],[86.25153652085986,26.755358321623465],[86.25125779627835,26.75558714196853],[86.25106347974884,26.755872790150764],[86.25097476416535,26.756235709919245],[86.25048002830889,26.75680650805256],[86.2499447752422,26.757187500612016],[86.24960365247634,26.757298474002276],[86.24900712392693,26.757428517703616],[86.24861841903177,26.757410641462428],[86.24855614710843,26.757464532987143],[86.24812749157039,26.757545748826825],[86.24752989947852,26.757603458996567],[86.24750670286578,26.757603396773227],[86.24755497370482,26.75786103467437],[86.24758661253873,26.758019206064937],[86.24766502132691,26.758414633223992],[86.24792305919779,26.758910339175436],[86.24817684400861,26.7593225201389],[86.24859950819827,26.760105808223962],[86.24861870414466,26.76015557250257],[86.24886192522338,26.760784379405695],[86.2490154918452,26.76162943899961],[86.24905138469279,26.76195690928881],[86.24910516090365,26.762476373737726],[86.24916387252837,26.762725008760874],[86.24942347745097,26.763554812476272],[86.24981795305287,26.765094072973415],[86.24993812659493,26.76546049203822],[86.25001503475299,26.765864859816368],[86.25038669100135,26.767480830948333],[86.25044052993823,26.767998043983578],[86.25039332770363,26.768246055354226],[86.25033906630952,26.76885979873644],[86.25011211828033,26.769623837345623],[86.2500124660625,26.770388500714564],[86.24992181182716,26.770692778441063],[86.2497463141275,26.770996619766777],[86.2495496841195,26.771300273370084],[86.24943627252283,26.771683449188256],[86.24930172753677,26.772064187317994],[86.24937763644677,26.772525134814316],[86.24962148209397,26.773065915681165],[86.24991196703172,26.773397009815657],[86.24999443673994,26.773532861233793],[86.25012480873622,26.774454505647224],[86.25016438718005,26.774608175738813],[86.25036859204978,26.775013354834986],[86.25053496762324,26.775190342739542],[86.2508484597113,26.775424471081323],[86.25109986604669,26.775581577060738],[86.25135258446872,26.775682228711577],[86.25156160007995,26.775839022720056],[86.25185164759985,26.776188184603207],[86.25201533674887,26.776498336978623],[86.25224611016053,26.776634937325916],[86.25237065750326,26.776771037854928],[86.25238741655645,26.777001480381475],[86.25248758143329,26.777308944667393],[86.25296757484561,26.777701930274954],[86.25331908348767,26.778186881610615],[86.2534617018905,26.778476527599675],[86.25354379600039,26.778630447034306],[86.25391743746765,26.779038750519796],[86.25399803321216,26.77926944280302],[86.25395364235445,26.779366221126637],[86.2537595113626,26.779534522997746],[86.25379909013043,26.779688254840785],[86.25386155134949,26.779747272185926],[86.25405062113028,26.779827230562475],[86.25443544775725,26.77968030908852],[86.25456293192154,26.77966286471304],[86.25481664911808,26.779704874799794],[86.25532239895436,26.779865541524572],[86.25572542094034,26.779872164389566],[86.25597682749259,26.78002920848607],[86.25608036701053,26.78016518451331],[86.25611669657319,26.780472399009543],[86.25650978415872,26.780995923701784],[86.25657037037087,26.781151907077444],[86.2565676211591,26.781285070664993],[86.2567126763648,26.7814596827146],[86.2569020586086,26.78153964197721],[86.2572845729042,26.781507816468654],[86.25753872889355,26.781529444787555],[86.25781026763919,26.78174531800063],[86.25789236214396,26.78188116994073],[86.25795113657813,26.78213205565034],[86.25798977797663,26.78232411141854],[86.25795833631767,26.782858956480528],[86.2579979152712,26.783014876348094],[86.25818311166104,26.783304771983957],[86.25843164334509,26.783615360684376],[86.25863822276688,26.78390538174384],[86.2590490060156,26.78460276942372],[86.25934925248934,26.785527538313556],[86.25958603848677,26.78645199504137],[86.25983169636285,26.786916065997183],[86.25985132993615,26.786992901200414],[86.25980462794695,26.787220656112314],[86.25984370691137,26.78739464406173],[86.25990535515807,26.787492046747268],[86.26003077779204,26.787589761695546],[86.26053658893291,26.787750429208394],[86.2610232055096,26.787816130594525],[86.261232534004,26.787972987343796],[86.26118633192814,26.788164543348874],[86.26107854334438,26.788256571693662],[86.26082332604467,26.78829139741515],[86.26056954485946,26.78824944981837],[86.26031720133068,26.788130729763754],[86.25989542064042,26.788008885981984],[86.2595576087972,26.787928178862423],[86.25930370335358,26.7879042990197],[86.25923949246531,26.787921991984376],[86.25906443254495,26.788207765633423],[86.2586994895669,26.788431585266917],[86.25854674934354,26.788658778564827],[86.25858445380345,26.788909538817936],[86.25883261078596,26.789238133282442],[86.25914710290157,26.789415806894816],[86.25927215073257,26.78953384024617],[86.25939513589397,26.789764781728124],[86.25951974500998,26.78990082043577],[86.25962422147612,26.789980405007753],[86.25987181693465,26.79034738534597],[86.26037144268466,26.790835273539706],[86.26036869356136,26.7909684377527],[86.26008809454511,26.7912333311201],[86.26004420432545,26.7913098536483],[86.26002094749973,26.791404569434036],[86.2600619634702,26.791481529463347],[86.26033387799012,26.79167708382664],[86.26060485434125,26.791931280253667],[86.26087164553226,26.792395413996868],[86.26114031083168,26.792764769611026],[86.26153727184264,26.79307604485355],[86.2616614442173,26.793232464199242],[86.26185070271582,26.793330491105007],[86.26242334871583,26.7933199200064],[86.26287250993822,26.793137174400517],[86.26304163525676,26.793158365869232],[86.26312591651258,26.793197188636793],[86.26345722930392,26.793605180283222],[86.26358315195262,26.793684890397337],[86.26388088479023,26.793632246504],[86.26398573614107,26.79370951821514],[86.26439820720815,26.794309814952282],[86.26462760654975,26.79452550082239],[86.26463135555632,26.794333632804758]]]}},{"type":"Feature","properties":{"province":"Madhesh Province","district":"Siraha","municipality":"Naraha Rural Municipality","ward":"2","wardNumber":2,"sourceMunicipality":"Naraha","sourceType":"Gaunpalika"},"geometry":{"type":"Polygon","coordinates":[[[86.3024666232,26.810241912955103],[86.3035984718684,26.81003302741817],[86.30372570641913,26.810053969428033],[86.30358271172685,26.809726000237642],[86.30322437696807,26.808401364802418],[86.30302229492864,26.80782244708235],[86.30298402793878,26.8075920671794],[86.3030180946504,26.806906052935403],[86.30327485975265,26.80568606735209],[86.30343234898697,26.805230869568135],[86.30370456215513,26.80431797362975],[86.30379727768998,26.803916667687286],[86.30384622842642,26.803573753668864],[86.30385266467839,26.80323071559097],[86.30390955002291,26.802465739725367],[86.303843395152,26.802022986114114],[86.30381469513775,26.801833242918924],[86.3035680989038,26.801371547124283],[86.3032769876146,26.801002191709316],[86.3022324058734,26.79996996209472],[86.30172640478412,26.799712391690782],[86.30167432283103,26.79969863831491],[86.30138765570238,26.79962949613662],[86.30098125764509,26.79969977071163],[86.30087553231498,26.79971727724843],[86.30071778621449,26.799700711200668],[86.30066307930058,26.799700399131037],[86.30053684463753,26.799614000376643],[86.30043411681305,26.799441950646727],[86.30029418545536,26.798978503787932],[86.3000694099357,26.798516933159895],[86.29992941504403,26.798055674534066],[86.2993890847353,26.797414241648706],[86.29928960623161,26.797068390728224],[86.29933574576985,26.796879022202106],[86.2995081196297,26.796766987750644],[86.29989051008917,26.796811746959495],[86.30058957912395,26.796957407349225],[86.30129121099243,26.796990222347187],[86.30154667940246,26.79697565315738],[86.30173937373742,26.796922448065754],[86.30201941100707,26.7967364530537],[86.30212832390936,26.796603787834147],[86.30348243478807,26.795919697164187],[86.30432310897409,26.79536171250587],[86.3048386691237,26.795122699164715],[86.3050971994231,26.794954709682393],[86.30559406334639,26.794582407835847],[86.30574636687172,26.79441160659327],[86.30624279361612,26.794057372106938],[86.3071978169194,26.793100393922526],[86.30732686303178,26.793026558339303],[86.30758358093968,26.79295334625688],[86.30790326020758,26.792920958375095],[86.3074937251279,26.792110850072227],[86.30693326139131,26.79141290096017],[86.30655893107418,26.790966399280745],[86.30647546201797,26.790889189858078],[86.30603498494406,26.790575602326157],[86.30580389829949,26.790418683405672],[86.30530139710247,26.790007630352733],[86.30486048238791,26.78971204781499],[86.30461107525245,26.78942190312542],[86.30406812008367,26.788895503870187],[86.30369510225374,26.788392673172414],[86.30311019496689,26.787845705596737],[86.3026272639944,26.78753180658802],[86.30233409177735,26.787295614601728],[86.30214445831395,26.787197650937387],[86.30170273192189,26.78694039225438],[86.30074619410156,26.786904079147085],[86.29981116463358,26.786849823084346],[86.29938713443725,26.786784558261182],[86.29913454013953,26.786645581986004],[86.2990511964755,26.786548117379656],[86.29901099203936,26.786432708688444],[86.2988779337291,26.78562853637069],[86.29888249477456,26.785398344258514],[86.29880215019091,26.785167651987],[86.29872005563827,26.785013795475926],[86.29807963597185,26.785116707123255],[86.29756632551609,26.785260879377823],[86.29696860847078,26.78536404107054],[86.29577005031601,26.785726034432276],[86.29500139632776,26.785864458822115],[86.29414846098108,26.78596405887793],[86.29412707902252,26.78596393453379],[86.29361551750551,26.78601107805219],[86.29276439424407,26.78601596360767],[86.29200261342557,26.785811161577037],[86.29166473911329,26.78568987914633],[86.2910698959563,26.785641746146112],[86.29090108410551,26.78557997955118],[86.29047399073306,26.785650067023738],[86.29030111548485,26.78564694281465],[86.28987996167135,26.78562000172887],[86.28920096367679,26.785607630496706],[86.28877468436718,26.785695785652173],[86.2884981454743,26.785728235800146],[86.28834984109115,26.785707168171825],[86.28816145872356,26.785568566854376],[86.28778631721292,26.785219031258897],[86.28714469713582,26.784403173229755],[86.28683351609746,26.784033692425346],[86.28675085983939,26.783918159875643],[86.28658898282713,26.783513292375638],[86.28630149709771,26.783031091832708],[86.28584251194025,26.78262016265652],[86.28576579118395,26.78221798295518],[86.285768103291,26.78210288728136],[86.2861929939773,26.78102150255659],[86.2865850687139,26.78051103611382],[86.2866767847544,26.780170622580272],[86.286036490864,26.780347994092732],[86.28543790004606,26.780548183997354],[86.28483681020835,26.780901856086345],[86.28402001821101,26.781401073510775],[86.28346331826054,26.781639836882263],[86.28226719877517,26.782019773514552],[86.28115873455131,26.782248914753538],[86.28100824391474,26.782340756000625],[86.28092146312562,26.782435097020308],[86.28089639418255,26.782626840659358],[86.28103907517674,26.782934554538556],[86.28111760755274,26.78324195695768],[86.28128135889,26.78354979554718],[86.28144698417067,26.78376504458946],[86.28158979064322,26.78405250271507],[86.28202183209356,26.78474989014773],[86.28214644125241,26.784885990999854],[86.28251464774857,26.785580816102687],[86.28298782914926,26.78633490776619],[86.28335603499531,26.78702973371359],[86.28384416465923,26.788108920421806],[86.28427445656123,26.788883080264377],[86.28454318489872,26.78925012285441],[86.28468561573263,26.789557836894836],[86.28470249939619,26.789770086625555],[86.28492783741812,26.79019339572738],[86.28548005200169,26.791236759511524],[86.28593353863943,26.79193202096581],[86.28603626621492,26.792088315433592],[86.2864459874035,26.792842032905455],[86.28689460114886,26.79376754963377],[86.28701733621844,26.79399842933304],[86.28713957217468,26.794267631455718],[86.28810257060523,26.79600606942485],[86.28822386909995,26.796315909541242],[86.28832472200186,26.79658505016593],[86.28850898097936,26.79693133720461],[86.28865291137627,26.79716465458879],[86.28885949045589,26.797454549497708],[86.28926671309907,26.79832111208106],[86.28938944842923,26.798554241858636],[86.29001562872698,26.79969957230264],[86.29008653121964,26.799828609288404],[86.29030117836902,26.80025629540676],[86.2904754330644,26.800602520083956],[86.29063799850319,26.80100738740635],[86.29090716456807,26.80141281620425],[86.2910707281368,26.801761228505256],[86.29135996455332,26.802225424469498],[86.29170847562361,26.802922437877154],[86.29193618855106,26.803271162927405],[86.29253248278353,26.804371230408734],[86.29287674545365,26.805298436051643],[86.29308313802056,26.8056448483669],[86.29316560750578,26.805780637152075],[86.29345628139777,26.806168123383532],[86.29364322749507,26.806401627386194],[86.29392921510858,26.807039498743812],[86.29425996768884,26.807562586218822],[86.29456833698839,26.808142003878757],[86.29485207517531,26.808892845861102],[86.29526248594388,26.809705267947244],[86.29555278469223,26.810113009579585],[86.29598426477838,26.81092324299245],[86.29631233078588,26.811581745076108],[86.2969980786112,26.811341355555857],[86.29793929343418,26.811088709166018],[86.29862435317982,26.810868574206275],[86.29999184890303,26.81058185142459],[86.30059056584788,26.81043811495106],[86.30152765714566,26.810377274723294],[86.3024666232,26.810241912955103]]]}},{"type":"Feature","properties":{"province":"Madhesh Province","district":"Siraha","municipality":"Naraha Rural Municipality","ward":"3","wardNumber":3,"sourceMunicipality":"Naraha","sourceType":"Gaunpalika"},"geometry":{"type":"Polygon","coordinates":[[[86.31090803235617,26.820910520303077],[86.31106358456275,26.820565854799018],[86.31106552065215,26.82045075843683],[86.31098586292427,26.82016367451322],[86.31078034502814,26.819758620698245],[86.31059658598454,26.819353690911704],[86.31048059741242,26.81872106944622],[86.31033897819918,26.818316326612674],[86.31019542197951,26.818026680911586],[86.30990506075669,26.817621252224203],[86.30970191714378,26.817101101724038],[86.30949552480178,26.816752438686077],[86.3092106613602,26.816060301403493],[86.30892323625986,26.815481071489874],[86.30886489927498,26.815194113131074],[86.30887139702828,26.814848761803606],[86.30889571600103,26.814677335825152],[86.30900750313945,26.814393438719044],[86.30903126028662,26.814258086851822],[86.30898980738996,26.814201507727137],[86.30892647041966,26.8141627472363],[86.30875597150168,26.8141777532884],[86.30798375611215,26.81450810859514],[86.30755778826,26.814537620976594],[86.30713050871717,26.814625839408603],[86.30687329113212,26.814717118750465],[86.30659650264163,26.814731563571975],[86.30655404922474,26.81473137637459],[86.3063192141563,26.814764075583504],[86.3059789645726,26.81475789038284],[86.3056365912355,26.81484879500951],[86.30550935703671,26.814827853195258],[86.30538305896224,26.814748205525895],[86.30532996989544,26.814174600778852],[86.3050526667683,26.813078468686232],[86.30466545158006,26.812153326426806],[86.30448044133001,26.81180703893957],[86.30409753713217,26.810653954772167],[86.30380817579291,26.810189759295426],[86.30372570641913,26.810053969428033],[86.3035984718684,26.81003302741817],[86.3024666232,26.810241912955103],[86.30152765714566,26.810377274723294],[86.30059056584788,26.81043811495106],[86.29999184890303,26.81058185142459],[86.29862435317982,26.810868574206275],[86.29793929343418,26.811088709166018],[86.2969980786112,26.811341355555857],[86.29631233078588,26.811581745076108],[86.29598426477838,26.81092324299245],[86.29555278469223,26.810113009579585],[86.29526248594388,26.809705267947244],[86.29485207517531,26.808892845861102],[86.29456833698839,26.808142003878757],[86.29425996768884,26.807562586218822],[86.29392921510858,26.807039498743812],[86.29364322749507,26.806401627386194],[86.29345628139777,26.806168123383532],[86.29316560750578,26.805780637152075],[86.29308313802056,26.8056448483669],[86.29287674545365,26.805298436051643],[86.29253248278353,26.804371230408734],[86.29193618855106,26.803271162927405],[86.29170847562361,26.802922437877154],[86.29135996455332,26.802225424469498],[86.2910707281368,26.801761228505256],[86.29090716456807,26.80141281620425],[86.29063799850319,26.80100738740635],[86.2904754330644,26.800602520083956],[86.29030117836902,26.80025629540676],[86.29008653121964,26.799828609288404],[86.29001562872698,26.79969957230264],[86.28938944842923,26.798554241858636],[86.28926671309907,26.79832111208106],[86.28885949045589,26.797454549497708],[86.28865291137627,26.79716465458879],[86.28850898097936,26.79693133720461],[86.28832472200186,26.79658505016593],[86.28822386909995,26.796315909541242],[86.28810257060523,26.79600606942485],[86.28713957217468,26.794267631455718],[86.28701733621844,26.79399842933304],[86.28689460114886,26.79376754963377],[86.2864459874035,26.792842032905455],[86.28603626621492,26.792088315433592],[86.28593353863943,26.79193202096581],[86.28548005200169,26.791236759511524],[86.28492783741812,26.79019339572738],[86.28470249939619,26.789770086625555],[86.28403901108648,26.790044424030732],[86.28361354404545,26.79009419264284],[86.28258579920988,26.790533707661268],[86.28207292683898,26.790696010136685],[86.2815589296048,26.790934835401398],[86.28132234489567,26.791105200827484],[86.28097997162375,26.791252497324784],[86.28046897462839,26.79136047171619],[86.27979297529511,26.79121481078326],[86.27911872606497,26.790974434657688],[86.27869838320252,26.790775881420647],[86.27819125912531,26.79067173060197],[86.27785388437185,26.79057070438986],[86.27760154141014,26.790451984728946],[86.27717926008896,26.790350583991533],[86.27641591882981,26.79033771355942],[86.27626799003072,26.790316646348412],[86.27609805348607,26.790333840777926],[86.27577762532474,26.790442813553405],[86.27513364558983,26.79085487805795],[86.27453499253257,26.79109557996096],[86.27402355696307,26.791221622584548],[86.27351455851218,26.79121225013339],[86.27283899724546,26.79104858421829],[86.27222777210727,26.79084678058476],[86.27195579455959,26.790651288878816],[86.27170676285252,26.79036101845925],[86.27162416898655,26.790243234621865],[86.27150243274502,26.789953713498335],[86.27135725260179,26.78977916370801],[86.27123564207672,26.789489579794168],[86.27107045410482,26.789258514173103],[86.27088294595053,26.789081463781354],[86.2705269381445,26.78884714856191],[86.27030391200972,26.788306554293992],[86.27020093540025,26.78815019698025],[86.26995090301936,26.787916443630944],[86.26959545755818,26.78764374238111],[86.26921438002802,26.78759885818371],[86.26874914676964,26.78753328084449],[86.26824008628961,26.78752615948532],[86.2677921737935,26.78765251342972],[86.26766300345697,26.787766985435344],[86.26759654384664,26.787917780350238],[86.26769645941259,26.78822762050538],[86.26766589193197,26.788724079591525],[86.26742812084954,26.788950836181705],[86.26708593456532,26.78910038364215],[86.26695663924237,26.789212479793555],[86.26684747641478,26.789363212430146],[86.26688661733112,26.789537201367573],[86.26703111029623,26.789750136991504],[86.26715628285221,26.789847851900664],[86.26743000938555,26.789966634289748],[86.26744876745823,26.790081854762388],[86.26732047132629,26.790137622788173],[86.26708707408744,26.790154442825926],[86.26697791063542,26.790305175590905],[86.26699785648427,26.7903820108291],[86.26710152110877,26.79049991924275],[86.26735430171811,26.790598320433922],[86.26762640386119,26.790775745025396],[86.26785636463191,26.790953044216515],[86.26785492708399,26.791029754648786],[86.26766167130208,26.79115966979377],[86.26638183402693,26.791523289069556],[86.26587083599492,26.791631263734452],[86.2649367455969,26.79167378563519],[86.26466002054418,26.79172655451723],[86.26442381095573,26.79187660038024],[86.26437998285876,26.791953123129755],[86.26449984413713,26.792337485364097],[86.2645758157046,26.792798369434582],[86.26463135555632,26.794333632804758],[86.26462760654975,26.79452550082239],[86.26471076264504,26.79460264820544],[86.26508952748483,26.794762628836615],[86.26525790320179,26.794842525622276],[86.26540433216277,26.794940302983107],[86.26559152816267,26.795135420877408],[86.26560835020624,26.79536573800503],[86.26538896226273,26.795743913279807],[86.26536495561885,26.795897208767887],[86.26552551959529,26.79636078103657],[86.265539342639,26.79674458055762],[86.2655803584205,26.796821540479055],[86.26580894527275,26.79707330000708],[86.2664344925421,26.797640835389682],[86.2667638069966,26.79816173470987],[86.26695181575548,26.798318465689736],[86.26716183060184,26.79841886871615],[86.2674551905495,26.798614485518648],[86.26783026894867,26.798966397765135],[86.26842149492593,26.799700732071152],[86.26884540563579,26.80022663170657],[86.26975925283242,26.801258362729126],[86.27004736360821,26.801722620992614],[86.27060538984446,26.802497406042136],[86.27120187060625,26.80348468973658],[86.27145052790836,26.80379521564546],[86.27196360198687,26.80470528980506],[86.27225196245841,26.80514922955602],[86.2728122379338,26.80581123064775],[86.27312179472916,26.806275551664783],[86.27355764806278,26.806781133052958],[86.27392904011425,26.807322538122353],[86.27394898643081,26.807399372758635],[86.27415562760503,26.80769164434759],[86.27423591012355,26.807922274118503],[86.27439966066585,26.80823236271971],[86.27452420853494,26.808386531750244],[86.27522341628132,26.80954805315601],[86.27536715904428,26.80979937580028],[86.27553747149378,26.809764113243407],[86.27624072559118,26.80960293388095],[86.27681387231553,26.80957416962895],[86.27713398830826,26.809483327481452],[86.27745647826085,26.809256944636264],[86.27784049166499,26.80914828433377],[86.27847572449947,26.809196666583123],[86.27873044287107,26.809200228076726],[86.27911501875334,26.809053180288412],[86.27934885323613,26.809018292593773],[86.27943319769993,26.809057053182528],[86.27955780668552,26.809193154819383],[86.28005274748078,26.80994955940644],[86.280479166448,26.810953974457924],[86.28072688610163,26.811320955144517],[86.28091489395683,26.811477686136644],[86.28154444081231,26.81183297210134],[86.28200267654353,26.812279972914258],[86.2821915595741,26.812398318362714],[86.28238112953773,26.812457959592226],[86.28263547259637,26.8124817762782],[86.28308157268962,26.81245019987891],[86.28322906497685,26.812491585231456],[86.28347947199616,26.812725338809617],[86.28354118324805,26.812822679535415],[86.28372962857868,26.812959092324494],[86.28385611283541,26.813000353378715],[86.28398347147383,26.81300097704625],[86.28406887812254,26.812965340393124],[86.28426263408683,26.812815044712345],[86.28438999349675,26.812815668010543],[86.28470635964634,26.81291663274011],[86.28501997714115,26.813150697461612],[86.2854633904218,26.813254474001063],[86.28573630455922,26.813411642061936],[86.28609187548193,26.813686531596545],[86.28623605615145,26.813917535677405],[86.28633672174762,26.814206931658155],[86.28635641738889,26.814283766276418],[86.28647346711045,26.81482386133809],[86.28640713213733,26.81497478131089],[86.28633473695221,26.815434917444005],[86.28635299497638,26.81558852504484],[86.28643502715963,26.815742381726345],[86.28670425507207,26.816091356035987],[86.28726990354794,26.816464397207596],[86.28760634131234,26.81662412882496],[86.28783686520322,26.816781046901227],[86.28827415494753,26.81720979349715],[86.28847904800944,26.817594591851712],[86.28855964255894,26.81782753409002],[86.28880705020481,26.81821477070781],[86.28901038011797,26.81867852986339],[86.28933800820687,26.819296395475206],[86.28949757379019,26.81983442624962],[86.28990917026874,26.82051368388527],[86.29003365531666,26.820667790567498],[86.29015920173117,26.8207655681961],[86.29030119145702,26.820795512922565],[86.2903495220199,26.82080707813852],[86.29150156562383,26.820652583164502],[86.29207927480591,26.82050647233071],[86.29303968690444,26.82036904671072],[86.29495632292974,26.82030182001702],[86.29604203245205,26.820300433040074],[86.29623366473429,26.82028330063333],[86.29629837468944,26.820245226545715],[86.29712824096623,26.820258471703017],[86.29802025549044,26.820348488694922],[86.29840370716491,26.82033691926843],[86.29842540338807,26.820337043863795],[86.2988928866136,26.820361921571383],[86.29918943346455,26.820424311622446],[86.29963347289079,26.82058454148685],[86.30001604948924,26.82060898196919],[86.30084354159999,26.82075751749162],[86.30192843852969,26.820792203915964],[86.30288747462674,26.820711107870835],[86.30314281829146,26.82071460574895],[86.3045454570848,26.8208321261279],[86.30556451880686,26.820981534019104],[86.30620056472122,26.821106564185374],[86.30715447849548,26.821312114571814],[86.3075356816495,26.82141326530491],[86.3083596122493,26.82173335092029],[86.30964571555043,26.822405472061725],[86.30995939662513,26.822698179338037],[86.31023018609667,26.82300876837838],[86.31033228979499,26.823239521911656],[86.31073993578082,26.823072156110502],[86.31151121403619,26.822798255506147],[86.31202558759249,26.82261338324002],[86.3123471409291,26.822484029653644],[86.31260573313301,26.822315977478134],[86.31243842006914,26.822159433331464],[86.31201626299642,26.82196100438084],[86.31127948792904,26.821528510211344],[86.31102826858168,26.821312887136916],[86.31094529889714,26.82119735337188],[86.31090803235617,26.820910520303077]]]}}]}