{"type":"FeatureCollection","features":[{"type":"Feature","properties":{"province":"Madhesh Province","district":"Sarlahi","municipality":"Chandranagar Rural Municipality","ward":"1","wardNumber":1,"sourceMunicipality":"Chandranagar","sourceType":"Gaunpalika"},"geometry":{"type":"Polygon","coordinates":[[[85.58686800605378,26.941185915883576],[85.586137731359,26.940372932043484],[85.58596929444887,26.94027415447825],[85.5858840133175,26.940273342447338],[85.5856258568277,26.940401632131127],[85.58536895095578,26.940455524858887],[85.58519913805489,26.940415450983696],[85.58465380980978,26.939967636250664],[85.58423552789735,26.939559456428753],[85.58400425405816,26.939401411951053],[85.58350250388783,26.938897580058324],[85.58304008179157,26.938565673334455],[85.58221890136824,26.938054153782225],[85.58179580724067,26.937876042131855],[85.58171008806217,26.937859475932562],[85.58111524390316,26.937751948536622],[85.58060749432707,26.937532387648748],[85.58026718140216,26.937452240915313],[85.57941549360034,26.93734440290921],[85.57916108685865,26.937244812993818],[85.57850665672983,26.936870333333427],[85.5783782971722,26.936889276541795],[85.57829382851192,26.93684789037949],[85.57800059294536,26.936558307221738],[85.57774706213391,26.936420330925376],[85.57698140541201,26.93627498121186],[85.57646878029638,26.936285612750584],[85.57617117026844,26.936223847274956],[85.57604437344092,26.93614588725375],[85.57594008372989,26.93602972933008],[85.57573325557583,26.93568231606545],[85.57517954283385,26.934525730533963],[85.57499065949895,26.93435005515277],[85.57473587781473,26.934288788973536],[85.57447965897882,26.93428616456093],[85.57336494006891,26.934518678460883],[85.57302325252002,26.93453105976864],[85.57234131542218,26.934465483095945],[85.57199887803314,26.93451612510748],[85.57169989291879,26.934513189213487],[85.57153389221679,26.93424292297813],[85.5714945636689,26.934068747699488],[85.57149975138097,26.933782163193747],[85.5718321174321,26.9331558516275],[85.57182029610732,26.9326388878959],[85.5717596465182,26.93246446210484],[85.57159289671364,26.93223258264357],[85.57109089511982,26.93165197793695],[85.57069199555151,26.931282309118394],[85.57043921373746,26.9310856906167],[85.5704577220624,26.931239298172326],[85.57034137147832,26.931755013246],[85.56988189603653,26.93232362132972],[85.56905591232751,26.933075848426608],[85.56853747495452,26.933375314536697],[85.56810650655036,26.93357850222728],[85.56775906848867,26.933701415772845],[85.56763321028474,26.933745304879647],[85.56702974187353,26.934023578078037],[85.56670443768613,26.934286595076742],[85.56650799268122,26.934512600513553],[85.56641952386501,26.934665146583257],[85.56635112557737,26.934894651784575],[85.56643228244248,26.93512565663754],[85.5670367608641,26.935937515587675],[85.56724308970091,26.936323314804785],[85.56744529474572,26.936939244777733],[85.56769470114696,26.937307413501053],[85.56790134330215,26.93769315027125],[85.56796111665776,26.93792396767811],[85.56799525842592,26.938382477031364],[85.56813581388843,26.938844361675464],[85.56810861967807,26.939130696396912],[85.56793480662692,26.93928242933328],[85.56750358880986,26.93950599809158],[85.56698833877971,26.939651981985786],[85.56673168206216,26.939685493876265],[85.56647571312139,26.939662613813763],[85.56602748620645,26.93963773510435],[85.56534723554422,26.939436743231948],[85.56406726584616,26.939340223908975],[85.56287570265751,26.939073091017715],[85.562621295675,26.93895537080815],[85.56219545223519,26.938872162167144],[85.56211017016878,26.93887116239372],[85.56189515522618,26.938945748257385],[85.56174147552075,26.9391541229127],[85.56169452336363,26.939381565712516],[85.56190116455805,26.939767364982924],[85.56235558797154,26.940598105650356],[85.56247663589227,26.940982904990612],[85.56268296461971,26.941368704515714],[85.56284940283452,26.941600584312045],[85.56328219359077,26.94244908007586],[85.56340324162886,26.942834004746842],[85.56361088318886,26.94314309414328],[85.56379970344543,26.943318770023826],[85.56436835248114,26.94371050572579],[85.56468559560749,26.943867174848247],[85.56557504902212,26.944226023970632],[85.56612344010746,26.94457693483602],[85.56639622978518,26.94481212767353],[85.56662494100837,26.94512146625337],[85.56676918463612,26.945391482346192],[85.56686934856607,26.945737770630625],[85.5668005760358,26.945967276457374],[85.5665605524876,26.946231167832448],[85.56634372467893,26.94640053239067],[85.56608544404668,26.946510753636076],[85.56548403768824,26.946694249459426],[85.56454094433664,26.946890000905057],[85.56428391270705,26.946925763570732],[85.56334238090142,26.947044867227664],[85.56291160068623,26.947230050393042],[85.5627161551006,26.94739960112418],[85.5625791090295,26.94785636123564],[85.56252122004135,26.94862314954149],[85.56254898663259,26.94938856141391],[85.5625856903471,26.949695839602644],[85.5625780654664,26.95007726388023],[85.56271087222842,26.950922636434793],[85.56276170917819,26.951611526055828],[85.56277721747746,26.95190054827778],[85.56277296710404,26.95211042197678],[85.56254164124314,26.953026692996737],[85.56229362813599,26.954784586152943],[85.5621306994776,26.955471289102707],[85.56214439571663,26.955852838613794],[85.56205011447528,26.956312286924355],[85.56200553979463,26.95672259524096],[85.5619981004391,26.95679024027018],[85.56191170289988,26.957917759430835],[85.56201268060894,26.958225786887365],[85.56212572901485,26.958992073592928],[85.56230555023882,26.95960775331529],[85.56239715273233,26.960376102866157],[85.56272409228635,26.961146764953305],[85.56330381238689,26.962055402913755],[85.56357091536309,26.962595309717333],[85.56421309616697,26.96359941193725],[85.56456073111082,26.96438839204098],[85.56463838740657,26.96477281638339],[85.56463551287885,26.964926236550166],[85.56456817734683,26.965097100059467],[85.56452372373616,26.965173372341436],[85.56432827932568,26.96534292400958],[85.56406918582407,26.96549153200192],[85.56327639681733,26.96563464155935],[85.56310364658722,26.96572773340356],[85.56308101418153,26.96580419269152],[85.56316335774035,26.96595848753623],[85.56328384243174,26.966343412984777],[85.56333067314334,26.966420622077784],[85.56347041409894,26.966652252172313],[85.56365848454077,26.966866313209533],[85.56394634604926,26.967483117648687],[85.56415454957292,26.96777413899471],[85.5644277768098,26.968027461856884],[85.56459427781137,26.968259341234038],[85.56490608359583,26.968722912454812],[85.5653194918038,26.969496762232794],[85.56548599187629,26.96972864129675],[85.56575371966889,26.970268548198526],[85.56595498689279,26.970961188032103],[85.56607790974807,26.971251334787766],[85.5663317538569,26.971368992502164],[85.56671408271501,26.971490212834762],[85.56677773091855,26.971511218121023],[85.56807389621099,26.97187419082377],[85.56941207754373,26.972275924224036],[85.57017742252509,26.97245972296701],[85.57094026697469,26.972796941287534],[85.57188912031353,26.973463318032024],[85.5727127395669,26.973972711972163],[85.57288180287532,26.97407142719649],[85.57360000643213,26.974502986475482],[85.57406405503467,26.974837206198927],[85.57410607078194,26.974875967686856],[85.57454867286432,26.97518743090548],[85.57530758088153,26.975736711652594],[85.5761286374855,26.97639952588492],[85.57676181076272,26.97680989131558],[85.57720360114732,26.977182247312083],[85.57745706976029,26.977338229500123],[85.57771147640672,26.977437881400007],[85.57832632896377,26.977696828550577],[85.57838979088976,26.977735839250972],[85.57887547122604,26.97802960949227],[85.57944755762395,26.978288181815817],[85.57976698801478,26.978329816748527],[85.58021559011783,26.97833650271215],[85.58162223143775,26.978490538181177],[85.581710389386,26.978514044189676],[85.58206845865885,26.978612383017506],[85.58232267780045,26.978730040813915],[85.58280767125333,26.979082516164638],[85.58326971957818,26.979529581393674],[85.58433605947205,26.980808574383524],[85.58500231188505,26.981774478030086],[85.58575897014248,26.98245686097191],[85.58626565869271,26.982789205127073],[85.58645641688436,26.982867851610585],[85.58704944923662,26.983144616380887],[85.5873126668317,26.98276581537124],[85.58783397861981,26.982274542198578],[85.58807687658172,26.981836849747992],[85.58820761031737,26.981684678610993],[85.58866271092853,26.981325882669722],[85.58872742213713,26.981288120956517],[85.58890042163495,26.981177025073748],[85.5892030936563,26.980970149432817],[85.5895049526029,26.980801597237242],[85.59002913878086,26.980156842079218],[85.59020545120077,26.979851688237954],[85.59021907400967,26.97908671356682],[85.59042226837069,26.978474845005575],[85.59055450218199,26.978248215174734],[85.59120698498195,26.97758664056389],[85.59153235203269,26.977303242248574],[85.59214281850204,26.976602907532367],[85.59242341943434,26.976395844496476],[85.59253270802049,26.976243423876497],[85.59305220733236,26.975792725801895],[85.59318412825361,26.975563782619705],[85.59359815030419,26.975035311420662],[85.59388312587691,26.97457998859361],[85.59451359992391,26.973861772850295],[85.59518434082196,26.973297352401005],[85.59540004314265,26.973148369210563],[85.59563662876022,26.97303783485662],[85.59576755028517,26.972865346192798],[85.59615756500249,26.972490045686573],[85.59642040821478,26.972090926111964],[85.59655307908487,26.971805653396608],[85.59695227938658,26.970893195136096],[85.59732703444563,26.97015216215519],[85.5973957452528,26.96986626576734],[85.59740436880759,26.96934948840759],[85.5973645397997,26.96917756368641],[85.59732402427818,26.96904402478193],[85.5970728669354,26.968752628188625],[85.59686460073748,26.968461668980652],[85.59674024039099,26.968230226697496],[85.59653222359812,26.96792120032169],[85.59649033280257,26.967864371441895],[85.59624305039203,26.967342782699518],[85.59614213485833,26.96699649401797],[85.59614544658834,26.966806938515376],[85.59618977457382,26.966710284484332],[85.59631425557082,26.96642038622923],[85.59670207662803,26.965512428675016],[85.59670857558726,26.965167202385413],[85.59666912209913,26.964995339835404],[85.5965678326793,26.964705380063982],[85.59625652734489,26.964241871442443],[85.59607195528876,26.963838316978997],[85.59542796140256,26.962908797943086],[85.59501430328838,26.962214035076308],[85.59483010751264,26.961808229254242],[85.59456025518229,26.961403800332405],[85.5944410194079,26.960942164972664],[85.5939138755041,26.959478926143127],[85.59387485973053,26.95926867758735],[85.59381771037907,26.958902445102705],[85.59397001506521,26.9587527757638],[85.59433421054196,26.958661620513706],[85.59446356943063,26.95858616011393],[85.59429738157758,26.95835428122764],[85.59409380229664,26.957835442109882],[85.59348418918553,26.956217846603312],[85.59317594593851,26.955580598758814],[85.59275853809812,26.955095709706622],[85.59229599094053,26.954763865587328],[85.5920422722398,26.954664275861237],[85.59174747538108,26.954469470377152],[85.59137058390098,26.954118182973556],[85.59116194302452,26.95388586597435],[85.59082987903976,26.953422169516255],[85.59078973889369,26.953306636159994],[85.59066506696809,26.953131585719575],[85.5904452292097,26.95238236656044],[85.59023883853936,26.95203495383793],[85.58969443686804,26.95041810735541],[85.58947116192027,26.949840314723232],[85.58920405964724,26.949320788869645],[85.5891235280743,26.949089784207946],[85.58893151032984,26.947995526111757],[85.58888254806543,26.94722767578264],[85.58876643820257,26.946614872109453],[85.58890104694015,26.946270895110207],[85.58891635689692,26.945467534233348],[85.58881205824203,26.944259054798508],[85.58871220622284,26.943912703921157],[85.58842709582339,26.943219251519363],[85.5882038211923,26.942641521563328],[85.58810053160197,26.94246897136302],[85.58797717239813,26.94223746713865],[85.58793571870918,26.94217838683388],[85.5877685311727,26.942005212429237],[85.58713848346171,26.94153620410599],[85.58686800605378,26.941185915883576]]]}},{"type":"Feature","properties":{"province":"Madhesh Province","district":"Sarlahi","municipality":"Chandranagar Rural Municipality","ward":"2","wardNumber":2,"sourceMunicipality":"Chandranagar","sourceType":"Gaunpalika"},"geometry":{"type":"Polygon","coordinates":[[[85.59753113758212,26.973275578796144],[85.59856151215293,26.972888582072578],[85.59873319927023,26.972833877217962],[85.59901205027533,26.972741848127175],[85.59926945606806,26.9726496324464],[85.59961133116684,26.972634937569094],[85.60037811352923,26.972705765488755],[85.60054798834518,26.972745776011156],[85.60088673922431,26.97290263237058],[85.60131102082214,26.973044482787003],[85.60199483256237,26.97297677126301],[85.60216595770282,26.97294238472061],[85.60250983198472,26.97279227507439],[85.60293786306814,26.97270399602541],[85.60310967543701,26.972628972953054],[85.60396667496548,26.972413966292677],[85.60516261268293,26.972335496734473],[85.60567604962016,26.972245779676864],[85.60601854927765,26.97217469366531],[85.60627651792024,26.972064408810326],[85.60670436160946,26.971994135587618],[85.60721917395446,26.971809640032905],[85.60867239248371,26.971659209965235],[85.60873654024607,26.97164176727917],[85.60980443144365,26.97158005399],[85.61091296297853,26.971615805958013],[85.6115997740541,26.97135847526854],[85.61211371152537,26.97125069000538],[85.61228352422565,26.971290700566048],[85.61253680615069,26.97146700080728],[85.61310283102199,26.97206829823904],[85.61329358979697,26.97214700684455],[85.61405862107527,26.972312487585636],[85.6144857774174,26.972298605028882],[85.61482627744829,26.97234255310537],[85.61495388722973,26.9723641214301],[85.61491387149722,26.972210263941236],[85.61472511307929,26.972014332956153],[85.61443131515992,26.971704493649796],[85.61409706355607,26.971279184162945],[85.61378200753967,26.970987163296666],[85.61334252939083,26.97046376204893],[85.61307111469418,26.970097718920535],[85.61284365225556,26.96967347168282],[85.61267477659999,26.969554437502158],[85.61235765850327,26.969377512583716],[85.61223186208332,26.969261167461987],[85.61156310900985,26.96841048455286],[85.61131595058656,26.96787082792642],[85.6111969020527,26.967332607834297],[85.61115732364038,26.967140364238634],[85.61113694115487,26.967083722591717],[85.61103452587139,26.966832150023414],[85.61093161154014,26.966601020050213],[85.61087715238124,26.966419904887253],[85.61077067217842,26.96606448839076],[85.61056446820527,26.965676500928627],[85.61019038849952,26.9651356576538],[85.60962742630134,26.96443951972184],[85.60939421509335,26.96435824772013],[85.60882225319584,26.96414037480938],[85.6085679093684,26.96405891588004],[85.60767533108663,26.963874118266688],[85.60710293224287,26.963692443727822],[85.60691292459673,26.963575473104886],[85.60680850978214,26.96345931464441],[85.60672685368829,26.963266634239496],[85.60673816475982,26.962655141445588],[85.6065974212665,26.962193319409167],[85.60643479553171,26.961769696008446],[85.60631337208686,26.9614028393455],[85.60610873093054,26.96094039237269],[85.60583862855071,26.96055403118846],[85.60519888368319,26.959396695588698],[85.60509940626574,26.959012021035957],[85.60485487333308,26.95839571642676],[85.6045963324984,26.957395549624156],[85.60458619755212,26.95678380765419],[85.60450660347011,26.956476092509483],[85.60434160235238,26.956167503338364],[85.6042408751766,26.95585960084558],[85.60416121847048,26.95555182384127],[85.60407899933467,26.955377272926714],[85.60384553795339,26.955316256573578],[85.60352623396291,26.95529281425798],[85.6032051164159,26.95534601976998],[85.60294971050855,26.955323202795267],[85.60250467072237,26.955163096722885],[85.6022495150222,26.95512221094157],[85.60205881884856,26.955061632117097],[85.60196178398937,26.955065196832756],[85.60192977272803,26.955116774154597],[85.60177428077792,26.955440245863002],[85.60149286700474,26.95566543856959],[85.60132099301471,26.955740462434036],[85.60097818049553,26.955811548222478],[85.60003215038604,26.956219674453937],[85.59951515008947,26.95649894815149],[85.59921260460509,26.956703572941866],[85.59869666745664,26.95692645480636],[85.59826957335413,26.9569402743161],[85.59809851107025,26.956974660145175],[85.59783973041701,26.9571255193647],[85.59768692563125,26.95731363784089],[85.59761702850963,26.95761991649899],[85.59746216175463,26.957923068772562],[85.59746091131431,26.957999778673983],[85.5976025925952,26.958402896702463],[85.59757939745066,26.95849973746963],[85.59751468598473,26.958537436041276],[85.59725778064994,26.958589078376416],[85.59683199912804,26.958546506465336],[85.5959771242548,26.958628286418396],[85.59563643630429,26.95860459491032],[85.5952933740091,26.958695936547915],[85.59494931224857,26.958843732414614],[85.59477924982846,26.9588217269823],[85.59446356943063,26.95858616011393],[85.59433421054196,26.958661620513706],[85.59397001506521,26.9587527757638],[85.59381771037907,26.958902445102705],[85.59387485973053,26.95926867758735],[85.5939138755041,26.959478926143127],[85.5944410194079,26.960942164972664],[85.59456025518229,26.961403800332405],[85.59483010751264,26.961808229254242],[85.59501430328838,26.962214035076308],[85.59542796140256,26.962908797943086],[85.59607195528876,26.963838316978997],[85.59625652734489,26.964241871442443],[85.5965678326793,26.964705380063982],[85.59666912209913,26.964995339835404],[85.59670857558726,26.965167202385413],[85.59670207662803,26.965512428675016],[85.59631425557082,26.96642038622923],[85.59618977457382,26.966710284484332],[85.59614544658834,26.966806938515376],[85.59614213485833,26.96699649401797],[85.59624305039203,26.967342782699518],[85.59649033280257,26.967864371441895],[85.59653222359812,26.96792120032169],[85.59674024039099,26.968230226697496],[85.59686460073748,26.968461668980652],[85.5970728669354,26.968752628188625],[85.59732402427818,26.96904402478193],[85.5973645397997,26.96917756368641],[85.59740436880759,26.96934948840759],[85.5973957452528,26.96986626576734],[85.59732703444563,26.97015216215519],[85.59695227938658,26.970893195136096],[85.59655307908487,26.971805653396608],[85.59642040821478,26.972090926111964],[85.59615756500249,26.972490045686573],[85.59576755028517,26.972865346192798],[85.59563662876022,26.97303783485662],[85.59574385557805,26.97300057303991],[85.59591523040689,26.972963873874942],[85.59625541795177,26.97302595237991],[85.59676485674528,26.97318674544381],[85.59753113758212,26.973275578796144]]]}},{"type":"Feature","properties":{"province":"Madhesh Province","district":"Sarlahi","municipality":"Chandranagar Rural Municipality","ward":"3","wardNumber":3,"sourceMunicipality":"Chandranagar","sourceType":"Gaunpalika"},"geometry":{"type":"Polygon","coordinates":[[[85.63025435109415,26.977370354279067],[85.63050693170815,26.976065969540542],[85.6306979337452,26.975528435099214],[85.63090762201034,26.974072443314576],[85.63109762193132,26.973304654102883],[85.6311393839208,26.97292135330436],[85.63105165604667,26.97200195888759],[85.63124121636666,26.971006164500107],[85.63130467523638,26.970812732907053],[85.63134687655605,26.9706032335413],[85.63145222177218,26.970067075299827],[85.63149436076378,26.969835006614456],[85.63149260414588,26.96922332697694],[85.63140556708152,26.968610897828658],[85.63116853484765,26.967766714164267],[85.63112464041197,26.967384851538956],[85.63114432802074,26.966694399382522],[85.63115364144748,26.96641913092693],[85.63118558252852,26.96546703803067],[85.63135582495616,26.96471937951478],[85.63133456736108,26.96468080579929],[85.63129148823685,26.964644233499648],[85.63095011411158,26.96468155864655],[85.63052314558956,26.964758709645928],[85.62994649773223,26.964874935450663],[85.62956223292161,26.96499084796482],[85.62937022601638,26.96501154270791],[85.62892168565259,26.964973346850854],[85.62877238013532,26.964877132617396],[85.62868684769651,26.96476341231478],[85.62866533849501,26.964589423605997],[85.6286648973964,26.96420799952376],[85.62866483096023,26.96382432419609],[85.62851426224965,26.962367084822958],[85.62830030275715,26.961678883783545],[85.62800211785506,26.960222520539673],[85.62787450443325,26.959760823349416],[85.62776771326615,26.95953188255743],[85.62753355549272,26.958534278680524],[85.62723550025827,26.957615010316943],[85.62691606354451,26.956772327468293],[85.62655386277468,26.956159400451934],[85.6264260001539,26.955853499289727],[85.62638342017276,26.95562286944497],[85.62638391374362,26.9549322287373],[85.6263413967718,26.954778371749818],[85.62623473184426,26.95464414515389],[85.62602146502806,26.95447278417854],[85.62565895523265,26.95429998614985],[85.62546707049192,26.954128874859038],[85.62519027832975,26.95366792829555],[85.62476429644491,26.952289339003734],[85.62442316779993,26.951886535668745],[85.62427429726479,26.951445032173044],[85.62416781885317,26.95129273795524],[85.62395442679043,26.951159763576687],[85.62380518406263,26.951081553741094],[85.62378392913435,26.951331878083057],[85.62386877847894,26.951964687923002],[85.62382613835595,26.952079347138532],[85.62361268836763,26.95236618295619],[85.62352740922879,26.95259781402196],[85.6235908131603,26.95328682878965],[85.6233923069981,26.953688885523334],[85.62344132835167,26.954034674188144],[85.62350504093106,26.95420678663784],[85.62350516769604,26.954380588083048],[85.6234195756872,26.954609968567155],[85.62339231557041,26.954598402861585],[85.6233809983807,26.95459383911509],[85.62241301995226,26.954663366454984],[85.62229123403408,26.955567258383596],[85.62232531256608,26.956028018159426],[85.62244061088738,26.956719720501386],[85.62247319102721,26.95725500254263],[85.62263412935177,26.957793721794292],[85.62292136526145,26.958410401203725],[85.6230835537717,26.95887241019317],[85.62324699274606,26.959257710285375],[85.62290499257858,26.959290472055795],[85.62258312528266,26.959400194459825],[85.6212950956377,26.959841270684453],[85.62043740827038,26.960078909079982],[85.61992347162135,26.960184506717056],[85.61949419076332,26.960331490470335],[85.61880587843588,26.960647525883747],[85.61848163698788,26.960872344034193],[85.6180527931097,26.961001260251965],[85.61710601306177,26.96144564798026],[85.6167625141225,26.961575501198666],[85.61633360766537,26.961684098850633],[85.61573538924594,26.961732429995077],[85.61530760789849,26.961802703290914],[85.61496354581217,26.961950561883505],[85.61436307704803,26.962134245399497],[85.61359173375149,26.962314054009727],[85.61290435989758,26.962571321566013],[85.61178607964212,26.96305240874439],[85.61167685368619,26.96320476675226],[85.6116740408035,26.963358249224463],[85.61158413569372,26.9636056352347],[85.61121606599511,26.963886470656224],[85.61095915990376,26.963940301097324],[85.61061784706067,26.963936927215055],[85.61001637904491,26.964177002469093],[85.60962742630134,26.96443951972184],[85.61019038849952,26.9651356576538],[85.61056446820527,26.965676500928627],[85.61077067217842,26.96606448839076],[85.61087715238124,26.966419904887253],[85.61093161154014,26.966601020050213],[85.61103452587139,26.966832150023414],[85.61113694115487,26.967083722591717],[85.61115732364038,26.967140364238634],[85.6111969020527,26.967332607834297],[85.61131595058656,26.96787082792642],[85.61156310900985,26.96841048455286],[85.61223186208332,26.969261167461987],[85.61235765850327,26.969377512583716],[85.61267477659999,26.969554437502158],[85.61284365225556,26.96967347168282],[85.61307111469418,26.970097718920535],[85.61334252939083,26.97046376204893],[85.61378200753967,26.970987163296666],[85.61409706355607,26.971279184162945],[85.61443131515992,26.971704493649796],[85.61472511307929,26.972014332956153],[85.61491387149722,26.972210263941236],[85.61495388722973,26.9723641214301],[85.61527075514941,26.97255911377519],[85.61569153786569,26.97291077692487],[85.6160892500305,26.9733750972477],[85.61660857292716,26.97422428025101],[85.61707068340938,26.97467122138038],[85.61729945842332,26.975018758599116],[85.61808899691384,26.975010688318694],[85.61928374760485,26.975008804268732],[85.61979293587645,26.975189853096403],[85.62013262329275,26.975269937213238],[85.62038959235517,26.975218232668553],[85.62056027957648,26.975219919133956],[85.6209004670463,26.975281934704796],[85.62225965651723,26.97566528784714],[85.62249174239552,26.975821019169526],[85.62270044731663,26.97611197766029],[85.6226536823942,26.976359801411352],[85.62273527652258,26.976590806154714],[85.62281874576817,26.976688646598394],[85.62303101164521,26.976767480779515],[85.62339270862799,26.976983166394504],[85.62339258598611,26.977226925381256],[85.62369838690903,26.97745780320339],[85.62384800486042,26.977533762316437],[85.62418956699072,26.97743779430942],[85.62427491063568,26.97743635536635],[85.62433899703514,26.9774753665243],[85.62440364701744,26.97764754167001],[85.62455514752752,26.97845246404127],[85.624641119068,26.978681281055966],[85.62466425833435,26.97937210848082],[85.62451539403891,26.979600864830484],[85.62406804601176,26.98000504903652],[85.62383327366724,26.980120146820383],[85.62376937628312,26.980196232091465],[85.62368484708244,26.980466250202262],[85.62372780209792,26.98063817484928],[85.62389911677502,26.980791093767213],[85.62462569646078,26.98094263274219],[85.62641947860676,26.98096006249839],[85.62676147924668,26.981015325934575],[85.62691109744958,26.981111540540912],[85.62701845089364,26.981245766375793],[85.62708303874099,26.981456266011875],[85.6270836048663,26.98174291243449],[85.62689253866097,26.982203798939633],[85.62655248145464,26.98272176619238],[85.62642512493261,26.983068118831948],[85.62642581565392,26.98329606125569],[85.62648990234774,26.98341184461858],[85.62668253604195,26.98352656457654],[85.62678951340042,26.98358401787045],[85.62696032629775,26.98360370952422],[85.62740899129813,26.983659973033227],[85.62757980409384,26.983677476621278],[85.62762263202731,26.98367785151082],[85.62798526360564,26.983485041998343],[85.62821997273761,26.983369944299213],[85.6291164253041,26.983195823805143],[85.62935126059546,26.983177817382536],[85.62943660435081,26.98317637877931],[85.62956408685554,26.98294737311268],[85.62984087251992,26.982582200626293],[85.62994697152287,26.98235307036902],[85.63007338619825,26.981661366080303],[85.63011452118175,26.981124583331887],[85.63017565833955,26.979976370490096],[85.63023924233183,26.97974455217475],[85.63030175971846,26.979207956723673],[85.63032069591343,26.978289561210612],[85.63025579374677,26.977905261114884],[85.63025435109415,26.977370354279067]]]}},{"type":"Feature","properties":{"province":"Madhesh Province","district":"Sarlahi","municipality":"Chandranagar Rural Municipality","ward":"6","wardNumber":6,"sourceMunicipality":"Chandranagar","sourceType":"Gaunpalika"},"geometry":{"type":"Polygon","coordinates":[[[85.63586460178651,26.930950988806245],[85.6359049861552,26.930341997131382],[85.63599038912263,26.929938815505977],[85.63599057408548,26.929631787294113],[85.63594774459226,26.929480243830238],[85.63596931044091,26.929019983337387],[85.636097353406,26.928635306388728],[85.63622533598267,26.928406300612977],[85.63639639226275,26.927791806800887],[85.63643927615226,26.927024831332357],[85.63652474063026,26.92656519543871],[85.63650372484781,26.925644175026072],[85.63644001114395,26.9253365851119],[85.63639736581224,26.924801302795757],[85.63640055390472,26.924742660446096],[85.63641768182222,26.924417814924784],[85.63630926174272,26.923807324090713],[85.63632675748832,26.922658736935055],[85.63643166486496,26.922045806188002],[85.63642990958336,26.921510836046966],[85.63638639151088,26.921280268993314],[85.63630104655032,26.9211869297275],[85.63615161662996,26.921147106232073],[85.63570382812156,26.92114729693899],[85.63538377280081,26.921110288539452],[85.63493648581542,26.921246018959163],[85.63485151766864,26.921321854577574],[85.63468151931974,26.92145564506613],[85.63455403728729,26.92166652042616],[85.63451202293545,26.921837758590993],[85.63438460254326,26.92201024801231],[85.63421598416214,26.922584104939194],[85.63376976259677,26.923101261006007],[85.63357844411912,26.923255119603887],[85.63345064794439,26.923256120510167],[85.63332241204577,26.923160093478383],[85.6331509103199,26.92295078363363],[85.63274519718671,26.922739224627268],[85.6323612438231,26.922683648366778],[85.63197691321446,26.922454209039365],[85.63178496776378,26.92239594289047],[85.63140101403141,26.92234030438166],[85.63088957770269,26.922416580439045],[85.63031374152564,26.922379448951876],[85.63012135728847,26.922226342590015],[85.63001394052436,26.921979270872296],[85.62997035945217,26.921671930972444],[85.62988470112757,26.921519887415634],[85.62975640350716,26.92140579215826],[85.6295215041592,26.921308702718502],[85.62913798877102,26.921347904867687],[85.62888195781903,26.921309270483636],[85.62881799665941,26.92129057739102],[85.6286254862727,26.921119466166754],[85.62851806986102,26.920890462251883],[85.62841115461764,26.920756235920564],[85.62819638419785,26.92029829096103],[85.62808865444359,26.919915804659087],[85.62797954379437,26.919072870102383],[85.62789351076921,26.91884411598078],[85.62778665769395,26.918730207985522],[85.62753025082527,26.91861486358023],[85.62746635163859,26.918614239133873],[85.6269557936702,26.918959156850725],[85.62657227806228,26.91899829582984],[85.62593154089812,26.918655762814844],[85.62554714862014,26.91848277716325],[85.62522721754485,26.91838937710945],[85.62509910825298,26.918311417033305],[85.62503502160227,26.918254338376943],[85.62501326237043,26.918177315980945],[85.62501269781525,26.91798782298691],[85.6251398041835,26.917679856394283],[85.62535194199077,26.917393020875043],[85.62528772943561,26.91724116377062],[85.6251379862193,26.917126819204313],[85.6248392511367,26.91701110005908],[85.6245825287478,26.916685881178818],[85.62432605897473,26.91655240624998],[85.62411210300495,26.916286330148413],[85.62381292918784,26.91609383787735],[85.62370601435609,26.915979929945433],[85.6237051355693,26.91563682907501],[85.62383192811653,26.915252152645134],[85.62383123957017,26.915100920695608],[85.62380979294824,26.915023961236546],[85.62361740888765,26.914852787711727],[85.62339188657812,26.914633974464138],[85.62326027522727,26.914506250670616],[85.62311940704029,26.914103195830887],[85.6230625701874,26.913757281597704],[85.62306725788125,26.9135294022336],[85.62300823367438,26.91328051757175],[85.62269199188921,26.91312172318095],[85.62247891346684,26.913119598747567],[85.62235299130826,26.913021383972616],[85.6222914056613,26.912907912737296],[85.6223636156507,26.912506857059057],[85.62260607577726,26.912109738638712],[85.62262902148638,26.912033215861285],[85.62258831820995,26.911938126038105],[85.62246289608464,26.911821718112705],[85.62223005991251,26.911740445655397],[85.6220616220286,26.91164398087386],[85.62177007517627,26.911313948749715],[85.62145477080759,26.911100951015488],[85.62128614597773,26.91102030335181],[85.62086005211631,26.91101393019997],[85.62031328613021,26.910663268250566],[85.61987437128322,26.910236896300148],[85.6195813249548,26.909983511701512],[85.61943451950556,26.909866978197222],[85.61911821559532,26.909710434602466],[85.61827002778435,26.909508068897924],[85.61750787214521,26.90926819163212],[85.6170056836235,26.908820876622517],[85.61692434006427,26.90862813235626],[85.6166544880196,26.908280282608455],[85.61642346473857,26.908124551253348],[85.61616924604961,26.908045279248356],[85.61600080863755,26.907946626708085],[85.61560528475478,26.907502624469526],[85.61516618226044,26.907094257523447],[85.61451406529562,26.906683954592015],[85.61434431494332,26.906643881105577],[85.61349356578243,26.906574616635496],[85.61263894147243,26.906694908943333],[85.61212319161048,26.906897472281834],[85.61184452851164,26.906989563594248],[85.61165295794962,26.906985438766238],[85.61122842707373,26.906904542951604],[85.61063558379091,26.906722681438442],[85.61021423977982,26.9064883027682],[85.60996052134755,26.906388775935827],[85.60953505248872,26.90636433399934],[85.60927820924685,26.906415913465224],[85.60902374064649,26.906356960850374],[85.60860214698867,26.906140712505003],[85.60834767757844,26.9060795090145],[85.60817874082119,26.905998861266717],[85.60778165461564,26.905631569422358],[85.60719224761944,26.905278157296387],[85.60702274821982,26.90523814690317],[85.60693690429713,26.90525533938187],[85.60672051439192,26.9054247664529],[85.6066351083115,26.905441959180905],[85.60646429560317,26.905458340208977],[85.60627310046108,26.905418079587974],[85.60606302253142,26.905280603561163],[85.60581374021162,26.90497345286033],[85.60564642838509,26.904818346048316],[85.6052957320807,26.904259684209638],[85.60477434887352,26.903717341043908],[85.60435538021892,26.903365678707324],[85.60397998927093,26.90297825460386],[85.60397317663823,26.903303225575794],[85.60391784973253,26.90391428044468],[85.60390847499855,26.904372352000586],[85.60398744426175,26.90467787884359],[85.60391567231851,26.905058553948816],[85.60374179746138,26.905228417386006],[85.60290199381829,26.90565567375929],[85.60259644726165,26.906013781208895],[85.60207601097467,26.906444224701357],[85.60194508946603,26.906596519909087],[85.6018353005654,26.90674656451682],[85.6017667154627,26.90697613300855],[85.60176365322619,26.907127302288377],[85.60186400486211,26.907435204476837],[85.60186187963575,26.90752998230385],[85.6018178022791,26.907606317966216],[85.60168794262925,26.90769984589282],[85.60130492775914,26.90767571664993],[85.60115424829046,26.907748739133748],[85.60104502157093,26.907880778805893],[85.60099781946653,26.908110533855638],[85.60118001444661,26.90857048053588],[85.60135752308912,26.90926061993073],[85.60155953982989,26.909797526193813],[85.6015579777108,26.909874235527987],[85.60148882919053,26.91012187144234],[85.60146644721355,26.91017807585743],[85.60128651024534,26.91063446094561],[85.60112795607574,26.911088783055245],[85.60110338614169,26.911242015558237],[85.60085642595898,26.91184894613853],[85.60032211508097,26.912967653366895],[85.60008221740546,26.913231607539934],[85.59919433688513,26.91392475520349],[85.59853822901782,26.914737436835196],[85.59818641665149,26.915266656923777],[85.59730135725526,26.916855879958902],[85.5966634447014,26.91782229392815],[85.59626099336597,26.91873237628568],[85.5960215958471,26.91897601210199],[85.5955237916331,26.919350250467975],[85.59532709668014,26.919576255998212],[85.5951085814564,26.919840398140938],[85.59544439481827,26.920094220398667],[85.59592332432119,26.920636188298264],[85.59616810619806,26.92115546442844],[85.59683710639804,26.921775954333956],[85.59706663041187,26.922026526010598],[85.59733904478405,26.92224139973154],[85.59760839715955,26.92260744286889],[85.59785974034772,26.92282206685495],[85.59817554565171,26.923017058700555],[85.59827927262032,26.923153472954297],[85.5983400461452,26.923305329971598],[85.59841557717944,26.92376646501331],[85.59839907884592,26.924567513092573],[85.59843915745884,26.924683046391834],[85.59847842207013,26.924742126031983],[85.59870832127922,26.92508747551766],[85.59874977471593,26.925146555517067],[85.59899968159392,26.925455956909598],[85.59906151829473,26.92557167824069],[85.5994599791775,26.925902897764566],[85.59983887010632,26.926139089120397],[85.60017711992589,26.926277877427207],[85.60051430749621,26.92647305763751],[85.60080822994273,26.926708436414383],[85.60095584751078,26.926786646664322],[85.60130773093199,26.927327302843015],[85.6014068335645,26.927711915028425],[85.60142434027809,26.927770806769935],[85.60144703671696,26.927847766560777],[85.6015306931421,26.927925289284133],[85.60172132541967,26.92798586766152],[85.60197610704124,26.928026753588092],[85.60256920116696,26.92822674487361],[85.60290920061503,26.92827069339725],[85.60358551339581,26.92856852594004],[85.60383998241417,26.928629729047568],[85.60400898261936,26.92870806359383],[85.60421862273158,26.928883989064737],[85.60438506091347,26.929095549717534],[85.60463621793934,26.92933049145644],[85.60522306185692,26.929855392152486],[85.60553730425553,26.930127094329283],[85.60574700805519,26.930302894734886],[85.6061695393927,26.93050120004279],[85.60665871921985,26.930546647096275],[85.60708325003058,26.930629793297427],[85.60725231266451,26.930708189853636],[85.60758743802177,26.931020717279434],[85.60781933653172,26.9311561922656],[85.6079885869709,26.931216521953502],[85.60815683682803,26.931333242468344],[85.60826062587151,26.931469719193164],[85.60834072074807,26.931739110115004],[85.60837236193731,26.93231490352924],[85.60874050438917,26.93312426373222],[85.60882009915987,26.933411722839775],[85.60878552954222,26.934099737475073],[85.60884636658636,26.934274100840387],[85.60892252307626,26.93473523615448],[85.60908539956284,26.935138665646086],[85.60933011850497,26.935716645945657],[85.60934819003992,26.935888321642217],[85.60945016615634,26.936119514183563],[85.60957583826617,26.936238110125622],[85.60980779952942,26.936373522825814],[85.61048529998355,26.93659464575768],[85.61078347174518,26.936617775814447],[85.6108898234957,26.936621150299075],[85.61249097085819,26.936510481834382],[85.61257643950218,26.936491037256467],[85.6126465250795,26.936166691601375],[85.61278432035263,26.935633158793355],[85.61317752190176,26.935140448481185],[85.61352370884669,26.934859488807994],[85.61408959848697,26.93425561970672],[85.61465455030185,26.933687886739914],[85.6153707430081,26.933008806740247],[85.6158236562755,26.93272884612293],[85.61642887427904,26.932296901893995],[85.61688197507486,26.93199893622902],[85.61787495769359,26.931360866714456],[85.6183899568007,26.931178559176264],[85.61890295623796,26.931109097564757],[85.62001242504822,26.931086082725148],[85.6209472687073,26.93127125539165],[85.62137036348493,26.931451430364778],[85.6217074887049,26.93168493400457],[85.62202185612087,26.931976954922508],[85.62245995912797,26.932500230190833],[85.62308600746599,26.9332556347384],[85.62335392089565,26.93348626352032],[85.62339212209797,26.933554283136218],[85.62372831333857,26.93415339409274],[85.62377083034858,26.934307376328967],[85.62374970076002,26.93457570558977],[85.6237702175448,26.935629890125337],[85.62372745457023,26.93593641777725],[85.6235994114907,26.93632115702724],[85.62364137875959,26.937930754615987],[85.6237474862619,26.938620205831675],[85.62372542797678,26.93992452684474],[85.62359744874693,26.94053714494639],[85.62349047783458,26.94115226423304],[85.62340494987576,26.941535127611477],[85.62344721970028,26.941995949718713],[85.62339214061939,26.942358806965117],[85.62336238178102,26.942554865115355],[85.62339201850453,26.942681589569407],[85.62344679045061,26.942914532386823],[85.62348906160834,26.943528900187413],[85.62342491784612,26.943988660998954],[85.62344611615451,26.944295813448942],[85.6233920347872,26.944444294408548],[85.62334057929772,26.944585961954548],[85.62334039442439,26.94483647241419],[85.62339210162963,26.944906930610106],[85.62370153118593,26.945329740163718],[85.62406379394439,26.94584788942308],[85.6244471911367,26.94663255485541],[85.62476706132091,26.94699678486253],[85.62504391562756,26.947245480394894],[85.62534240276666,26.947553068188988],[85.625662085466,26.947878912143224],[85.6260457933615,26.948453702707692],[85.62627988330946,26.948932154143105],[85.62642931487134,26.94912320968692],[85.6268130214721,26.949467807670267],[85.62700496734143,26.949582402137843],[85.62764451592287,26.949830158066643],[85.62783621191859,26.9499087424938],[85.62830538571836,26.95013674371428],[85.62856123189962,26.950308479385697],[85.62900926541211,26.94975312536449],[85.62939340262417,26.949330310591623],[85.62973477041335,26.948563958210208],[85.6301617943863,26.947796166916376],[85.63033235464327,26.947565347948256],[85.63065253210485,26.947277323090418],[85.6310577405105,26.94706682070643],[85.631569738001,26.94679642538616],[85.63233745408672,26.946469823893572],[85.6334254070875,26.945606874709586],[85.63440657318147,26.94501150524627],[85.6355795576124,26.9441471176444],[85.63688083472755,26.94289799082608],[85.6373076117054,26.942437164641547],[85.63777684195477,26.942053485640237],[85.63860883072373,26.94161235044461],[85.63899265766058,26.941496438117646],[85.6389286306858,26.94111213841461],[85.63880101742929,26.940652754515437],[85.63880120115071,26.940269078973387],[85.63865207822498,26.93965596291394],[85.63863062990124,26.93936912823394],[85.63852439827157,26.93875419865395],[85.63848181890751,26.93867930240606],[85.63835401423553,26.937759470211844],[85.63826910637825,26.937623243556803],[85.63816237702667,26.93733784805076],[85.63803445508991,26.937241820693263],[85.63792803892824,26.937010566149098],[85.63773646463828,26.936550557565777],[85.63765130352016,26.936091547890083],[85.63739551658563,26.93547749481064],[85.63724652241378,26.93517134288946],[85.63658570792435,26.934099720995853],[85.63643671188316,26.933716797141205],[85.63628765126468,26.933024719284415],[85.63622362580051,26.9327961529324],[85.63613865572337,26.932641858165674],[85.63601097889588,26.932105702145382],[85.63586191405325,26.93099381397024],[85.63586460178651,26.930950988806245]]]}},{"type":"Feature","properties":{"province":"Madhesh Province","district":"Sarlahi","municipality":"Chandranagar Rural Municipality","ward":"7","wardNumber":7,"sourceMunicipality":"Chandranagar","sourceType":"Gaunpalika"},"geometry":{"type":"Polygon","coordinates":[[[85.63580925891162,26.970402641287894],[85.63565819787905,26.969789525183643],[85.63522915894367,26.969101513318222],[85.63492923340122,26.968719465686046],[85.6340297700986,26.967742497613163],[85.63385807881784,26.96743615928189],[85.63357947385255,26.967092623167552],[85.63347237017723,26.966861368442288],[85.63323653139072,26.96657472353391],[85.63317575705601,26.966418427978983],[85.63308653529796,26.966191861850174],[85.63308609283119,26.965731414496684],[85.6332136944956,26.96488847837596],[85.63321375712539,26.96483214924378],[85.6332775266956,26.9644490356851],[85.63351160563846,26.963681683480218],[85.63357537446988,26.963221860496155],[85.63357530918786,26.962991668359937],[85.63321179487521,26.962302030639588],[85.63321173146849,26.96214854864928],[85.63336046780317,26.9615361169696],[85.63336033862115,26.96107566935356],[85.63340278888602,26.96076914124599],[85.63333851241111,26.960538262145793],[85.63308203999387,26.960079878666612],[85.63261179843036,26.95939149271222],[85.63246217814367,26.959083090443567],[85.6322054561788,26.95870141822317],[85.63205577157872,26.958165074438565],[85.6320556446793,26.958070296603278],[85.63205539362231,26.957934881158142],[85.63207665010347,26.957763518027104],[85.63224733599405,26.957550766939114],[85.63252487345984,26.957436106022453],[85.63275964593369,26.957339076026223],[85.6329305207539,26.957263989906387],[85.63331440789187,26.956917823495356],[85.6334852820658,26.95682016852447],[85.63450990324864,26.95641704246232],[85.6348514025427,26.95632107405906],[85.63510749728196,26.95633932751443],[85.63562012408973,26.95656770369614],[85.63630368888984,26.9567210556952],[85.63655990821911,26.956834086927582],[85.63681619142804,26.9569877550255],[85.63726492300123,26.957504466718884],[85.63745743532183,26.95796447530483],[85.63767151955595,26.958596221177537],[85.63771441164181,26.958824600711228],[85.63790686199347,26.959343314437117],[85.63801371553225,26.95951586451714],[85.6382703124685,26.959859151022144],[85.63846282283858,26.960032512269226],[85.63871891680789,26.960127538482883],[85.63880457326981,26.960126100170825],[85.638868533354,26.96006801997374],[85.63895368885045,26.959897344187024],[85.6388680283973,26.959456403149886],[85.63895324355326,26.959150249936524],[85.639315810243,26.958688799270153],[85.63935819997666,26.95859214551215],[85.63940089932306,26.958285617687935],[85.639400394041,26.957673999922683],[85.6394852960419,26.95728882443664],[85.63929278260471,26.95669565124493],[85.6392923429552,26.956388685822198],[85.63959094589136,26.95577544088058],[85.63978301489676,26.955565127766217],[85.64010268842094,26.954949757015438],[85.64016652205811,26.954720251720993],[85.64016645795111,26.9545667067168],[85.64005916256252,26.95387731765443],[85.63995212182445,26.95366638172755],[85.63971715833456,26.95349483254781],[85.63933276702798,26.9533624837731],[85.639204595267,26.95336123497379],[85.63886284375478,26.953247390994907],[85.63867064661457,26.953076217954287],[85.63856373123764,26.952903667875596],[85.63867045544558,26.952672224264933],[85.63935326437682,26.952306424118998],[85.63943841908602,26.95213568580984],[85.63954507979976,26.951750696502216],[85.63973683515711,26.951481803811962],[85.64001430940556,26.951213598158745],[85.64056919644382,26.95083073094019],[85.64076095206947,26.950618167144025],[85.64084616917853,26.950465497227796],[85.6409525787225,26.94996772495541],[85.64082383556146,26.949047893030652],[85.64084540183471,26.948587694874266],[85.64137877515218,26.947608716523572],[85.64159216171886,26.947109755805744],[85.64144297719673,26.946688507800282],[85.641315053556,26.946459378609525],[85.64101669079461,26.946057012815714],[85.64071857199957,26.945058784293863],[85.64042027085154,26.944523254818062],[85.6402495814512,26.94429368812956],[85.64003656098139,26.943833429828068],[85.63997272479126,26.94377641374558],[85.63978090146864,26.94339305174932],[85.6395037958343,26.942952612174224],[85.63939725342485,26.94257012562217],[85.63920549138223,26.942204957336962],[85.63901385344404,26.94159146643096],[85.63899265766058,26.941496438117646],[85.63860883072373,26.94161235044461],[85.63777684195477,26.942053485640237],[85.6373076117054,26.942437164641547],[85.63688083472755,26.94289799082608],[85.6355795576124,26.9441471176444],[85.63440657318147,26.94501150524627],[85.6334254070875,26.945606874709586],[85.63233745408672,26.946469823893572],[85.631569738001,26.94679642538616],[85.6310577405105,26.94706682070643],[85.63065253210485,26.947277323090418],[85.63033235464327,26.947565347948256],[85.6301617943863,26.947796166916376],[85.62973477041335,26.948563958210208],[85.62939340262417,26.949330310591623],[85.62900926541211,26.94975312536449],[85.62856123189962,26.950308479385697],[85.62830538571836,26.95013674371428],[85.62783621191859,26.9499087424938],[85.62764451592287,26.949830158066643],[85.62700496734143,26.949582402137843],[85.6268130214721,26.949467807670267],[85.62642931487134,26.94912320968692],[85.62627988330946,26.948932154143105],[85.6260457933615,26.948453702707692],[85.625662085466,26.947878912143224],[85.62534240276666,26.947553068188988],[85.62504391562756,26.947245480394894],[85.62476706132091,26.94699678486253],[85.6244471911367,26.94663255485541],[85.62406379394439,26.94584788942308],[85.62370153118593,26.945329740163718],[85.62339210162963,26.944906930610106],[85.62334039442439,26.94483647241419],[85.62334057929772,26.944585961954548],[85.6233920347872,26.944444294408548],[85.62344611615451,26.944295813448942],[85.62342491784612,26.943988660998954],[85.62348906160834,26.943528900187413],[85.62344679045061,26.942914532386823],[85.62339201850453,26.942681589569407],[85.62336238178102,26.942554865115355],[85.62339214061939,26.942358806965117],[85.62344721970028,26.941995949718713],[85.62340494987576,26.941535127611477],[85.62349047783458,26.94115226423304],[85.62359744874693,26.94053714494639],[85.62372542797678,26.93992452684474],[85.6237474862619,26.938620205831675],[85.62364137875959,26.937930754615987],[85.6235994114907,26.93632115702724],[85.62372745457023,26.93593641777725],[85.6237702175448,26.935629890125337],[85.62374970076002,26.93457570558977],[85.62377083034858,26.934307376328967],[85.62372831333857,26.93415339409274],[85.62339212209797,26.933554283136218],[85.62335392089565,26.93348626352032],[85.62308600746599,26.9332556347384],[85.62245995912797,26.932500230190833],[85.62202185612087,26.931976954922508],[85.6217074887049,26.93168493400457],[85.62137036348493,26.931451430364778],[85.6209472687073,26.93127125539165],[85.62001242504822,26.931086082725148],[85.61890295623796,26.931109097564757],[85.6183899568007,26.931178559176264],[85.61787495769359,26.931360866714456],[85.61688197507486,26.93199893622902],[85.61642887427904,26.932296901893995],[85.6158236562755,26.93272884612293],[85.6153707430081,26.933008806740247],[85.61465455030185,26.933687886739914],[85.61408959848697,26.93425561970672],[85.61352370884669,26.934859488807994],[85.61317752190176,26.935140448481185],[85.61278432035263,26.935633158793355],[85.6126465250795,26.936166691601375],[85.61257643950218,26.936491037256467],[85.61301304285789,26.937111466963994],[85.61317623095219,26.937514770989317],[85.6132540758378,26.937917326898088],[85.61322845337992,26.93929604415699],[85.61308140983694,26.940328349051658],[85.61307197355438,26.94084506307163],[85.6131124262074,26.94096059691992],[85.61315312929062,26.94105574952565],[85.61325598168636,26.941268936287194],[85.61354690429755,26.941675803932995],[85.61375054650168,26.942194642220866],[85.61381995482301,26.943057457123963],[85.61389886207012,26.94340355829237],[85.613933253787,26.94386206796918],[85.6140161598183,26.943980226772428],[85.6144153711429,26.94431144612144],[85.61458443428462,26.944389843728377],[85.61527925518985,26.94487735667162],[85.61538310736171,26.9450340892793],[85.61540274006883,26.945129117096222],[85.61543656966748,26.94560794496498],[85.61545357834325,26.945838262301823],[85.61553554708844,26.946010624698157],[85.61587211079339,26.946264384760624],[85.6160625558952,26.946345282176992],[85.61657405543453,26.94637059776349],[85.61734683602948,26.946096074626446],[85.61743193005177,26.946114954086273],[85.6174703834971,26.946345522187897],[85.61748201800518,26.946862548675295],[85.61757793292708,26.947438966765493],[85.61807287251342,26.948364672992096],[85.61832340475135,26.948656006402967],[85.61842575639817,26.948887198501584],[85.61863602276291,26.949042743479556],[85.61914377359349,26.949280184160514],[85.61926900839602,26.94941678589521],[85.61947602432534,26.949764136318482],[85.61966522008848,26.949919493116724],[85.61993813445474,26.9501546226927],[85.62029845481564,26.95027321713816],[85.62089567440738,26.95026327243141],[85.6211508930258,26.950306345508746],[85.62131970585068,26.950402810109832],[85.62191279981705,26.950641063386907],[85.62214394878508,26.9508171134535],[85.62231326161823,26.950897760592532],[85.62282376165567,26.950961400585367],[85.62307841817135,26.951042860733956],[85.62331650451497,26.95098427920407],[85.6233922195411,26.95099853268217],[85.62380518406263,26.951081553741094],[85.62395442679043,26.951159763576687],[85.62416781885317,26.95129273795524],[85.62427429726479,26.951445032173044],[85.62442316779993,26.951886535668745],[85.62476429644491,26.952289339003734],[85.62519027832975,26.95366792829555],[85.62546707049192,26.954128874859038],[85.62565895523265,26.95429998614985],[85.62602146502806,26.95447278417854],[85.62623473184426,26.95464414515389],[85.6263413967718,26.954778371749818],[85.62638391374362,26.9549322287373],[85.62638342017276,26.95562286944497],[85.6264260001539,26.955853499289727],[85.62655386277468,26.956159400451934],[85.62691606354451,26.956772327468293],[85.62723550025827,26.957615010316943],[85.62753355549272,26.958534278680524],[85.62776771326615,26.95953188255743],[85.62787450443325,26.959760823349416],[85.62800211785506,26.960222520539673],[85.62830030275715,26.961678883783545],[85.62851426224965,26.962367084822958],[85.62866483096023,26.96382432419609],[85.6286648973964,26.96420799952376],[85.62866533849501,26.964589423605997],[85.62868684769651,26.96476341231478],[85.62877238013532,26.964877132617396],[85.62892168565259,26.964973346850854],[85.62937022601638,26.96501154270791],[85.62956223292161,26.96499084796482],[85.62994649773223,26.964874935450663],[85.63052314558956,26.964758709645928],[85.63095011411158,26.96468155864655],[85.63129148823685,26.964644233499648],[85.63133456736108,26.96468080579929],[85.63135582495616,26.96471937951478],[85.63118558252852,26.96546703803067],[85.63115364144748,26.96641913092693],[85.63114432802074,26.966694399382522],[85.63112464041197,26.967384851538956],[85.63116853484765,26.967766714164267],[85.63140556708152,26.968610897828658],[85.63149260414588,26.96922332697694],[85.63149436076378,26.969835006614456],[85.63145222177218,26.970067075299827],[85.63134687655605,26.9706032335413],[85.63160259399494,26.97046800408304],[85.63211477927771,26.970294699289273],[85.63237087332124,26.9703129530423],[85.63288368755764,26.970428482936697],[85.63356725044464,26.97048474436207],[85.63425112715994,26.970617778425286],[85.6351912870421,26.970884162146106],[85.63536235044202,26.970960370953406],[85.63604572537311,26.970978183391182],[85.63606704574286,26.970958052154927],[85.6360883029068,26.97091991587209],[85.63610962350714,26.97090209831462],[85.63613088140498,26.97086164832999],[85.63580925891162,26.970402641287894]]]}},{"type":"Feature","properties":{"province":"Madhesh Province","district":"Sarlahi","municipality":"Chandranagar Rural Municipality","ward":"5","wardNumber":5,"sourceMunicipality":"Chandranagar","sourceType":"Gaunpalika"},"geometry":{"type":"Polygon","coordinates":[[[85.5952933740091,26.958695936547915],[85.59563643630429,26.95860459491032],[85.5959771242548,26.958628286418396],[85.59683199912804,26.958546506465336],[85.59725778064994,26.958589078376416],[85.59751468598473,26.958537436041276],[85.59757939745066,26.95849973746963],[85.5976025925952,26.958402896702463],[85.59746091131431,26.957999778673983],[85.59746216175463,26.957923068772562],[85.59761702850963,26.95761991649899],[85.59768692563125,26.95731363784089],[85.59783973041701,26.9571255193647],[85.59809851107025,26.956974660145175],[85.59826957335413,26.9569402743161],[85.59869666745664,26.95692645480636],[85.59921260460509,26.956703572941866],[85.59951515008947,26.95649894815149],[85.60003215038604,26.956219674453937],[85.60097818049553,26.955811548222478],[85.60132099301471,26.955740462434036],[85.60149286700474,26.95566543856959],[85.60177428077792,26.955440245863002],[85.60192977272803,26.955116774154597],[85.60196178398937,26.955065196832756],[85.60163178837294,26.955073201304288],[85.60148154604475,26.95513040663172],[85.60128928811704,26.955146475175276],[85.60116199162287,26.95510458937784],[85.60097204543037,26.955007999367247],[85.60072026372218,26.954772994701372],[85.60059652875509,26.954541552583354],[85.6005568875986,26.954387695483607],[85.60010327699379,26.953539136516287],[85.59987443978576,26.95322992256265],[85.59975101765161,26.95299848050366],[85.59967423530084,26.952537282610685],[85.59969279630407,26.951542177677332],[85.5994737703684,26.950695868356295],[85.59943981628517,26.950237358656338],[85.59946807339428,26.949853995934593],[85.59930632270017,26.949391924460404],[85.59924936033767,26.949007686878126],[85.59926098465597,26.94839619413545],[85.59946905322424,26.94755638343144],[85.5991379895523,26.947033982992483],[85.59899480927616,26.946725643146056],[85.59899793380292,26.946574473837785],[85.59893684745107,26.946420366509358],[85.59904588628713,26.94628601353324],[85.59947791733879,26.94598785993713],[85.59958701859885,26.945853507666055],[85.5997846502317,26.94555079202646],[85.59987593150315,26.945247014601936],[85.59998671918844,26.94501788420405],[85.600338781199,26.94444808969508],[85.60019116337408,26.944369942011434],[85.59942931954656,26.944091554065498],[85.59898696771548,26.94381628811402],[85.59871936560283,26.943332961099145],[85.59868534891719,26.94287445131801],[85.5985679262756,26.94233610634502],[85.59848501973998,26.942220198323298],[85.59833527699514,26.942236766420038],[85.59829201166315,26.942274715582553],[85.59824874642952,26.942312602442342],[85.59810837824868,26.9418508421192],[85.59803190877763,26.94138964496808],[85.59806366494257,26.940855050546137],[85.59798594599185,26.940470562431905],[85.59798719552737,26.940393852379888],[85.5978273193484,26.939855133070164],[85.59739520719695,26.93793469696912],[85.59703237704403,26.93685675849619],[85.59695746892675,26.936318850180715],[85.59702449306694,26.936168305940907],[85.59726182806696,26.936017196861265],[85.5977943356616,26.936026946111543],[85.59813652347253,26.935973928067412],[85.5990803027657,26.935662830249466],[85.59942242734739,26.935589430497174],[85.59967827187164,26.935594242569998],[85.60035839675197,26.935679950765586],[85.60078142768062,26.93586018779757],[85.60168745144358,26.936390524502396],[85.60185726425229,26.936430597497587],[85.60211335794476,26.93641502923103],[85.60271395112935,26.936213340437504],[85.60391926158587,26.935600089333263],[85.60469060470572,26.935379706279424],[85.60503247913557,26.93532893839438],[85.60511882316914,26.93527110841821],[85.60546200972108,26.935161636624184],[85.60561375215778,26.93502997183143],[85.60576993063404,26.934668113977374],[85.6059901961518,26.93428887630478],[85.60602039025093,26.93383099175995],[85.6059042172965,26.93321593676975],[85.60595423214251,26.93283269851928],[85.60610778567573,26.932606318056237],[85.60640977031623,26.932419699085933],[85.60649786349006,26.93226709063457],[85.60646078470151,26.931980131937973],[85.60621687705526,26.931363827756925],[85.60615729042732,26.931133010424126],[85.6061695393927,26.93050120004279],[85.60574700805519,26.930302894734886],[85.60553730425553,26.930127094329283],[85.60522306185692,26.929855392152486],[85.60463621793934,26.92933049145644],[85.60438506091347,26.929095549717534],[85.60421862273158,26.928883989064737],[85.60400898261936,26.92870806359383],[85.60383998241417,26.928629729047568],[85.60358551339581,26.92856852594004],[85.60290920061503,26.92827069339725],[85.60256920116696,26.92822674487361],[85.60197610704124,26.928026753588092],[85.60172132541967,26.92798586766152],[85.6015306931421,26.927925289284133],[85.60144703671696,26.927847766560777],[85.60142434027809,26.927770806769935],[85.6014068335645,26.927711915028425],[85.60130773093199,26.927327302843015],[85.60095584751078,26.926786646664322],[85.60080822994273,26.926708436414383],[85.60051430749621,26.92647305763751],[85.60017711992589,26.926277877427207],[85.59983887010632,26.926139089120397],[85.5994599791775,26.925902897764566],[85.59906151829473,26.92557167824069],[85.59899968159392,26.925455956909598],[85.59874977471593,26.925146555517067],[85.59870832127922,26.92508747551766],[85.59847842207013,26.924742126031983],[85.59843915745884,26.924683046391834],[85.59839907884592,26.924567513092573],[85.59841557717944,26.92376646501331],[85.5983400461452,26.923305329971598],[85.59827927262032,26.923153472954297],[85.59817554565171,26.923017058700555],[85.59785974034772,26.92282206685495],[85.59760839715955,26.92260744286889],[85.59733904478405,26.92224139973154],[85.59706663041187,26.922026526010598],[85.59683710639804,26.921775954333956],[85.59616810619806,26.92115546442844],[85.59592332432119,26.920636188298264],[85.59544439481827,26.920094220398667],[85.5951085814564,26.919840398140938],[85.59482773018692,26.920027204970605],[85.59450673912184,26.920100728745904],[85.5939914263572,26.920282910929316],[85.59364667745885,26.92046909300996],[85.59296142796723,26.920631582956315],[85.59185377261132,26.920613773910326],[85.59134133553974,26.920665104733757],[85.5906561483339,26.920825281821752],[85.59005942969067,26.92081709606698],[85.58946177429824,26.92086530195793],[85.58835411844167,26.920849743108146],[85.58767486823095,26.920725586281637],[85.58691271215326,26.92048320806373],[85.58665980659161,26.920347545263805],[85.5864903689771,26.920305221618634],[85.58598305620148,26.920069968316593],[85.58507628205095,26.919521438498553],[85.58431412471896,26.919204664015712],[85.58389165606525,26.918985977795522],[85.58346712442285,26.91888470112477],[85.58321103039177,26.91888213970115],[85.58295381180558,26.918933719110566],[85.58192981232304,26.91891897241868],[85.5817096691504,26.918932540396046],[85.58167346805286,26.918934416294462],[85.5815015309038,26.918989121016804],[85.58107424941323,26.918980308296387],[85.58021518712046,26.919195128082805],[85.57953037373422,26.9192424588431],[85.57916567920262,26.919310982395455],[85.57899380373009,26.919365623842996],[85.57875771836467,26.91941976649264],[85.57804889737344,26.919597699513666],[85.57781143667947,26.919710421753535],[85.57770321041372,26.91978381871109],[85.57748688259572,26.919914796660102],[85.57737946777918,26.919949807593923],[85.57725054664449,26.91998688175747],[85.57681932807007,26.920190194582236],[85.57639073394995,26.920260343138583],[85.57617421903674,26.920409388833214],[85.57608837452773,26.920428832544676],[85.5755806862586,26.920152880146773],[85.5745633727109,26.919736389954682],[85.57441469289867,26.91969656679439],[85.57430771649823,26.91969319106821],[85.57407138071144,26.91976759004889],[85.57381466226371,26.91978303384231],[85.5735603175886,26.919683381813407],[85.57328646559749,26.91948657566981],[85.57308038678383,26.919082708306167],[85.57282685555839,26.918944732227896],[85.572144167932,26.91889722291851],[85.57146522957734,26.91865790738087],[85.57112341629133,26.918652220861684],[85.57103863502418,26.918612960091448],[85.57078741550029,26.91833963140263],[85.5706181657706,26.918261171794494],[85.57010497801681,26.91827405429034],[85.5699336654786,26.918308440678285],[85.56976272817039,26.91830669192757],[85.56957153288197,26.91824598788091],[85.56940415696803,26.91807062460305],[85.56934363328183,26.917878130740288],[85.56917369585696,26.917819989773616],[85.56891785179018,26.917797110213403],[85.56874853868567,26.91771640024274],[85.5685169525179,26.91754253853243],[85.56843192161118,26.917521345651654],[85.56823860160765,26.917575800137893],[85.5681536320094,26.917554669598964],[85.56800801437734,26.917343295513145],[85.56763068631003,26.916973815079082],[85.56754584185512,26.9169346169189],[85.5673747164548,26.916950934946836],[85.5672447948106,26.917044401413413],[85.56707391987335,26.917042589065463],[85.5669041075883,26.916982260134482],[85.56669571670697,26.91671155754958],[85.56625361414068,26.916379837492148],[85.56549295700258,26.915927459916567],[85.56506942470597,26.915749410847596],[85.56489936260029,26.91570708754517],[85.56453541746684,26.915741725254613],[85.56438436202389,26.915814684782692],[85.56383648073242,26.91653590123594],[85.56381378551369,26.916610110034092],[85.56376464586104,26.916936894230933],[85.56374045045125,26.917087876105306],[85.56359890418372,26.917777017028026],[85.56360716368339,26.91846553153066],[85.56351588255961,26.91876924655023],[85.56357109454069,26.919230256879302],[85.56356053294921,26.919767289854757],[85.56365701110443,26.920303196729428],[85.56358411337821,26.92076283229989],[85.5635678644824,26.921604516456267],[85.56349890353236,26.921852089982107],[85.56341099782058,26.921984379276108],[85.56357637353162,26.922274901511326],[85.56390181297265,26.923122335560016],[85.56416047872092,26.924120251657992],[85.56436649524788,26.92450605112273],[85.5645315573295,26.92474243207031],[85.56467842584624,26.92495155493158],[85.56488506718014,26.92533735377677],[85.56500742685192,26.925645568829452],[85.5654023264803,26.926227361962944],[85.56559139787223,26.92640078691152],[85.56563266379307,26.92647793426444],[85.56632629772835,26.92708304457778],[85.56639032138416,26.92710179894433],[85.56695878365271,26.927549926889736],[85.56714916662051,26.92764889246988],[85.56784386313537,26.928195297904704],[85.56834767663052,26.9286811870049],[85.56878621678293,26.929225031486755],[85.56910108478615,26.929517114564646],[85.56954456194204,26.929790129246072],[85.56985974269487,26.930082212427536],[85.57023594683513,26.93052840366953],[85.57035986986509,26.930759845954416],[85.57040007266956,26.930893446986186],[85.57039901080697,26.930952089604535],[85.57043921373746,26.9310856906167],[85.57069199555151,26.931282309118394],[85.57109089511982,26.93165197793695],[85.57159289671364,26.93223258264357],[85.5717596465182,26.93246446210484],[85.57182029610732,26.9326388878959],[85.5718321174321,26.9331558516275],[85.57149975138097,26.933782163193747],[85.5714945636689,26.934068747699488],[85.57153389221679,26.93424292297813],[85.57169989291879,26.934513189213487],[85.57199887803314,26.93451612510748],[85.57234131542218,26.934465483095945],[85.57302325252002,26.93453105976864],[85.57336494006891,26.934518678460883],[85.57447965897882,26.93428616456093],[85.57473587781473,26.934288788973536],[85.57499065949895,26.93435005515277],[85.57517954283385,26.934525730533963],[85.57573325557583,26.93568231606545],[85.57594008372989,26.93602972933008],[85.57604437344092,26.93614588725375],[85.57617117026844,26.936223847274956],[85.57646878029638,26.936285612750584],[85.57698140541201,26.93627498121186],[85.57774706213391,26.936420330925376],[85.57800059294536,26.936558307221738],[85.57829382851192,26.93684789037949],[85.5783782971722,26.936889276541795],[85.57850665672983,26.936870333333427],[85.57916108685865,26.937244812993818],[85.57941549360034,26.93734440290921],[85.58026718140216,26.937452240915313],[85.58060749432707,26.937532387648748],[85.58111524390316,26.937751948536622],[85.58171008806217,26.937859475932562],[85.58179580724067,26.937876042131855],[85.58221890136824,26.938054153782225],[85.58304008179157,26.938565673334455],[85.58350250388783,26.938897580058324],[85.58400425405816,26.939401411951053],[85.58423552789735,26.939559456428753],[85.58465380980978,26.939967636250664],[85.58519913805489,26.940415450983696],[85.58536895095578,26.940455524858887],[85.5856258568277,26.940401632131127],[85.5858840133175,26.940273342447338],[85.58596929444887,26.94027415447825],[85.586137731359,26.940372932043484],[85.58686800605378,26.941185915883576],[85.58713848346171,26.94153620410599],[85.5877685311727,26.942005212429237],[85.58793571870918,26.94217838683388],[85.58797717239813,26.94223746713865],[85.58810053160197,26.94246897136302],[85.5882038211923,26.942641521563328],[85.58842709582339,26.943219251519363],[85.58871220622284,26.943912703921157],[85.58881205824203,26.944259054798508],[85.58891635689692,26.945467534233348],[85.58890104694015,26.946270895110207],[85.58876643820257,26.946614872109453],[85.58888254806543,26.94722767578264],[85.58893151032984,26.947995526111757],[85.5891235280743,26.949089784207946],[85.58920405964724,26.949320788869645],[85.58947116192027,26.949840314723232],[85.58969443686804,26.95041810735541],[85.59023883853936,26.95203495383793],[85.5904452292097,26.95238236656044],[85.59066506696809,26.953131585719575],[85.59078973889369,26.953306636159994],[85.59082987903976,26.953422169516255],[85.59116194302452,26.95388586597435],[85.59137058390098,26.954118182973556],[85.59174747538108,26.954469470377152],[85.5920422722398,26.954664275861237],[85.59229599094053,26.954763865587328],[85.59275853809812,26.955095709706622],[85.59317594593851,26.955580598758814],[85.59348418918553,26.956217846603312],[85.59409380229664,26.957835442109882],[85.59429738157758,26.95835428122764],[85.59446356943063,26.95858616011393],[85.59477924982846,26.9588217269823],[85.59494931224857,26.958843732414614],[85.5952933740091,26.958695936547915]]]}},{"type":"Feature","properties":{"province":"Madhesh Province","district":"Sarlahi","municipality":"Chandranagar Rural Municipality","ward":"4","wardNumber":4,"sourceMunicipality":"Chandranagar","sourceType":"Gaunpalika"},"geometry":{"type":"Polygon","coordinates":[[[85.61001637904491,26.964177002469093],[85.61061784706067,26.963936927215055],[85.61095915990376,26.963940301097324],[85.61121606599511,26.963886470656224],[85.61158413569372,26.9636056352347],[85.6116740408035,26.963358249224463],[85.61167685368619,26.96320476675226],[85.61178607964212,26.96305240874439],[85.61290435989758,26.962571321566013],[85.61359173375149,26.962314054009727],[85.61436307704803,26.962134245399497],[85.61496354581217,26.961950561883505],[85.61530760789849,26.961802703290914],[85.61573538924594,26.961732429995077],[85.61633360766537,26.961684098850633],[85.6167625141225,26.961575501198666],[85.61710601306177,26.96144564798026],[85.6180527931097,26.961001260251965],[85.61848163698788,26.960872344034193],[85.61880587843588,26.960647525883747],[85.61949419076332,26.960331490470335],[85.61992347162135,26.960184506717056],[85.62043740827038,26.960078909079982],[85.6212950956377,26.959841270684453],[85.62258312528266,26.959400194459825],[85.62290499257858,26.959290472055795],[85.62324699274606,26.959257710285375],[85.6230835537717,26.95887241019317],[85.62292136526145,26.958410401203725],[85.62263412935177,26.957793721794292],[85.62247319102721,26.95725500254263],[85.62244061088738,26.956719720501386],[85.62232531256608,26.956028018159426],[85.62229123403408,26.955567258383596],[85.62241301995226,26.954663366454984],[85.6233809983807,26.95459383911509],[85.62339231557041,26.954598402861585],[85.6234195756872,26.954609968567155],[85.62350516769604,26.954380588083048],[85.62350504093106,26.95420678663784],[85.62344132835167,26.954034674188144],[85.6233923069981,26.953688885523334],[85.6235908131603,26.95328682878965],[85.62352740922879,26.95259781402196],[85.62361268836763,26.95236618295619],[85.62382613835595,26.952079347138532],[85.62386877847894,26.951964687923002],[85.62378392913435,26.951331878083057],[85.62380518406263,26.951081553741094],[85.6233922195411,26.95099853268217],[85.62331650451497,26.95098427920407],[85.62307841817135,26.951042860733956],[85.62282376165567,26.950961400585367],[85.62231326161823,26.950897760592532],[85.62214394878508,26.9508171134535],[85.62191279981705,26.950641063386907],[85.62131970585068,26.950402810109832],[85.6211508930258,26.950306345508746],[85.62089567440738,26.95026327243141],[85.62029845481564,26.95027321713816],[85.61993813445474,26.9501546226927],[85.61966522008848,26.949919493116724],[85.61947602432534,26.949764136318482],[85.61926900839602,26.94941678589521],[85.61914377359349,26.949280184160514],[85.61863602276291,26.949042743479556],[85.61842575639817,26.948887198501584],[85.61832340475135,26.948656006402967],[85.61807287251342,26.948364672992096],[85.61757793292708,26.947438966765493],[85.61748201800518,26.946862548675295],[85.6174703834971,26.946345522187897],[85.61743193005177,26.946114954086273],[85.61734683602948,26.946096074626446],[85.61657405543453,26.94637059776349],[85.6160625558952,26.946345282176992],[85.61587211079339,26.946264384760624],[85.61553554708844,26.946010624698157],[85.61545357834325,26.945838262301823],[85.61543656966748,26.94560794496498],[85.61540274006883,26.945129117096222],[85.61538310736171,26.9450340892793],[85.61527925518985,26.94487735667162],[85.61458443428462,26.944389843728377],[85.6144153711429,26.94431144612144],[85.6140161598183,26.943980226772428],[85.613933253787,26.94386206796918],[85.61389886207012,26.94340355829237],[85.61381995482301,26.943057457123963],[85.61375054650168,26.942194642220866],[85.61354690429755,26.941675803932995],[85.61325598168636,26.941268936287194],[85.61315312929062,26.94105574952565],[85.6131124262074,26.94096059691992],[85.61307197355438,26.94084506307163],[85.61308140983694,26.940328349051658],[85.61322845337992,26.93929604415699],[85.6132540758378,26.937917326898088],[85.61317623095219,26.937514770989317],[85.61301304285789,26.937111466963994],[85.61257643950218,26.936491037256467],[85.61249097085819,26.936510481834382],[85.6108898234957,26.936621150299075],[85.61078347174518,26.936617775814447],[85.61048529998355,26.93659464575768],[85.60980779952942,26.936373522825814],[85.60957583826617,26.936238110125622],[85.60945016615634,26.936119514183563],[85.60934819003992,26.935888321642217],[85.60933011850497,26.935716645945657],[85.60908539956284,26.935138665646086],[85.60892252307626,26.93473523615448],[85.60884636658636,26.934274100840387],[85.60878552954222,26.934099737475073],[85.60882009915987,26.933411722839775],[85.60874050438917,26.93312426373222],[85.60837236193731,26.93231490352924],[85.60834072074807,26.931739110115004],[85.60826062587151,26.931469719193164],[85.60815683682803,26.931333242468344],[85.6079885869709,26.931216521953502],[85.60781933653172,26.9311561922656],[85.60758743802177,26.931020717279434],[85.60725231266451,26.930708189853636],[85.60708325003058,26.930629793297427],[85.60665871921985,26.930546647096275],[85.6061695393927,26.93050120004279],[85.60615729042732,26.931133010424126],[85.60621687705526,26.931363827756925],[85.60646078470151,26.931980131937973],[85.60649786349006,26.93226709063457],[85.60640977031623,26.932419699085933],[85.60610778567573,26.932606318056237],[85.60595423214251,26.93283269851928],[85.6059042172965,26.93321593676975],[85.60602039025093,26.93383099175995],[85.6059901961518,26.93428887630478],[85.60576993063404,26.934668113977374],[85.60561375215778,26.93502997183143],[85.60546200972108,26.935161636624184],[85.60511882316914,26.93527110841821],[85.60503247913557,26.93532893839438],[85.60469060470572,26.935379706279424],[85.60391926158587,26.935600089333263],[85.60271395112935,26.936213340437504],[85.60211335794476,26.93641502923103],[85.60185726425229,26.936430597497587],[85.60168745144358,26.936390524502396],[85.60078142768062,26.93586018779757],[85.60035839675197,26.935679950765586],[85.59967827187164,26.935594242569998],[85.59942242734739,26.935589430497174],[85.5990803027657,26.935662830249466],[85.59813652347253,26.935973928067412],[85.5977943356616,26.936026946111543],[85.59726182806696,26.936017196861265],[85.59702449306694,26.936168305940907],[85.59695746892675,26.936318850180715],[85.59703237704403,26.93685675849619],[85.59739520719695,26.93793469696912],[85.5978273193484,26.939855133070164],[85.59798719552737,26.940393852379888],[85.59798594599185,26.940470562431905],[85.59806366494257,26.940855050546137],[85.59803190877763,26.94138964496808],[85.59810837824868,26.9418508421192],[85.59824874642952,26.942312602442342],[85.59829201166315,26.942274715582553],[85.59833527699514,26.942236766420038],[85.59848501973998,26.942220198323298],[85.5985679262756,26.94233610634502],[85.59868534891719,26.94287445131801],[85.59871936560283,26.943332961099145],[85.59898696771548,26.94381628811402],[85.59942931954656,26.944091554065498],[85.60019116337408,26.944369942011434],[85.600338781199,26.94444808969508],[85.59998671918844,26.94501788420405],[85.59987593150315,26.945247014601936],[85.5997846502317,26.94555079202646],[85.59958701859885,26.945853507666055],[85.59947791733879,26.94598785993713],[85.59904588628713,26.94628601353324],[85.59893684745107,26.946420366509358],[85.59899793380292,26.946574473837785],[85.59899480927616,26.946725643146056],[85.5991379895523,26.947033982992483],[85.59946905322424,26.94755638343144],[85.59926098465597,26.94839619413545],[85.59924936033767,26.949007686878126],[85.59930632270017,26.949391924460404],[85.59946807339428,26.949853995934593],[85.59943981628517,26.950237358656338],[85.5994737703684,26.950695868356295],[85.59969279630407,26.951542177677332],[85.59967423530084,26.952537282610685],[85.59975101765161,26.95299848050366],[85.59987443978576,26.95322992256265],[85.60010327699379,26.953539136516287],[85.6005568875986,26.954387695483607],[85.60059652875509,26.954541552583354],[85.60072026372218,26.954772994701372],[85.60097204543037,26.955007999367247],[85.60116199162287,26.95510458937784],[85.60128928811704,26.955146475175276],[85.60148154604475,26.95513040663172],[85.60163178837294,26.955073201304288],[85.60196178398937,26.955065196832756],[85.60205881884856,26.955061632117097],[85.6022495150222,26.95512221094157],[85.60250467072237,26.955163096722885],[85.60294971050855,26.955323202795267],[85.6032051164159,26.95534601976998],[85.60352623396291,26.95529281425798],[85.60384553795339,26.955316256573578],[85.60407899933467,26.955377272926714],[85.60416121847048,26.95555182384127],[85.6042408751766,26.95585960084558],[85.60434160235238,26.956167503338364],[85.60450660347011,26.956476092509483],[85.60458619755212,26.95678380765419],[85.6045963324984,26.957395549624156],[85.60485487333308,26.95839571642676],[85.60509940626574,26.959012021035957],[85.60519888368319,26.959396695588698],[85.60583862855071,26.96055403118846],[85.60610873093054,26.96094039237269],[85.60631337208686,26.9614028393455],[85.60643479553171,26.961769696008446],[85.6065974212665,26.962193319409167],[85.60673816475982,26.962655141445588],[85.60672685368829,26.963266634239496],[85.60680850978214,26.96345931464441],[85.60691292459673,26.963575473104886],[85.60710293224287,26.963692443727822],[85.60767533108663,26.963874118266688],[85.6085679093684,26.96405891588004],[85.60882225319584,26.96414037480938],[85.60939421509335,26.96435824772013],[85.60962742630134,26.96443951972184],[85.61001637904491,26.964177002469093]]]}}]}