{"type":"FeatureCollection","features":[{"type":"Feature","properties":{"province":"Madhesh Province","district":"Parsa","municipality":"Kalikamai Rural Municipality","ward":"2","wardNumber":2,"sourceMunicipality":"Kalikamai","sourceType":"Gaunpalika"},"geometry":{"type":"Polygon","coordinates":[[[84.71856972099019,27.06185460763692],[84.71863818208054,27.061626290319477],[84.7186439331991,27.061339581107994],[84.71859084958096,27.060822992029113],[84.71876922561594,27.0604225611125],[84.71898705507537,27.060195681048395],[84.71922432818948,27.060047761729347],[84.71979603883966,27.060229938549544],[84.7203048514031,27.06035147285485],[84.72062215624702,27.060492012970265],[84.72163846736584,27.06081410417306],[84.72201748288913,27.061031104485902],[84.72220817780679,27.061093309623676],[84.72252435729867,27.06124966710316],[84.72309650554062,27.061413775655488],[84.72322311438685,27.06149211130201],[84.7234138103595,27.061552065673528],[84.72360500549311,27.06157594672195],[84.72404916903425,27.061736180035727],[84.72430407541376,27.061777691482764],[84.72464513747585,27.061782754555626],[84.7256301231195,27.061551933575554],[84.72608103826849,27.061387070484805],[84.72640153046308,27.061333554249128],[84.72642678922183,27.061143747802227],[84.72643497404566,27.05968782055458],[84.72652913142456,27.059231373042625],[84.72655814064605,27.058847510462705],[84.7265753886925,27.056933259973718],[84.72662728092375,27.056474750492605],[84.72671718776265,27.056246307425365],[84.72679052546582,27.055787735498647],[84.72683998010466,27.05544438422521],[84.72689805993113,27.054678909160238],[84.72678114015538,27.054142251360247],[84.72683159499054,27.05376057703348],[84.72675350191551,27.053374963987878],[84.72648777677952,27.052834618204418],[84.72638886399245,27.0524513807664],[84.72630945928547,27.052162858484664],[84.72611926382272,27.05208258558218],[84.72606117888182,27.05177593376409],[84.72594007084581,27.0514672804037],[84.72587717184128,27.0513886326544],[84.72553679327554,27.050311442253033],[84.7252761948977,27.049782287483108],[84.72527044276976,27.04977103468257],[84.72510994469171,27.049309149320063],[84.72500565603303,27.04917198372968],[84.72488823517125,27.048653457297434],[84.72465527463544,27.048591439414075],[84.7241435872872,27.048603132159162],[84.72345927425307,27.048726296017016],[84.72294752381991,27.048735675149047],[84.72166542915923,27.048907104792995],[84.72140820956689,27.048998632138684],[84.72089458389628,27.04910522791728],[84.72072370905444,27.049101602270394],[84.72029623974623,27.0491714370693],[84.71960898920472,27.049427764133736],[84.71935320756684,27.049442644648778],[84.71901076978185,27.04951435453148],[84.71892486302332,27.049568995469564],[84.71841154994162,27.04963707948772],[84.71810994011985,27.04978306134468],[84.71806729929368,27.04980362992179],[84.71781039271913,27.049856833985434],[84.71738429888046,27.049849958523467],[84.71723830778757,27.049783001603377],[84.71721554983225,27.049771873330734],[84.71704529986633,27.049768185861073],[84.71662058111835,27.04968459938334],[84.71655643213333,27.049702980418257],[84.71651266655259,27.049759622142776],[84.7165077897083,27.04978225368874],[84.71646558742646,27.04998787650517],[84.71674938186393,27.050701960413857],[84.7169471453893,27.05147062351884],[84.71687624607453,27.05181409957396],[84.71638106533345,27.05205592212794],[84.7161251584999,27.05205042191874],[84.71588976005788,27.05210356330235],[84.71584599424371,27.052160204820183],[84.71582179882424,27.05231381285301],[84.71604325696237,27.052949249034487],[84.71614073228923,27.053409258279583],[84.71615530178069,27.05371609876877],[84.71602225370621,27.05400124515719],[84.71597848826073,27.05405788761214],[84.7156545571656,27.054262698793874],[84.71554701858564,27.054299334246245],[84.7154619243804,27.054299772836536],[84.71499737842827,27.054098964595887],[84.71482706596602,27.054077272078626],[84.71439897104935,27.05416523605656],[84.71431437813378,27.054145355407844],[84.71399813612763,27.053968680343292],[84.71387258985749,27.053851896342998],[84.71352120792955,27.053309738206366],[84.71335483416415,27.0531141808282],[84.71301677195373,27.05297595398548],[84.71232845740596,27.05327060533186],[84.71173311450774,27.053221717431814],[84.71139161381981,27.053234722473746],[84.71054330145748,27.053049421064088],[84.70986086377152,27.05307549300854],[84.70973237892674,27.05309193570139],[84.70958151171536,27.053167146175632],[84.70936455742888,27.053335321278826],[84.70929897196325,27.053430411620038],[84.70899148604363,27.053847347760215],[84.70900949247998,27.05400070528254],[84.70913122595152,27.054309357944508],[84.70915811433657,27.055074395180238],[84.70931567454497,27.055689825766667],[84.70932749293836,27.05615027399678],[84.70951275002763,27.056440483842824],[84.70959746901941,27.056478431805957],[84.70984749919083,27.05675257421915],[84.71001212343356,27.057060976332732],[84.71007089561039,27.05729091918484],[84.71006608214226,27.057521174010176],[84.70974058877226,27.057784690291484],[84.7096963226293,27.057859400248738],[84.70958009444517,27.058318160411392],[84.70963467942133,27.058778357730805],[84.70962636454956,27.05915990718719],[84.70949069194356,27.059539832020093],[84.70935889430201,27.059730075488055],[84.70922415889436,27.060053546469668],[84.70921934472402,27.060283801207888],[84.70934139135274,27.060554067961082],[84.70952733574917,27.060844277640623],[84.7096732647676,27.06099932250149],[84.70980087422471,27.06103927161961],[84.71010098347888,27.060949744684333],[84.71031256232253,27.06102764195661],[84.71041622536953,27.061164806135736],[84.7104761855099,27.0613766811688],[84.71055884129422,27.06149140192131],[84.71062161453956,27.06154979441295],[84.7108128727388,27.061591680893816],[84.71087702136091,27.06157330059285],[84.71100400507072,27.06161556227379],[84.71132362320925,27.061620687836854],[84.71183643552872,27.061570733567752],[84.71241214712212,27.061599302966457],[84.71266849116284,27.061566479622705],[84.71305044443946,27.061668383277805],[84.71337006172749,27.061673508705383],[84.71387993616557,27.061758970440614],[84.71413590578484,27.061762157268127],[84.7143290391897,27.061709266382124],[84.7145206713501,27.06171057896265],[84.71484235230419,27.061641182092636],[84.7153741726705,27.061706199728043],[84.71556630520648,27.06169169508634],[84.7157574379862,27.061713263098603],[84.71626599999398,27.061893502090527],[84.71683921095433,27.062016973537542],[84.71740892145931,27.06229624180577],[84.71766345313854,27.062376201498747],[84.7179815070131,27.062440032213196],[84.7181523822275,27.062441344069125],[84.71830318749879,27.06236838465553],[84.7184131645511,27.06221658972438],[84.71856972099019,27.06185460763692]]]}},{"type":"Feature","properties":{"province":"Madhesh Province","district":"Parsa","municipality":"Kalikamai Rural Municipality","ward":"5","wardNumber":5,"sourceMunicipality":"Kalikamai","sourceType":"Gaunpalika"},"geometry":{"type":"Polygon","coordinates":[[[84.75055302876753,27.092665119282184],[84.75010217211971,27.091897832830313],[84.74994480036881,27.091463017314897],[84.74990809869504,27.091361675378824],[84.74945824171763,27.090366384047833],[84.74920045596302,27.08952357554107],[84.74907165688278,27.08921723547306],[84.74875022459106,27.0887607897485],[84.74853583205213,27.088378178321975],[84.74844954786846,27.087918168025723],[84.74836351592529,27.087688413514815],[84.74827735800626,27.087535368682744],[84.74808522465015,27.087364819105847],[84.74807184506066,27.087358129714247],[84.74776123018393,27.08718826885231],[84.74771133630256,27.087091490265788],[84.74760961017797,27.086859484996175],[84.74743160491025,27.086167470242106],[84.74743435446354,27.08601405003035],[84.74719545135751,27.085166551418506],[84.74720501561393,27.084708291713493],[84.74733762112213,27.083407408582723],[84.74734930971726,27.082795666813627],[84.74744259273857,27.082413741969997],[84.74742871109123,27.082032317143625],[84.74734974337014,27.081723476444797],[84.74718693195918,27.08133836351079],[84.74704850358435,27.08079964342076],[84.7467272559413,27.079799162720317],[84.74670768590177,27.079702196812356],[84.74673206933946,27.07956897074563],[84.74669430470092,27.079300454131875],[84.74699310233444,27.07928757448819],[84.74751829426323,27.079307390607855],[84.74804686269661,27.079054002449613],[84.74807212164752,27.0790561275943],[84.7488155830158,27.07909051043027],[84.74926387183731,27.079090383347598],[84.74958448978447,27.079147337153927],[84.75009717855585,27.079164902717505],[84.7502896871063,27.079202287658266],[84.75112261778087,27.079218101854238],[84.75129318012547,27.079178839691128],[84.75137896140477,27.07908356167683],[84.75150556763433,27.078509579837334],[84.75150281107692,27.07724552079414],[84.75156608260053,27.076899919142257],[84.75158627437821,27.076152574718],[84.75166992719862,27.075463684122276],[84.75164729092808,27.07471671451198],[84.75164653998262,27.074506778638963],[84.75190294589717,27.0743903058071],[84.75203105509803,27.074409936392815],[84.75228733656309,27.074370173608216],[84.75337642365443,27.074328157425537],[84.7544014247207,27.07423012494318],[84.75561862132884,27.07420780188803],[84.75581062936442,27.07416835197183],[84.75595987115052,27.07405244219712],[84.75604483854582,27.07374729008571],[84.75604371014401,27.0731152294655],[84.7560861008264,27.07294349149182],[84.75610485264494,27.07179446588529],[84.75603982553318,27.071219234152696],[84.7560385732853,27.07076103726157],[84.75599543207426,27.07053103218621],[84.7559481552527,27.06846367480653],[84.75592658500952,27.068348641513072],[84.75581973209518,27.06821378905726],[84.75530622943104,27.067871190002954],[84.75513497873321,27.067718645962355],[84.75500649307078,27.067547783954996],[84.7549850475117,27.06735610289721],[84.7548992023539,27.06724131881157],[84.75477002847659,27.06678162241489],[84.75479065884298,27.06637969173302],[84.75491776704361,27.06597726014335],[84.75504543741617,27.065746316948953],[84.75527964789069,27.0655170607488],[84.75555724865721,27.06545916849598],[84.7557496316996,27.065381394712926],[84.75581353031178,27.065324564891732],[84.75587730273645,27.065150451680005],[84.7558768015709,27.06497890054192],[84.75568341594936,27.06434790405932],[84.75559688183445,27.063946598398466],[84.75553204348974,27.063486463770037],[84.75553085371357,27.06302601602013],[84.7554008648761,27.062166701162916],[84.75525068334083,27.061763458110594],[84.7539021196295,27.060217758086434],[84.75377363356905,27.060046896423263],[84.75355911624659,27.059644028632352],[84.75347339537187,27.059357819663543],[84.75326013082486,27.05960726817299],[84.75268335679692,27.05970517480361],[84.7522355057889,27.059840715308834],[84.75204324843719,27.059936556662702],[84.75193695927906,27.060070284359238],[84.75189425698116,27.060185630532477],[84.75178903335205,27.06075954978968],[84.75166098687605,27.060837010378012],[84.75131923676807,27.060915534478163],[84.7511912526368,27.060916222687904],[84.75010297924587,27.061244886141274],[84.74991103383422,27.061379050537504],[84.7496555049294,27.06172352827484],[84.74952764585649,27.061839312624297],[84.74914356807841,27.06208970023982],[84.7488235131763,27.06220423422242],[84.74869552954374,27.062204922889396],[84.74850314603393,27.06218791815318],[84.74831076270608,27.06207382292614],[84.74811694152591,27.062025184528892],[84.74807198688686,27.061991612064734],[84.74797882762198,27.061919841774767],[84.74758024197145,27.061605938051684],[84.74724261734684,27.0614474547505],[84.7466475863168,27.06136036913758],[84.746476899181,27.061377061965917],[84.74588093023647,27.06132829936623],[84.74579477333361,27.06136706164713],[84.74509101515248,27.061411514168572],[84.74477946155938,27.06100464538059],[84.74444014532997,27.059832677401293],[84.74436305185004,27.059428996092855],[84.7442198740416,27.059138599570964],[84.74412146097578,27.058735106128402],[84.74393876651801,27.058273345667438],[84.74379346139426,27.057743628464156],[84.74370048816803,27.0574078422916],[84.74364177766995,27.057119194802226],[84.74345970919356,27.05665743474213],[84.74334222659677,27.05613665700271],[84.74308006466636,27.055386375447185],[84.74286410654021,27.05446429240421],[84.74261576359147,27.054077366680083],[84.74251172514882,27.05398090193054],[84.74206456087812,27.053933576658245],[84.74138637390271,27.05374983733045],[84.74130215507998,27.053691570200044],[84.74113246704162,27.053669877404143],[84.74096127934097,27.05370463827741],[84.7405565686985,27.05369776273062],[84.74047097509239,27.05371626784361],[84.74038213062816,27.053906386963536],[84.74017812044035,27.054516879800786],[84.73996116674296,27.05468505447403],[84.73974240042376,27.054968388410863],[84.73950562685114,27.055098302228075],[84.73924453195369,27.055361505609252],[84.73911229677283,27.055569879693454],[84.73902201450797,27.05583670872154],[84.73884751347026,27.05604527092012],[84.73865350611715,27.05615692916378],[84.738052848804,27.05635642696772],[84.73770853558864,27.056523039962247],[84.7376228161327,27.05652122721153],[84.7370231599801,27.056684652176855],[84.73631740099185,27.056808003387648],[84.73606055675117,27.056861269403814],[84.73572049461694,27.056815632814715],[84.73552548598707,27.0569656152127],[84.73519968052621,27.057267517038998],[84.73504524995423,27.05755278909549],[84.73503474840908,27.058069690792564],[84.73494484143531,27.058295882568746],[84.7346594884857,27.058712756461066],[84.73445829092218,27.059169765897643],[84.73445116499659,27.059533185636543],[84.73438032782681,27.059876661869488],[84.73437551462959,27.060106916715213],[84.73457871681653,27.06062725689566],[84.7349300979528,27.06114909650575],[84.73497055062703,27.06126400473434],[84.73536632206525,27.061731453410236],[84.73542565754282,27.061943328497534],[84.73548430550437,27.062229662113257],[84.73545148333396,27.062805393614646],[84.73536001304984,27.063090415173498],[84.73516275509496,27.063373436979738],[84.7349673082516,27.063561867771366],[84.73461574475377,27.064073894513772],[84.73395994414935,27.064905703761333],[84.73382627193182,27.06519078808637],[84.73371885763031,27.065245554166143],[84.73330689550403,27.06558403064683],[84.73287555075865,27.065843608053008],[84.73274462754198,27.065975147030606],[84.73199942105062,27.067017456229983],[84.73195084174854,27.067304352707982],[84.73196897444714,27.0674757780831],[84.73189807487586,27.067819254103078],[84.7319075185898,27.068394860624164],[84.73214729725359,27.069201660078036],[84.73194597495821,27.069658669949096],[84.73155320768392,27.070130184791395],[84.73146467557056,27.07028185434063],[84.73156921516119,27.070378445332906],[84.73180486335859,27.070345559478902],[84.73210916124597,27.070023464473504],[84.732302794762,27.069950254748022],[84.73238745094251,27.069972448017328],[84.73253494339775,27.07007091404917],[84.73271988725517,27.0703995101954],[84.7332170100688,27.071135037312114],[84.73329735286293,27.07136485460044],[84.73329166497662,27.07165150084003],[84.73320175801389,27.071879943092963],[84.73294110104251,27.07212514171797],[84.7327794192014,27.072753389439576],[84.73276891749849,27.07327041645886],[84.73286164216933,27.073960680978907],[84.73294348466479,27.0741362946646],[84.7331318677143,27.07431134581136],[84.73336207782383,27.07452459489423],[84.7335503345199,27.074681640721337],[84.73380492911744,27.074761538547623],[84.73401544356169,27.074862005142933],[84.7342272094661,27.074942152594907],[84.73435281828172,27.075058873759914],[84.73437288852318,27.075135521318526],[84.73432706025352,27.07526893549995],[84.73314519090965,27.075767210930106],[84.73282119804195,27.075972022092394],[84.73191680466908,27.07639658758983],[84.73167896863123,27.076564887700854],[84.73165558519091,27.076659791299434],[84.73175393546747,27.077045278807145],[84.73191755980808,27.07739206806426],[84.73212351187169,27.07774085716002],[84.73247789310389,27.078147538301817],[84.73272192261294,27.0787263945008],[84.73288254607999,27.079188280193144],[84.73292056112093,27.079418285238845],[84.7329028702654,27.08028066315036],[84.73310638496675,27.080742298909055],[84.73335329000139,27.081187928471675],[84.7333060853163,27.081398115635817],[84.73338649162005,27.081627933004896],[84.73343063701957,27.082605095289257],[84.73338143225207,27.08289199225075],[84.7330893279947,27.083633898326894],[84.73295021683447,27.084149300203162],[84.73289682417001,27.084664202285634],[84.73302343392123,27.08474253739148],[84.73319230805605,27.084822934707415],[84.73362002764515,27.084771043364995],[84.73385273856621,27.084871384583188],[84.73397884750689,27.084970038189024],[84.73418129899942,27.085470059172234],[84.73421212562097,27.08604547879289],[84.7342900926245,27.086390455104162],[84.73441482648775,27.086565880673728],[84.73464597538452,27.08672267622095],[84.73483779551529,27.086744244635998],[84.73507525756817,27.086614330047798],[84.7355106026032,27.08618088914132],[84.7356619074826,27.086087548339215],[84.73609062699799,27.08598145385746],[84.7364290018497,27.086139936014504],[84.73692162487143,27.08704701359086],[84.73719979293082,27.088027425652683],[84.73727682347818,27.088431107001963],[84.73748721363768,27.088587964481665],[84.73769947940522,27.08865004488101],[84.73786354110803,27.088958447581266],[84.73801009462204,27.08909536239611],[84.73807336829913,27.089133435245643],[84.73845625958849,27.089158504021807],[84.7385823683049,27.089257157822086],[84.73868615723667,27.089412327885096],[84.73876406181016,27.08975730435148],[84.73907861676167,27.090031008813785],[84.74004253625976,27.09087012721554],[84.74021084820447,27.090968530441273],[84.74037972365424,27.091048928760323],[84.74063487982271,27.091108507266586],[84.74139509796606,27.091463359201384],[84.74156359778007,27.091584394194403],[84.74207234832063,27.091764445194876],[84.74215744192921,27.091766258134182],[84.74249575428766,27.091924804050812],[84.74275147289563,27.091966315278576],[84.74309266106656,27.09197356617416],[84.74326247307691,27.092013264795604],[84.7436892551493,27.092002009802467],[84.74394428632155,27.09204352159499],[84.74573613239696,27.09203401203643],[84.74624631921945,27.0921396036581],[84.74649991363437,27.092257825677255],[84.74679458534756,27.09249108060317],[84.7469398270087,27.092704767737516],[84.74698084256221,27.092801608263017],[84.74699809952176,27.09303173906924],[84.74718423185963,27.093339953891114],[84.74748127823575,27.09343998222397],[84.74780052153878,27.093465363834266],[84.74790799781051,27.09350993901289],[84.74805067549909,27.093540759484082],[84.7480721838612,27.093549699698396],[84.74812213925537,27.093571956372966],[84.7488279632287,27.093992577291026],[84.74968390400018,27.094412322975117],[84.75015439036618,27.094719036592927],[84.75043167990444,27.094679211084607],[84.75085802363331,27.094523413797074],[84.7510281478548,27.094409630040317],[84.75121977953414,27.09421676010248],[84.75106884787436,27.093813517013842],[84.75076842176429,27.093201212921706],[84.75055302876753,27.092665119282184]]]}},{"type":"Feature","properties":{"province":"Madhesh Province","district":"Parsa","municipality":"Kalikamai Rural Municipality","ward":"3","wardNumber":3,"sourceMunicipality":"Kalikamai","sourceType":"Gaunpalika"},"geometry":{"type":"Polygon","coordinates":[[[84.73271988725517,27.0703995101954],[84.73253494339775,27.07007091404917],[84.73238745094251,27.069972448017328],[84.732302794762,27.069950254748022],[84.73210916124597,27.070023464473504],[84.73180486335859,27.070345559478902],[84.73156921516119,27.070378445332906],[84.73146467557056,27.07028185434063],[84.73155320768392,27.070130184791395],[84.73194597495821,27.069658669949096],[84.73214729725359,27.069201660078036],[84.7319075185898,27.068394860624164],[84.73189807487586,27.067819254103078],[84.73196897444714,27.0674757780831],[84.73195084174854,27.067304352707982],[84.73199942105062,27.067017456229983],[84.73274462754198,27.065975147030606],[84.73287555075865,27.065843608053008],[84.73330689550403,27.06558403064683],[84.73371885763031,27.065245554166143],[84.73382627193182,27.06519078808637],[84.73395994414935,27.064905703761333],[84.73461574475377,27.064073894513772],[84.7349673082516,27.063561867771366],[84.73516275509496,27.063373436979738],[84.73536001304984,27.063090415173498],[84.73545148333396,27.062805393614646],[84.73548430550437,27.062229662113257],[84.73542565754282,27.061943328497534],[84.73536632206525,27.061731453410236],[84.73497055062703,27.06126400473434],[84.7349300979528,27.06114909650575],[84.73457871681653,27.06062725689566],[84.73437551462959,27.060106916715213],[84.73438032782681,27.059876661869488],[84.73445116499659,27.059533185636543],[84.73445829092218,27.059169765897643],[84.7346594884857,27.058712756461066],[84.73494484143531,27.058295882568746],[84.73503474840908,27.058069690792564],[84.73504524995423,27.05755278909549],[84.73519968052621,27.057267517038998],[84.73552548598707,27.0569656152127],[84.73572049461694,27.056815632814715],[84.73561920614016,27.056547554295],[84.73560307429358,27.056297105888813],[84.73556774730906,27.055913555667193],[84.73567003149184,27.055073308005102],[84.73573993071433,27.054768280980554],[84.73577093990305,27.054309832942273],[84.73574755255304,27.053332608481746],[84.73564820195081,27.052985506802408],[84.73559436733221,27.05246885544005],[84.73553403252936,27.052295367190627],[84.73538891572709,27.05208167975862],[84.73513738444105,27.051886623013612],[84.73496719704991,27.05188299759211],[84.73477650263075,27.05182304329491],[84.73450340123823,27.051607793253165],[84.73412926208087,27.05116060053467],[84.73366884117364,27.050731851722116],[84.73301634957825,27.05031992007954],[84.73282903066007,27.05010654514442],[84.73263777291882,27.050064596268967],[84.73255424201979,27.050006329198858],[84.73242669392761,27.049783514251608],[84.7324101252598,27.049754255886068],[84.73215659412833,27.04963597145942],[84.73190218813275,27.04957407939917],[84.73141144562786,27.04960371468198],[84.73112771683105,27.0497835182911],[84.7310875148727,27.04980858891432],[84.73080360005905,27.05014862717025],[84.73062153593808,27.050741051460054],[84.73033755803144,27.051078776811284],[84.73001369017285,27.05128590100743],[84.72958428322939,27.051450638210337],[84.72881431347993,27.051590057141354],[84.72855790725707,27.051604937823384],[84.72701521775014,27.052039570320016],[84.72669516261449,27.052052513028137],[84.72630945928547,27.052162858484664],[84.72638886399245,27.0524513807664],[84.72648777677952,27.052834618204418],[84.72675350191551,27.053374963987878],[84.72683159499054,27.05376057703348],[84.72678114015538,27.054142251360247],[84.72689805993113,27.054678909160238],[84.72683998010466,27.05544438422521],[84.72679052546582,27.055787735498647],[84.72671718776265,27.056246307425365],[84.72662728092375,27.056474750492605],[84.7265753886925,27.056933259973718],[84.72655814064605,27.058847510462705],[84.72652913142456,27.059231373042625],[84.72643497404566,27.05968782055458],[84.72642678922183,27.061143747802227],[84.72640153046308,27.061333554249128],[84.7265898503407,27.06150860443152],[84.72675641265845,27.0617222293264],[84.72687952079545,27.061954047657185],[84.72703933232907,27.062492642931332],[84.7271120482955,27.06310626015915],[84.72727185907893,27.063644918248524],[84.72735351520546,27.063800213494254],[84.72755140359413,27.064568938602953],[84.72768926882381,27.065127977070453],[84.72787190025231,27.065589799987873],[84.72793473568944,27.065648129154873],[84.7281934603192,27.066572274859226],[84.72827517856933,27.066725257736696],[84.72852771293326,27.067954180696262],[84.72876974250119,27.068630127926667],[84.7288825374819,27.069396978511474],[84.72887284795073,27.069855237885875],[84.7287540570299,27.070485611428953],[84.72864176701881,27.070770633034613],[84.72846670364662,27.070979194502883],[84.72807899957574,27.07118438086656],[84.7276052644147,27.071423827650097],[84.72734354407021,27.071707350139835],[84.72721074633431,27.071933729631766],[84.7270959556279,27.07231584162052],[84.72709114278219,27.07254609694957],[84.72710864983348,27.072717522556793],[84.72720950035742,27.073005919447187],[84.72731366373307,27.073122765526467],[84.72756725736896,27.07324336324331],[84.7280791956851,27.073251989091037],[84.72822606238724,27.073348267014314],[84.728267515315,27.073427040017275],[84.72826414017642,27.07358058474492],[84.72816935696726,27.074037032222037],[84.72807257361475,27.07457250178626],[84.72796341329897,27.075719714497264],[84.7278963894705,27.07588932700158],[84.72778491160547,27.076099826415827],[84.72756508206156,27.07642154700792],[84.72719444775481,27.076816164188724],[84.72675097458847,27.077353448728072],[84.72671283658286,27.07740108780141],[84.72658047610709,27.0776093993793],[84.72483171761544,27.079668010761605],[84.72410532969838,27.080728136992764],[84.72364716431672,27.08123841287751],[84.72303312954931,27.082031586186233],[84.72252582173157,27.082846826803046],[84.72249193679099,27.08345869466605],[84.72254733386478,27.08384211940001],[84.7225495253134,27.08476082737218],[84.72262561741131,27.085223150706206],[84.72260348861711,27.08629315257721],[84.72261618248832,27.086697145649488],[84.7226315067368,27.087997215809963],[84.72276162007644,27.088919861082772],[84.72284015072427,27.089264712077235],[84.7228552197175,27.089553547472313],[84.72280814086403,27.08978180184842],[84.72281933500703,27.090242187734493],[84.7228587243333,27.09039548262153],[84.7228025835015,27.09146342091796],[84.7227897046818,27.091714057471602],[84.72280633698763,27.091944188021177],[84.72300547542805,27.092712912515754],[84.72308188100222,27.093211371414924],[84.72331959240451,27.093022753162835],[84.7235147262368,27.09287277038173],[84.72373243004591,27.09260981804189],[84.72458755105771,27.091463290611685],[84.72491510758684,27.091023660341506],[84.72505284342233,27.090564711916706],[84.72515081427184,27.089934463914723],[84.72515719006552,27.089647755261606],[84.72511823764455,27.089474141116472],[84.72514299636858,27.089302466271043],[84.72523340319289,27.089055955404607],[84.72545292053097,27.088772684208692],[84.72582111689897,27.08849091261758],[84.72644684521767,27.088137806413723],[84.72703180804824,27.087726184260543],[84.72761427060352,27.087411652010946],[84.72800447574213,27.087111687442448],[84.72828520294912,27.086943199410037],[84.72995862776999,27.086473993660768],[84.73040773021357,27.08640397178087],[84.73079562150185,27.08623717119541],[84.73169620167572,27.08598415626549],[84.73206214803949,27.085837799792078],[84.73225778098363,27.08566749925761],[84.73232436764125,27.085536210226174],[84.73233005638376,27.08524950132436],[84.73237482169911,27.085154472444792],[84.73246335367834,27.085002803383517],[84.73268080791456,27.084793991172774],[84.73289682417001,27.084664202285634],[84.73295021683447,27.084149300203162],[84.7330893279947,27.083633898326894],[84.73338143225207,27.08289199225075],[84.73343063701957,27.082605095289257],[84.73338649162005,27.081627933004896],[84.7333060853163,27.081398115635817],[84.73335329000139,27.081187928471675],[84.73310638496675,27.080742298909055],[84.7329028702654,27.08028066315036],[84.73292056112093,27.079418285238845],[84.73288254607999,27.079188280193144],[84.73272192261294,27.0787263945008],[84.73247789310389,27.078147538301817],[84.73212351187169,27.07774085716002],[84.73191755980808,27.07739206806426],[84.73175393546747,27.077045278807145],[84.73165558519091,27.076659791299434],[84.73167896863123,27.076564887700854],[84.73191680466908,27.07639658758983],[84.73282119804195,27.075972022092394],[84.73314519090965,27.075767210930106],[84.73432706025352,27.07526893549995],[84.73437288852318,27.075135521318526],[84.73435281828172,27.075058873759914],[84.7342272094661,27.074942152594907],[84.73401544356169,27.074862005142933],[84.73380492911744,27.074761538547623],[84.7335503345199,27.074681640721337],[84.73336207782383,27.07452459489423],[84.7331318677143,27.07431134581136],[84.73294348466479,27.0741362946646],[84.73286164216933,27.073960680978907],[84.73276891749849,27.07327041645886],[84.7327794192014,27.072753389439576],[84.73294110104251,27.07212514171797],[84.73320175801389,27.071879943092963],[84.73329166497662,27.07165150084003],[84.73329735286293,27.07136485460044],[84.7332170100688,27.071135037312114],[84.73271988725517,27.0703995101954]]]}},{"type":"Feature","properties":{"province":"Madhesh Province","district":"Parsa","municipality":"Kalikamai Rural Municipality","ward":"1","wardNumber":1,"sourceMunicipality":"Kalikamai","sourceType":"Gaunpalika"},"geometry":{"type":"Polygon","coordinates":[[[84.7226315067368,27.087997215809963],[84.72261618248832,27.086697145649488],[84.72260348861711,27.08629315257721],[84.72262561741131,27.085223150706206],[84.7225495253134,27.08476082737218],[84.72254733386478,27.08384211940001],[84.72249193679099,27.08345869466605],[84.72252582173157,27.082846826803046],[84.72303312954931,27.082031586186233],[84.72364716431672,27.08123841287751],[84.72410532969838,27.080728136992764],[84.72483171761544,27.079668010761605],[84.72658047610709,27.0776093993793],[84.72671283658286,27.07740108780141],[84.72675097458847,27.077353448728072],[84.72719444775481,27.076816164188724],[84.72756508206156,27.07642154700792],[84.72778491160547,27.076099826415827],[84.7278963894705,27.07588932700158],[84.72796341329897,27.075719714497264],[84.72807257361475,27.07457250178626],[84.72816935696726,27.074037032222037],[84.72826414017642,27.07358058474492],[84.728267515315,27.073427040017275],[84.72822606238724,27.073348267014314],[84.7280791956851,27.073251989091037],[84.72756725736896,27.07324336324331],[84.72731366373307,27.073122765526467],[84.72720950035742,27.073005919447187],[84.72710864983348,27.072717522556793],[84.72709114278219,27.07254609694957],[84.7270959556279,27.07231584162052],[84.72721074633431,27.071933729631766],[84.72734354407021,27.071707350139835],[84.7276052644147,27.071423827650097],[84.72807899957574,27.07118438086656],[84.72846670364662,27.070979194502883],[84.72864176701881,27.070770633034613],[84.7287540570299,27.070485611428953],[84.72887284795073,27.069855237885875],[84.7288825374819,27.069396978511474],[84.72876974250119,27.068630127926667],[84.72852771293326,27.067954180696262],[84.72827517856933,27.066725257736696],[84.7281934603192,27.066572274859226],[84.72793473568944,27.065648129154873],[84.72787190025231,27.065589799987873],[84.72768926882381,27.065127977070453],[84.72755140359413,27.064568938602953],[84.72735351520546,27.063800213494254],[84.72727185907893,27.063644918248524],[84.7271120482955,27.06310626015915],[84.72703933232907,27.062492642931332],[84.72687952079545,27.061954047657185],[84.72675641265845,27.0617222293264],[84.7265898503407,27.06150860443152],[84.72640153046308,27.061333554249128],[84.72608103826849,27.061387070484805],[84.7256301231195,27.061551933575554],[84.72464513747585,27.061782754555626],[84.72430407541376,27.061777691482764],[84.72404916903425,27.061736180035727],[84.72360500549311,27.06157594672195],[84.7234138103595,27.061552065673528],[84.72322311438685,27.06149211130201],[84.72309650554062,27.061413775655488],[84.72252435729867,27.06124966710316],[84.72220817780679,27.061093309623676],[84.72201748288913,27.061031104485902],[84.72163846736584,27.06081410417306],[84.72062215624702,27.060492012970265],[84.7203048514031,27.06035147285485],[84.71979603883966,27.060229938549544],[84.71922432818948,27.060047761729347],[84.71898705507537,27.060195681048395],[84.71876922561594,27.0604225611125],[84.71859084958096,27.060822992029113],[84.7186439331991,27.061339581107994],[84.71863818208054,27.061626290319477],[84.71856972099019,27.06185460763692],[84.7184131645511,27.06221658972438],[84.71830318749879,27.06236838465553],[84.7181523822275,27.062441344069125],[84.7179815070131,27.062440032213196],[84.71766345313854,27.062376201498747],[84.71740892145931,27.06229624180577],[84.71683921095433,27.062016973537542],[84.71626599999398,27.061893502090527],[84.7157574379862,27.061713263098603],[84.71556630520648,27.06169169508634],[84.7153741726705,27.061706199728043],[84.71484235230419,27.061641182092636],[84.7145206713501,27.06171057896265],[84.7143290391897,27.061709266382124],[84.71413590578484,27.061762157268127],[84.71387993616557,27.061758970440614],[84.71337006172749,27.061673508705383],[84.71305044443946,27.061668383277805],[84.71266849116284,27.061566479622705],[84.71241214712212,27.061599302966457],[84.71183643552872,27.061570733567752],[84.71132362320925,27.061620687836854],[84.71100400507072,27.06161556227379],[84.71087702136091,27.06157330059285],[84.7108128727388,27.061591680893816],[84.71062161453956,27.06154979441295],[84.71055884129422,27.06149140192131],[84.7104761855099,27.0613766811688],[84.71041622536953,27.061164806135736],[84.71031256232253,27.06102764195661],[84.71010098347888,27.060949744684333],[84.70980087422471,27.06103927161961],[84.7096732647676,27.06099932250149],[84.70952733574917,27.060844277640623],[84.70934139135274,27.060554067961082],[84.70921934472402,27.060283801207888],[84.70922415889436,27.060053546469668],[84.70935889430201,27.059730075488055],[84.70949069194356,27.059539832020093],[84.70962636454956,27.05915990718719],[84.70963467942133,27.058778357730805],[84.70958009444517,27.058318160411392],[84.7096963226293,27.057859400248738],[84.70974058877226,27.057784690291484],[84.71006608214226,27.057521174010176],[84.71007089561039,27.05729091918484],[84.71001212343356,27.057060976332732],[84.70984749919083,27.05675257421915],[84.70959746901941,27.056478431805957],[84.70951275002763,27.056440483842824],[84.70932749293836,27.05615027399678],[84.70931567454497,27.055689825766667],[84.70915811433657,27.055074395180238],[84.70913122595152,27.054309357944508],[84.70900949247998,27.05400070528254],[84.70899148604363,27.053847347760215],[84.7087560869592,27.053900426737563],[84.70828366362632,27.054045033318733],[84.70770520217371,27.05416982218064],[84.70732143695257,27.054183076682005],[84.70699925619469,27.05427272956638],[84.70648650579304,27.054322683548467],[84.70639022027912,27.054348003500916],[84.70629337200768,27.054375574427095],[84.70578049665086,27.054407522774582],[84.70556435545116,27.054519181310845],[84.70516871208395,27.05504940089773],[84.70495169571163,27.05521976454463],[84.70486603925653,27.055236019162727],[84.70471360936241,27.05534961615364],[84.70441243662063,27.055459461893445],[84.70422024073318,27.055476279157073],[84.70402835850263,27.055434330644626],[84.7038351620826,27.055489472121295],[84.70351398183799,27.0555249212936],[84.70319180215292,27.055614573659863],[84.70300110638533,27.055554618606255],[84.70293833338629,27.05549622707351],[84.70281703739252,27.055149250574306],[84.70259507891004,27.054534132947182],[84.70253230468076,27.054475741219978],[84.7023888143416,27.054205599769077],[84.70213865865655,27.05391564002795],[84.70188162717876,27.05393045728246],[84.70173119700488,27.053967343818524],[84.70189675882352,27.054237422474003],[84.70210452307086,27.05450950265206],[84.70212021795572,27.054796086645897],[84.70207338852836,27.054967887197986],[84.70178384690281,27.055538118005142],[84.70150061926735,27.055801384128614],[84.70134581335144,27.056048206905725],[84.7012991094142,27.056240388496402],[84.70125484386891,27.056315035387737],[84.70113999072029,27.05669702364145],[84.70111429478638,27.056925152689917],[84.70085964250262,27.057840610113832],[84.70076767238132,27.05814582526898],[84.70067907725368,27.058297495431763],[84.700582857399,27.058832965091767],[84.70057454266716,27.059216703063175],[84.7005288395897,27.059368248231408],[84.70037247068139,27.059671400231185],[84.69962988877207,27.060465072993793],[84.69954179450107,27.060598737143458],[84.69899859661783,27.061030366362207],[84.69875719662376,27.06133401896592],[84.69862433642328,27.061562648949433],[84.69842232642156,27.06201965895248],[84.69830697348213,27.062419714199237],[84.6982577696179,27.062724678575194],[84.69793803046807,27.063715033585925],[84.69790677151556,27.064175543834025],[84.69774527631783,27.064747462824958],[84.69767568907534,27.065014166234125],[84.69701076260708,27.066152877768477],[84.69683019840839,27.06660976253748],[84.69652258696584,27.06702657403629],[84.6965201489677,27.067141733019795],[84.69647394473814,27.067313533015795],[84.69609568426085,27.068017366703803],[84.69585278383221,27.068395541179726],[84.69580708046291,27.06854927337753],[84.69580220443584,27.06877721577923],[84.69592481320055,27.06902947687378],[84.69605048412069,27.069164266197337],[84.69626125027915,27.069300930689344],[84.69645207033206,27.069360948043514],[84.69689442167031,27.069654407615747],[84.69721278858104,27.069754436285702],[84.69759286625755,27.06995118022765],[84.69797450687355,27.07009147010014],[84.69810249179963,27.070093095519105],[84.69829387454631,27.070153049747283],[84.69842235883426,27.070136669611408],[84.69893385936767,27.070181493514298],[84.6991889531516,27.070243448410878],[84.69957390660457,27.070209874461455],[84.69989333734217,27.070271516956986],[84.70014724345573,27.070371795688132],[84.70072164157192,27.07047494901566],[84.70123032890149,27.070673380418423],[84.70173945462815,27.070833363511667],[84.70193121227547,27.070854994828924],[84.70218636918305,27.070937205721584],[84.70340075245993,27.071068802879182],[84.70378289384084,27.071188773675523],[84.7040996978956,27.071345194467025],[84.70439224427513,27.071657534891948],[84.70451741575748,27.07181032980602],[84.70484597616176,27.072429385615187],[84.70496620912759,27.072812559636834],[84.70505330731655,27.073733079935078],[84.70505249843069,27.074805270154698],[84.70489675925543,27.07610627805517],[84.70486662457313,27.076526214347084],[84.70477227929692,27.07696459357708],[84.70475909026311,27.07757858692724],[84.7044607972437,27.078568753686497],[84.70444623146564,27.079257330788373],[84.70452507403189,27.079566171897973],[84.70455477523161,27.080177726526227],[84.70479192864605,27.08109974616998],[84.70482650534963,27.081483296234943],[84.70502564363368,27.082175249515796],[84.70519020484986,27.082483651644218],[84.70534795288768,27.083099082246424],[84.70543567689292,27.08401966540096],[84.70542248651608,27.08463140727361],[84.705483384324,27.08478682759295],[84.70552239975002,27.08497844654899],[84.70600870455615,27.0852152643406],[84.70639040806245,27.085457146498417],[84.70666194528813,27.085627321241773],[84.7067889295574,27.085667332605436],[84.7070200782797,27.085824128147184],[84.7076284910727,27.086331212669275],[84.70777298208128,27.086544899419184],[84.70787327041107,27.08685367767835],[84.70794729980443,27.08739058521354],[84.70793748558954,27.08784878249802],[84.7079770001533,27.088004327668727],[84.70805878149483,27.088177690877995],[84.70835026443389,27.088508036854787],[84.70870902192556,27.08870484417345],[84.70938845975638,27.08886845268901],[84.70964436610592,27.088853634479122],[84.70973052307038,27.08881706093824],[84.70992615658659,27.088649073488444],[84.71029841625959,27.088195751745708],[84.71066873848346,27.087819140178045],[84.71081954346059,27.08774386715955],[84.7112763970031,27.087312676069377],[84.71159951454509,27.087164319043172],[84.7117927730233,27.087109177837142],[84.71198459357872,27.087133059092977],[84.71223799950856,27.0872310865558],[84.71238555460197,27.087329615536078],[84.71276125595632,27.08772047904971],[84.71315227781437,27.088415994772223],[84.71328989235104,27.088952526654854],[84.7133659850824,27.089414849824504],[84.7133776790711,27.089872984506474],[84.71328708371283,27.09010148998636],[84.71313002765605,27.090481477142326],[84.71306337912152,27.090614953500175],[84.71310176846184,27.09080663456471],[84.71320499484153,27.09098218599856],[84.71333104156389,27.09106052097095],[84.71371311928573,27.091162424832614],[84.71400760353387,27.091359544730395],[84.71408200629423,27.091463012192897],[84.71413227530964,27.091532719921567],[84.71421455545212,27.09168807767444],[84.71429408636041,27.09199460548451],[84.7142884606843,27.092299382339437],[84.71421993629976,27.092527699996875],[84.71380191101598,27.093229595270117],[84.7134959868892,27.093605831045135],[84.71274959251471,27.094722474202296],[84.71244466920429,27.09506032447786],[84.71203320765424,27.09539873810935],[84.71172972243582,27.0956598160252],[84.71141954804946,27.096268620341828],[84.71122210141951,27.096551767047345],[84.71108836641821,27.09685491956843],[84.71106417050957,27.097008526967528],[84.71110043525935,27.097353691163228],[84.71126699699421,27.09756731585053],[84.71151971589472,27.09774205334622],[84.71228393474479,27.097945860623597],[84.71266426302762,27.098162860552673],[84.712915481252,27.09839636662918],[84.71295693403661,27.098472888483343],[84.71297350360153,27.098703081071285],[84.71292798734234,27.098874819748353],[84.71266720531642,27.099120017269883],[84.71180276538091,27.099720196427395],[84.71111557643194,27.09993813809445],[84.7104303877519,27.100081557307483],[84.70991451115978,27.10026480037402],[84.70963522187391,27.10037452119384],[84.70935355680908,27.10060165144488],[84.70879247717029,27.10091824556338],[84.70859603105413,27.1011630686107],[84.70850524864797,27.10146822069599],[84.70830205128043,27.102040327242417],[84.70825634831604,27.102191809112558],[84.70820214333615,27.102803802010353],[84.70821939980024,27.10303393208812],[84.70819126644108,27.103377157955883],[84.70829605566936,27.103494004419353],[84.708584475846,27.104034287191777],[84.70868876489048,27.10417145263374],[84.70963348959887,27.104988314405556],[84.71032968487424,27.10538211566851],[84.71064711403103,27.105522655266867],[84.71172269996146,27.106189848697824],[84.71218537086344,27.106559892696136],[84.71237581591313,27.10665823368695],[84.712880753506,27.10703040424674],[84.71319774575161,27.10718907463063],[84.71351273662476,27.107442523217536],[84.71477970535358,27.108149289633833],[84.7149073770597,27.10819155134953],[84.7152238071304,27.108368227072436],[84.71545801784033,27.10840992618766],[84.71656111204862,27.108731579099807],[84.71698664318377,27.10881522810004],[84.71715558111089,27.10889562567363],[84.71800470640216,27.109137256906656],[84.71859679998695,27.109434467018385],[84.71910455013075,27.109653029307292],[84.71927448740074,27.109692791123045],[84.7203748938434,27.110188245502556],[84.72079892487382,27.11032828472648],[84.72113736242557,27.110486830076603],[84.72164705054804,27.110610552962445],[84.72185794105913,27.110747216708344],[84.72193940877796,27.11095896662957],[84.72197236037051,27.111475743434898],[84.7220309460257,27.111764327518],[84.72202344481273,27.112166133591465],[84.72195160795624,27.11256600142295],[84.7219674897818,27.112872903912866],[84.72124379083478,27.11389689468959],[84.72074523393083,27.114328335836333],[84.72027162362556,27.114531709245508],[84.71962345010631,27.11494358288209],[84.71897965142999,27.11516352480527],[84.71839712655432,27.115480307121334],[84.71794133589714,27.115895680698983],[84.71774663975977,27.116025344220652],[84.71750730315267,27.116270417181287],[84.71730985655691,27.116555813804265],[84.71721957406274,27.1168406478258],[84.71721476154173,27.117070903520442],[84.7172543390303,27.117244516931358],[84.71759871982036,27.118224616040088],[84.71801243680655,27.118920006951804],[84.71831623939293,27.11978744783663],[84.71870944902334,27.120424258647503],[84.71901906495684,27.12100274051845],[84.71926434509759,27.121581597234755],[84.7192577186243,27.12192701138037],[84.71921064030713,27.122155203332643],[84.71919138732726,27.123189132845415],[84.7192294642084,27.123419137356596],[84.71947049381308,27.124225998734317],[84.71956715699507,27.12474465090569],[84.71957891087703,27.12480779504086],[84.71965193763283,27.1247848503513],[84.72136906685172,27.124256876412772],[84.7216275988316,27.124144905861193],[84.72175689534797,27.124051690317057],[84.7222085613154,27.12386650955668],[84.72265878826708,27.123758100614747],[84.72285104683696,27.123741282509037],[84.72304480442077,27.123668073160903],[84.72321805518763,27.12353628387506],[84.72323493319973,27.122637832544928],[84.72328207413429,27.122409639954405],[84.72336403785552,27.121434102695204],[84.72340711138786,27.120284953002084],[84.72350545728135,27.119598250798564],[84.72353615420097,27.119081160687493],[84.72360711582863,27.118737684740303],[84.72363693817815,27.11827936235374],[84.72368164163734,27.11816401549514],[84.723779987348,27.117477313852497],[84.72394441946545,27.11667514016863],[84.7240916567045,27.115642835994713],[84.724251963166,27.115070917661363],[84.72432798778722,27.11444079451273],[84.72451236543795,27.113697200653352],[84.72452311704899,27.113123782001434],[84.72480740317421,27.111634843657978],[84.72480333479886,27.110713947907865],[84.72485041426205,27.110485692551723],[84.7248811100094,27.109968665729973],[84.72507123822106,27.10894061345954],[84.72514813910057,27.10825403566734],[84.72519277976528,27.108138689476213],[84.72532645286229,27.107835537323492],[84.72528631190197,27.107682242112727],[84.72528962499796,27.107510692198346],[84.72524917300426,27.107393532931386],[84.72525904948512,27.106878818473483],[84.72516507435006,27.106188616061292],[84.72504365278314,27.105841640141428],[84.72481744338562,27.10538006767871],[84.7244540547695,27.10428493458523],[84.72414781467646,27.10353258872941],[84.72360048176603,27.101975695481034],[84.72344104586496,27.10139865211276],[84.72334375842681,27.10088225049572],[84.72338996267192,27.100710512382797],[84.7233298138743,27.100480569871372],[84.7233505043724,27.09939018670155],[84.72329191992497,27.099103852613798],[84.7232797881939,27.09858701383932],[84.72323939758516,27.098472104349042],[84.72326177565843,27.097266625765972],[84.72311071593967,27.096231383911306],[84.72309770949609,27.095773187377983],[84.72305819394126,27.095599573894237],[84.72308195301135,27.09548660311204],[84.72302424229805,27.09514156393877],[84.72305918925929,27.094396532817985],[84.72308863630995,27.093976534024737],[84.72308188100222,27.093211371414924],[84.72300547542805,27.092712912515754],[84.72280633698763,27.091944188021177],[84.7227897046818,27.091714057471602],[84.7228025835015,27.09146342091796],[84.7228587243333,27.09039548262153],[84.72281933500703,27.090242187734493],[84.72280814086403,27.08978180184842],[84.7228552197175,27.089553547472313],[84.72284015072427,27.089264712077235],[84.72276162007644,27.088919861082772],[84.7226315067368,27.087997215809963]]]}},{"type":"Feature","properties":{"province":"Madhesh Province","district":"Parsa","municipality":"Kalikamai Rural Municipality","ward":"4","wardNumber":4,"sourceMunicipality":"Kalikamai","sourceType":"Gaunpalika"},"geometry":{"type":"Polygon","coordinates":[[[84.74991103383422,27.061379050537504],[84.75010297924587,27.061244886141274],[84.7511912526368,27.060916222687904],[84.75131923676807,27.060915534478163],[84.75166098687605,27.060837010378012],[84.75178903335205,27.06075954978968],[84.75189425698116,27.060185630532477],[84.75193695927906,27.060070284359238],[84.75204324843719,27.059936556662702],[84.7522355057889,27.059840715308834],[84.75268335679692,27.05970517480361],[84.75326013082486,27.05960726817299],[84.75347339537187,27.059357819663543],[84.7533431569976,27.058552708357347],[84.75304241795635,27.05769433174979],[84.7527421793317,27.05700519345186],[84.75265570835845,27.05660388769603],[84.75271941799731,27.056334933989454],[84.75265445598448,27.05604859938435],[84.75252496841455,27.05543535732229],[84.7523749121794,27.055149461834976],[84.75231088754208,27.054996353952202],[84.7518607201968,27.054328346720084],[84.75160393681207,27.054099468153616],[84.75134753004488,27.054021883180635],[84.75057924817499,27.05402594985214],[84.7503229667338,27.053968683638455],[84.75017309937675,27.05398750227629],[84.75004542692155,27.05404689527526],[84.74985367044009,27.05419912803917],[84.74914928768564,27.054430886114822],[84.74895715492742,27.054547045675506],[84.74850892817331,27.05462394529426],[84.74838094364407,27.054624571250272],[84.74812459914648,27.05454923728205],[84.74807164318841,27.05455173808531],[84.7478927019397,27.05456174185681],[84.74780860828847,27.054523793017868],[84.74769025188658,27.054449959052732],[84.7474672960303,27.054462464022922],[84.74712717032007,27.05441907730416],[84.74627960849627,27.054157252810178],[84.7458539522682,27.05413018444301],[84.74551532739402,27.054010087199323],[84.74526104673197,27.05396857636908],[84.74487571753485,27.054038347752833],[84.74457898350403,27.053956387749665],[84.74445287463514,27.05385773381528],[84.74435027299758,27.05368449556218],[84.7442829950405,27.052763850337517],[84.7442711760269,27.05230571562457],[84.74426342034616,27.051615075204445],[84.74438039822344,27.051099798493404],[84.74436470366388,27.050813214318456],[84.74437232984197,27.050449732784752],[84.74403833138673,27.050079062507482],[84.74378867591771,27.04978247600991],[84.74335163801045,27.04926332464329],[84.74300113187917,27.048682842548022],[84.74275241486004,27.048334304021722],[84.7425854776879,27.048159127721295],[84.74246230649861,27.0479272474412],[84.74219264334333,27.047558452184457],[84.74194305029525,27.04726636724296],[84.74167763854848,27.046687698636013],[84.7412867419815,27.045992245365856],[84.74035595675998,27.04457739481196],[84.74025135499825,27.044480866969486],[84.740211527934,27.044363707580892],[84.73985952142804,27.043841868382028],[84.73974116354334,27.043379795047592],[84.73972778182161,27.042975801044864],[84.73958560379238,27.042628950036242],[84.73952664346591,27.042378689507856],[84.73928799465068,27.042605694252256],[84.73905021968838,27.04277399432686],[84.73894030515314,27.042925789430033],[84.73878912529445,27.043037197799563],[84.73829363230078,27.043297088259],[84.73822992103364,27.04329746319853],[84.73797113904968,27.043427440431536],[84.73745620082464,27.043610745882955],[84.73732827910595,27.043606932584638],[84.73713902157876,27.043490524005865],[84.7370767486781,27.043411876131607],[84.73700159422398,27.04291341704443],[84.736877922487,27.04269960454822],[84.73668772783145,27.042619332154302],[84.73647471208658,27.042615956667134],[84.7363030865351,27.04269135404739],[84.73618854651328,27.043091471932996],[84.73618460852857,27.04326308532982],[84.73628545853921,27.04355142005786],[84.7367209334932,27.044133777222218],[84.736718683668,27.044269254341852],[84.73641526035662,27.044512326370025],[84.73617561167396,27.04477771760445],[84.73610802456326,27.044947330927418],[84.73605619483705,27.04540809095463],[84.73574277029908,27.046150122853998],[84.73556776958671,27.046376752410172],[84.73528579239087,27.046622012891497],[84.73519588497766,27.046850455050382],[84.73499762705126,27.047192368648076],[84.73458010092918,27.047817491591324],[84.73442023201669,27.048330768041957],[84.7342196600348,27.048787777869563],[84.73404447181743,27.048996339685658],[84.73365595503354,27.04923766247621],[84.7333307120306,27.049521496566218],[84.73315471127236,27.049784199795347],[84.73308912481981,27.049881603327453],[84.73282903066007,27.05010654514442],[84.73301634957825,27.05031992007954],[84.73366884117364,27.050731851722116],[84.73412926208087,27.05116060053467],[84.73450340123823,27.051607793253165],[84.73477650263075,27.05182304329491],[84.73496719704991,27.05188299759211],[84.73513738444105,27.051886623013612],[84.73538891572709,27.05208167975862],[84.73553403252936,27.052295367190627],[84.73559436733221,27.05246885544005],[84.73564820195081,27.052985506802408],[84.73574755255304,27.053332608481746],[84.73577093990305,27.054309832942273],[84.73573993071433,27.054768280980554],[84.73567003149184,27.055073308005102],[84.73556774730906,27.055913555667193],[84.73560307429358,27.056297105888813],[84.73561920614016,27.056547554295],[84.73572049461694,27.056815632814715],[84.73606055675117,27.056861269403814],[84.73631740099185,27.056808003387648],[84.7370231599801,27.056684652176855],[84.7376228161327,27.05652122721153],[84.73770853558864,27.056523039962247],[84.738052848804,27.05635642696772],[84.73865350611715,27.05615692916378],[84.73884751347026,27.05604527092012],[84.73902201450797,27.05583670872154],[84.73911229677283,27.055569879693454],[84.73924453195369,27.055361505609252],[84.73950562685114,27.055098302228075],[84.73974240042376,27.054968388410863],[84.73996116674296,27.05468505447403],[84.74017812044035,27.054516879800786],[84.74038213062816,27.053906386963536],[84.74047097509239,27.05371626784361],[84.7405565686985,27.05369776273062],[84.74096127934097,27.05370463827741],[84.74113246704162,27.053669877404143],[84.74130215507998,27.053691570200044],[84.74138637390271,27.05374983733045],[84.74206456087812,27.053933576658245],[84.74251172514882,27.05398090193054],[84.74261576359147,27.054077366680083],[84.74286410654021,27.05446429240421],[84.74308006466636,27.055386375447185],[84.74334222659677,27.05613665700271],[84.74345970919356,27.05665743474213],[84.74364177766995,27.057119194802226],[84.74370048816803,27.0574078422916],[84.74379346139426,27.057743628464156],[84.74393876651801,27.058273345667438],[84.74412146097578,27.058735106128402],[84.7442198740416,27.059138599570964],[84.74436305185004,27.059428996092855],[84.74444014532997,27.059832677401293],[84.74477946155938,27.06100464538059],[84.74509101515248,27.061411514168572],[84.74579477333361,27.06136706164713],[84.74588093023647,27.06132829936623],[84.746476899181,27.061377061965917],[84.7466475863168,27.06136036913758],[84.74724261734684,27.0614474547505],[84.74758024197145,27.061605938051684],[84.74797882762198,27.061919841774767],[84.74807198688686,27.061991612064734],[84.74811694152591,27.062025184528892],[84.74831076270608,27.06207382292614],[84.74850314603393,27.06218791815318],[84.74869552954374,27.062204922889396],[84.7488235131763,27.06220423422242],[84.74914356807841,27.06208970023982],[84.74952764585649,27.061839312624297],[84.7496555049294,27.06172352827484],[84.74991103383422,27.061379050537504]]]}}]}