{"type":"FeatureCollection","features":[{"type":"Feature","properties":{"province":"Madhesh Province","district":"Parsa","municipality":"Paterwa Sugauli Rural Municipality","ward":"2","wardNumber":2,"sourceMunicipality":"Paterwasugauli","sourceType":"Gaunpalika"},"geometry":{"type":"Polygon","coordinates":[[[84.80985203345259,27.250801633567868],[84.81017302671577,27.25074336452827],[84.81043012115026,27.250762119059566],[84.8107510521545,27.250701600047318],[84.81107242040737,27.250699723690555],[84.81120034196707,27.250660586590925],[84.81293485511573,27.250594123439683],[84.81344829368048,27.25051434798022],[84.81479728972292,27.250470392594874],[84.81524633033752,27.250409060613674],[84.81563215979504,27.250406808254443],[84.81588869140727,27.250348915343736],[84.81659520153798,27.250344786149405],[84.8169805302365,27.250286080163264],[84.8175581179296,27.2502623834318],[84.81768703981673,27.250281950885263],[84.81890636326831,27.250121336881403],[84.81967695960513,27.250078446754305],[84.8200621634662,27.249999421526002],[84.82025492216559,27.250018614392292],[84.82128179955284,27.249879319668253],[84.82211691890335,27.249854184011337],[84.82269556984092,27.2498891291806],[84.82389363485274,27.249845987217313],[84.82453462101618,27.249783466695543],[84.82511233398836,27.24978008845825],[84.82568923321071,27.249663801681255],[84.82626582008092,27.249601656760195],[84.82716421305507,27.24959640194781],[84.82754897943147,27.24953769560588],[84.82806216824913,27.249516561900037],[84.82819002765095,27.249477425103535],[84.82851139531127,27.24947554849864],[84.82870290344164,27.249415717555358],[84.82921696777193,27.249432971004556],[84.82960092158555,27.24935394604915],[84.83056358797892,27.24933018536892],[84.8312688471804,27.249249221820822],[84.83143678379763,27.249243719469682],[84.83293533541593,27.249198699983623],[84.83325570272766,27.24913811854905],[84.8337045558368,27.249135428629597],[84.83402423556274,27.249074846842028],[84.83447296314215,27.249051776008617],[84.8347288693333,27.248991632391093],[84.83498515114375,27.24899006859791],[84.83536985463752,27.248929112086778],[84.83588223069212,27.248887660308952],[84.8363312715707,27.248903037783855],[84.83782619652673,27.248794750143507],[84.83780049666761,27.248316359797773],[84.83783644437283,27.24755100964338],[84.83810491313136,27.24655627929293],[84.83816343138892,27.245944224327605],[84.83804444408989,27.24464484233979],[84.83803856421711,27.244033162852748],[84.83816085604535,27.243420732228874],[84.83815216059594,27.24242543983701],[84.83808369562853,27.241967618150348],[84.83786379956364,27.241357252256783],[84.83777213745324,27.24066936250203],[84.8376381472153,27.240058496128217],[84.83737604809248,27.239448380482944],[84.83711557505876,27.238991746937433],[84.83698396272705,27.238611073424703],[84.83667828429013,27.237926748125386],[84.83658893690291,27.23754363606417],[84.83655992166412,27.236704076615336],[84.83655523038829,27.23616691887726],[84.83663350521985,27.23540131869071],[84.8367783695043,27.234942245909025],[84.83692629749078,27.234711114604885],[84.8370932318068,27.23432862663804],[84.83734194412514,27.23348525285003],[84.8374469195019,27.233254372130563],[84.83775590177387,27.232029199006977],[84.83779241190611,27.231340496239977],[84.83774645670522,27.23103384353009],[84.83765898606259,27.23080640252166],[84.83760965146926,27.23004148972245],[84.83747622518837,27.229507395695897],[84.83747390994913,27.22927714083549],[84.83740776028064,27.22904957448567],[84.8371255282162,27.228534361232754],[84.83665041389858,27.22806097432882],[84.83600592491048,27.227644979013686],[84.83568267983475,27.22738059020333],[84.83540169999033,27.227039178971445],[84.83533617469467,27.226886071693258],[84.83514147664245,27.22660067542897],[84.83513859889304,27.226295898369692],[84.83517973816423,27.226142166036528],[84.83515478976638,27.225758553477796],[84.83511071028839,27.225607633687083],[84.83498022448947,27.225378192427925],[84.83457000868034,27.224884048829182],[84.83452474045343,27.22465635701559],[84.83452011159581,27.22411919867083],[84.83447484328578,27.223891570010544],[84.83416697519276,27.222900154152004],[84.83418548111447,27.222593126599207],[84.83445976789532,27.222210013003],[84.8347109200888,27.221691609479958],[84.8347091681166,27.2214614167705],[84.83468728466977,27.221405150543333],[84.83453604117928,27.22127061182227],[84.83444969571943,27.22111987999454],[84.83442649919387,27.220966522925004],[84.83410118965107,27.220433554876912],[84.83377775651782,27.220148784622992],[84.83362745141936,27.220054883166537],[84.83339211408212,27.219981799355487],[84.83313520680643,27.219983363763],[84.83302923062588,27.220078767555425],[84.83288255368635,27.22038660784746],[84.83309932166748,27.22067200350243],[84.83284710615689,27.22113170235719],[84.83271981019116,27.221247549076704],[84.83248603696264,27.221384403032733],[84.83193158402622,27.221523133665002],[84.8315470044037,27.221505129246836],[84.83143665155369,27.221519321529804],[84.83103431648753,27.221566836961646],[84.83065117672274,27.22174063985789],[84.83043816142344,27.221875117128647],[84.83003169965049,27.22187749421352],[84.82971020502403,27.221764337993363],[84.82938689750297,27.22149988642565],[84.82912886463818,27.221347904868697],[84.82887026813837,27.22111921397269],[84.82867632154597,27.221005243608037],[84.82841766266144,27.220778803031095],[84.82826573052012,27.220549485792333],[84.82824259578423,27.220319418580942],[84.82817707079961,27.220168562016227],[84.82785338833114,27.219845468320635],[84.82765794017948,27.219539629109097],[84.82763593128638,27.219463044529014],[84.82772058750102,27.21938577130437],[84.82791340814808,27.219423031210237],[84.82808497172003,27.2194987404224],[84.82840784143603,27.21970673760073],[84.82866537355079,27.21978194635443],[84.82883637489978,27.21978094575203],[84.82892140564644,27.219762377012042],[84.829432279157,27.21945240927339],[84.82985849787067,27.219298612258203],[84.82998591988301,27.219200833527655],[84.83002831027713,27.219126060784703],[84.83012953149773,27.218570210205208],[84.83010639749737,27.21834014238813],[84.83014641092487,27.218035177577576],[84.83003161459277,27.21719393100816],[84.83009019557775,27.216581875169613],[84.83008957023935,27.216498413279155],[84.83008738048879,27.216198200733583],[84.82999634350693,27.21551031127629],[84.8301652163973,27.215125571905187],[84.83018553541845,27.21497427754892],[84.83045869594154,27.214358721074756],[84.8304558178118,27.213977295942346],[84.83019271686112,27.213057902027035],[84.82984602366662,27.21244828697508],[84.82874730109478,27.21126750635962],[84.82827425089684,27.210886583685575],[84.82816596045926,27.210754107845883],[84.82782176936765,27.210469462887634],[84.82739123375664,27.210029584992142],[84.82717615391053,27.209879667001633],[84.82702497284927,27.20966835537979],[84.82680764069363,27.209211471649862],[84.82669997577247,27.20907668318224],[84.82603341506274,27.20854565441042],[84.82590417913367,27.20841099005772],[84.8258170838095,27.208240002864947],[84.82568615882386,27.207857015839302],[84.82568503268078,27.207703532744304],[84.82599889410635,27.20670630093721],[84.82605991394225,27.2062477914044],[84.82597062921143,27.205787781045988],[84.82596893980664,27.205557588852866],[84.82624385147612,27.205097765551187],[84.82630712336025,27.204943907189293],[84.82619701884892,27.204560857851376],[84.8262144606808,27.204025762372197],[84.82629748859286,27.203641586818506],[84.82636069905058,27.203487728779287],[84.82659403399079,27.203199705680838],[84.82676221814975,27.20281721754877],[84.82710202963696,27.20250825134033],[84.82722807454135,27.202144080898464],[84.82722694859004,27.201990598630154],[84.82716142376482,27.20183749107824],[84.82692414780594,27.20159066958906],[84.82615161136783,27.20115504466664],[84.825894078899,27.20105951690517],[84.82550774723761,27.20079319039804],[84.82535594074001,27.200584192372986],[84.82524752460584,27.200336557446963],[84.82520344524924,27.200183325003465],[84.82520238140393,27.199953069313768],[84.82534912113091,27.19956851893795],[84.82549698635736,27.19933963842058],[84.82555850757619,27.198955587344663],[84.82587768666312,27.198761841689247],[84.82606894376944,27.198589165554303],[84.82636542576965,27.198147284269517],[84.82661889186147,27.197685335102854],[84.82693437982437,27.19699500660288],[84.827231424016,27.19662983537079],[84.82737997855054,27.196495795254737],[84.82784458359808,27.195745947783028],[84.82784345665243,27.195592403105046],[84.82767026697975,27.195209791046587],[84.82710874416902,27.194468263305367],[84.82704159253008,27.194084900282878],[84.82706191181114,27.193931292799977],[84.82714656727013,27.193777246972633],[84.82727367618203,27.193643395228104],[84.82737814986531,27.19325903129916],[84.8273979059228,27.193028713682256],[84.82735326368447,27.19280102251119],[84.82735101134031,27.192494056678214],[84.82751975971172,27.19218609072985],[84.82785931959714,27.191764215160063],[84.82792146646712,27.191551715442454],[84.82794247392127,27.19149507375026],[84.82796085373516,27.191072949461272],[84.82802237437372,27.19069114972221],[84.82820969065148,27.189999320753326],[84.82839925819931,27.189519678625057],[84.8282272561279,27.18938751538667],[84.82809839640254,27.189368010147234],[84.82790638896246,27.189427841116412],[84.82752312328981,27.189660286027063],[84.8270352595127,27.190159746900854],[84.82671983463439,27.190947167509123],[84.8265720310046,27.191178235724315],[84.82627504816128,27.19146663404522],[84.82567826788426,27.191756846487916],[84.82548582160922,27.19175797273789],[84.82503540593673,27.191607055033245],[84.82484289775493,27.191608243961923],[84.82473585733374,27.191550227213877],[84.82458617750926,27.19153303462581],[84.82439298126903,27.191439383162116],[84.82387885339664,27.191288903188354],[84.82368521962859,27.19113654651342],[84.82349039609142,27.190812702437857],[84.82331808228027,27.190639902567167],[84.82323261242152,27.19060201605508],[84.8230400415628,27.190585137480483],[84.8228479718007,27.19064265514426],[84.82265633879604,27.190758876784454],[84.82252822959735,27.19075968996494],[84.82220636052783,27.190664476372987],[84.82182009250891,27.190400399876086],[84.82149728534552,27.190095373949124],[84.82117510361826,27.189964086805006],[84.82104711841345,27.189982905480985],[84.82100447876925,27.190021478724148],[84.8207726449536,27.190501371178193],[84.82073163116469,27.1906731720121],[84.82073313281411,27.190962069236218],[84.82079997207934,27.19130473211999],[84.8208007221925,27.191401823337422],[84.82099454476594,27.191590252287895],[84.82155537942212,27.1923340940111],[84.82172932009603,27.19273483654444],[84.821880564005,27.19296421539984],[84.82203299674488,27.193365082999183],[84.82203349759719,27.193423725449996],[84.82190707762622,27.193654730882518],[84.8219298369175,27.193826156208175],[84.82203856575103,27.194112177481177],[84.82201837076755,27.194286103423483],[84.82191258286885,27.194399574893506],[84.82140114598542,27.194709543334532],[84.82121176559268,27.19513273008206],[84.82114849299698,27.19518956033818],[84.82102000841114,27.195228634100303],[84.82056965386143,27.195001068778105],[84.82005558970121,27.194870908021077],[84.81934964245389,27.194816394843016],[84.81909323549577,27.194876538016665],[84.81890204127302,27.195049214357358],[84.8188598387851,27.19514424308123],[84.81875680319371,27.195643702147677],[84.81865164029534,27.195930974815425],[84.8186970969463,27.196276075947548],[84.81865501942639,27.1963914227812],[84.81854923050204,27.19650714441501],[84.81852859856546,27.196620114822668],[84.81863688951567,27.19684974491844],[84.8191965351073,27.197345262970423],[84.81936828659168,27.197439103077514],[84.81992755653823,27.197973007237273],[84.82014257413228,27.198125238897873],[84.82031501397923,27.19831604470334],[84.82031557704659,27.19839056629775],[84.82033846097015,27.19858230996007],[84.82018928167727,27.19864182784779],[84.81993275023319,27.19868171588821],[84.81948377181445,27.19864595676888],[84.81909906775809,27.198686595402872],[84.8186490269038,27.198592194447865],[84.81845658174569,27.19859332026229],[84.81800910513245,27.19876749818916],[84.81781690976601,27.198806948151827],[84.81756106652979,27.198943863820702],[84.8174132005655,27.199172744366386],[84.81730822617119,27.19948033560427],[84.81722375754828,27.199595932521277],[84.8171387899182,27.199711528693527],[84.81707088884035,27.19966226453735],[84.81703156193437,27.199635444632026],[84.81705069218496,27.199310286330398],[84.81704787694248,27.19892654857555],[84.81695877965949,27.198392141605503],[84.81665460162121,27.197703252707285],[84.81652417785297,27.197473748508095],[84.8163313570302,27.197418482602664],[84.81626783360178,27.19745724498916],[84.81592839806923,27.19782260304655],[84.81580204052585,27.19814838702941],[84.81567730920202,27.198609523009093],[84.81568168913991,27.199297974914277],[84.81549506175035,27.200102587333852],[84.81528323481295,27.200390485070546],[84.81500713494187,27.200604299082787],[84.81436740080574,27.200894637038026],[84.81398394847103,27.201106825352955],[84.81372829185692,27.20118503709393],[84.81353578349025,27.20118616291252],[84.81340679863862,27.201148527374205],[84.81295625704352,27.200902894396044],[84.81209499800993,27.200063713888557],[84.81164182853118,27.199454661649927],[84.811490334684,27.199186896126662],[84.81168115386312,27.198955577403456],[84.81210618335996,27.19864842282076],[84.81214851157198,27.19857140021631],[84.81233976869578,27.198398723509833],[84.81257410414752,27.198261932352363],[84.81272221983238,27.198051182061207],[84.81342266149534,27.1972616353633],[84.8137185806645,27.19681975437074],[84.81420300366058,27.19574481196142],[84.81449441766186,27.19459422190292],[84.81453505670072,27.194289257244236],[84.81470105221236,27.193597616348388],[84.81473950082534,27.192985686463857],[84.81488405029033,27.19229642016959],[84.81488179827467,27.191989517652964],[84.81492306258414,27.19175894959093],[84.81436116422456,27.190784916161192],[84.81427375558093,27.190480701596346],[84.81427275440987,27.190327282058362],[84.8144184302684,27.18971241260602],[84.81443762333551,27.18940757359559],[84.81436790560635,27.188489241090817],[84.81430137901256,27.188106003562847],[84.81429587354752,27.18726413152188],[84.81418551768111,27.186671082448903],[84.81411911618879,27.18630810063494],[84.81404996227644,27.185561381504733],[84.81391478273224,27.184413294565907],[84.81365311972854,27.183572861024256],[84.8137130144799,27.182958555830783],[84.81390107995276,27.18226904013557],[84.81394065448606,27.181808341771607],[84.81393846450078,27.181426916856477],[84.81387250193106,27.181120327670687],[84.81382297857783,27.180125222965355],[84.81371306110329,27.179588628165156],[84.81365728985048,27.179467154340532],[84.81362652817658,27.17939951007795],[84.81358282452257,27.179284663473137],[84.81336824442721,27.179112051245546],[84.81251186606696,27.1788304094145],[84.81191214471765,27.17862397565376],[84.81114192330637,27.178474997817258],[84.81101381324983,27.178475747887457],[84.81092834467651,27.17843786261112],[84.810820616408,27.178285005438948],[84.81088288786289,27.177997982924488],[84.81092246324914,27.177537222659133],[84.81087850838493,27.177307280204445],[84.81072651365145,27.176965117500913],[84.8107042542946,27.17677337405389],[84.81046948088506,27.176851460020803],[84.81042702826642,27.17690816487085],[84.81038520071046,27.177061897944796],[84.81040833487654,27.177291964819037],[84.81036794751915,27.177732344796823],[84.81032624441357,27.17780936696805],[84.8101346751789,27.177925590143442],[84.80987795618843,27.177945033839613],[84.80953683040505,27.178062194273263],[84.80876779799704,27.17808470383231],[84.80816926569636,27.178031753113626],[84.80774085675662,27.177860391718472],[84.80748344909294,27.17769034334825],[84.80714082225875,27.177520794380406],[84.80653978655194,27.177120241370226],[84.80598020339991,27.176434979919133],[84.80563432348158,27.175804983200596],[84.80548251575556,27.17540411622559],[84.80543755980844,27.17511771952673],[84.80534389927183,27.17482025688154],[84.80532908105336,27.174772993166226],[84.80517746167055,27.17448715980274],[84.80498132474833,27.173971446257315],[84.804828766688,27.173552449538573],[84.80459349265529,27.173477052940846],[84.80450771039887,27.17347755351874],[84.80388960947262,27.173691055847215],[84.80329326657417,27.173942757238777],[84.80286779858879,27.17417551479191],[84.80252623590002,27.174233782918964],[84.80201498560274,27.17439020597934],[84.80167436168558,27.174581763232425],[84.80089432625209,27.17482102374204],[84.80065067425994,27.174894671365674],[84.80047948558304,27.17487529143217],[84.80005276677107,27.174936436163957],[84.79971064119887,27.17491805631556],[84.79936989087935,27.174996768429324],[84.79842973308091,27.175002148669517],[84.79749032536122,27.17510230677067],[84.79620766613719,27.175032853529625],[84.79614395563371,27.17503322879453],[84.79434929562136,27.175099817576605],[84.79375157676286,27.17516189971679],[84.79349585720284,27.17521979334975],[84.79304725479626,27.17522242047216],[84.79296291269095,27.175432732361006],[84.79281485861928,27.17564573291789],[84.79251650067776,27.17583704037786],[84.79217506230026,27.175915689365162],[84.7919189056446,27.175917191301174],[84.79174765546067,27.175879743699095],[84.79140659240298,27.175920069173625],[84.79102226427324,27.17599896886295],[84.79087327166316,27.17607655424874],[84.79072471857528,27.1763076227723],[84.79068351684181,27.176461292703557],[84.7906861450122,27.17691955292288],[84.79062299740514,27.177093729130103],[84.79043174023056,27.17726634326654],[84.79017602113062,27.17732423634696],[84.78975449233869,27.17750266460223],[84.7895796156441,27.177575875032932],[84.7894094290075,27.177691972100565],[84.78913257699575,27.177808569683215],[84.78894200829937,27.177981245657175],[84.788900181093,27.178134979097564],[84.78890224632929,27.178518716191096],[84.78877832876414,27.179207731893904],[84.78852748991457,27.180051168216693],[84.7883592419859,27.18043584458936],[84.78836243275249,27.180893978787516],[84.78838437981341,27.181047399487642],[84.78860083659868,27.181506595664988],[84.78868830727684,27.181813060291358],[84.78877871949655,27.182654495236864],[84.78910546963135,27.1838015806096],[84.7892195167061,27.185026565872192],[84.78932824562526,27.185330654542277],[84.7894574813495,27.18548344946055],[84.78965036594101,27.18563580540548],[84.78975402853837,27.185662313248706],[84.79022757845354,27.185786034959907],[84.79054938507016,27.185958021606776],[84.79087019052902,27.18599459395794],[84.79119193533462,27.186164330408033],[84.7913850068351,27.1863347546202],[84.79157951738183,27.186717366660847],[84.79186250055692,27.187557675003024],[84.79190751868006,27.187941162728325],[84.79151012871269,27.18930225108535],[84.7915337634237,27.18960902866792],[84.79174978317134,27.1900863564168],[84.79177216616384,27.190219395226148],[84.79198818575814,27.190601881858907],[84.7920529593842,27.19065796034693],[84.79216124997555,27.190887590390545],[84.79222715076764,27.191194179757176],[84.79214374718956,27.19154003196281],[84.79195248955396,27.191712645476418],[84.79169608324217,27.191770538393992],[84.79133326199572,27.1917726031176],[84.79124798118224,27.191849814017917],[84.79129350044593,27.192309948599007],[84.79118946398935,27.192768833949618],[84.7910892442935,27.193764752062748],[84.79109237263157,27.194301972054436],[84.79122417352634,27.194912901544136],[84.79137654484109,27.195390540813175],[84.79142043649135,27.19552576825428],[84.79150721960919,27.195755460752054],[84.791851847555,27.196211718021175],[84.79303347476994,27.197220760998214],[84.79342161964294,27.197753478316205],[84.79355235737093,27.198213238081706],[84.79344788315639,27.198597601070233],[84.79334234547981,27.19876965228071],[84.79305117633115,27.199006097993184],[84.79293826108686,27.1990969997205],[84.7925975107446,27.199290808039674],[84.7920855736849,27.19944716869197],[84.79170224626198,27.19967730000935],[84.79138406812626,27.200024465555657],[84.79110953256158,27.200560999526164],[84.79102750427542,27.201098657572327],[84.79107414893042,27.201710087322734],[84.79120488672872,27.202169784098636],[84.79159465879852,27.20293275705871],[84.79172445799655,27.20325703967224],[84.79196204690517,27.20365971934297],[84.79239220683691,27.204059085082424],[84.79290714829702,27.20440149616569],[84.79322864241693,27.20453278407897],[84.79361378410924,27.204645816018473],[84.79393515357168,27.20483580811977],[84.79477096214019,27.205212540855406],[84.79560758458898,27.205706619910234],[84.79592914139673,27.20584022059417],[84.79620793234062,27.205989826337188],[84.79629308871796,27.205989388177255],[84.79633616696164,27.20600945628471],[84.7972141160909,27.206273030936874],[84.79740699935917,27.206328358742397],[84.79798408716053,27.206363429751732],[84.79868840805416,27.206264585522486],[84.798880353998,27.206186749720267],[84.79945650272083,27.20608865583144],[84.79990579332878,27.206162863946037],[84.80007723162223,27.206218317102252],[84.80048600861748,27.206540909868178],[84.80083138711741,27.206999480986845],[84.80091823282588,27.2072291105049],[84.80139441156786,27.20806841807611],[84.80148194545303,27.208298110044897],[84.80165519746193,27.208604074420375],[84.8016985273571,27.208755056288837],[84.80204503241276,27.209367047375558],[84.80222047483055,27.209977726200446],[84.80235021124423,27.210207230345357],[84.80241617326374,27.21041898007023],[84.80239572887508,27.21057033682065],[84.80233470850537,27.21103116046048],[84.80222960954733,27.21133875139612],[84.80212732436327,27.211950931045944],[84.80215152256429,27.21233460699371],[84.80221692253824,27.212562173591557],[84.80221967547972,27.21294591119285],[84.80228513801872,27.21309901834092],[84.80237529884434,27.213786907699305],[84.80240006020244,27.21424723051799],[84.80235873385742,27.214477673195656],[84.8022526325618,27.214631781489462],[84.8021277766539,27.215090729471775],[84.80185274014664,27.215552741229974],[84.80172794629893,27.216011688483974],[84.80149530040944,27.21649827058298],[84.80136969294955,27.216760847943302],[84.80132799057598,27.21683780776212],[84.80113667031554,27.217010484587988],[84.80096629545932,27.217106263548885],[84.8003910854967,27.21733977111593],[84.80030674198429,27.217473436236705],[84.79995455618838,27.21869879796884],[84.79928056365641,27.219869644210384],[84.79930244627006,27.219925910864678],[84.79973310647385,27.220307145612857],[84.79999514320016,27.220840614432394],[84.79997532439734,27.22106868143427],[84.79978782067693,27.221606965457863],[84.79981083003663,27.221816776982145],[84.80002665959321,27.221987075937967],[84.80021935593719,27.22200401793108],[84.80054066231483,27.222099294511352],[84.80114138377303,27.22232604659243],[84.80127368475745,27.222724788564626],[84.8014670067586,27.222838821600632],[84.80157973801046,27.2235085174846],[84.80162463040682,27.22370013589829],[84.80169322060149,27.224196281445746],[84.80175924581161,27.224423911010323],[84.80180626538845,27.224902051683102],[84.80193844111938,27.22528510089757],[84.80196326406728,27.225666400731267],[84.80216134054781,27.226353726261554],[84.80227094424188,27.226583293788785],[84.80235897798002,27.226887570388424],[84.8024459484479,27.227040490303192],[84.80266665850097,27.22780440091872],[84.80269098058048,27.228108990908265],[84.80288974454434,27.228796254203708],[84.80294214467108,27.229944841366102],[84.80307482041948,27.230479061046537],[84.80316785942503,27.231394891707996],[84.8033456162451,27.232235825808978],[84.80339132151333,27.232617000307386],[84.80356688860408,27.233153282055323],[84.80374908697293,27.234526747608445],[84.80362435569752,27.23498794602624],[84.80353951330311,27.23514192921531],[84.80347742910052,27.235370246549554],[84.80330855580574,27.235678150248038],[84.80313836855174,27.23588908791688],[84.80290334485723,27.23594685608633],[84.8027322199492,27.2359478568362],[84.80247487507751,27.23589290420973],[84.80206603543908,27.235665026153743],[84.80189453454507,27.235609573145478],[84.80172284703907,27.235610510877773],[84.8014458076093,27.235706915471543],[84.80119071473891,27.235974745032227],[84.80102246716133,27.236359421627824],[84.80115439302047,27.236816867831138],[84.80101034377925,27.237582906009848],[84.80082052558944,27.23796539381364],[84.80069347893298,27.23811962723144],[84.80058781632616,27.23835044577111],[84.80052441832923,27.238407274879854],[84.8003351630011,27.238866536133486],[84.80031540732878,27.23909685311853],[84.80040450475344,27.239554549783744],[84.80038481098585,27.239708157700186],[84.80021700096783,27.24016735634125],[84.80041295029419,27.24064474592771],[84.80084386043144,27.240949271030843],[84.80095227585593,27.24109981492048],[84.80108188675848,27.241214223009628],[84.80127664693832,27.241520062278255],[84.80138612608272,27.241824150659546],[84.80149842099246,27.242511915052106],[84.80171637815852,27.242971111801786],[84.80188975588709,27.24319811515352],[84.80204143709138,27.243483886236977],[84.80212953383865,27.243790351132716],[84.80219837465135,27.244324882903747],[84.80239300991904,27.244610466351112],[84.80260902738047,27.244801084080066],[84.8027600215088,27.244992077079353],[84.80282604670822,27.245219643857663],[84.8028277363856,27.245449773530837],[84.80289319821567,27.245602943492056],[84.80313116241936,27.24584988985399],[84.80362659647345,27.246266886402978],[84.80395296946755,27.246876689247532],[84.80451699388496,27.247774013069254],[84.80460727916378,27.248385192244687],[84.80475971216671,27.248689030822586],[84.80510546613264,27.249088835267724],[84.80568599392433,27.249392359708526],[84.80600942678542,27.249677191677147],[84.80620481262348,27.24998078058004],[84.80646741213447,27.250667793528528],[84.80670612761394,27.25110648402732],[84.80677052581365,27.251106109226484],[84.80754124716428,27.25108359928304],[84.80844001490472,27.25094524309372],[84.80927419628979,27.25088172131774],[84.80959506382577,27.25080313463924],[84.80985203345259,27.250801633567868]]]}},{"type":"Feature","properties":{"province":"Madhesh Province","district":"Parsa","municipality":"Paterwa Sugauli Rural Municipality","ward":"4","wardNumber":4,"sourceMunicipality":"Paterwasugauli","sourceType":"Gaunpalika"},"geometry":{"type":"Polygon","coordinates":[[[84.77380127585408,27.211153611430603],[84.77407693888492,27.21094223615348],[84.77492837536533,27.210574124682203],[84.7762069058111,27.210185568423658],[84.77644080382686,27.210051090994234],[84.7764831946337,27.2099741308438],[84.77648144221939,27.209725807360723],[84.77641610470899,27.209495990158427],[84.77622209509798,27.209190025774372],[84.77613481119705,27.20888581226666],[84.77594036289474,27.208426427665962],[84.77587446179433,27.208119838057485],[84.77587183492794,27.207738413403312],[84.77593404314966,27.20743107280485],[84.77599787928798,27.207353925101426],[84.77608109621346,27.20706684005291],[84.77620764146155,27.206835896506398],[84.77633481241192,27.206702044499654],[84.77656914858845,27.20654724817898],[84.77667568740057,27.206526366967054],[84.77710259441743,27.20656462654545],[84.77725240009569,27.206678908946547],[84.77774433208653,27.206809320695843],[84.77817217769899,27.206980682189435],[84.77842895996524,27.20715085633493],[84.77885643037455,27.207263575750567],[84.77953955658217,27.207298145310624],[84.77996740230071,27.207372540696127],[84.78022368441785,27.207468130360173],[84.78048096728413,27.207620174653638],[84.78088711728124,27.207751086747248],[84.7809942821627,27.207827233310596],[84.78184859662979,27.207978212734616],[84.78278794222776,27.2079932754926],[84.78321434901234,27.207952512106754],[84.7847508516308,27.207905493474705],[84.7853476325815,27.207769013015547],[84.7854960617338,27.207691427254918],[84.78556033543973,27.207672984335805],[84.78577184978775,27.207423535486264],[84.78596060409961,27.206885251504083],[84.78593878300713,27.20675227476732],[84.78589326422194,27.206292014516293],[84.78574058081921,27.20575792089183],[84.78550374155839,27.205375496519387],[84.78533061387378,27.204992759790194],[84.78522075923405,27.204535188204353],[84.78509164816272,27.20430568370632],[84.7846608622285,27.203714448806945],[84.78436018794176,27.203409172924374],[84.78423095115338,27.20316160101137],[84.78408070862417,27.203065385815666],[84.78375933861206,27.202780552674312],[84.78330992299983,27.202591123513415],[84.78279717094755,27.20245864915651],[84.78209147261039,27.202270783746805],[84.781513696951,27.202043719434144],[84.78112918012947,27.201930750590993],[84.7808081231978,27.201779081484425],[84.78042310662333,27.20168643066549],[84.78016669944407,27.201572773622583],[84.77984608076797,27.201477496466538],[84.77939747856709,27.201403163665418],[84.77914057092643,27.201307573862735],[84.77881913952577,27.201099513674382],[84.77843299530306,27.200756289223193],[84.77826130665855,27.20056535896944],[84.77817502417128,27.2004123772687],[84.77817446071093,27.20033566652978],[84.7784286157781,27.2000295763628],[84.77900338782129,27.199739614074527],[84.77925923247399,27.19967953244837],[84.77938652804639,27.199565936453098],[84.77968194757088,27.199027089704146],[84.77991559476631,27.198872292691142],[84.7800853441279,27.19868179860838],[84.78016943647192,27.198527815802503],[84.78021076320665,27.198297373108343],[84.7805498861173,27.197875622607636],[84.78063291531917,27.197568157213098],[84.78076002396959,27.197337276842898],[84.78090807760339,27.19720323641814],[84.78122475329934,27.19655141929804],[84.7814562737683,27.196089720146475],[84.78149659925022,27.195631210350314],[84.78145264508619,27.19547797770136],[84.78125869764074,27.19517201376516],[84.78104424332378,27.195019781504353],[84.78097984348922,27.19492531675602],[84.78108500688418,27.194712628633393],[84.78106368587174,27.194635981478463],[84.78071943254432,27.19423611489149],[84.78069648500293,27.19392927541579],[84.78073781179984,27.19370108331031],[84.7807352461545,27.193240635339446],[84.78081733693611,27.19270522712409],[84.78081514642236,27.192398262650606],[84.7809405666192,27.192013836305282],[84.78096107295919,27.19178576941114],[84.78110637398136,27.191170962729167],[84.78121203615967,27.190940144802024],[84.78127468330582,27.19078859966478],[84.78150795655085,27.190575098670685],[84.78218926759286,27.190266568463485],[84.78274215740466,27.189920464253678],[84.78427402946545,27.18924144725062],[84.78442289706764,27.189145793064576],[84.78497428424274,27.188587439865977],[84.78531271951091,27.188068661558795],[84.78554555360829,27.187801019612724],[84.78567303699015,27.187723558758005],[84.78586398189702,27.187587017755586],[84.78594945056439,27.187530125342537],[84.78637516976129,27.187412589236363],[84.78688623132318,27.18722015641182],[84.78714151228434,27.187083239912056],[84.78769346304547,27.186698687641933],[84.78837521344582,27.186466867273644],[84.7887155245961,27.186311507810746],[84.78926703763662,27.185773410335855],[84.78965036594101,27.18563580540548],[84.7894574813495,27.18548344946055],[84.78932824562526,27.185330654542277],[84.7892195167061,27.185026565872192],[84.78910546963135,27.1838015806096],[84.78877871949655,27.182654495236864],[84.78868830727684,27.181813060291358],[84.78860083659868,27.181506595664988],[84.78838437981341,27.181047399487642],[84.78836243275249,27.180893978787516],[84.7883592419859,27.18043584458936],[84.78852748991457,27.180051168216693],[84.78877832876414,27.179207731893904],[84.78890224632929,27.178518716191096],[84.788900181093,27.178134979097564],[84.78894200829937,27.177981245657175],[84.78913257699575,27.177808569683215],[84.7894094290075,27.177691972100565],[84.7895796156441,27.177575875032932],[84.78975449233869,27.17750266460223],[84.79017602113062,27.17732423634696],[84.79043174023056,27.17726634326654],[84.79062299740514,27.177093729130103],[84.7906861450122,27.17691955292288],[84.79068351684181,27.176461292703557],[84.79072471857528,27.1763076227723],[84.79087327166316,27.17607655424874],[84.79102226427324,27.17599896886295],[84.79140659240298,27.175920069173625],[84.79174765546067,27.175879743699095],[84.7919189056446,27.175917191301174],[84.79217506230026,27.175915689365162],[84.79251650067776,27.17583704037786],[84.79281485861928,27.17564573291789],[84.79296291269095,27.175432732361006],[84.79304725479626,27.17522242047216],[84.79300367658836,27.175127767980378],[84.79291726883906,27.174954467458036],[84.79283992718335,27.174819490089035],[84.79278753254106,27.17472721327832],[84.79259345981481,27.174498084403993],[84.79220675360774,27.174154922502414],[84.79171188151125,27.173584443507295],[84.7915607004194,27.173357314871723],[84.791365564204,27.17297470345993],[84.79136299884014,27.172516505890805],[84.79131848065832,27.17220979144876],[84.79114391345945,27.17152233967964],[84.79082085530536,27.170989184086938],[84.79015566941268,27.170248094010716],[84.78975433352079,27.169970450982557],[84.78957745508704,27.16984960360185],[84.78906451587224,27.169586153084],[84.78880754536127,27.169377655345045],[84.78855132499483,27.169282065720072],[84.78765393054428,27.168810868298873],[84.78707596632582,27.16835592384176],[84.78692559775715,27.168146800170902],[84.78662611206218,27.16799725734827],[84.78566287954213,27.16721947010688],[84.78399494878974,27.166084392775712],[84.78175036813913,27.16485778982341],[84.7811724659092,27.164402783630802],[84.7810437928469,27.164231983614012],[84.78089329879515,27.164002604203617],[84.78106267290197,27.16377141044567],[84.78101946831742,27.16363849621858],[84.78099695939632,27.16348513921694],[84.78091080213387,27.16333434498117],[84.78069684818688,27.163143727614614],[84.78054579125708,27.162839826116343],[84.78054535287815,27.16268634317956],[84.78060800032858,27.162532485724938],[84.7808615290422,27.16207291180292],[84.78083914432682,27.161842782000395],[84.78064613575192,27.161672357671108],[84.78049657973702,27.16157833091674],[84.78026193073381,27.16157964412823],[84.7801559549477,27.161675110576994],[84.78011375294848,27.161770076035815],[84.78009374619006,27.161982325315577],[84.78000934010507,27.162095671942122],[84.7797962621711,27.16211717874224],[84.77954010479257,27.1620238398396],[84.77902672729581,27.16168355378318],[84.77870685936053,27.16159059060106],[84.778450139444,27.16142041662422],[84.77825794352843,27.16136277474065],[84.77768029221293,27.16094621708404],[84.77761601780551,27.16086982027368],[84.77757331466586,27.16079554809782],[84.77757243846004,27.160680452167494],[84.77765665591521,27.160544537120117],[84.77774156286992,27.160505713020097],[84.77795476588882,27.160486455930137],[84.77846732980568,27.160616804983587],[84.7786374546726,27.160595548294495],[84.7788281489437,27.16044100244383],[84.77893387523521,27.16030721237339],[84.7789965844091,27.160076644546127],[84.7787793140355,27.159314921031093],[84.77869309335586,27.15916193974925],[84.77837178695194,27.15885897656359],[84.77813663695333,27.158706807914328],[84.77792324585094,27.15859289988524],[84.77766721355783,27.158519817119327],[84.77747451755474,27.158385465213147],[84.77734546924826,27.158158211471825],[84.77736466152955,27.157735962476643],[84.77740586376666,27.157584543125164],[84.77763957343635,27.157352974235202],[84.7776812762296,27.15727601369534],[84.77772341586605,27.157160666910364],[84.77744675202328,27.157200554655486],[84.77731864219942,27.157201305166033],[84.77636204199699,27.157533906877287],[84.77565984736398,27.15771158671785],[84.7752124325865,27.157693770391475],[84.77495583865843,27.157638754906834],[84.77438118982921,27.15764194519467],[84.77425289268214,27.15760649778969],[84.77361409465742,27.157648449866592],[84.77323001656232,27.157573804157533],[84.77291002264212,27.157462710196043],[84.7723983969983,27.15746552526967],[84.77163124059942,27.15737500121242],[84.7712686693164,27.1573972596455],[84.77118363797607,27.15741582728212],[84.77082087963616,27.157322989145396],[84.77020384139925,27.157500231371227],[84.76994856014925,27.15753999391096],[84.7696516388579,27.157751557103207],[84.76954603888451,27.157905601944737],[84.76952659594379,27.15828715198559],[84.769591870059,27.15851703194533],[84.76969909861707,27.15868801962494],[84.77079356943527,27.160056605220156],[84.77115883088202,27.160686601637277],[84.77126756018818,27.16108778151945],[84.77120678994696,27.161602745671214],[84.77121054467841,27.16232952190577],[84.7712453710142,27.162442242250386],[84.7712756948821,27.16253908330759],[84.77166077464884,27.162843983541176],[84.77172536235939,27.1629767729691],[84.77151509923151,27.163494863022407],[84.7713462883001,27.163723743744708],[84.77121955469379,27.163916237718684],[84.77098740945894,27.16437806233078],[84.7708821219247,27.16466527189283],[84.77088462482415,27.165123469288915],[84.77110120726246,27.165695636462008],[84.77176895813798,27.16701014542572],[84.77200673615602,27.167638641524498],[84.77215860625405,27.168154605221094],[84.7722703386154,27.169070436371126],[84.77246635185101,27.169872859040375],[84.77268293394879,27.1704450267395],[84.77283317834726,27.17073086015022],[84.77294153188313,27.17107333533251],[84.7731139092656,27.171359106587044],[84.77337350776605,27.172046057389277],[84.7735670803387,27.172388094200738],[84.77365323797227,27.172617849752495],[84.7736549274204,27.172866109998772],[84.77361253690898,27.17294307040356],[84.77322977160651,27.173060292890437],[84.77297461627474,27.173120436676278],[84.7723994670602,27.173161951512785],[84.77156922496907,27.173358386481336],[84.77131381851189,27.173380143997143],[84.77086646734746,27.17347742419123],[84.77067521035033,27.173555197753593],[84.77016546156767,27.173846910602318],[84.76965502394684,27.174021275653143],[84.76927125825583,27.17400533480289],[84.7685056031067,27.174239781228316],[84.76837805601323,27.174317242264074],[84.76812289968319,27.174377323130102],[84.76748472938218,27.17461101964139],[84.76722894767758,27.17466884966378],[84.7668454946037,27.174691295095002],[84.76652687791842,27.174790012670666],[84.76633455743014,27.17482045949609],[84.76627097093977,27.174829837486357],[84.76497330870222,27.17523877544897],[84.76465437913308,27.175375941113412],[84.76369571471162,27.175534678824885],[84.76331288692671,27.175651839628916],[84.76316389522404,27.175729425660503],[84.76248364667268,27.176001758170376],[84.76231327157619,27.176097473980814],[84.76169798521455,27.17663807285038],[84.76104143513336,27.177424806080776],[84.76068337000723,27.178401906963824],[84.76062147436134,27.178860417551064],[84.76062848274451,27.18035010476432],[84.76040134376683,27.181841106594995],[84.7604049104932,27.182644655203344],[84.76045086777711,27.183274152465927],[84.76055890936469,27.183673081692554],[84.76064700670068,27.18418948348531],[84.7606703298218,27.184647555463116],[84.76069271417532,27.184875434763562],[84.76067214479112,27.185010974576272],[84.76067239423853,27.18504942377848],[84.76097125544925,27.18519896621699],[84.76148394509327,27.18542409312243],[84.76174053936869,27.18557619978017],[84.76191129024944,27.18563171514599],[84.76206103302721,27.18574599797565],[84.7624878786938,27.185971688260462],[84.76270170863855,27.186142050300013],[84.76330061797626,27.186520221449545],[84.76377148039481,27.186993921519107],[84.76381487171106,27.187070443807624],[84.7638998403819,27.187128648129338],[84.76417906959145,27.187546957839512],[84.76445786122396,27.187888556981697],[84.76505614568936,27.18826672823661],[84.76544241532464,27.18874086623667],[84.76576290840424,27.189005443447545],[84.76593397184388,27.189099345694064],[84.76614842745532,27.18936673561586],[84.76636438441032,27.189936652276433],[84.76651487818933,27.190166031929767],[84.76683624791904,27.190563772249174],[84.76717874975768,27.190810218486657],[84.76728585254327,27.19096313839227],[84.7673505019763,27.19119070479516],[84.76735356898806,27.191822703606082],[84.76741928188521,27.19210903726984],[84.76735619713605,27.192298967982037],[84.76678254973072,27.192665515656326],[84.76635795745365,27.193051567622227],[84.765934805154,27.193645244145607],[84.7655740491065,27.19404905106973],[84.76551046396894,27.19416445998986],[84.76536247252665,27.19430075119421],[84.76523623952134,27.194662545607763],[84.7649398199942,27.19506597707681],[84.76458006569685,27.195699914607744],[84.76443163727592,27.195872278660577],[84.76383679530059,27.196277337567427],[84.76351786593663,27.19643257120571],[84.7628154204422,27.196610188514658],[84.76211253674916,27.19663207243047],[84.76185606736072,27.196597375515225],[84.76140821500101,27.196446333228387],[84.76095898560197,27.196182444633752],[84.76063874230074,27.19605096913818],[84.7601270546188,27.19597926206785],[84.75967938993598,27.196038156507417],[84.75910505430221,27.196215085210167],[84.75884983639364,27.196369944279578],[84.75842536924924,27.196774002278115],[84.75800190348966,27.19734967284518],[84.7577491884413,27.198037187754977],[84.75773005815644,27.198382664328047],[84.75779564645605,27.198840486131548],[84.75788236713616,27.19906799048926],[84.7579895325739,27.199238978055075],[84.75828939340656,27.199523998219387],[84.75863227118911,27.19992392715224],[84.75906036815756,27.200321104555826],[84.75916753359414,27.20049209204835],[84.75946764473846,27.200833504090955],[84.75957506049643,27.201024809851],[84.7598756723557,27.201422675525297],[84.75996164196363,27.201537333832253],[84.76024156048015,27.202224285133454],[84.76075687919122,27.20302276809762],[84.76101572657485,27.203594684944964],[84.76103929986179,27.203996303236366],[84.76099728503618,27.204129717734265],[84.76074319206609,27.204438059106494],[84.7603615539557,27.204841928569145],[84.76023432033517,27.205070621163536],[84.7601089640557,27.20547305231642],[84.76015435702283,27.20593325019518],[84.76034949377222,27.206505542494536],[84.76041558245413,27.206850519142204],[84.76046178917234,27.20742581270338],[84.76042083804367,27.207712647372706],[84.76027397341683,27.208115328313642],[84.76008346740689,27.208402976411204],[84.75982849880256,27.208596221478373],[84.75957428186109,27.208884244179703],[84.75944804931969,27.209171642281007],[84.759386028153,27.209517306437363],[84.75947312367053,27.209803515340415],[84.75968663969782,27.209917548060137],[84.76007140663727,27.209974062771227],[84.76032856414966,27.21010585127295],[84.76071533414832,27.210640944467315],[84.76084500827282,27.210870448956147],[84.76095248599214,27.210984982048608],[84.76108128330189,27.211079009483047],[84.7613591357521,27.211192666581216],[84.76161548061862,27.211211609469558],[84.76178566741419,27.211172284661107],[84.76195591752195,27.21105624988372],[84.76212591726498,27.2109966689541],[84.76238232396693,27.21101554871272],[84.76298079428966,27.211127391617723],[84.76306588821666,27.21110888588731],[84.76327815374727,27.210954214826],[84.76344896609248,27.210914953211766],[84.76379040459102,27.21091307658214],[84.76421668609919,27.210854307769306],[84.76481478120061,27.21090975902749],[84.76532690666306,27.21084823905882],[84.76626594020935,27.21092207049665],[84.76652272259747,27.210997404096446],[84.76675855999838,27.21114963554789],[84.76686647534576,27.211415400809905],[84.76712219431754,27.211339502625048],[84.76733445960174,27.211184830921244],[84.7676758966241,27.21108817632256],[84.76793149098783,27.2110867376771],[84.76835921087412,27.21123790549148],[84.76893767547259,27.211559748389366],[84.7694496761753,27.211577251860103],[84.76987702109554,27.211669652174315],[84.77039064935883,27.21191747343835],[84.77054101771587,27.212031693913683],[84.77086376342244,27.21243168481946],[84.77099206089107,27.212546093347388],[84.77137814093562,27.212792289655262],[84.77163392281238,27.212811169383162],[84.77180467280735,27.212771844669074],[84.77240082882442,27.21254058701821],[84.77282592216282,27.21230789215425],[84.77308170253517,27.21222980598364],[84.77331566401378,27.212113395165026],[84.77361227150931,27.211748349966054],[84.77369504942126,27.211307782496192],[84.77380127585408,27.211153611430603]]]}},{"type":"Feature","properties":{"province":"Madhesh Province","district":"Parsa","municipality":"Paterwa Sugauli Rural Municipality","ward":"5","wardNumber":5,"sourceMunicipality":"Paterwasugauli","sourceType":"Gaunpalika"},"geometry":{"type":"Polygon","coordinates":[[[84.7685056031067,27.174239781228316],[84.76927125825583,27.17400533480289],[84.76965502394684,27.174021275653143],[84.77016546156767,27.173846910602318],[84.77067521035033,27.173555197753593],[84.77086646734746,27.17347742419123],[84.77131381851189,27.173380143997143],[84.77156922496907,27.173358386481336],[84.7723994670602,27.173161951512785],[84.77297461627474,27.173120436676278],[84.77322977160651,27.173060292890437],[84.77361253690898,27.17294307040356],[84.7736549274204,27.172866109998772],[84.77365323797227,27.172617849752495],[84.7735670803387,27.172388094200738],[84.77337350776605,27.172046057389277],[84.7731139092656,27.171359106587044],[84.77294153188313,27.17107333533251],[84.77283317834726,27.17073086015022],[84.77268293394879,27.1704450267395],[84.77246635185101,27.169872859040375],[84.7722703386154,27.169070436371126],[84.77215860625405,27.168154605221094],[84.77200673615602,27.167638641524498],[84.77176895813798,27.16701014542572],[84.77110120726246,27.165695636462008],[84.77088462482415,27.165123469288915],[84.7708821219247,27.16466527189283],[84.77098740945894,27.16437806233078],[84.77121955469379,27.163916237718684],[84.7713462883001,27.163723743744708],[84.77151509923151,27.163494863022407],[84.77172536235939,27.1629767729691],[84.77166077464884,27.162843983541176],[84.7712756948821,27.16253908330759],[84.7712453710142,27.162442242250386],[84.77121054467841,27.16232952190577],[84.77120678994696,27.161602745671214],[84.77126756018818,27.16108778151945],[84.77115883088202,27.160686601637277],[84.77079356943527,27.160056605220156],[84.76969909861707,27.15868801962494],[84.769591870059,27.15851703194533],[84.76952659594379,27.15828715198559],[84.76954603888451,27.157905601944737],[84.7696516388579,27.157751557103207],[84.76994856014925,27.15753999391096],[84.77020384139925,27.157500231371227],[84.77082087963616,27.157322989145396],[84.77118363797607,27.15741582728212],[84.7712686693164,27.1573972596455],[84.77163124059942,27.15737500121242],[84.7723983969983,27.15746552526967],[84.77291002264212,27.157462710196043],[84.77323001656232,27.157573804157533],[84.77361409465742,27.157648449866592],[84.77425289268214,27.15760649778969],[84.77438118982921,27.15764194519467],[84.77495583865843,27.157638754906834],[84.7752124325865,27.157693770391475],[84.77565984736398,27.15771158671785],[84.77636204199699,27.157533906877287],[84.77731864219942,27.157201305166033],[84.77744675202328,27.157200554655486],[84.77772341586605,27.157160666910364],[84.77787159441473,27.156967984767185],[84.77799745170084,27.15666258199038],[84.7780384022822,27.156278593892463],[84.77792967349149,27.15597450515158],[84.77784420400285,27.155841778595132],[84.7778637102056,27.155554944999604],[84.77749657137572,27.154658745427888],[84.77747206047823,27.15412390071851],[84.77755515098896,27.153739724546938],[84.77806177140582,27.152838520775337],[84.77857070551069,27.152357189588585],[84.77865561208027,27.152318365898406],[84.7792279454977,27.151798273229176],[84.779544684937,27.151356330056256],[84.77988180534258,27.150663749816058],[84.77996395795873,27.150051631848633],[84.77978594880994,27.148677978973343],[84.77978388371005,27.148294241461215],[84.77984615545527,27.147989213693],[84.78001434040131,27.147681310533354],[84.78037597317231,27.147525826235846],[84.78063100387995,27.1474656821796],[84.78097244233456,27.147484123776778],[84.781312504164,27.147405474560653],[84.78199438006787,27.14739947093448],[84.78216444239446,27.147360083626705],[84.78233481727464,27.147282372833065],[84.78254695639438,27.147127701315142],[84.78273752580637,27.146955087228644],[84.78284318868447,27.146821297298533],[84.78294872688802,27.146667252035716],[84.78290564800992,27.14655234329587],[84.7826911930842,27.146284953274687],[84.78234956681615,27.146135660764973],[84.7820298242303,27.14606070237748],[84.78158128310042,27.145873586186536],[84.781260415272,27.14572191788243],[84.78111035956763,27.145551180512374],[84.78108803745982,27.145341368991268],[84.78112986440428,27.145187636303493],[84.78136188617673,27.14480489817646],[84.78153132212832,27.144591771663062],[84.78161591441894,27.144419784126285],[84.78178478873005,27.144208908602735],[84.7818902014634,27.14405480069269],[84.7819112713353,27.14390125503475],[84.78173776756455,27.143443996876638],[84.78171619699907,27.143328963054458],[84.78154425789435,27.143101959290387],[84.78120069148984,27.142586996341773],[84.78102725042226,27.142053027746208],[84.78098298291845,27.141671790719077],[84.78100073648406,27.141057735722182],[84.7808693091207,27.14029326071248],[84.78069755698263,27.139910524264007],[84.78050285806371,27.139299908199394],[84.779708623471,27.138022284907787],[84.77944989916537,27.13727656718924],[84.77944839772854,27.13696960183888],[84.77953148950596,27.13658542568722],[84.77972118186571,27.136202875119125],[84.77982628153016,27.13589534763844],[84.7803540340603,27.135050472157843],[84.78037522955808,27.135011961088352],[84.77994838372773,27.134766077827376],[84.77943719606017,27.134730568515682],[84.7785007274263,27.134753828803905],[84.778245820957,27.134831977614787],[84.7777353214917,27.134893435175037],[84.77730960266783,27.13489587511294],[84.77679847760764,27.13495514418224],[84.77645841511305,27.13503373059441],[84.77594779053348,27.135074932691662],[84.77526660313144,27.135078748612415],[84.77492654113884,27.135157334943607],[84.77458591513043,27.135159211678673],[84.77424510331466,27.13521760500159],[84.77398963418267,27.135218981369775],[84.77347944675722,27.13531882559615],[84.77245844750198,27.135439614188755],[84.77194707182026,27.135460497545246],[84.77101104096849,27.13556271803354],[84.7703296653968,27.135528085590288],[84.77007457222376,27.13558591592352],[84.76973400919259,27.135587792297756],[84.76939419804084,27.135704765947917],[84.76896860483029,27.135822238851024],[84.76801187925194,27.1361141408048],[84.7672457855903,27.136156718860136],[84.76707572257548,27.13619598053073],[84.76588365986292,27.136202611461954],[84.765713597865,27.136241810992303],[84.76503265969176,27.136283950958415],[84.76307625641486,27.136773101959985],[84.76162991287524,27.1370496252295],[84.7610347572449,27.137186042425792],[84.76077922649287,27.137187418633392],[84.76035332004278,27.137151347558586],[84.75967119376087,27.137021811309726],[84.75915963002011,27.136832820624868],[84.75873309749153,27.136719976358698],[84.75819996332645,27.136513042383164],[84.75756035184983,27.136324613699536],[84.75709092889056,27.13611717989192],[84.75698445213665,27.136041032748732],[84.75613088678456,27.135643856797895],[84.75587441681135,27.13549174983627],[84.75510650789748,27.13517084601329],[84.7549365709271,27.13513339829624],[84.75348603571783,27.13460399748013],[84.75297515976217,27.13451197184519],[84.752335736395,27.13434154936538],[84.75220731445019,27.1342858456363],[84.7518664386047,27.134154495813032],[84.75118393640932,27.133966317636883],[84.75092815536782,27.133908989146352],[84.75050237328904,27.13391124153974],[84.74973721798347,27.134089171447496],[84.74948218743198,27.134244029914374],[84.74897256361984,27.134436338227427],[84.7488021893036,27.134534305425646],[84.74846268991517,27.134784442267154],[84.74819027664846,27.13450598703076],[84.74807229646821,27.13459688910812],[84.74741211800463,27.1351037898922],[84.74706805414056,27.135153055462382],[84.74664146023362,27.13512373590749],[84.74630421033454,27.134960751532795],[84.74579546061042,27.13481446056399],[84.74553930402432,27.13480677175805],[84.74525963820356,27.13485797512504],[84.74497784786327,27.13498357563936],[84.74461346388361,27.135012647516767],[84.74426890090457,27.135079918624882],[84.74409527466847,27.13515081470557],[84.74401011792547,27.13514900197487],[84.74312510651131,27.13541101955281],[84.74286476166695,27.13553655801094],[84.74249718949766,27.135660407549118],[84.74195236592887,27.13597025070472],[84.74084571128749,27.13649528345512],[84.74043624817025,27.136578684565606],[84.74030451331043,27.136689967752286],[84.74025912139042,27.136782808001463],[84.73988742389709,27.137039822029315],[84.7400117820764,27.137158794397322],[84.74005317298425,27.137217248295947],[84.74020004020556,27.137297709257037],[84.74057392832202,27.13765012449888],[84.74092949753468,27.137907823415834],[84.74126205903706,27.138219852092167],[84.74175518073147,27.138862789390572],[84.74180951405953,27.13916944146563],[84.74215464340564,27.139749986039966],[84.74223111076118,27.14005657561155],[84.74255379373449,27.14067556888862],[84.74261594224151,27.140733960601032],[84.74279638454755,27.141118948534547],[84.74273949097135,27.141575207679537],[84.74262188671581,27.141914432759968],[84.74246864328053,27.142025841098278],[84.74221042396051,27.142076857149938],[84.74188361703253,27.142259161785503],[84.74162014566207,27.14247954036047],[84.74150885608094,27.142629084162138],[84.74141107096328,27.143008821044354],[84.7413756224326,27.143464955182374],[84.74148904183664,27.143924840376716],[84.74166948469862,27.144309827760747],[84.74185261533613,27.144620418815407],[84.74192689445775,27.144983400130787],[84.74193639899023,27.145364761568047],[84.74203106051044,27.14575025001614],[84.74217223923716,27.1460203910155],[84.74236049594015,27.146159306163426],[84.74306838113641,27.14608109377246],[84.74338643579185,27.146185498334933],[84.7437654507805,27.146366300255487],[84.74414246592319,27.14662387442039],[84.74439499669478,27.14674666000652],[84.74483172113325,27.147157466142747],[84.74493107149621,27.14738940935547],[84.74507443688074,27.14760303443407],[84.74521980354444,27.147739948359927],[84.74568997964559,27.148437214489753],[84.74596245517459,27.14861632881469],[84.74621704885148,27.14868040937004],[84.74647376885227,27.148667779610186],[84.74705835787462,27.14845471517399],[84.7478326414542,27.148303855175733],[84.7479569369509,27.148208389767543],[84.74807235389733,27.148207763859705],[84.74848237972815,27.148205574300047],[84.7488025607297,27.148357367791483],[84.74899488152083,27.14852791776347],[84.74908041362754,27.148680899382807],[84.74921027662035,27.14913847106697],[84.74921121511285,27.14936866348634],[84.74904421905414,27.150060242693264],[84.74879119041917,27.150519815682365],[84.74864363767993,27.15090436738057],[84.74830476526857,27.151269537978727],[84.74821998426503,27.151423520943812],[84.74811532263561,27.151805446517603],[84.74815858883582,27.15195880353158],[84.7484806469479,27.152473953709734],[84.74867240552585,27.152569981714933],[84.74899171015981,27.15249151953807],[84.74924667819036,27.152413433625192],[84.74990642011007,27.152294771275265],[84.75028968707647,27.15234916110329],[84.75060899090182,27.152270699789078],[84.75099231961406,27.15232734003886],[84.75118395246686,27.152305957964174],[84.75150363297865,27.152381041119426],[84.75201569699847,27.152628799548506],[84.75214374409508,27.152628111379205],[84.75227154164615,27.15268387765319],[84.75272033305866,27.15300647076311],[84.75284844291319,27.153102874159593],[84.75366099472751,27.15395849752674],[84.7541318576617,27.15435773855238],[84.75434568743037,27.154625191454638],[84.7552864739674,27.15550038217559],[84.75554313172844,27.155672807295478],[84.75616192341033,27.15593582016237],[84.75652518216464,27.156202459275082],[84.75691082643226,27.1566992292709],[84.75712590793168,27.157156237590026],[84.75723438710324,27.157616122994064],[84.75725764758424,27.15807419515782],[84.75725990062111,27.15859109671852],[84.7572820340951,27.15878284047571],[84.7572412080379,27.15909005591713],[84.75717837372706,27.15932062353741],[84.75692471981631,27.159780197546514],[84.75658553355152,27.160089039190424],[84.75637408292981,27.16035874425321],[84.75595061666225,27.160801188681326],[84.75573828868964,27.160935541317095],[84.7555470316978,27.161110343291142],[84.75523010459709,27.161552286053073],[84.75506160748087,27.162011359121326],[84.75502265862414,27.162776709277367],[84.75513057484564,27.16315982131987],[84.75538854633035,27.16361895590485],[84.75575293272641,27.16413385627995],[84.75600971640208,27.16441912595474],[84.75624536647791,27.164648130312596],[84.75643900180413,27.165105263948373],[84.75639761230086,27.165335707020443],[84.75601584860888,27.165701190892257],[84.7558462878965,27.165912002712776],[84.75569936041425,27.166296553959903],[84.75572268302912,27.166756877325348],[84.75585310789053,27.16729115873311],[84.75641250549744,27.168281259806605],[84.75645583492602,27.168434554614038],[84.75650304402451,27.169350698608582],[84.75663509490228,27.170038400860083],[84.75665891842301,27.1705732451012],[84.75683173460432,27.17103275466153],[84.75702549489702,27.171413178114975],[84.75711277854258,27.171717455109004],[84.75711415523377,27.172024419928633],[84.75718036892705,27.172482242390615],[84.75709765267757,27.172940877318045],[84.75678078855024,27.173479849248768],[84.75654814158571,27.173785814741706],[84.75633750406165,27.17417067845276],[84.75625322356474,27.174401434436472],[84.75606284248235,27.174707087531132],[84.75603208129812,27.174820183321422],[84.75602095294457,27.17486082037842],[84.75602201649164,27.17501430297968],[84.75617388667904,27.175548459257644],[84.75619758627734,27.176157762843776],[84.75626336117347,27.176464353126633],[84.7562881235763,27.177227140062794],[84.75620446949765,27.177552673394125],[84.75609880631464,27.177783428366283],[84.75595069053692,27.17799417846524],[84.75548395814518,27.178398486842656],[84.75482477972344,27.17880379552354],[84.75448434285866,27.178941086921128],[84.75405881124065,27.178999793494654],[84.7535479995577,27.179137960569243],[84.75337762470004,27.179138899274975],[84.752951718107,27.179235991957007],[84.75278109264782,27.1792955719556],[84.75222901648306,27.179680062279886],[84.75154826693732,27.179877810217906],[84.75086707985304,27.18001466479199],[84.75067513513265,27.180092438556525],[84.75037796417244,27.180285871331876],[84.75025066769746,27.180401656156896],[84.75016588657114,27.18055563906426],[84.7501035524467,27.180860665870224],[84.75001877238664,27.181014586383156],[84.74999832803451,27.18116594344804],[84.74985071256546,27.181550494757523],[84.74981038696436,27.181932170129652],[84.74976949868392,27.18233416312197],[84.74985496840188,27.182466889342468],[84.74989867210388,27.18258173509685],[84.75007136350507,27.183115767085166],[84.7501370143545,27.18349687846465],[84.75022310919839,27.183724382789684],[84.75048108056748,27.184181203393873],[84.75086691205946,27.184693789891515],[84.7513163922621,27.185093156200175],[84.75161562744928,27.18530146663268],[84.75206548297709,27.185757223588446],[84.75251546299273,27.186325889670023],[84.75281638842445,27.1867824599478],[84.75313694411719,27.18697263989227],[84.75352089887917,27.187103739316505],[84.75454415014514,27.18715237524787],[84.75505709002168,27.187418201360693],[84.75557040607796,27.18783300898519],[84.75589046142025,27.187946416778697],[84.7562103917353,27.187944665117588],[84.75640196130509,27.187905277624004],[84.75663604712945,27.187806935264593],[84.75678435182247,27.18771134381703],[84.75693259263089,27.187518662333193],[84.75725120822113,27.187230263841943],[84.75746359886787,27.187095973343638],[84.75831309497669,27.186364568507074],[84.75858838238577,27.18601771539815],[84.75888492826849,27.18572944202339],[84.75926775480883,27.185517440875007],[84.75996988741724,27.185301437426343],[84.76067239423853,27.18504942377848],[84.76067214479112,27.185010974576272],[84.76069271417532,27.184875434763562],[84.7606703298218,27.184647555463116],[84.76064700670068,27.18418948348531],[84.76055890936469,27.183673081692554],[84.76045086777711,27.183274152465927],[84.7604049104932,27.182644655203344],[84.76040134376683,27.181841106594995],[84.76062848274451,27.18035010476432],[84.76062147436134,27.178860417551064],[84.76068337000723,27.178401906963824],[84.76104143513336,27.177424806080776],[84.76169798521455,27.17663807285038],[84.76231327157619,27.176097473980814],[84.76248364667268,27.176001758170376],[84.76316389522404,27.175729425660503],[84.76331288692671,27.175651839628916],[84.76369571471162,27.175534678824885],[84.76465437913308,27.175375941113412],[84.76497330870222,27.17523877544897],[84.76627097093977,27.174829837486357],[84.76633455743014,27.17482045949609],[84.76652687791842,27.174790012670666],[84.7668454946037,27.174691295095002],[84.76722894767758,27.17466884966378],[84.76748472938218,27.17461101964139],[84.76812289968319,27.174377323130102],[84.76837805601323,27.174317242264074],[84.7685056031067,27.174239781228316]]]}},{"type":"Feature","properties":{"province":"Madhesh Province","district":"Parsa","municipality":"Paterwa Sugauli Rural Municipality","ward":"3","wardNumber":3,"sourceMunicipality":"Paterwasugauli","sourceType":"Gaunpalika"},"geometry":{"type":"Polygon","coordinates":[[[84.80215152256429,27.21233460699371],[84.80212732436327,27.211950931045944],[84.80222960954733,27.21133875139612],[84.80233470850537,27.21103116046048],[84.80239572887508,27.21057033682065],[84.80241617326374,27.21041898007023],[84.80235021124423,27.210207230345357],[84.80222047483055,27.209977726200446],[84.80204503241276,27.209367047375558],[84.8016985273571,27.208755056288837],[84.80165519746193,27.208604074420375],[84.80148194545303,27.208298110044897],[84.80139441156786,27.20806841807611],[84.80091823282588,27.2072291105049],[84.80083138711741,27.206999480986845],[84.80048600861748,27.206540909868178],[84.80007723162223,27.206218317102252],[84.79990579332878,27.206162863946037],[84.79945650272083,27.20608865583144],[84.798880353998,27.206186749720267],[84.79868840805416,27.206264585522486],[84.79798408716053,27.206363429751732],[84.79740699935917,27.206328358742397],[84.7972141160909,27.206273030936874],[84.79633616696164,27.20600945628471],[84.79629308871796,27.205989388177255],[84.79620793234062,27.205989826337188],[84.79592914139673,27.20584022059417],[84.79560758458898,27.205706619910234],[84.79477096214019,27.205212540855406],[84.79393515357168,27.20483580811977],[84.79361378410924,27.204645816018473],[84.79322864241693,27.20453278407897],[84.79290714829702,27.20440149616569],[84.79239220683691,27.204059085082424],[84.79196204690517,27.20365971934297],[84.79172445799655,27.20325703967224],[84.79159465879852,27.20293275705871],[84.79120488672872,27.202169784098636],[84.79107414893042,27.201710087322734],[84.79102750427542,27.201098657572327],[84.79110953256158,27.200560999526164],[84.79138406812626,27.200024465555657],[84.79170224626198,27.19967730000935],[84.7920855736849,27.19944716869197],[84.7925975107446,27.199290808039674],[84.79293826108686,27.1990969997205],[84.79305117633115,27.199006097993184],[84.79334234547981,27.19876965228071],[84.79344788315639,27.198597601070233],[84.79355235737093,27.198213238081706],[84.79342161964294,27.197753478316205],[84.79303347476994,27.197220760998214],[84.791851847555,27.196211718021175],[84.79150721960919,27.195755460752054],[84.79142043649135,27.19552576825428],[84.79137654484109,27.195390540813175],[84.79122417352634,27.194912901544136],[84.79109237263157,27.194301972054436],[84.7910892442935,27.193764752062748],[84.79118946398935,27.192768833949618],[84.79129350044593,27.192309948599007],[84.79124798118224,27.191849814017917],[84.79133326199572,27.1917726031176],[84.79169608324217,27.191770538393992],[84.79195248955396,27.191712645476418],[84.79214374718956,27.19154003196281],[84.79222715076764,27.191194179757176],[84.79216124997555,27.190887590390545],[84.7920529593842,27.19065796034693],[84.79198818575814,27.190601881858907],[84.79177216616384,27.190219395226148],[84.79174978317134,27.1900863564168],[84.7915337634237,27.18960902866792],[84.79151012871269,27.18930225108535],[84.79190751868006,27.187941162728325],[84.79186250055692,27.187557675003024],[84.79157951738183,27.186717366660847],[84.7913850068351,27.1863347546202],[84.79119193533462,27.186164330408033],[84.79087019052902,27.18599459395794],[84.79054938507016,27.185958021606776],[84.79022757845354,27.185786034959907],[84.78975402853837,27.185662313248706],[84.78965036594101,27.18563580540548],[84.78926703763662,27.185773410335855],[84.7887155245961,27.186311507810746],[84.78837521344582,27.186466867273644],[84.78769346304547,27.186698687641933],[84.78714151228434,27.187083239912056],[84.78688623132318,27.18722015641182],[84.78637516976129,27.187412589236363],[84.78594945056439,27.187530125342537],[84.78586398189702,27.187587017755586],[84.78567303699015,27.187723558758005],[84.78554555360829,27.187801019612724],[84.78531271951091,27.188068661558795],[84.78497428424274,27.188587439865977],[84.78442289706764,27.189145793064576],[84.78427402946545,27.18924144725062],[84.78274215740466,27.189920464253678],[84.78218926759286,27.190266568463485],[84.78150795655085,27.190575098670685],[84.78127468330582,27.19078859966478],[84.78121203615967,27.190940144802024],[84.78110637398136,27.191170962729167],[84.78096107295919,27.19178576941114],[84.7809405666192,27.192013836305282],[84.78081514642236,27.192398262650606],[84.78081733693611,27.19270522712409],[84.7807352461545,27.193240635339446],[84.78073781179984,27.19370108331031],[84.78069648500293,27.19392927541579],[84.78071943254432,27.19423611489149],[84.78106368587174,27.194635981478463],[84.78108500688418,27.194712628633393],[84.78097984348922,27.19492531675602],[84.78104424332378,27.195019781504353],[84.78125869764074,27.19517201376516],[84.78145264508619,27.19547797770136],[84.78149659925022,27.195631210350314],[84.7814562737683,27.196089720146475],[84.78122475329934,27.19655141929804],[84.78090807760339,27.19720323641814],[84.78076002396959,27.197337276842898],[84.78063291531917,27.197568157213098],[84.7805498861173,27.197875622607636],[84.78021076320665,27.198297373108343],[84.78016943647192,27.198527815802503],[84.7800853441279,27.19868179860838],[84.77991559476631,27.198872292691142],[84.77968194757088,27.199027089704146],[84.77938652804639,27.199565936453098],[84.77925923247399,27.19967953244837],[84.77900338782129,27.199739614074527],[84.7784286157781,27.2000295763628],[84.77817446071093,27.20033566652978],[84.77817502417128,27.2004123772687],[84.77826130665855,27.20056535896944],[84.77843299530306,27.200756289223193],[84.77881913952577,27.201099513674382],[84.77914057092643,27.201307573862735],[84.77939747856709,27.201403163665418],[84.77984608076797,27.201477496466538],[84.78016669944407,27.201572773622583],[84.78042310662333,27.20168643066549],[84.7808081231978,27.201779081484425],[84.78112918012947,27.201930750590993],[84.781513696951,27.202043719434144],[84.78209147261039,27.202270783746805],[84.78279717094755,27.20245864915651],[84.78330992299983,27.202591123513415],[84.78375933861206,27.202780552674312],[84.78408070862417,27.203065385815666],[84.78423095115338,27.20316160101137],[84.78436018794176,27.203409172924374],[84.7846608622285,27.203714448806945],[84.78509164816272,27.20430568370632],[84.78522075923405,27.204535188204353],[84.78533061387378,27.204992759790194],[84.78550374155839,27.205375496519387],[84.78574058081921,27.20575792089183],[84.78589326422194,27.206292014516293],[84.78593878300713,27.20675227476732],[84.78596060409961,27.206885251504083],[84.78577184978775,27.207423535486264],[84.78556033543973,27.207672984335805],[84.78575503397546,27.208170755178077],[84.78575716161934,27.20847540680145],[84.78584507051096,27.208858644479474],[84.78587389909683,27.210084129190886],[84.78583682777558,27.211003024810303],[84.78573260339294,27.21144371659571],[84.78577561965047,27.211461534730564],[84.7863940342017,27.211440026004972],[84.78682069111186,27.211342808415463],[84.78716225354283,27.21136112536287],[84.78741853577263,27.211454588871398],[84.78748349764572,27.211530923850408],[84.78793297711441,27.211815067752525],[84.78844610393763,27.2119859912922],[84.78972645003067,27.21194266183648],[84.78975483547988,27.211944724279093],[84.79006882611823,27.21197904600589],[84.79109445305353,27.211973290907476],[84.79229076780831,27.211928148405327],[84.79246158098667,27.211888761270657],[84.79314577010804,27.21188488262975],[84.7938947965947,27.212034110969746],[84.79406654735362,27.2122249791828],[84.7941527045047,27.212262927207746],[84.79440948711,27.212338198507357],[84.79466633181697,27.21233669672126],[84.79509473980004,27.212411029562954],[84.79543761576544,27.212503868184694],[84.79569471088394,27.212637843988013],[84.79608222980076,27.21297869334309],[84.79642723387364,27.213378559333048],[84.79679324537108,27.213721783627964],[84.79722271725248,27.214026309357653],[84.7977392839207,27.214501884948906],[84.79795417640257,27.214633797769835],[84.79857753257058,27.21512912888529],[84.79961029189758,27.2160238254939],[84.79982606022686,27.21627083438768],[84.7999621115255,27.216498087834808],[84.80025984803981,27.216995170906067],[84.8003910854967,27.21733977111593],[84.80096629545932,27.217106263548885],[84.80113667031554,27.217010484587988],[84.80132799057598,27.21683780776212],[84.80136969294955,27.216760847943302],[84.80149530040944,27.21649827058298],[84.80172794629893,27.216011688483974],[84.80185274014664,27.215552741229974],[84.8021277766539,27.215090729471775],[84.8022526325618,27.214631781489462],[84.80235873385742,27.214477673195656],[84.80240006020244,27.21424723051799],[84.80237529884434,27.213786907699305],[84.80228513801872,27.21309901834092],[84.80221967547972,27.21294591119285],[84.80221692253824,27.212562173591557],[84.80215152256429,27.21233460699371]]]}},{"type":"Feature","properties":{"province":"Madhesh Province","district":"Parsa","municipality":"Paterwa Sugauli Rural Municipality","ward":"1","wardNumber":1,"sourceMunicipality":"Paterwasugauli","sourceType":"Gaunpalika"},"geometry":{"type":"Polygon","coordinates":[[[84.78469672231707,27.25326332379866],[84.78589197503234,27.25317754422758],[84.78597788117698,27.253177168947502],[84.78629768661013,27.253136967683464],[84.78681037522406,27.25313184006099],[84.7874514235242,27.253146279264815],[84.7877717290105,27.25308801103271],[84.78809165858256,27.253065940708442],[84.78886056731854,27.253041243109088],[84.78956513807142,27.25294021094195],[84.78975514616903,27.252927831515674],[84.79052761763823,27.252876064010557],[84.79084842286547,27.25279972786965],[84.79123393938994,27.25275921444522],[84.79161908068487,27.25275696252267],[84.79226131696763,27.252676686618216],[84.79277513162748,27.25265342758233],[84.7934808280997,27.25253657841031],[84.7941870877023,27.252494188432316],[84.79470008866149,27.25235808416302],[84.79515025462383,27.25235558150868],[84.79636988976355,27.25223347850401],[84.79649843675472,27.25219434123959],[84.79694797813454,27.252191776788997],[84.79733330683989,27.252133132763117],[84.79759040181685,27.252131694064488],[84.79836012116093,27.251973770080497],[84.79880928682459,27.25191481384271],[84.79906625651144,27.251913311763968],[84.79964378080345,27.25179489992313],[84.79996514930575,27.251793086031228],[84.8000929458766,27.251753948888158],[84.80073536911223,27.25169386624047],[84.80157042672519,27.25165066337332],[84.80253277997497,27.251491675512035],[84.80420258198852,27.251369195957402],[84.80477960578017,27.251271102783807],[84.80567918700007,27.251245591380073],[84.80670612761394,27.25110648402732],[84.80646741213447,27.250667793528528],[84.80620481262348,27.24998078058004],[84.80600942678542,27.249677191677147],[84.80568599392433,27.249392359708526],[84.80510546613264,27.249088835267724],[84.80475971216671,27.248689030822586],[84.80460727916378,27.248385192244687],[84.80451699388496,27.247774013069254],[84.80395296946755,27.246876689247532],[84.80362659647345,27.246266886402978],[84.80313116241936,27.24584988985399],[84.80289319821567,27.245602943492056],[84.8028277363856,27.245449773530837],[84.80282604670822,27.245219643857663],[84.8027600215088,27.244992077079353],[84.80260902738047,27.244801084080066],[84.80239300991904,27.244610466351112],[84.80219837465135,27.244324882903747],[84.80212953383865,27.243790351132716],[84.80204143709138,27.243483886236977],[84.80188975588709,27.24319811515352],[84.80171637815852,27.242971111801786],[84.80149842099246,27.242511915052106],[84.80138612608272,27.241824150659546],[84.80127664693832,27.241520062278255],[84.80108188675848,27.241214223009628],[84.80095227585593,27.24109981492048],[84.80084386043144,27.240949271030843],[84.80041295029419,27.24064474592771],[84.80021700096783,27.24016735634125],[84.80038481098585,27.239708157700186],[84.80040450475344,27.239554549783744],[84.80031540732878,27.23909685311853],[84.8003351630011,27.238866536133486],[84.80052441832923,27.238407274879854],[84.80058781632616,27.23835044577111],[84.80069347893298,27.23811962723144],[84.80082052558944,27.23796539381364],[84.80101034377925,27.237582906009848],[84.80115439302047,27.236816867831138],[84.80102246716133,27.236359421627824],[84.80119071473891,27.235974745032227],[84.8014458076093,27.235706915471543],[84.80172284703907,27.235610510877773],[84.80189453454507,27.235609573145478],[84.80206603543908,27.235665026153743],[84.80247487507751,27.23589290420973],[84.8027322199492,27.2359478568362],[84.80290334485723,27.23594685608633],[84.80313836855174,27.23588908791688],[84.80330855580574,27.235678150248038],[84.80347742910052,27.235370246549554],[84.80353951330311,27.23514192921531],[84.80362435569752,27.23498794602624],[84.80374908697293,27.234526747608445],[84.80356688860408,27.233153282055323],[84.80339132151333,27.232617000307386],[84.8033456162451,27.232235825808978],[84.80316785942503,27.231394891707996],[84.80307482041948,27.230479061046537],[84.80294214467108,27.229944841366102],[84.80288974454434,27.228796254203708],[84.80269098058048,27.228108990908265],[84.80266665850097,27.22780440091872],[84.8024459484479,27.227040490303192],[84.80235897798002,27.226887570388424],[84.80227094424188,27.226583293788785],[84.80216134054781,27.226353726261554],[84.80196326406728,27.225666400731267],[84.80193844111938,27.22528510089757],[84.80180626538845,27.224902051683102],[84.80175924581161,27.224423911010323],[84.80169322060149,27.224196281445746],[84.80162463040682,27.22370013589829],[84.80157973801046,27.2235085174846],[84.8014670067586,27.222838821600632],[84.80127368475745,27.222724788564626],[84.80114138377303,27.22232604659243],[84.80054066231483,27.222099294511352],[84.80021935593719,27.22200401793108],[84.80002665959321,27.221987075937967],[84.79981083003663,27.221816776982145],[84.79978782067693,27.221606965457863],[84.79997532439734,27.22106868143427],[84.79999514320016,27.220840614432394],[84.79973310647385,27.220307145612857],[84.79930244627006,27.219925910864678],[84.79928056365641,27.219869644210384],[84.79995455618838,27.21869879796884],[84.80030674198429,27.217473436236705],[84.8003910854967,27.21733977111593],[84.80025984803981,27.216995170906067],[84.7999621115255,27.216498087834808],[84.79982606022686,27.21627083438768],[84.79961029189758,27.2160238254939],[84.79857753257058,27.21512912888529],[84.79795417640257,27.214633797769835],[84.7977392839207,27.214501884948906],[84.79722271725248,27.214026309357653],[84.79679324537108,27.213721783627964],[84.79642723387364,27.213378559333048],[84.79608222980076,27.21297869334309],[84.79569471088394,27.212637843988013],[84.79543761576544,27.212503868184694],[84.79509473980004,27.212411029562954],[84.79466633181697,27.21233669672126],[84.79440948711,27.212338198507357],[84.7941527045047,27.212262927207746],[84.79406654735362,27.2122249791828],[84.7938947965947,27.212034110969746],[84.79314577010804,27.21188488262975],[84.79246158098667,27.211888761270657],[84.79229076780831,27.211928148405327],[84.79109445305353,27.211973290907476],[84.79006882611823,27.21197904600589],[84.78975483547988,27.211944724279093],[84.78972645003067,27.21194266183648],[84.78844610393763,27.2119859912922],[84.78793297711441,27.211815067752525],[84.78748349764572,27.211530923850408],[84.78741853577263,27.211454588871398],[84.78716225354283,27.21136112536287],[84.78682069111186,27.211342808415463],[84.7863940342017,27.211440026004972],[84.78577561965047,27.211461534730564],[84.78573260339294,27.21144371659571],[84.78583682777558,27.211003024810303],[84.78587389909683,27.210084129190886],[84.78584507051096,27.208858644479474],[84.78575716161934,27.20847540680145],[84.78575503397546,27.208170755178077],[84.78556033543973,27.207672984335805],[84.7854960617338,27.207691427254918],[84.7853476325815,27.207769013015547],[84.7847508516308,27.207905493474705],[84.78321434901234,27.207952512106754],[84.78278794222776,27.2079932754926],[84.78184859662979,27.207978212734616],[84.7809942821627,27.207827233310596],[84.78088711728124,27.207751086747248],[84.78048096728413,27.207620174653638],[84.78022368441785,27.207468130360173],[84.77996740230071,27.207372540696127],[84.77953955658217,27.207298145310624],[84.77885643037455,27.207263575750567],[84.77842895996524,27.20715085633493],[84.77817217769899,27.206980682189435],[84.77774433208653,27.206809320695843],[84.77725240009569,27.206678908946547],[84.77710259441743,27.20656462654545],[84.77667568740057,27.206526366967054],[84.77656914858845,27.20654724817898],[84.77633481241192,27.206702044499654],[84.77620764146155,27.206835896506398],[84.77608109621346,27.20706684005291],[84.77599787928798,27.207353925101426],[84.77593404314966,27.20743107280485],[84.77587183492794,27.207738413403312],[84.77587446179433,27.208119838057485],[84.77594036289474,27.208426427665962],[84.77613481119705,27.20888581226666],[84.77622209509798,27.209190025774372],[84.77641610470899,27.209495990158427],[84.77648144221939,27.209725807360723],[84.7764831946337,27.2099741308438],[84.77644080382686,27.210051090994234],[84.7762069058111,27.210185568423658],[84.77492837536533,27.210574124682203],[84.77407693888492,27.21094223615348],[84.77380127585408,27.211153611430603],[84.77369504942126,27.211307782496192],[84.77361227150931,27.211748349966054],[84.77331566401378,27.212113395165026],[84.77308170253517,27.21222980598364],[84.77282592216282,27.21230789215425],[84.77240082882442,27.21254058701821],[84.77180467280735,27.212771844669074],[84.77163392281238,27.212811169383162],[84.77137814093562,27.212792289655262],[84.77099206089107,27.212546093347388],[84.77086376342244,27.21243168481946],[84.77054101771587,27.212031693913683],[84.77039064935883,27.21191747343835],[84.76987702109554,27.211669652174315],[84.7694496761753,27.211577251860103],[84.76893767547259,27.211559748389366],[84.76835921087412,27.21123790549148],[84.76793149098783,27.2110867376771],[84.7676758966241,27.21108817632256],[84.76733445960174,27.211184830921244],[84.76712219431754,27.211339502625048],[84.76686647534576,27.211415400809905],[84.7668889222378,27.211568820945804],[84.76729776292981,27.21218043658011],[84.76755635929258,27.21252434931157],[84.76766389927882,27.212753978690607],[84.76766871727204,27.213537208703787],[84.76777725863734,27.213805225028334],[84.76786454161692,27.21411168926008],[84.76786473048122,27.214226847911604],[84.76797333422607,27.214512869559123],[84.76823186846369,27.21493355457447],[84.76870479520174,27.215504283496866],[84.76892131439331,27.215963542958704],[84.76900728349335,27.216078200590964],[84.76915915383924,27.21649944902751],[84.76948540296884,27.217398274803262],[84.76966015686735,27.21802927215163],[84.76983359749033,27.21837368526156],[84.77002904703937,27.218891773905337],[84.77005174337421,27.21906319956051],[84.77026982698222,27.219752651457878],[84.7703995633019,27.2199822182363],[84.77063633872831,27.220267551350315],[84.77063671462976,27.220326256277698],[84.77070086310805,27.220382335110255],[84.77085248271203,27.220670356786854],[84.77094201825703,27.221301854725507],[84.77122456245498,27.22199105558113],[84.77154774651075,27.222449689746213],[84.7718055294092,27.222660438165228],[84.77221487075866,27.22325186019263],[84.7722788937143,27.223289871712442],[84.77286042437319,27.22405409419433],[84.77316172376212,27.224341302061784],[84.7734197579701,27.22468521481661],[84.7737636356455,27.225028689527793],[84.77393626240772,27.225257943759],[84.77440912597302,27.225715764036735],[84.77499197056952,27.226746315435037],[84.77527495240446,27.227494159110332],[84.77570686499593,27.228238876429213],[84.77598740766514,27.2286413063111],[84.77616059773854,27.229042173378197],[84.77627132908647,27.2296170918859],[84.77627289320911,27.22984734673185],[84.7759799133062,27.230652522016857],[84.77594083831835,27.23111090693333],[84.77596347241494,27.2312845832472],[84.77609439809635,27.23168338719245],[84.77644021520116,27.2321983497995],[84.77648379345445,27.232313258680595],[84.7765725153677,27.232712250646472],[84.77655344760231,27.233057789272717],[84.77649086334648,27.233229589963784],[84.77647141970053,27.233516361506176],[84.77622014203916,27.23414973687056],[84.77618025389539,27.23449308790663],[84.7760333895696,27.234895643594417],[84.77595061087628,27.23524149542931],[84.77595880611982,27.23633162843035],[84.77575023236402,27.23702120711153],[84.77573103822658,27.237251650178113],[84.77564694587383,27.23742357533229],[84.7756278785225,27.237766739132773],[84.77567320873736,27.238111778027008],[84.77559336960391,27.238800730665858],[84.77544700590529,27.239259803815493],[84.77515077262291,27.239606719186362],[84.77504523508455,27.239778894817942],[84.77483584792884,27.240353314640856],[84.77483666091842,27.240468473802746],[84.77477407613024,27.240642587693134],[84.77464753144118,27.240871279563297],[84.77456931877215,27.24179036288079],[84.77485223912956,27.242533642577403],[84.77504643651346,27.242762834319574],[84.7751319052187,27.24279846986025],[84.77517535875653,27.242874929454945],[84.77538993884673,27.24304529082817],[84.77562715217223,27.24329230007758],[84.77595102352245,27.24374868309058],[84.77608163526865,27.244093284586413],[84.77621600073851,27.24489383173858],[84.77625932953944,27.244952285879883],[84.77630384685222,27.24518004066434],[84.77641176255875,27.245350965323382],[84.77665122888749,27.245922945010207],[84.7767633348631,27.24661077196286],[84.77676496235202,27.246840964492804],[84.77670519226304,27.247414632710143],[84.77649499240286,27.2478740191813],[84.77637182472846,27.24850670497293],[84.77637864381217,27.249481679107685],[84.77642234841407,27.24959658782843],[84.7764465460333,27.249998268714698],[84.77673059189009,27.250797939594356],[84.77686039029894,27.25102738181923],[84.77729248936828,27.251598360803655],[84.77748681285395,27.251940398166212],[84.77759497789054,27.25205486889468],[84.77779030163495,27.252453297380047],[84.77790059492582,27.252969573912207],[84.7778623329426,27.253543117729087],[84.7778001237806,27.25377368553982],[84.77784545422602,27.25411653602967],[84.77790941537805,27.25413647952712],[84.77848631542385,27.254112969998342],[84.78008640333732,27.253851200079392],[84.7806633659415,27.2538276911882],[84.78130347608125,27.253727034698848],[84.78175170296656,27.253706526902608],[84.78194389824151,27.253646696016478],[84.782456024727,27.253567107865397],[84.78296871273193,27.25356197983935],[84.78328826785763,27.253483518225018],[84.78354461252839,27.253482016490214],[84.78405680021793,27.25340236618888],[84.78450427665973,27.25328251763179],[84.78469672231707,27.25326332379866]]]}}]}