{"type":"FeatureCollection","features":[{"type":"Feature","properties":{"province":"Madhesh Province","district":"Dhanusha","municipality":"Lakshminya Rural Municipality","ward":"5","wardNumber":5,"sourceMunicipality":"Lakshminiya","sourceType":"Gaunpalika"},"geometry":{"type":"Polygon","coordinates":[[[85.97189237032373,26.82006867665362],[85.97220010253042,26.819633046006203],[85.97298444298674,26.818859999034338],[85.97309429398018,26.818709516584022],[85.97359247192459,26.818351969436236],[85.97376715899377,26.81816366298878],[85.97383424396827,26.818010679373035],[85.97397360165125,26.81747670939459],[85.97402942790998,26.816865403933846],[85.9742382441102,26.815950508285898],[85.97425005365429,26.815338891396067],[85.97419215489272,26.8150314886682],[85.97407035699362,26.81472364963649],[85.97371840987891,26.81420193657805],[85.97355490901077,26.81385314861843],[85.97330843854472,26.81339089008221],[85.97294104534366,26.812562024440744],[85.97284194204093,26.81217766236785],[85.97278091852876,26.812044123750805],[85.97266043302264,26.811659449703583],[85.97258402472909,26.811198440257318],[85.97251361515114,26.81043271602411],[85.97237212235726,26.810045728733183],[85.9722707698617,26.809776399778784],[85.97216879230854,26.809545395835144],[85.9720713765988,26.809084260992588],[85.97182621824665,26.808545229577803],[85.97165990539392,26.808331856627845],[85.97130408471548,26.808040336604027],[85.97100766285989,26.807956939170936],[85.97075238173618,26.80795287793953],[85.96998872688376,26.807825410204174],[85.96935099370702,26.80779596906701],[85.96892740029486,26.807693567854077],[85.96865054865518,26.807707324489],[85.9682055727417,26.80760479819334],[85.96756802683282,26.80755503948226],[85.96699394177689,26.807544104181947],[85.96667370088832,26.80759593403298],[85.96624760772283,26.807628947525735],[85.96599120262931,26.80768127807058],[85.96579919460964,26.807697909341783],[85.96541268049218,26.807882467028854],[85.9650279162588,26.807969934052103],[85.96457594111291,26.80815624248719],[85.96406206668932,26.808263090985466],[85.96380616070263,26.808258967233254],[85.96329816027392,26.808076918230647],[85.96294146419969,26.807803465734334],[85.9625018004299,26.807432360994596],[85.96219036878085,26.80702599398118],[85.96194296210334,26.806638257465533],[85.96163634294595,26.806022016793314],[85.96132759956024,26.805498366012365],[85.9612045519739,26.80526723636776],[85.96112258356465,26.805113129427895],[85.9607955817412,26.804456189803904],[85.96065446341672,26.80407139035328],[85.96055767255348,26.803610255460338],[85.96029057058693,26.803145558641134],[85.96012769414183,26.802760634980192],[85.95992805106924,26.802068495563933],[85.95981387689437,26.801379169829733],[85.95963105516977,26.800915159871064],[85.95949256096884,26.800379190718782],[85.95926522394305,26.800029902850273],[85.95911966916616,26.799855102987767],[85.9589626094021,26.799700371206935],[85.9587438397978,26.799486623047223],[85.95811566780115,26.798996671772237],[85.95777960556558,26.798779799113206],[85.95708778465914,26.798271343279506],[85.95684588100409,26.79804609184313],[85.95675322110958,26.7979596923031],[85.95639527565174,26.797706495615703],[85.95631418123335,26.79749374683435],[85.95623446146301,26.797206475893162],[85.95574934250423,26.796891387015105],[85.95485657646552,26.796665891471143],[85.95383732583011,26.796342367568876],[85.9528231992893,26.79577058354763],[85.95180613570149,26.795352282526533],[85.9507866357876,26.79506714530477],[85.95040261973716,26.795041704009524],[85.95014771350559,26.794960869973107],[85.94957306464116,26.79485728197283],[85.94863865764799,26.794572705991104],[85.94819218152068,26.79447011722675],[85.94802049410012,26.79450719296393],[85.9479538456726,26.794639857092722],[85.94794878471895,26.79488811715498],[85.94815067654196,26.79546522311278],[85.94826616343944,26.79610034570292],[85.94838702462177,26.796464639237254],[85.94852826758525,26.796869756853503],[85.94862012242265,26.797617538052457],[85.94869371772734,26.798193643973956],[85.94884740778048,26.799057021336374],[85.94902904278769,26.799577548080606],[85.94903329568756,26.799701709079244],[85.94905531107277,26.800381345883014],[85.94911102383922,26.800783526174452],[85.94910377441903,26.801128815334277],[85.94924377898063,26.80262406538848],[85.94921283596747,26.803084326224226],[85.9491216181057,26.80336809803038],[85.94897794855119,26.80411413036623],[85.9489305071455,26.805375564515796],[85.94877126741372,26.805832574960544],[85.94865160481673,26.806463698646315],[85.94866805123822,26.806694079100037],[85.94884599867804,26.807386093250585],[85.94892309328753,26.807788398136754],[85.94897799295113,26.808210896177496],[85.94923558680561,26.808138310676924],[85.94966580454181,26.807992576166317],[85.94983886641886,26.807880979195545],[85.95018361623109,26.80773230765351],[85.95076763845755,26.807377698290924],[85.95111176213203,26.807269601132166],[85.95119623174553,26.80730867467305],[85.95129952091196,26.80746290604351],[85.95141906880502,26.807867836679932],[85.95147565628648,26.808213562975162],[85.95157613311503,26.808503272236745],[85.95224695824454,26.81006566220051],[85.95232467729835,26.810411576293024],[85.95240477243648,26.8106604603578],[85.95254870283885,26.81091209581471],[85.95274853211568,26.81154784315161],[85.95278636140615,26.811778347861402],[85.95290822147221,26.812068119637704],[85.95318983331217,26.81287604249064],[85.95335946878765,26.813913345622964],[85.95362469732358,26.814493138224126],[85.9538613563992,26.81539777654691],[85.95390055956162,26.815551509336977],[85.95419742980722,26.81664845361846],[85.95439957206128,26.81716910458548],[85.95455619889233,26.81782260749692],[85.95468068415823,26.817997282687124],[85.9550787709307,26.818347819563453],[85.9553281152953,26.81865890929122],[85.95589576429546,26.819069399429313],[85.95650424176799,26.81955916302899],[85.95671713280082,26.819601360791662],[85.95684605513563,26.819631618932487],[85.95697185159266,26.81966187690941],[85.95790869452125,26.81973426491041],[85.95824788225968,26.81981572335754],[85.95850335052161,26.819840227746354],[85.9588450373824,26.819824595525173],[85.9598719735936,26.819669666061376],[85.96055478578144,26.819661094591936],[85.9615779718836,26.819677590608592],[85.96208890898858,26.819724224607626],[85.96225984701887,26.819707405378036],[85.96277059613067,26.819772107794616],[85.96404968954846,26.81979272755498],[85.96456231315692,26.819762588797648],[85.96515678217337,26.819886620420064],[85.96536898512339,26.819928755884025],[85.96570904717898,26.819989895236468],[85.96638660962289,26.8202115793829],[85.96689642220747,26.820316856361114],[85.96740361053999,26.820534977938916],[85.96757242317251,26.82061293707466],[85.96786634478991,26.820829498214103],[85.96827919003341,26.82146680614001],[85.96850234055296,26.82200783870692],[85.96862651265046,26.822182576133663],[85.9688781070252,26.8223965742746],[85.96950996650938,26.822771366659715],[85.96988754572051,26.82306301082305],[85.97015852294234,26.82335615727186],[85.97034640655723,26.823549399859843],[85.97047226556461,26.823647364593523],[85.97065983597653,26.82384279548265],[85.97070916364177,26.823536205067306],[85.97085345777008,26.82277204236432],[85.97110272894024,26.822087713833135],[85.97124539864495,26.821400260288836],[85.97133505334283,26.82119094839479],[85.97144990400214,26.82080808468327],[85.97171555812366,26.82035407377899],[85.97189237032373,26.82006867665362]]]}},{"type":"Feature","properties":{"province":"Madhesh Province","district":"Dhanusha","municipality":"Lakshminya Rural Municipality","ward":"3","wardNumber":3,"sourceMunicipality":"Lakshminiya","sourceType":"Gaunpalika"},"geometry":{"type":"Polygon","coordinates":[[[85.92426389661561,26.84239121397513],[85.92464158853565,26.84159503993557],[85.92476975796104,26.841381600543695],[85.92501734483173,26.840970415169146],[85.92510906227163,26.840684455460448],[85.92515920200604,26.840339478892737],[85.92540409864347,26.839885405553936],[85.92551351290251,26.83975305324177],[85.92609828508719,26.839378250988194],[85.92629116762717,26.839343613516597],[85.92633343287783,26.839364244164457],[85.92636081547735,26.8390958530157],[85.92647404129947,26.838792012774803],[85.92766039498174,26.837259302481453],[85.92810411210885,26.836502076135297],[85.92845461035118,26.836084825769305],[85.92865005488464,26.835935092347793],[85.92961977980637,26.835529340007355],[85.92996396734905,26.835421304981587],[85.93047859183048,26.835314581536295],[85.93073674755148,26.835223990648704],[85.93116496579849,26.835173033730364],[85.93159268461571,26.83514239661913],[85.93227530942038,26.835172399275656],[85.93270296537037,26.835141761479083],[85.9329582460514,26.83518433402934],[85.9332998089065,26.835189145278804],[85.93423646501344,26.83532030023086],[85.93455427015124,26.835440082566095],[85.93512379444628,26.835755857812842],[85.93543947396357,26.83597029332097],[85.93571163891279,26.836225178310432],[85.93602850688569,26.836383347227834],[85.93662216344454,26.836566145763776],[85.93712997555689,26.83678433037024],[85.93746935078804,26.836886231780657],[85.93823150807702,26.837185375926687],[85.93916541412315,26.837449632967015],[85.93950410249373,26.837589858167767],[85.93992857165405,26.837712702831848],[85.94018222813891,26.837831860797035],[85.9404331969144,26.838063989650298],[85.94072143239445,26.838567322396425],[85.94088837072648,26.838742371958197],[85.9412853330211,26.839151613564894],[85.94187405294402,26.83956454281338],[85.94219092024082,26.83972264838696],[85.9427838272726,26.839961838644218],[85.94295357721145,26.840003724739333],[85.94380563975979,26.84011162413838],[85.94440579528695,26.84000777520533],[85.94466176383251,26.84001189967364],[85.94491973244659,26.839939375535792],[85.94526410622396,26.83981096043296],[85.94543485611912,26.839814584443538],[85.94575997292503,26.839588953447763],[85.94608621400823,26.839306992609046],[85.94669180695027,26.838952570240934],[85.94694996236869,26.83886197883155],[85.94746389938153,26.838793516908485],[85.94763683706573,26.83870005071487],[85.94739186650291,26.838179024465013],[85.94691693501633,26.837423869460757],[85.94687685652141,26.837308461033782],[85.94671154317892,26.837056700911507],[85.94658699581404,26.836884151471864],[85.9461938454344,26.836301233281663],[85.94611243884171,26.83612905845402],[85.94565626508707,26.835489125096803],[85.94555841252608,26.83508438177027],[85.9453974735158,26.83462274731962],[85.94504833963117,26.833985876014204],[85.94482600138758,26.833406395458443],[85.9447469066252,26.833116873782927],[85.94476960223655,26.833042539433],[85.9446498662385,26.83265567641336],[85.94430829369816,26.831673516459016],[85.94419630733088,26.83092554773192],[85.94413320999779,26.82988905576183],[85.9438580973482,26.828794549688688],[85.94384052659989,26.82862062374854],[85.9436796506033,26.82815892678281],[85.94347331069538,26.826834727644847],[85.9433842692075,26.826028241492125],[85.94351619059645,26.825837371910005],[85.94375490070158,26.825669820163807],[85.94420562731625,26.825562535003225],[85.94556505353856,26.824895514474886],[85.9463432086706,26.82444762622617],[85.94679505921391,26.824283948796783],[85.94718263692762,26.824135589019328],[85.94763380005635,26.824010298316054],[85.94802318935042,26.823767160913434],[85.94854150051012,26.82348888741421],[85.9494445774446,26.823197481532805],[85.94985303841783,26.823069690489717],[85.94914920746292,26.822041957624023],[85.94898608082427,26.82169541931936],[85.9486945960036,26.82134563201456],[85.94836609458139,26.82074733350122],[85.94826136727534,26.82064949370538],[85.94758816790012,26.819202199020754],[85.94740047222433,26.818988575830517],[85.94676085205329,26.817961342092016],[85.94595829446516,26.816569440615353],[85.94581505094378,26.81627948117209],[85.94500918065633,26.8150410625434],[85.944207121731,26.813628904561053],[85.94348097161051,26.81264162106232],[85.94261245105938,26.811249219646097],[85.9424266294729,26.81093863049621],[85.94210413784289,26.811028721617802],[85.94184773210308,26.81104491644602],[85.94152961475223,26.810925133964385],[85.94136136397047,26.810788470141215],[85.94117391842475,26.810554591046643],[85.94098878440023,26.810207866069426],[85.94090937735186,26.809918343756664],[85.94060094590722,26.80934042674432],[85.94052028908078,26.809109610133746],[85.93958543304517,26.80782955474782],[85.93927693916275,26.807251700046127],[85.93877993650969,26.80649635704878],[85.9383669039886,26.805800281851866],[85.93820815160402,26.805223551188018],[85.93796499303777,26.804587428820305],[85.93723890412186,26.803543690727217],[85.93665455863201,26.802882501910673],[85.93625447223891,26.802588294610793],[85.93591540919024,26.802468386944103],[85.93547130702396,26.802250639301658],[85.93530536926465,26.80199887925073],[85.93518438363056,26.8016525911878],[85.93512979561419,26.801191706284907],[85.93470200377519,26.80020892110202],[85.93447522956313,26.799803179048574],[85.934440340893,26.799703587623874],[85.93431385320224,26.79934148247903],[85.93423300815984,26.799110665577658],[85.9339492089419,26.79835913475083],[85.93368254365316,26.797817665822375],[85.93334897946342,26.79741111156558],[85.93314021316932,26.79717704470248],[85.93288474422079,26.797116466095805],[85.93269448596938,26.797017938901078],[85.93250266611848,26.7969961841066],[85.93237411949214,26.797031383387218],[85.93217936163484,26.79714273024989],[85.9320041127365,26.79735135532543],[85.93182548966118,26.797731468440695],[85.93165130214979,26.797901707467123],[85.93119895169853,26.798085578133936],[85.93087414728109,26.79829089156473],[85.93061561732755,26.798401801038597],[85.93016089178457,26.798700830720268],[85.92990079859321,26.798886199954374],[85.92866966875573,26.79953827706367],[85.92842383021906,26.799703452666478],[85.92788970207927,26.800060562232623],[85.92717738314036,26.800414047217913],[85.92679055582111,26.80052177004641],[85.92594775205873,26.800966782314433],[85.92562488526939,26.801097573934605],[85.92504092642841,26.801431676913243],[85.92413841186652,26.801684446814324],[85.92401061513304,26.80166319146556],[85.92382204350851,26.801487954636283],[85.92369493433381,26.801428312970383],[85.92363084814797,26.80142781371769],[85.92350117731742,26.80150358703976],[85.92310535035612,26.802033245424077],[85.922341079898,26.802824234380207],[85.9220762998557,26.80322166648978],[85.92187691798205,26.80356333096314],[85.92176531773612,26.803790461088784],[85.92147921697223,26.80418776768063],[85.92119649141642,26.804431653843892],[85.92072057082275,26.80471249067042],[85.92061115761305,26.80484478094202],[85.92073389246012,26.80509629050634],[85.92085131571379,26.80561400400146],[85.92111073218878,26.80648056960099],[85.9213218848703,26.80763103035081],[85.92150314343529,26.808151556400418],[85.92218984121345,26.809023557177333],[85.92239860813537,26.80925762364524],[85.9230065238047,26.80982203432005],[85.92321478939816,26.810074168499188],[85.923698720088,26.810445711192816],[85.92390886197512,26.81060306820424],[85.92409343318158,26.810970111653397],[85.92448264647645,26.811781159616892],[85.92457987401916,26.81224235632337],[85.92459513260447,26.812529127738646],[85.92450372762596,26.81281508751967],[85.92434823669252,26.813098297347597],[85.92386619106308,26.813665718038674],[85.92336413885013,26.81417430958736],[85.92310516997925,26.81430328678228],[85.92258767116975,26.814525044371138],[85.92224017237395,26.814788749383805],[85.9219157425062,26.814973619264144],[85.92159137678502,26.81516080198784],[85.92128676800026,26.815422568610707],[85.92111145640888,26.815631131931585],[85.92100154306712,26.815783802582665],[85.92082198161923,26.816181983961442],[85.92069018515235,26.816352472439107],[85.92057383531214,26.816809795320356],[85.92058328171477,26.81738321324235],[85.92076798988808,26.818765993274745],[85.92094924898295,26.81928651960508],[85.92115457846349,26.819689886147458],[85.92135490816737,26.820325633481286],[85.92149840124658,26.820615655291814],[85.92149371443486,26.820845847746128],[85.92144863663862,26.820958443768387],[85.92129539550139,26.82112874514353],[85.92125031714072,26.821243529167084],[85.92113252973373,26.821757243019654],[85.92110847107517,26.82290595610208],[85.92097198839159,26.82330669968555],[85.92092191061337,26.82364942633488],[85.92076398239325,26.82404998284967],[85.92047669525873,26.82450374353374],[85.92011582244531,26.82541745217763],[85.91993888664248,26.82570272476151],[85.91978570696824,26.825870838567113],[85.91969948831274,26.82590860015036],[85.91928615373477,26.826246265738227],[85.91911140476623,26.82643450960467],[85.91886919400906,26.82677579929073],[85.91848425196832,26.82780435531515],[85.91848075281081,26.82797590560256],[85.91834389483762,26.828374335872947],[85.91816583302081,26.828716187898518],[85.91798414715272,26.829231591095407],[85.91774657282669,26.830376429492823],[85.91754437939758,26.83083306482832],[85.91739001221418,26.831059883442492],[85.91723783367219,26.831191923547877],[85.91712804473572,26.831324275631637],[85.91716799806984,26.83145768920954],[85.91720114004029,26.831918449318035],[85.91705534573701,26.832757009701748],[85.91697513756438,26.833521547385047],[85.9168095850251,26.834285460211003],[85.91667335227767,26.83466588606847],[85.91657169777224,26.83543029924126],[85.91639126232543,26.835887121820516],[85.91627328742511,26.83642115538951],[85.91626353836482,26.83688154051214],[85.91639553328102,26.837724474564222],[85.91646469161596,26.838492449147004],[85.91683159577808,26.840337112648818],[85.91686923736493,26.840567555409727],[85.9170780031028,26.84078136587924],[85.91739243366564,26.84105456830894],[85.91777144995675,26.841290009535836],[85.91802604374352,26.841370968419234],[85.91811501336602,26.84138065807578],[85.91821773898769,26.841392723513838],[85.91851447336342,26.84151238118335],[85.91872798958839,26.841516255392104],[85.91904729400576,26.84157964588609],[85.91968371616164,26.841798892030948],[85.92000320867021,26.841844215557572],[85.92038566217005,26.841946429918327],[85.92083157711112,26.84208752966413],[85.9210218968559,26.84218605711352],[85.92134257722094,26.842170424755345],[85.92178867864341,26.842293456673683],[85.92268538138387,26.8423092664147],[85.92281267851646,26.84234865140382],[85.92319294550775,26.842584029707485],[85.92332024192055,26.842625604074737],[85.92357608561814,26.842647858412224],[85.92404675708705,26.842599527390863],[85.92417661648922,26.8425056864647],[85.92426389661561,26.84239121397513]]]}},{"type":"Feature","properties":{"province":"Madhesh Province","district":"Dhanusha","municipality":"Lakshminya Rural Municipality","ward":"4","wardNumber":4,"sourceMunicipality":"Lakshminiya","sourceType":"Gaunpalika"},"geometry":{"type":"Polygon","coordinates":[[[85.95119623174553,26.80730867467305],[85.95111176213203,26.807269601132166],[85.95076763845755,26.807377698290924],[85.95018361623109,26.80773230765351],[85.94983886641886,26.807880979195545],[85.94966580454181,26.807992576166317],[85.94923558680561,26.808138310676924],[85.94897799295113,26.808210896177496],[85.94882768887376,26.808245907854253],[85.94831056452873,26.80846779034404],[85.94788178439211,26.808557195349106],[85.94744987876919,26.808779702272037],[85.94714826998258,26.808890299536586],[85.94604912340077,26.809351569351882],[85.9456378508783,26.809612712987896],[85.94546516411167,26.809685922666425],[85.94512091469679,26.809814276478203],[85.94486207068789,26.809925185977455],[85.94434625970301,26.81007035869636],[85.94313832364972,26.81062565670093],[85.94270704394035,26.81080977743172],[85.9424266294729,26.81093863049621],[85.94261245105938,26.811249219646097],[85.94348097161051,26.81264162106232],[85.944207121731,26.813628904561053],[85.94500918065633,26.8150410625434],[85.94581505094378,26.81627948117209],[85.94595829446516,26.816569440615353],[85.94676085205329,26.817961342092016],[85.94740047222433,26.818988575830517],[85.94758816790012,26.819202199020754],[85.94826136727534,26.82064949370538],[85.94836609458139,26.82074733350122],[85.9486945960036,26.82134563201456],[85.94898608082427,26.82169541931936],[85.94914920746292,26.822041957624023],[85.94985303841783,26.823069690489717],[85.95091204339556,26.822474819138467],[85.9510849178192,26.82238129004508],[85.95199249435264,26.821877883862964],[85.95231467309219,26.82178772946083],[85.9525738916128,26.82163843334967],[85.9531537893223,26.821475630841565],[85.95367091288752,26.821255999151003],[85.95399627979428,26.821030430161578],[85.9541902244436,26.820937025849528],[85.9551009872138,26.820282388031014],[85.9559408530816,26.819952283314155],[85.95619894654973,26.819859378635957],[85.95635162605906,26.819709271369234],[85.95650424176799,26.81955916302899],[85.95589576429546,26.819069399429313],[85.9553281152953,26.81865890929122],[85.9550787709307,26.818347819563453],[85.95468068415823,26.817997282687124],[85.95455619889233,26.81782260749692],[85.95439957206128,26.81716910458548],[85.95419742980722,26.81664845361846],[85.95390055956162,26.815551509336977],[85.9538613563992,26.81539777654691],[85.95362469732358,26.814493138224126],[85.95335946878765,26.813913345622964],[85.95318983331217,26.81287604249064],[85.95290822147221,26.812068119637704],[85.95278636140615,26.811778347861402],[85.95274853211568,26.81154784315161],[85.95254870283885,26.81091209581471],[85.95240477243648,26.8106604603578],[85.95232467729835,26.810411576293024],[85.95224695824454,26.81006566220051],[85.95157613311503,26.808503272236745],[85.95147565628648,26.808213562975162],[85.95141906880502,26.807867836679932],[85.95129952091196,26.80746290604351],[85.95119623174553,26.80730867467305]]]}},{"type":"Feature","properties":{"province":"Madhesh Province","district":"Dhanusha","municipality":"Lakshminya Rural Municipality","ward":"1","wardNumber":1,"sourceMunicipality":"Lakshminiya","sourceType":"Gaunpalika"},"geometry":{"type":"Polygon","coordinates":[[[85.92350117731742,26.80150358703976],[85.92363084814797,26.80142781371769],[85.92369493433381,26.801428312970383],[85.92382204350851,26.801487954636283],[85.92401061513304,26.80166319146556],[85.92413841186652,26.801684446814324],[85.92504092642841,26.801431676913243],[85.92562488526939,26.801097573934605],[85.92594775205873,26.800966782314433],[85.92679055582111,26.80052177004641],[85.92717738314036,26.800414047217913],[85.92788970207927,26.800060562232623],[85.92842383021906,26.799703452666478],[85.92866966875573,26.79953827706367],[85.92990079859321,26.798886199954374],[85.93016089178457,26.798700830720268],[85.93061561732755,26.798401801038597],[85.93087414728109,26.79829089156473],[85.93119895169853,26.798085578133936],[85.93165130214979,26.797901707467123],[85.93182548966118,26.797731468440695],[85.9320041127365,26.79735135532543],[85.93217936163484,26.79714273024989],[85.93237411949214,26.797031383387218],[85.93250266611848,26.7969961841066],[85.93269448596938,26.797017938901078],[85.93288474422079,26.797116466095805],[85.93314021316932,26.79717704470248],[85.93324900184422,26.797083078224645],[85.93336478944404,26.796625755219207],[85.93338453623927,26.795650782007044],[85.93328849525257,26.79513087961744],[85.93327411157912,26.794787716330582],[85.93313524249919,26.79426750286185],[85.93305908511405,26.793806493166826],[85.93293547418082,26.793575301026017],[85.93287582537465,26.793364927296675],[85.93264930033429,26.792938866103817],[85.93250699462088,26.79259245348037],[85.9323926960127,26.791900876151104],[85.93219436553278,26.791152282843782],[85.93164121342272,26.789992447829984],[85.93154042289778,26.78970505147341],[85.93150584322109,26.789302995740837],[85.93153884928137,26.788727639515294],[85.9313995431433,26.78822774368651],[85.93142904925072,26.787826250662825],[85.93154264980737,26.787483961176125],[85.93169807871598,26.787198501481793],[85.9318074921543,26.787066149369853],[85.93272325427222,26.786163375946668],[85.9331123309984,26.785938368779153],[85.93339224547125,26.785829834484986],[85.93343632279917,26.7857534365231],[85.93356643213059,26.785659595721114],[85.93408143113052,26.785552872453238],[85.93472785142217,26.785275535298926],[85.93513599973481,26.78516799951751],[85.93526560820925,26.785092226305512],[85.93552876363756,26.78475337427928],[85.93566168498597,26.78452643208688],[85.9358866984283,26.783954762016187],[85.93598272717283,26.783438609439827],[85.93602993015887,26.78322898502442],[85.93609839011017,26.783001542717553],[85.93619016981235,26.78269526423868],[85.9364359415138,26.782164419140873],[85.93656767537773,26.781993804908517],[85.93663494784761,26.7818228165409],[85.93673210249608,26.78125021020819],[85.93673903923373,26.780904920943808],[85.93683269389851,26.78050380284307],[85.93734154626999,26.778618369464073],[85.9376130751697,26.777877774464947],[85.9377163530457,26.777020834202016],[85.93753478177159,26.776500307822864],[85.93745493742126,26.776231105028955],[85.93737221783958,26.77609731620454],[85.93720390467615,26.775978658012864],[85.93593406014594,26.7753823061278],[85.93550915382461,26.775261712470023],[85.93502309793357,26.775003015292977],[85.93476831636845,26.77492211868722],[85.93425731648144,26.774837035611824],[85.93382966058917,26.774849606080046],[85.93331916070375,26.77474420375396],[85.93280553616712,26.774774217138216],[85.93254950509575,26.77474971288104],[85.93233617718836,26.774745838428487],[85.93210202802109,26.774703452461097],[85.93184668416332,26.77464287437549],[85.93124890365908,26.774633877066304],[85.93099405986077,26.774552918401987],[85.93056796642684,26.774506845969263],[85.93022577927248,26.774520102412165],[85.92970996744644,26.774685467923142],[85.92902665558927,26.774673533226142],[85.92859818711324,26.774742556927563],[85.9284271874486,26.774741246295395],[85.92800353010018,26.774562009026738],[85.92774856160254,26.774499118340596],[85.92757737404709,26.774515937418084],[85.92719529577859,26.774395655543355],[85.92698471744696,26.77425861700206],[85.92682071657433,26.773909765644465],[85.92672467587879,26.773392177107418],[85.92674837075694,26.773277205303135],[85.92662950956401,26.772815883510116],[85.926724289848,26.77235837300961],[85.92662331203341,26.772068664030506],[85.92641629541282,26.77176020059303],[85.92610011511077,26.771543326700243],[85.92559198996517,26.77132507981815],[85.92525030247664,26.77132020600753],[85.92464971000157,26.771444247673013],[85.92387974217694,26.77148814215945],[85.92250780560046,26.77173510141992],[85.92218806423027,26.77171016002798],[85.92206101721224,26.771650455794013],[85.92168462499336,26.771261594940476],[85.92114591981826,26.77044942354957],[85.92094021581244,26.77006412473975],[85.92068874662336,26.769829745176693],[85.9205433782048,26.769616496349414],[85.92033342509562,26.76944107173371],[85.9199918001892,26.769436198579406],[85.91965180038214,26.76935236435618],[85.91905189424705,26.769438081678324],[85.91851463774482,26.769603322408507],[85.91816782648611,26.769846772093743],[85.91781682769613,26.77029997091773],[85.9176403289231,26.770583055337763],[85.91724369052385,26.771171419328024],[85.91710777016637,26.77155184490484],[85.91710008351191,26.77193545712672],[85.91719893643386,26.772319944803808],[85.91719256218659,26.77262465873897],[85.91711904055508,26.77308454463101],[85.9169188463705,26.77348260069269],[85.91676735541024,26.773576192415312],[85.9166581915725,26.77368822622164],[85.91654521624896,26.773994317307288],[85.91670515490695,26.774532723809894],[85.91670021807673,26.774760603071254],[85.91660862570512,26.77506694433205],[85.91666639994536,26.775374408930727],[85.91665402703582,26.77598590136582],[85.91677607424545,26.776275859915454],[85.91676976268229,26.776580512407886],[85.91670236562712,26.776753814048785],[85.9164417094018,26.77695950171237],[85.91584224126599,26.77702715137279],[85.91567155472686,26.777023588915636],[85.91524608600974,26.776939005674112],[85.9151639929973,26.77691362365702],[85.91473833617457,26.77677721295015],[85.91439877435386,26.776752020814968],[85.91397299385596,26.776764590191345],[85.91337533925619,26.776868313399106],[85.91294705919059,26.777014048002016],[85.91269115379899,26.77704818497175],[85.91266745916028,26.777163155864105],[85.9125160920175,26.77727481577235],[85.91231914898837,26.777559963322425],[85.91224593904985,26.77801759816095],[85.91225626126193,26.778552630628262],[85.91236643570232,26.77939769042717],[85.91224777356105,26.78000849587302],[85.91223665005569,26.78054559092195],[85.91233356551014,26.781004599878045],[85.91221184236001,26.7817688251959],[85.9122427455405,26.783378423272666],[85.9122166753684,26.783608427813615],[85.91214109157559,26.784181159327865],[85.91189619558534,26.784712005483076],[85.91182798524167,26.784941760797896],[85.91172870725467,26.78562940145663],[85.91166137179925,26.78580038935752],[85.91145399205134,26.78657980714431],[85.91109811962131,26.787340033729006],[85.91090080116504,26.78762518214392],[85.91072673962938,26.78781342621747],[85.90996971965158,26.788430614239374],[85.90897573979558,26.78917909267779],[85.90869232671277,26.78952000716624],[85.90849150846157,26.789974455399822],[85.90830901134434,26.790584760856436],[85.90826018365284,26.790891351846494],[85.90830683541158,26.791733660623603],[85.90836423368427,26.792041063196475],[85.90852842216033,26.792331209910873],[85.90884228915421,26.792586406929505],[85.9092831416472,26.79288098914411],[85.90947052414587,26.793074294746123],[85.90959044692492,26.7934589069368],[85.90958576062921,26.793689098872974],[85.90949416767609,26.793993127156046],[85.90950917630286,26.794300216744617],[85.90974833460177,26.795071691281077],[85.90986838241905,26.79543836082862],[85.91014804573857,26.79528925154503],[85.91117010578975,26.795267736524153],[85.91186992479648,26.795374699355044],[85.9126987285088,26.795408139580935],[85.9131437046414,26.795492785971273],[85.9142918744433,26.7955331629574],[85.91460949037109,26.79559430276183],[85.91492854493538,26.795601239879826],[85.91516406753837,26.795569166044974],[85.91544173102417,26.795532965441765],[85.91576203605804,26.79553765145588],[85.91610259888661,26.79560116694963],[85.91719205901369,26.795600470051568],[85.91802330143682,26.795708369829317],[85.91853517594153,26.795737060762583],[85.91911507411808,26.79559257587809],[85.91937191752783,26.795558376039907],[85.91954466725701,26.795485228134496],[85.91963201029318,26.795391074486734],[85.91965695503495,26.79521746144776],[85.91979050065001,26.79495213214775],[85.9199194226738,26.794916996009754],[85.92036758667129,26.79494299970662],[85.9206256178847,26.79485015714966],[85.92101175774408,26.79478082147459],[85.92187525539366,26.794335995916466],[85.9221972472679,26.794263909166013],[85.92277258346576,26.794331486490474],[85.92315709857324,26.79433667204403],[85.9234790905112,26.794264586016272],[85.92371555140554,26.79419193686889],[85.92597164154994,26.79564684491315],[85.9263502828069,26.795938614498663],[85.92649727493425,26.796057085804193],[85.92595464373956,26.79648865495148],[85.9255210516855,26.79678780909207],[85.92499830292711,26.79727589414932],[85.92473577259112,26.79757867305736],[85.92445279759735,26.79784287828947],[85.92412730662761,26.798086390293882],[85.9239537447814,26.798215992004508],[85.9236733310706,26.798347095909143],[85.9228354021068,26.79858223460776],[85.92270479283684,26.798694081241507],[85.92257218454009,26.798921085922856],[85.92254674015594,26.7991127674167],[85.92268048312013,26.799702876984405],[85.92274269548426,26.799978707854503],[85.92273538420532,26.80032174579981],[85.92266773647492,26.80049279672455],[85.9226653616268,26.800607893172057],[85.92259890096616,26.800722489876424],[85.92255113604458,26.800950120066116],[85.92234819325223,26.801465460577738],[85.92188053137589,26.80237598230885],[85.92172260305138,26.80277666330975],[85.92162982307025,26.803119015110003],[85.92138417660101,26.803631792646677],[85.92124538188448,26.804145381739577],[85.92119649141642,26.804431653843892],[85.92147921697223,26.80418776768063],[85.92176531773612,26.803790461088784],[85.92187691798205,26.80356333096314],[85.9220762998557,26.80322166648978],[85.922341079898,26.802824234380207],[85.92310535035612,26.802033245424077],[85.92350117731742,26.80150358703976]]]}},{"type":"Feature","properties":{"province":"Madhesh Province","district":"Dhanusha","municipality":"Lakshminya Rural Municipality","ward":"2","wardNumber":2,"sourceMunicipality":"Lakshminiya","sourceType":"Gaunpalika"},"geometry":{"type":"Polygon","coordinates":[[[85.92386619106308,26.813665718038674],[85.92434823669252,26.813098297347597],[85.92450372762596,26.81281508751967],[85.92459513260447,26.812529127738646],[85.92457987401916,26.81224235632337],[85.92448264647645,26.811781159616892],[85.92409343318158,26.810970111653397],[85.92390886197512,26.81060306820424],[85.923698720088,26.810445711192816],[85.92321478939816,26.810074168499188],[85.9230065238047,26.80982203432005],[85.92239860813537,26.80925762364524],[85.92218984121345,26.809023557177333],[85.92150314343529,26.808151556400418],[85.9213218848703,26.80763103035081],[85.92111073218878,26.80648056960099],[85.92085131571379,26.80561400400146],[85.92073389246012,26.80509629050634],[85.92061115761305,26.80484478094202],[85.92072057082275,26.80471249067042],[85.92119649141642,26.804431653843892],[85.92124538188448,26.804145381739577],[85.92138417660101,26.803631792646677],[85.92162982307025,26.803119015110003],[85.92172260305138,26.80277666330975],[85.92188053137589,26.80237598230885],[85.92234819325223,26.801465460577738],[85.92255113604458,26.800950120066116],[85.92259890096616,26.800722489876424],[85.9226653616268,26.800607893172057],[85.92266773647492,26.80049279672455],[85.92273538420532,26.80032174579981],[85.92274269548426,26.799978707854503],[85.92268048312013,26.799702876984405],[85.92254674015594,26.7991127674167],[85.92257218454009,26.798921085922856],[85.92270479283684,26.798694081241507],[85.9228354021068,26.79858223460776],[85.9236733310706,26.798347095909143],[85.9239537447814,26.798215992004508],[85.92412730662761,26.798086390293882],[85.92445279759735,26.79784287828947],[85.92473577259112,26.79757867305736],[85.92499830292711,26.79727589414932],[85.9255210516855,26.79678780909207],[85.92595464373956,26.79648865495148],[85.92649727493425,26.796057085804193],[85.9263502828069,26.795938614498663],[85.92597164154994,26.79564684491315],[85.92371555140554,26.79419193686889],[85.9234790905112,26.794264586016272],[85.92315709857324,26.79433667204403],[85.92277258346576,26.794331486490474],[85.9221972472679,26.794263909166013],[85.92187525539366,26.794335995916466],[85.92101175774408,26.79478082147459],[85.9206256178847,26.79485015714966],[85.92036758667129,26.79494299970662],[85.9199194226738,26.794916996009754],[85.91979050065001,26.79495213214775],[85.91965695503495,26.79521746144776],[85.91963201029318,26.795391074486734],[85.91954466725701,26.795485228134496],[85.91937191752783,26.795558376039907],[85.91911507411808,26.79559257587809],[85.91853517594153,26.795737060762583],[85.91802330143682,26.795708369829317],[85.91719205901369,26.795600470051568],[85.91610259888661,26.79560116694963],[85.91576203605804,26.79553765145588],[85.91544173102417,26.795532965441765],[85.91516406753837,26.795569166044974],[85.91492854493538,26.795601239879826],[85.91460949037109,26.79559430276183],[85.9142918744433,26.7955331629574],[85.9131437046414,26.795492785971273],[85.9126987285088,26.795408139580935],[85.91186992479648,26.795374699355044],[85.91117010578975,26.795267736524153],[85.91014804573857,26.79528925154503],[85.90986838241905,26.79543836082862],[85.90987501679761,26.796126750512997],[85.90991109600486,26.796434090631085],[85.91006834812582,26.797051520033826],[85.91008123123356,26.797453388273844],[85.90988003803625,26.797910024273143],[85.90987672574957,26.798063506971875],[85.90989310964414,26.79829388628116],[85.90995038387419,26.79860128933396],[85.91017846967561,26.798891935106898],[85.9104240026126,26.79935656924052],[85.91058875327225,26.799626396894567],[85.91062889299603,26.799703482002712],[85.9107932070714,26.800013946971642],[85.91089062146492,26.800416501326247],[85.9108349201067,26.801009676423707],[85.91070199850785,26.801236681505546],[85.9104202732969,26.801462437567725],[85.90975234591407,26.801834302599524],[85.90955940114043,26.80188925775035],[85.90934369821518,26.80202073569149],[85.90903802854574,26.8023592134142],[85.90888566194322,26.802509321387852],[85.90923529481769,26.803071733128036],[85.90949489855272,26.803841207313205],[85.90953228911722,26.804071711692355],[85.90951554204807,26.804838999890144],[85.90968561446935,26.805835728987084],[85.91013353866856,26.80683908174663],[85.91034049258083,26.807129602898083],[85.91083093247106,26.808133330642036],[85.9110185033913,26.808346954584607],[85.91120357405902,26.808655293471027],[85.91142672426655,26.80919651290623],[85.91156634276685,26.809658022399486],[85.91155834305115,26.81003944681407],[85.91151251576551,26.810192555443127],[85.9110230971584,26.811161655984627],[85.91077107692033,26.81199940483182],[85.91059382851486,26.812323063553205],[85.91035436812072,26.8125672627224],[85.91001036910757,26.812695552973338],[85.90977328344705,26.81282684360428],[85.90957727667828,26.813033030868116],[85.909700449031,26.813246155031827],[85.90984006767154,26.81370766427139],[85.90996299025879,26.813938856543334],[85.91025378820822,26.814309025357414],[85.91038008432331,26.814386733977315],[85.9106340536304,26.81446769311705],[85.91082537326918,26.814489448095557],[85.9110819664544,26.814455311028354],[85.91153225452113,26.814327831899455],[85.91192033210424,26.81412314311968],[85.91211515204432,26.8139734105584],[85.91263071327367,26.813790039408303],[85.91290656460228,26.813853055801925],[85.91311408103626,26.81412325791746],[85.91323231657665,26.81458464277239],[85.91322900478309,26.814738125064775],[85.91302443614447,26.81534824390954],[85.91289176468635,26.815575186369998],[85.91263974471254,26.816412935220637],[85.91261336233146,26.81664293977275],[85.91238272404888,26.817480875487448],[85.91231720154501,26.817557085706117],[85.91204854715977,26.818166704690395],[85.91198028585062,26.81938956466543],[85.91206075445521,26.819620444263702],[85.91212109081496,26.81979468235506],[85.91222550586245,26.81989258514033],[85.91245484246352,26.82014484534115],[85.91282773357223,26.82064880238702],[85.91318411647059,26.820940447086517],[85.91353525073148,26.821482603843886],[85.91390283074519,26.822252888791546],[85.91396029305355,26.82256029126504],[85.91406183254004,26.822793546857568],[85.91421952147766,26.823408725470244],[85.91452632842879,26.824024967081712],[85.91460679697782,26.824255846568175],[85.91485301690065,26.824720417824828],[85.91495680680137,26.82485439439207],[85.91516426006915,26.82506364165825],[85.91552126866816,26.82542074289183],[85.91581300457756,26.825768342975007],[85.91610092840182,26.826309999463604],[85.91625899260941,26.826925178838007],[85.91638229009895,26.827156307526316],[85.91649752593,26.827771174589905],[85.91653741735277,26.82790683965772],[85.91674356982733,26.829287618484592],[85.91698379086924,26.830056842110423],[85.916990800961,26.83074760734499],[85.91704688844054,26.83112946880584],[85.91712804473572,26.831324275631637],[85.91723783367219,26.831191923547877],[85.91739001221418,26.831059883442492],[85.91754437939758,26.83083306482832],[85.91774657282669,26.830376429492823],[85.91798414715272,26.829231591095407],[85.91816583302081,26.828716187898518],[85.91834389483762,26.828374335872947],[85.91848075281081,26.82797590560256],[85.91848425196832,26.82780435531515],[85.91886919400906,26.82677579929073],[85.91911140476623,26.82643450960467],[85.91928615373477,26.826246265738227],[85.91969948831274,26.82590860015036],[85.91978570696824,26.825870838567113],[85.91993888664248,26.82570272476151],[85.92011582244531,26.82541745217763],[85.92047669525873,26.82450374353374],[85.92076398239325,26.82404998284967],[85.92092191061337,26.82364942633488],[85.92097198839159,26.82330669968555],[85.92110847107517,26.82290595610208],[85.92113252973373,26.821757243019654],[85.92125031714072,26.821243529167084],[85.92129539550139,26.82112874514353],[85.92144863663862,26.820958443768387],[85.92149371443486,26.820845847746128],[85.92149840124658,26.820615655291814],[85.92135490816737,26.820325633481286],[85.92115457846349,26.819689886147458],[85.92094924898295,26.81928651960508],[85.92076798988808,26.818765993274745],[85.92058328171477,26.81738321324235],[85.92057383531214,26.816809795320356],[85.92069018515235,26.816352472439107],[85.92082198161923,26.816181983961442],[85.92100154306712,26.815783802582665],[85.92111145640888,26.815631131931585],[85.92128676800026,26.815422568610707],[85.92159137678502,26.81516080198784],[85.9219157425062,26.814973619264144],[85.92224017237395,26.814788749383805],[85.92258767116975,26.814525044371138],[85.92310516997925,26.81430328678228],[85.92336413885013,26.81417430958736],[85.92386619106308,26.813665718038674]]]}},{"type":"Feature","properties":{"province":"Madhesh Province","district":"Dhanusha","municipality":"Lakshminya Rural Municipality","ward":"6","wardNumber":6,"sourceMunicipality":"Lakshminiya","sourceType":"Gaunpalika"},"geometry":{"type":"Polygon","coordinates":[[[85.94862009427946,26.797617539342944],[85.9485282409594,26.79686972923814],[85.94838701871134,26.796464646539896],[85.94826617346507,26.79610034375953],[85.94815064929684,26.795465218072206],[85.94794875793707,26.79488813918761],[85.94795387030189,26.794639885638407],[85.94802048927255,26.79450720476496],[85.9481921853271,26.79447010453716],[85.94863865295949,26.794572725914087],[85.9495729920805,26.79485727394657],[85.95014773412956,26.79496084080377],[85.95040261105729,26.795041725792938],[85.95078659336508,26.795067135058087],[85.95180614400958,26.795352297756942],[85.952823222868,26.79577060939897],[85.95383733310193,26.796342381008216],[85.95485655234533,26.796665892707242],[85.95574933178297,26.796891407021697],[85.95623443715671,26.79720646630024],[85.9565755054629,26.797249601718825],[85.95684579958409,26.797089069224374],[85.95685686615344,26.797082379081054],[85.95728565796246,26.79691849609084],[85.9580374932388,26.796567376723527],[85.95906825660404,26.79610769571183],[85.95941072001841,26.79599734536849],[85.9597551169099,26.795812521295552],[85.96009689381462,26.795742793634684],[85.96060809598283,26.795712677852393],[85.96112093865901,26.795605827538306],[85.96126994214526,26.79560917431541],[85.96127749293422,26.79522776387497],[85.96108042134978,26.794458875960256],[85.96079338080477,26.793937620761596],[85.96055519717315,26.793091686419846],[85.96004199801246,26.792166993107198],[85.95986006761258,26.791705193230577],[85.95942351422286,26.790167101362403],[85.95929950740414,26.78997433123626],[85.95917697722872,26.789722885312433],[85.95880984968326,26.788952747514628],[85.95877201887598,26.788722235850805],[85.95851279716702,26.787876143705468],[85.95827003054741,26.7872604064672],[85.95820785413086,26.787183205887303],[85.95817099252031,26.787088132536155],[85.95806625805736,26.786816501185125],[85.95790540661488,26.786354852833377],[85.95782972969837,26.785896086377857],[85.95766755306768,26.78551117330918],[85.9575294089366,26.784972946723606],[85.95742612369072,26.784818699078563],[85.95706578632569,26.78475511034014],[85.95684581815213,26.784778324158875],[85.95646722408615,26.7848206880209],[85.95577794511813,26.785077458322867],[85.95554101073665,26.785168261625984],[85.95539120755825,26.785185217267802],[85.95478726701869,26.78546066790433],[85.95435777236574,26.785568109617426],[85.95392631891455,26.78575228012882],[85.95349732383474,26.785839409004748],[85.95220407995019,26.786371602969876],[85.95116781154589,26.7868898821381],[85.95099614767297,26.786924730237182],[85.95051945012537,26.78724173026365],[85.95034711968306,26.787314944210202],[85.94991713553345,26.787440426394276],[85.94965996137734,26.787474640980676],[85.9494873151012,26.787547851045996],[85.94905945692436,26.787578544254767],[85.94871562591659,26.787668545619823],[85.9485332029664,26.787642366076987],[85.94826820438223,26.78760428937446],[85.9481822144285,26.787621709842117],[85.94792668817446,26.787579188234943],[85.94741728555277,26.78741741140237],[85.94710061257717,26.78722094539724],[85.94701658723345,26.787161635822645],[85.94674546791232,26.786832332582524],[85.94645017482628,26.78663602477823],[85.94605344833268,26.786188415027897],[85.94575863928767,26.785974051275158],[85.94552681353964,26.78581658430016],[85.94506084428711,26.785616748967616],[85.94472328473609,26.785402066282185],[85.94438326132101,26.78531828110489],[85.94404505572925,26.785139706454284],[85.94353583755276,26.784959859245298],[85.94319548046413,26.78487832602824],[85.94268379754416,26.78482937499531],[85.94242828000849,26.784786842981546],[85.94227583911322,26.784918882787963],[85.94188909084038,26.785026604546886],[85.94137506422035,26.78509500573445],[85.94050309407619,26.784910186335253],[85.94021246775776,26.785535517774107],[85.940188096972,26.785688824649988],[85.94043664506654,26.786076658933677],[85.94070889503914,26.786349551593172],[85.94107777781532,26.787119746731587],[85.94148144771768,26.78827617971595],[85.94161552269479,26.789042365432877],[85.94199782625705,26.790198638158433],[85.94201158989142,26.79058020546281],[85.94177925216528,26.791497150824345],[85.94170285745602,26.792108279440594],[85.9417804187992,26.792492579614496],[85.94214633562271,26.793416238293958],[85.94214003840595,26.793723169406608],[85.94202766496392,26.794008995302356],[85.9419172985403,26.794179719264775],[85.941765159036,26.79431176017535],[85.94099507097383,26.794355677687804],[85.94059203965156,26.794214983674447],[85.94039996807865,26.794211293350422],[85.94024684271302,26.794381697426626],[85.94005079137911,26.794569838015917],[85.93987844358031,26.794643039191072],[85.93957499555961,26.79485069191718],[85.93939983989777,26.795057045045088],[85.9393540880374,26.795210191807783],[85.9393724715337,26.795363818428616],[85.93947440006545,26.795594812415807],[85.93965420153707,26.796210109701605],[85.9397778254161,26.79644126616661],[85.94008904442333,26.79688825492853],[85.94012715341651,26.797118772573445],[85.94011953093924,26.797500179332964],[85.94063641970014,26.797298632763944],[85.94080711729494,26.797302162775146],[85.94157278876004,26.797465874717265],[85.94182601149036,26.79762350742599],[85.94222723606114,26.797858986597358],[85.9424781388667,26.798131717823743],[85.94289677154276,26.798559186342402],[85.94306282881905,26.79879291214243],[85.94339180807971,26.79942962972451],[85.94348706431909,26.79970345899429],[85.94367424535878,26.800237547395728],[85.94381081332719,26.80087283289596],[85.94392688095851,26.801447021241117],[85.94414516589669,26.802256717541887],[85.94434326556373,26.803005319368392],[85.9445847755011,26.803718128281613],[85.94489191543698,26.804372737792047],[85.94549094506989,26.80535906436135],[85.94571950739349,26.805669995765207],[85.94629487202732,26.806769002655138],[85.94674225486435,26.807869314989627],[85.94681936142143,26.808271665351928],[85.94698314209982,26.80861823036216],[85.94714823909716,26.808890317112393],[85.9474498746072,26.808779694205487],[85.9478817800447,26.808557176453263],[85.9483105718935,26.80846780919825],[85.9488276850516,26.808245919641397],[85.94897800036235,26.80821091773901],[85.94892308254875,26.807788417240488],[85.9488459690477,26.807386066579436],[85.94866806583,26.80669405001402],[85.94865163293119,26.80646369555085],[85.9487712652941,26.805832568671246],[85.9489304885942,26.805375538594593],[85.94897793230513,26.80411412156364],[85.9491215711011,26.803368055351026],[85.94921285103776,26.803084325113787],[85.94924380752678,26.802624087561234],[85.9491037921353,26.80112879252372],[85.9491110535002,26.800783495977996],[85.94905532243044,26.800381304204418],[85.9490332698333,26.799701726586076],[85.94902906594929,26.79957754956666],[85.94884739521636,26.799057051297115],[85.94869371712323,26.798193667451276],[85.94862009427946,26.797617539342944]]]}},{"type":"Feature","properties":{"province":"Madhesh Province","district":"Dhanusha","municipality":"Lakshminya Rural Municipality","ward":"7","wardNumber":7,"sourceMunicipality":"Lakshminiya","sourceType":"Gaunpalika"},"geometry":{"type":"Polygon","coordinates":[[[85.94182601149036,26.79762350742599],[85.94157278876004,26.797465874717265],[85.94080711729494,26.797302162775146],[85.94063641970014,26.797298632763944],[85.94011953093924,26.797500179332964],[85.94012715341651,26.797118772573445],[85.94008904442333,26.79688825492853],[85.9397778254161,26.79644126616661],[85.93965420153707,26.796210109701605],[85.93947440006545,26.795594812415807],[85.9393724715337,26.795363818428616],[85.9393540880374,26.795210191807783],[85.93939983989777,26.795057045045088],[85.93957499555961,26.79485069191718],[85.93987844358031,26.794643039191072],[85.94005079137911,26.794569838015917],[85.94024684271302,26.794381697426626],[85.94039996807865,26.794211293350422],[85.94059203965156,26.794214983674447],[85.94099507097383,26.794355677687804],[85.941765159036,26.79431176017535],[85.9419172985403,26.794179719264775],[85.94202766496392,26.794008995302356],[85.94214003840595,26.793723169406608],[85.94214633562271,26.793416238293958],[85.9417804187992,26.792492579614496],[85.94170285745602,26.792108279440594],[85.94177925216528,26.791497150824345],[85.94201158989142,26.79058020546281],[85.94199782625705,26.790198638158433],[85.94161552269479,26.789042365432877],[85.94148144771768,26.78827617971595],[85.94107777781532,26.787119746731587],[85.94070889503914,26.786349551593172],[85.94043664506654,26.786076658933677],[85.940188096972,26.785688824649988],[85.94021246775776,26.785535517774107],[85.94050309407619,26.784910186335253],[85.94137506422035,26.78509500573445],[85.94188909084038,26.785026604546886],[85.94227583911322,26.784918882787963],[85.94242828000849,26.784786842981546],[85.94219761139802,26.7845729499764],[85.94211557640884,26.784400792176534],[85.94209769266963,26.784226855437534],[85.94214770405554,26.783884134602115],[85.94241578907884,26.78331506132529],[85.94250708712356,26.78302907779476],[85.94258888795058,26.782171953218405],[85.94270156108138,26.78188612828616],[85.9430325957943,26.781376209058255],[85.94321200916309,26.78097802044181],[85.94328886786003,26.78034883577802],[85.94300280840154,26.778678641953523],[85.94323422895759,26.777822629383653],[85.94345722274288,26.777368334798442],[85.94372064506538,26.777029457115773],[85.94387323895927,26.77687935904756],[85.94409326124837,26.776576273458673],[85.94455135432406,26.776125980643965],[85.94468307307869,26.775955412058508],[85.94505238232084,26.775655690001454],[85.9447097331765,26.775689260699753],[85.94394043895447,26.775694831590208],[85.94266082023948,26.775576970107558],[85.94205989260513,26.775698900521498],[85.94137492879406,26.77576377175999],[85.94077678202851,26.77575479925059],[85.9402623148049,26.77584125133495],[85.93992016704107,26.775854499211153],[85.93897641701294,26.776028030638866],[85.93871943335051,26.776044169565175],[85.93769017946033,26.77621705340256],[85.93745490606717,26.776231094626382],[85.93753477052714,26.776500297144942],[85.93771635665344,26.777020809780783],[85.93761315053608,26.777877770724782],[85.93734157721057,26.778618355500477],[85.9368327031936,26.78050381715835],[85.93673906496328,26.780904896219738],[85.93673208512605,26.781250194198144],[85.93663496556375,26.78182279373187],[85.93656767187709,26.781993835646887],[85.93643593409163,26.782164396675917],[85.93619018471144,26.78269525320285],[85.93609836698263,26.783001543034064],[85.9360299174548,26.78322900686215],[85.93598269837342,26.783438571922233],[85.93588672737467,26.783954748982826],[85.93566165508882,26.78452638916833],[85.93552875952332,26.78475336891961],[85.93526560932207,26.785092232608875],[85.93513600486995,26.785168005765886],[85.93472787275357,26.785275547644414],[85.93408142466814,26.78555284726711],[85.93356640577136,26.785659583444172],[85.93343631729653,26.785753408615843],[85.933392219112,26.785829822208054],[85.93311234530101,26.785938322547967],[85.93272323313982,26.78616337533273],[85.93180747586607,26.78706613785773],[85.93169808957846,26.7871984895988],[85.93154262805172,26.78748398313707],[85.9314290799191,26.787826220456246],[85.93139954875271,26.78822777791101],[85.93153887282327,26.788727663565652],[85.93150583219008,26.789302997696836],[85.93154043371459,26.78970503688311],[85.93164118642434,26.78999245722531],[85.93219439291411,26.791152296009592],[85.93239271074985,26.7919009147641],[85.93250698890866,26.792592472514325],[85.93264932591926,26.79293889193129],[85.93287581257707,26.793364943719485],[85.93293547434929,26.79357531095296],[85.93305908174479,26.793806472451706],[85.93313526977421,26.794267509710355],[85.93327410435576,26.79478770559742],[85.93328851078168,26.79513090558224],[85.93338458850288,26.79565077948715],[85.93336480518232,26.796625734242845],[85.93324892126799,26.797083072104943],[85.93314019829872,26.79717705754302],[85.93334899060247,26.79741111592662],[85.93368257266454,26.797817656399047],[85.9339491856426,26.798359125140234],[85.93423302281589,26.79911064010273],[85.93431387931955,26.799341480316425],[85.93444036286493,26.79970357829673],[85.93447527947983,26.799803156701913],[85.93470197514029,26.800208893511403],[85.93512987733713,26.801191720511632],[85.93518438369189,26.8016525947976],[85.93530535972234,26.80199885049629],[85.93547123766032,26.802250642056446],[85.93591539236925,26.80246840342224],[85.9362544947638,26.80258831777145],[85.93665455038669,26.802882490289072],[85.93723891444017,26.803543705931016],[85.93796500233519,26.804587443135393],[85.93820813112043,26.805223529805073],[85.93836691433803,26.80580029886049],[85.93877992116212,26.80649634191406],[85.93927696829896,26.80725169784113],[85.93958542649693,26.807829583722654],[85.94052036965027,26.809109615346365],[85.94060093120531,26.809340449512543],[85.94090940231162,26.809918332582097],[85.9409887920771,26.810207844300283],[85.94117393926916,26.810554574512608],[85.94136139098816,26.810788461646244],[85.94152961800054,26.810925147459628],[85.94184768439983,26.811044891826967],[85.94210411812753,26.811028745357724],[85.94242664310723,26.810938604131884],[85.94270707409851,26.810809776114674],[85.94313832640512,26.81062564131792],[85.94434625623856,26.810070332567022],[85.94486204665719,26.80992519262661],[85.94512092342484,26.809814257402355],[85.94546517878179,26.8096858980929],[85.9456378616024,26.80961269298195],[85.94604905949154,26.809351655983768],[85.94714823909716,26.808890317112393],[85.94698314209982,26.80861823036216],[85.94681936142143,26.808271665351928],[85.94674225486435,26.807869314989627],[85.94629487202732,26.806769002655138],[85.94571950739349,26.805669995765207],[85.94549094506989,26.80535906436135],[85.94489191543698,26.804372737792047],[85.9445847755011,26.803718128281613],[85.94434326556373,26.803005319368392],[85.94414516589669,26.802256717541887],[85.94392688095851,26.801447021241117],[85.94381081332719,26.80087283289596],[85.94367424535878,26.800237547395728],[85.94348706431909,26.79970345899429],[85.94339180807971,26.79942962972451],[85.94306282881905,26.79879291214243],[85.94289677154276,26.798559186342402],[85.9424781388667,26.798131717823743],[85.94222723606114,26.797858986597358],[85.94182601149036,26.79762350742599]]]}}]}