{"type":"FeatureCollection","features":[{"type":"Feature","properties":{"province":"Madhesh Province","district":"Sarlahi","municipality":"Ramnagar Rural Municipality","ward":"1","wardNumber":1,"sourceMunicipality":"Ramnagar","sourceType":"Gaunpalika"},"geometry":{"type":"Polygon","coordinates":[[[85.36545184441319,26.857431349855712],[85.36551342886268,26.857419470828034],[85.3660500634605,26.85746841966515],[85.36625863922423,26.857446099550554],[85.3671300766182,26.856620664220344],[85.36782814028037,26.856126264584507],[85.36849169300454,26.855794912490794],[85.36973076769755,26.85535627661486],[85.3707650821816,26.85515439852199],[85.37142313336743,26.85493814263455],[85.37235709942497,26.85482297815162],[85.37284902978952,26.85491975405936],[85.37329963423494,26.8551929564186],[85.37334152513591,26.855219651068698],[85.37350264886501,26.85554080716964],[85.37354848042996,26.855842833234146],[85.37374224056448,26.856053081487122],[85.37387979344051,26.856342978435492],[85.37389861296704,26.856444320129242],[85.37436565629004,26.856049263772434],[85.37454490685964,26.855731544141292],[85.37467376553658,26.85561744781249],[85.37484489057299,26.8556180716389],[85.37510042245067,26.85573291647441],[85.37580574278489,26.855735099899853],[85.37629810917194,26.855612935714746],[85.37636263274811,26.85553778826486],[85.3764557881906,26.855130605537482],[85.37564873977918,26.854617147514578],[85.3753264931075,26.85424560291871],[85.3746920002436,26.852759858043726],[85.3746305368352,26.852360990768116],[85.37435912143387,26.851869347745108],[85.37418304057545,26.849792364230833],[85.37400527860919,26.84846697522235],[85.37397563886306,26.848042975866214],[85.37396963603852,26.847964015342082],[85.3739499409794,26.84789649569855],[85.37392368089625,26.847804219108095],[85.37393373164386,26.845826950175994],[85.37379842911817,26.84545815520013],[85.37375090985189,26.845219335204135],[85.37358277928969,26.8443723370363],[85.37350612051783,26.843603486729133],[85.37357251791596,26.843370355677433],[85.37357145486078,26.843341034754467],[85.37329954426389,26.843474575560457],[85.37312504335276,26.843559789373753],[85.37187652362397,26.84347033313069],[85.37114600746114,26.843558675812343],[85.37039148319168,26.8437420469674],[85.36998245913819,26.84388821710927],[85.36947521122104,26.84391804159808],[85.36843564573883,26.844151491853292],[85.36558192488445,26.845483651404173],[85.36502416011041,26.845658331129403],[85.36470097984423,26.845726915037332],[85.36392124954371,26.844754884621775],[85.36363307986817,26.844486869758377],[85.36339298863582,26.84408969201797],[85.36304192011981,26.843765787221386],[85.36298014680519,26.84364900308577],[85.36303616661392,26.843551411338787],[85.36409786636771,26.84343512115704],[85.36486577065939,26.843262940037924],[85.36535870020208,26.843086635634272],[85.36610384413963,26.84269570369601],[85.36627809554096,26.84269626486971],[85.36763021130376,26.842143844753828],[85.3679477655149,26.842291948424197],[85.36820392227737,26.84229619800178],[85.36896057183905,26.84213764706164],[85.36942936633004,26.841785540622727],[85.36981262774775,26.841384545750714],[85.37001144949929,26.841177232856715],[85.37067381402717,26.84091802824564],[85.37098992833604,26.84073440990468],[85.37106695521305,26.840602745129004],[85.37088732530124,26.840362988213062],[85.37086681748231,26.840336105797473],[85.3705290674738,26.840127234435055],[85.36928116575137,26.838990533023434],[85.36888645673072,26.83880704420142],[85.36824941019259,26.838655190375263],[85.36767544750239,26.83827258161104],[85.36765869123862,26.838241134776286],[85.36726748005076,26.837509109956727],[85.366941041569,26.836623039096903],[85.36646586374069,26.836081382466798],[85.36644604049684,26.835684390893096],[85.36617662511169,26.835093344665637],[85.36632486665992,26.8350219474636],[85.36639676337629,26.83451798664441],[85.36604781317929,26.833117452020822],[85.36609107668531,26.832841683178717],[85.36654261304845,26.83236560296767],[85.36663583110517,26.83195841988756],[85.36621566595683,26.830441289232205],[85.366013651723,26.830064055022948],[85.36562725837676,26.829733772522836],[85.3653497809928,26.8296664420258],[85.36521741998547,26.82954359408746],[85.36522116957528,26.82933140753824],[85.3656193090637,26.828548862281668],[85.36562137162984,26.828456335057773],[85.36555959771701,26.828339550755974],[85.36539091062805,26.828228331983905],[85.36487228381175,26.828303294656585],[85.36410631429374,26.828103115941605],[85.36360125513221,26.828101180611952],[85.36352716523076,26.828061294627354],[85.36336166634813,26.827999652003747],[85.36324393434336,26.827788653141727],[85.3628983693293,26.827548209920316],[85.36255486341535,26.826964727644814],[85.36200216067141,26.82687070430831],[85.36141506756873,26.82632567257088],[85.36090719268148,26.826089043561186],[85.36077064238977,26.826085855761725],[85.36045990673892,26.8265041678902],[85.36026821303766,26.8266165775473],[85.35995934966968,26.826610515122585],[85.35978978760824,26.826533180339464],[85.35951237353872,26.826529055879032],[85.3593710101158,26.826699732202385],[85.35943028538856,26.82713248404157],[85.35920889307549,26.82729259465879],[85.35908384865583,26.827510534752],[85.35911492554014,26.827848759222814],[85.35932469273494,26.828192046150107],[85.3595961671999,26.82827744490422],[85.35974297035747,26.828246684175202],[85.35995685831388,26.827876762192908],[85.36008703000445,26.82777391831332],[85.36020482309286,26.82773665723348],[85.36033011985616,26.827798674517567],[85.36041784185362,26.82813864891831],[85.36022308541285,26.828474560817817],[85.35993423146765,26.82872332367444],[85.35930481606792,26.828995720216362],[85.35866470791818,26.829067369413856],[85.35847626385363,26.829037550064093],[85.35831726701188,26.82888788169665],[85.35824823966153,26.82869219937178],[85.35829006399723,26.828192990400403],[85.35821690901882,26.827755799656487],[85.35778193239253,26.827148311241487],[85.35757785135657,26.826224916116022],[85.35731325244227,26.8259769077096],[85.35723547424679,26.82593933425625],[85.35617752659476,26.826206794371956],[85.35546570702856,26.826579283217242],[85.35541500084632,26.82660454111011],[85.35515722050087,26.826828233041056],[85.35478583507954,26.82685211764843],[85.35460176742772,26.826765905607964],[85.35429521527487,26.826479886276207],[85.35401973473003,26.825846014505274],[85.35384485647924,26.825583626062635],[85.35369536335942,26.825492537540246],[85.35328208684983,26.825433272319763],[85.35311127499727,26.825459781024577],[85.35295759439617,26.825592133725543],[85.35297622904648,26.825894410149882],[85.35291151941624,26.826111723903338],[85.35135822473099,26.82909679799733],[85.35123461919089,26.829438837396218],[85.35120229724474,26.829689660848214],[85.35119379446067,26.829759681274275],[85.35098978669745,26.83042975462744],[85.35092601698078,26.830834374081817],[85.35071012747248,26.831084698672008],[85.35026146483443,26.831335024764723],[85.34994178587378,26.831376413878115],[85.3488548259574,26.831319091849636],[85.34810892908695,26.83147520428739],[85.34732470697038,26.831760293211094],[85.34680257927363,26.83175179385921],[85.34509476930458,26.832011755648967],[85.34424695984058,26.83206940242638],[85.34337326697678,26.832332860187307],[85.34207604342016,26.832424144503072],[85.34168496395932,26.832592634509407],[85.34059813616447,26.833453831103338],[85.34022112480532,26.833698905748133],[85.33955150694828,26.833989682930646],[85.33788746937327,26.835084327099153],[85.33456220540731,26.83693495303494],[85.33411560523095,26.837040799973472],[85.33414080252956,26.837099191676018],[85.33420689077552,26.8373152547684],[85.33432055878825,26.83757151662789],[85.33476810355562,26.83834818005874],[85.3350292664135,26.838997994365407],[85.33511311241125,26.83944181189807],[85.33512042803478,26.83948238565802],[85.33520008495435,26.83977503383284],[85.33606316215723,26.841385189339718],[85.33608885922892,26.841432327711768],[85.33612362303997,26.841497471787754],[85.33691429295612,26.84234765446671],[85.33717382824005,26.842701819383482],[85.33741917020772,26.84297258532568],[85.33787308728758,26.84321427854443],[85.33837214660475,26.84339464125375],[85.339718455062,26.843885214838767],[85.34012591665,26.843921972958483],[85.34101292349479,26.84317774877279],[85.3413940612337,26.84301163477511],[85.3420070979489,26.843041890600883],[85.34272880012408,26.8431636713577],[85.34340898966852,26.84349582765718],[85.34358667940785,26.84352345941514],[85.34440466707487,26.84364880401767],[85.34462943641536,26.843669245785062],[85.34478874487277,26.843674496998737],[85.34523178189215,26.843640921859286],[85.34572821355681,26.84370162361458],[85.3461872578556,26.843792085556963],[85.3466794377896,26.84381446399359],[85.34745640994647,26.843926679501326],[85.3479869185831,26.844208259470467],[85.34891982417695,26.844476957413775],[85.34942519737382,26.844551100959944],[85.34977444968423,26.844561351819646],[85.34995620470713,26.84466344381016],[85.35036992044846,26.844961903243394],[85.35076694486627,26.845445605426292],[85.35160875796737,26.846143993386757],[85.35185635051558,26.846383124804866],[85.35197108462745,26.846989177062294],[85.3523659221544,26.84776634009971],[85.35278195259177,26.848256732385327],[85.3532155541979,26.848952121154557],[85.35335823532783,26.849469897126344],[85.35347315597093,26.849983422268323],[85.3535309918093,26.850242435495748],[85.35364017685872,26.85290915633683],[85.35358035926191,26.85512612107186],[85.35323949649518,26.856609996050196],[85.35296452469328,26.857138528102535],[85.35224451844353,26.8580618041311],[85.35146780092839,26.85866961216997],[85.35094104831818,26.85897032844755],[85.34926787843617,26.85958214390809],[85.34847715490736,26.86001627645308],[85.34837980722382,26.860082734219574],[85.34692296917619,26.861062593339707],[85.34544324526834,26.86170191490254],[85.3449847049614,26.862024512492233],[85.34398528140115,26.862584745857166],[85.34381397036775,26.862782742900706],[85.3434724146988,26.86364143458793],[85.34346478752572,26.8636911364821],[85.3434147716308,26.86403242438162],[85.34345822563573,26.864199036033828],[85.34441032580887,26.864368266946382],[85.34566966044181,26.864297614279423],[85.34683189706261,26.864094672091987],[85.34742798971125,26.86406415929844],[85.34965692591364,26.86357337644918],[85.35067636067947,26.863425952469203],[85.35158844086054,26.862936552540702],[85.3519599487972,26.862641776138712],[85.35303783973616,26.86217775820988],[85.35360817035793,26.86183596709471],[85.35410059883162,26.861607834509943],[85.35446598151995,26.8614395325627],[85.3554042562685,26.860665425023086],[85.35664339211617,26.860005723635034],[85.35700464759202,26.859753959734345],[85.35907352465354,26.859142767150598],[85.35977052768581,26.85887649699162],[85.3608973125307,26.858610662064255],[85.36162745196447,26.858325948624987],[85.3622503666095,26.8581755260788],[85.36252496589123,26.858041922602112],[85.36545184441319,26.857431349855712]]]}},{"type":"Feature","properties":{"province":"Madhesh Province","district":"Sarlahi","municipality":"Ramnagar Rural Municipality","ward":"2","wardNumber":2,"sourceMunicipality":"Ramnagar","sourceType":"Gaunpalika"},"geometry":{"type":"Polygon","coordinates":[[[85.37114600746114,26.843558675812343],[85.37187652362397,26.84347033313069],[85.37312504335276,26.843559789373753],[85.37329954426389,26.843474575560457],[85.37357145486078,26.843341034754467],[85.37356951616529,26.843280078998816],[85.37356313696749,26.843063453163523],[85.37371581397623,26.84252479382682],[85.37387343230546,26.842245648415016],[85.37391350753818,26.841969942374558],[85.3738234074652,26.841383957982416],[85.3738056499125,26.84126679843913],[85.37387904971871,26.84104492029336],[85.37427832137327,26.841081616288392],[85.3745979392511,26.84119139678926],[85.374755184631,26.841293675177226],[85.37483365193482,26.841383201769528],[85.37523367664576,26.841846459829885],[85.37577256119536,26.84193829655735],[85.3759124873098,26.841907598356553],[85.37603321732028,26.84164008164279],[85.37625092095425,26.841543177202144],[85.37693023045038,26.841385314303526],[85.37718676180724,26.841324169148137],[85.37792015416855,26.841267336084645],[85.37808458869009,26.841130294435917],[85.3782050673386,26.840847022704402],[85.3789688427686,26.84028885440298],[85.37977176220885,26.840411884956467],[85.38026581685864,26.84022876552873],[85.38155653686842,26.840017508016118],[85.38181306750542,26.839902160165384],[85.38265049073283,26.838936996256354],[85.3830325042907,26.83874362512186],[85.3833041010192,26.83847466934052],[85.38393495240965,26.8378501065331],[85.38448146171937,26.837485870856067],[85.3853813510125,26.837253609375182],[85.38539510629063,26.83724885840421],[85.3858408943762,26.837282927871282],[85.38609011236987,26.837454289019124],[85.38656366801825,26.83842013275953],[85.38686415438517,26.83866545317771],[85.38750545227376,26.838792360755043],[85.38810923543569,26.83873446557218],[85.38917119097219,26.839416971606326],[85.38921626981154,26.839398465784896],[85.3904801662694,26.83889849812674],[85.39099178887756,26.83876483114478],[85.39167741494099,26.83871062322579],[85.39174081333643,26.83875063449457],[85.39182915755859,26.838722625602248],[85.39217997303857,26.83860865295332],[85.39335208717726,26.83842327873681],[85.3937526689528,26.83815525996235],[85.3944080276925,26.837329512411934],[85.39474958855001,26.837229106477764],[85.3964692149496,26.83691193993792],[85.39755423768644,26.83701402485105],[85.39829663415938,26.83696832004294],[85.39869233970644,26.83682671278103],[85.39937439832374,26.836434030581543],[85.40003901555086,26.836316866935537],[85.40032549616993,26.83643815103331],[85.40051994050505,26.836190201662095],[85.40055244920963,26.835765577395414],[85.40024576939821,26.835168215955207],[85.39992989965859,26.834552974543378],[85.39968699600857,26.834234883031197],[85.39840545947023,26.833550126970966],[85.3979496023558,26.833204840939135],[85.39743140897023,26.83270438441305],[85.39709003238335,26.83250914232436],[85.39619601510903,26.832132037159525],[85.39551345181879,26.831976245557026],[85.39490016509703,26.83191910725433],[85.39463069037883,26.831795384871832],[85.39349188590144,26.83012515210102],[85.3934099176111,26.830004116596943],[85.39280131159607,26.828892856496566],[85.39239765990563,26.828341634332933],[85.39196837403303,26.827905759189612],[85.39120177381183,26.82698793163262],[85.3908702136339,26.826722605975874],[85.39053233964059,26.826660464443226],[85.38826957373202,26.82656988966457],[85.3879183196314,26.826449169343384],[85.38745320737996,26.825803732223857],[85.38717091518035,26.82560567545388],[85.38607726423295,26.825462890773167],[85.38567242806572,26.825372054145088],[85.38537006619094,26.825232827718263],[85.38526809167185,26.825222575123192],[85.384094161359,26.8250964207813],[85.3820084607647,26.82508749324964],[85.38085710485895,26.825315380310364],[85.37988424883663,26.82537909254259],[85.3791674266172,26.825602787754782],[85.37902024865706,26.82570575599922],[85.3790154339053,26.82572388622074],[85.37873758967342,26.82661808835741],[85.37856215203125,26.826775573507923],[85.37806221727854,26.82657501762095],[85.3777605446205,26.82653963419092],[85.37743198889592,26.826779769102526],[85.3772558620923,26.826779269965705],[85.37686384052236,26.826455802136124],[85.37666958250371,26.826410290757337],[85.37635296641545,26.82643823831657],[85.37573592793626,26.826387789910495],[85.3735904538027,26.82607239782801],[85.37329866011491,26.826070711682167],[85.37308426769738,26.825869653927832],[85.37237713322669,26.825802076150353],[85.37094460841428,26.825664731651123],[85.36929507103834,26.82604635422577],[85.36903047554665,26.82622053187662],[85.36863239560124,26.826589955558124],[85.36778815298037,26.827148874992368],[85.36741839490267,26.8273104247013],[85.36697660791607,26.82723571825533],[85.3659932486055,26.82736938871295],[85.3650313347407,26.827403466567937],[85.36336166634813,26.827999652003747],[85.36352716523076,26.828061294627354],[85.36360125513221,26.828101180611952],[85.36410631429374,26.828103115941605],[85.36487228381175,26.828303294656585],[85.36539091062805,26.828228331983905],[85.36555959771701,26.828339550755974],[85.36562137162984,26.828456335057773],[85.3656193090637,26.828548862281668],[85.36522116957528,26.82933140753824],[85.36521741998547,26.82954359408746],[85.3653497809928,26.8296664420258],[85.36562725837676,26.829733772522836],[85.366013651723,26.830064055022948],[85.36621566595683,26.830441289232205],[85.36663583110517,26.83195841988756],[85.36654261304845,26.83236560296767],[85.36609107668531,26.832841683178717],[85.36604781317929,26.833117452020822],[85.36639676337629,26.83451798664441],[85.36632486665992,26.8350219474636],[85.36617662511169,26.835093344665637],[85.36644604049684,26.835684390893096],[85.36646586374069,26.836081382466798],[85.366941041569,26.836623039096903],[85.36726748005076,26.837509109956727],[85.36765869123862,26.838241134776286],[85.36767544750239,26.83827258161104],[85.36824941019259,26.838655190375263],[85.36888645673072,26.83880704420142],[85.36928116575137,26.838990533023434],[85.3705290674738,26.840127234435055],[85.37086681748231,26.840336105797473],[85.37088732530124,26.840362988213062],[85.37106695521305,26.840602745129004],[85.37098992833604,26.84073440990468],[85.37067381402717,26.84091802824564],[85.37001144949929,26.841177232856715],[85.36981262774775,26.841384545750714],[85.36942936633004,26.841785540622727],[85.36896057183905,26.84213764706164],[85.36820392227737,26.84229619800178],[85.3679477655149,26.842291948424197],[85.36763021130376,26.842143844753828],[85.36627809554096,26.84269626486971],[85.36610384413963,26.84269570369601],[85.36535870020208,26.843086635634272],[85.36486577065939,26.843262940037924],[85.36409786636771,26.84343512115704],[85.36303616661392,26.843551411338787],[85.36298014680519,26.84364900308577],[85.36304192011981,26.843765787221386],[85.36339298863582,26.84408969201797],[85.36363307986817,26.844486869758377],[85.36392124954371,26.844754884621775],[85.36470097984423,26.845726915037332],[85.36502416011041,26.845658331129403],[85.36558192488445,26.845483651404173],[85.36843564573883,26.844151491853292],[85.36947521122104,26.84391804159808],[85.36998245913819,26.84388821710927],[85.37039148319168,26.8437420469674],[85.37114600746114,26.843558675812343]]]}},{"type":"Feature","properties":{"province":"Madhesh Province","district":"Sarlahi","municipality":"Ramnagar Rural Municipality","ward":"7","wardNumber":7,"sourceMunicipality":"Ramnagar","sourceType":"Gaunpalika"},"geometry":{"type":"Polygon","coordinates":[[[85.39354669690847,26.867254561047506],[85.39431203606733,26.86686331651871],[85.39531346497695,26.86684661788288],[85.39550178359362,26.8668109189226],[85.39595501107065,26.866725202637056],[85.3966054362024,26.86666461835544],[85.39717220221921,26.86624592951328],[85.397780110464,26.86600066562678],[85.39895121948081,26.865203674565862],[85.3995755084111,26.86495822366183],[85.4005374840818,26.86480648542489],[85.40182476745096,26.86470119620089],[85.40241429444072,26.864548585160342],[85.40374352494761,26.863822175517704],[85.40510514431672,26.86337528559639],[85.40553330041122,26.86335071305014],[85.40558256906694,26.863368281023323],[85.40567672855283,26.863401227000832],[85.40582865982903,26.863523824732045],[85.40595933548673,26.86386786243092],[85.40622218293821,26.864108994164233],[85.40693456812775,26.864020650807216],[85.40719985272509,26.86405184638702],[85.40766089814026,26.864295476893098],[85.40906453824446,26.864446262650645],[85.40993873265411,26.864421812529372],[85.41050831712069,26.864537905477565],[85.41272150330356,26.864721195431045],[85.41262690419143,26.86450319389344],[85.41259639155376,26.86427550214214],[85.4123144085123,26.863659948678745],[85.41204930229993,26.86257931970757],[85.41200822375758,26.862412646809776],[85.41175981674016,26.861961452858814],[85.41163095632571,26.861820537047148],[85.41141456360498,26.86177308711977],[85.41015210162918,26.86174052291976],[85.40997872601257,26.861663314571246],[85.40963184501281,26.861138599734748],[85.40945759198955,26.861036508486336],[85.40956538116825,26.860954233727835],[85.41010044666707,26.860269529204885],[85.41022022991883,26.858970521267047],[85.41031257486439,26.858807098113623],[85.41089603759372,26.8586771807583],[85.4115405238612,26.858747446968813],[85.4119332288066,26.858608091013494],[85.41211354332243,26.85843478953074],[85.41317493049185,26.8582887399961],[85.41323920018446,26.85779153031288],[85.41314496549424,26.856232885813423],[85.4127211201968,26.855943741318708],[85.41253023642405,26.855668036433475],[85.41245526826887,26.855255727760408],[85.4121463428729,26.855353633639623],[85.41032549254612,26.855744260020607],[85.41018694181163,26.85568017971337],[85.4100176269551,26.855372653382343],[85.40988976712615,26.855256556996707],[85.4096556812823,26.855150589867062],[85.40913398903267,26.85503168376788],[85.40856740457674,26.85475291766543],[85.40789046647676,26.854344427330897],[85.4075524038132,26.85422589469544],[85.4078517507189,26.852591099652972],[85.40799235624392,26.85150409202739],[85.40785324023558,26.851189500353655],[85.40758120211939,26.851065840203983],[85.407350305597,26.851063591071906],[85.40671800984222,26.85086003557846],[85.40628309551329,26.850130824488158],[85.4056337278731,26.849455692250395],[85.40526065169183,26.849199807389834],[85.40486325565148,26.84916992531586],[85.4044650457137,26.848909852003036],[85.40398480363858,26.848431589706216],[85.40348648727928,26.847249370184905],[85.40320293927108,26.846396809094703],[85.4021455412946,26.84492669660597],[85.40201655196005,26.844309577915826],[85.40193532667888,26.843387244837768],[85.4019657087384,26.84279113250599],[85.4019031847299,26.84261795709881],[85.40156887183909,26.842336876621484],[85.40130502796569,26.842574135484977],[85.40075438955114,26.84260677296545],[85.40041582814402,26.842695926756537],[85.4003573696674,26.84274837957332],[85.40026071083317,26.842918618505365],[85.40052362589809,26.84373529387909],[85.40052200322107,26.8440625153116],[85.40041433948096,26.844205870684767],[85.40026416022899,26.844272766069373],[85.39995911072576,26.844226191870675],[85.39953270297292,26.843923418066872],[85.39907872523561,26.8440362664181],[85.39868764666873,26.844315475837792],[85.39824817451242,26.84448684185902],[85.39795187806895,26.844386001403734],[85.39743849902958,26.84391936711023],[85.39714520431839,26.843852349304598],[85.39692324898779,26.844016961789464],[85.39669873296896,26.84442770903754],[85.39666772865414,26.845335351034315],[85.3965997692116,26.845692643874678],[85.39668211376079,26.845994232315714],[85.39652068154892,26.84616734670166],[85.39616874098483,26.846245309110316],[85.39558102466887,26.846124776864354],[85.39488051558702,26.845689278654994],[85.39472395783676,26.845643453412944],[85.39444204249432,26.845641704858195],[85.39370439934808,26.845913102189567],[85.39338709961729,26.846354046294163],[85.39324855007388,26.846445699031687],[85.39321247582059,26.84663337900678],[85.39398557705834,26.847451802272513],[85.39402928363336,26.847884741330752],[85.39392462202845,26.84807085965929],[85.3935926891274,26.848247913778316],[85.39340086895947,26.848143759482383],[85.39329338884738,26.847743080055473],[85.39319253811372,26.847619919326327],[85.39276175470116,26.847425552237198],[85.39238511838197,26.84764818275138],[85.39201986266579,26.847972279681034],[85.39169305826857,26.84836145882521],[85.39162097243027,26.848739069930286],[85.39177984539828,26.849026403891653],[85.39218336828792,26.849148812211514],[85.3929240147408,26.84911892344139],[85.39359594728937,26.84902195387],[85.39377745132042,26.849049585373677],[85.39406980862196,26.849182122653062],[85.39413802255729,26.84936880188547],[85.39410201093779,26.849558732965882],[85.39389168529534,26.849745852166528],[85.39363690565828,26.849798056596864],[85.39265729621012,26.849735481812143],[85.39217330773054,26.849868898851426],[85.39189020610772,26.85002525933572],[85.39170714074228,26.850227882190683],[85.39159591459978,26.850493023502],[85.39163436729602,26.85070708589987],[85.39185357489033,26.850932838868857],[85.392132928212,26.85109032082992],[85.39239977606461,26.85115314952565],[85.39267518857913,26.851091755413094],[85.39296435611624,26.850919640098304],[85.39376101652063,26.850273070488026],[85.39384636099989,26.85025412678105],[85.39405912683515,26.8504167979719],[85.39405781575009,26.85067187281797],[85.39390144969956,26.85105261099514],[85.3934755482619,26.851668419421127],[85.39329354955625,26.852372127736647],[85.39231026394786,26.85380830596146],[85.39116954382047,26.854975092616357],[85.39053074964687,26.85531544711188],[85.3901013458391,26.855698875215527],[85.38972696150786,26.855948575632237],[85.38875667558763,26.856858661531636],[85.3885887436521,26.85737712742532],[85.38880614221537,26.85828232964097],[85.3887806343391,26.858460881955683],[85.38870885880443,26.858556347904635],[85.38834591538188,26.85871796074451],[85.38830433809838,26.858865066696012],[85.38834917030582,26.859291191874853],[85.38847865806787,26.85964423222514],[85.38847822197812,26.859763891909388],[85.38824451329297,26.860095678681663],[85.38784474466954,26.860332125489442],[85.38759722002828,26.86077238138584],[85.38712367616161,26.861404507906776],[85.386687332267,26.861792499498403],[85.38625874335644,26.862401555611935],[85.38615758489517,26.862978100945273],[85.38624962669147,26.863922877977554],[85.38638317809792,26.864293986722142],[85.38637030026993,26.864476914997052],[85.38754067299345,26.865408869189277],[85.38791868981622,26.865865563852847],[85.38843306817877,26.866253236573737],[85.3887820711781,26.866292683687398],[85.38921704413137,26.866462167958776],[85.39147537376431,26.866891342804827],[85.39214762213976,26.867171295450262],[85.39307965102935,26.867238871962517],[85.39342546466258,26.867217363928063],[85.39354669690847,26.867254561047506]]]}},{"type":"Feature","properties":{"province":"Madhesh Province","district":"Sarlahi","municipality":"Ramnagar Rural Municipality","ward":"5","wardNumber":5,"sourceMunicipality":"Ramnagar","sourceType":"Gaunpalika"},"geometry":{"type":"Polygon","coordinates":[[[85.4153081459794,26.842369111302684],[85.41537498187935,26.842133728764473],[85.41552259590749,26.841913288499157],[85.41569265405529,26.84142633150704],[85.41565188911434,26.841383881707607],[85.41572329024828,26.84135837331484],[85.41590516633539,26.841011208504842],[85.41536440355321,26.8406261607654],[85.41498119906431,26.84041785177083],[85.41442518022954,26.840114203922038],[85.41340211225423,26.839282591183313],[85.41168335273423,26.83850081007555],[85.41082121846622,26.83766306918715],[85.41011264105747,26.836974996489804],[85.40892301345437,26.8362532919822],[85.40868154832992,26.836002970177045],[85.40852761366068,26.83566593418767],[85.40785679932142,26.834724662679516],[85.40626733153148,26.83330281692184],[85.40555500461521,26.832820117526804],[85.4050201809816,26.832346981636015],[85.40458039303171,26.83208278156921],[85.40410646810376,26.831958811040998],[85.40339782879012,26.83131356302298],[85.40299855695895,26.831168585349445],[85.40296098156517,26.831234417939157],[85.40288464232117,26.83137058361952],[85.4028823940467,26.831695616012116],[85.40274203213164,26.83194531541139],[85.40207992171058,26.832775688687377],[85.40156454741755,26.833062901805363],[85.40136591513902,26.83332891846474],[85.40132784093986,26.83370853034794],[85.40121717799069,26.833969169935546],[85.40036700035081,26.835060933995567],[85.40024576939821,26.835168215955207],[85.40055244920963,26.835765577395414],[85.40051994050505,26.836190201662095],[85.40032549616993,26.83643815103331],[85.40041590449906,26.836477849938074],[85.40052857312608,26.83673636192331],[85.40058678493831,26.837173552661184],[85.40038284429157,26.83823411588479],[85.40037841015445,26.838895497298928],[85.4006137521539,26.83966728582384],[85.40081901760959,26.840042206873832],[85.40145288004862,26.840796487154616],[85.40155479441002,26.841045997263965],[85.40157467973903,26.841384346240687],[85.40159775370059,26.84177458627241],[85.40239023388105,26.84212337115654],[85.40285853079826,26.842301482403435],[85.40322641690841,26.842442271464126],[85.40449982091606,26.842614689220547],[85.40535000673736,26.842590427107517],[85.40736742952649,26.84229501493302],[85.40759395023733,26.84229726393886],[85.40784704355328,26.842470813641334],[85.4083255975264,26.842962579823713],[85.40899165824484,26.843565315001975],[85.41030414781564,26.844752905379607],[85.41209587689987,26.846136613513867],[85.41316658767091,26.847048999264263],[85.41346501080561,26.84722204843163],[85.41460343454065,26.848117991768355],[85.41498094970714,26.848425579638636],[85.41759673582557,26.85054806178406],[85.41857628678997,26.8511589223034],[85.41888471250009,26.85127539267343],[85.41882143828525,26.851093214453947],[85.4185443938008,26.850418955537812],[85.4181530604525,26.850009837454976],[85.41782187183237,26.84948499790567],[85.41734081217136,26.848341039891867],[85.41732136716381,26.848293839233598],[85.41680254394142,26.847247285035344],[85.41659239856759,26.846439110919437],[85.41657851771859,26.84638509507317],[85.41631454137901,26.84579867428939],[85.41600717139967,26.844754494669456],[85.41594389187655,26.843967451309236],[85.41536904701691,26.842765726858953],[85.4153081459794,26.842369111302684]]]}},{"type":"Feature","properties":{"province":"Madhesh Province","district":"Sarlahi","municipality":"Ramnagar Rural Municipality","ward":"6","wardNumber":6,"sourceMunicipality":"Ramnagar","sourceType":"Gaunpalika"},"geometry":{"type":"Polygon","coordinates":[[[85.41838384258273,26.86707716367522],[85.41874941379557,26.867030522366072],[85.41945786094155,26.867129484693244],[85.42086106215832,26.867137915749737],[85.42163028199205,26.86721824632302],[85.42195458745634,26.867190111608686],[85.4223258472078,26.86699680207642],[85.42290068051095,26.866826247933243],[85.42329213571578,26.86673203038246],[85.42479199376322,26.866373790951624],[85.42607877907083,26.866638423020625],[85.42659221732652,26.866639982171467],[85.4268082957143,26.86660847149238],[85.42685612573734,26.866610222324265],[85.42684462092168,26.866504315772268],[85.42681660807273,26.866222420824094],[85.42667586659702,26.865837933875845],[85.42458694416965,26.861670097426273],[85.42356968492035,26.860165912368863],[85.42333697076242,26.859669455484934],[85.42288892437344,26.858710238765973],[85.42159674439391,26.85624958682357],[85.42070553225457,26.854863747243012],[85.41983301100234,26.85300601944734],[85.4196655715297,26.852594649662375],[85.41954390031525,26.852372460417374],[85.4192736099357,26.851885381250373],[85.41890947267552,26.851342849816334],[85.41888471250009,26.85127539267343],[85.41857628678997,26.8511589223034],[85.41759673582557,26.85054806178406],[85.41498094970714,26.848425579638636],[85.41460343454065,26.848117991768355],[85.41346501080561,26.84722204843163],[85.41316658767091,26.847048999264263],[85.41209587689987,26.846136613513867],[85.41030414781564,26.844752905379607],[85.40899165824484,26.843565315001975],[85.4083255975264,26.842962579823713],[85.40784704355328,26.842470813641334],[85.40759395023733,26.84229726393886],[85.40736742952649,26.84229501493302],[85.40535000673736,26.842590427107517],[85.40449982091606,26.842614689220547],[85.40322641690841,26.842442271464126],[85.40285853079826,26.842301482403435],[85.40239023388105,26.84212337115654],[85.40159775370059,26.84177458627241],[85.40162733077496,26.842284361025314],[85.40156887183909,26.842336876621484],[85.4019031847299,26.84261795709881],[85.4019657087384,26.84279113250599],[85.40193532667888,26.843387244837768],[85.40201655196005,26.844309577915826],[85.4021455412946,26.84492669660597],[85.40320293927108,26.846396809094703],[85.40348648727928,26.847249370184905],[85.40398480363858,26.848431589706216],[85.4044650457137,26.848909852003036],[85.40486325565148,26.84916992531586],[85.40526065169183,26.849199807389834],[85.4056337278731,26.849455692250395],[85.40628309551329,26.850130824488158],[85.40671800984222,26.85086003557846],[85.407350305597,26.851063591071906],[85.40758120211939,26.851065840203983],[85.40785324023558,26.851189500353655],[85.40799235624392,26.85150409202739],[85.4078517507189,26.852591099652972],[85.4075524038132,26.85422589469544],[85.40789046647676,26.854344427330897],[85.40856740457674,26.85475291766543],[85.40913398903267,26.85503168376788],[85.4096556812823,26.855150589867062],[85.40988976712615,26.855256556996707],[85.4100176269551,26.855372653382343],[85.41018694181163,26.85568017971337],[85.41032549254612,26.855744260020607],[85.4121463428729,26.855353633639623],[85.41245526826887,26.855255727760408],[85.41253023642405,26.855668036433475],[85.4127211201968,26.855943741318708],[85.41314496549424,26.856232885813423],[85.41323920018446,26.85779153031288],[85.41317493049185,26.8582887399961],[85.41211354332243,26.85843478953074],[85.4119332288066,26.858608091013494],[85.4115405238612,26.858747446968813],[85.41089603759372,26.8586771807583],[85.41031257486439,26.858807098113623],[85.41022022991883,26.858970521267047],[85.41010044666707,26.860269529204885],[85.40956538116825,26.860954233727835],[85.40945759198955,26.861036508486336],[85.40963184501281,26.861138599734748],[85.40997872601257,26.861663314571246],[85.41015210162918,26.86174052291976],[85.41141456360498,26.86177308711977],[85.41163095632571,26.861820537047148],[85.41175981674016,26.861961452858814],[85.41200822375758,26.862412646809776],[85.41204930229993,26.86257931970757],[85.4123144085123,26.863659948678745],[85.41259639155376,26.86427550214214],[85.41262690419143,26.86450319389344],[85.41272150330356,26.864721195431045],[85.41310758151756,26.864753389697196],[85.41335767417216,26.864829910577118],[85.41383347707229,26.865296857537086],[85.41404162030047,26.865892781209272],[85.4141309108959,26.866848936609724],[85.41430516580317,26.867300818114906],[85.41477703342156,26.86825984676618],[85.41498141848813,26.868047908004858],[85.4154662811264,26.86772931128186],[85.4168541602561,26.867361006822126],[85.41764957629208,26.867328242460356],[85.41838384258273,26.86707716367522]]]}},{"type":"Feature","properties":{"province":"Madhesh Province","district":"Sarlahi","municipality":"Ramnagar Rural Municipality","ward":"3","wardNumber":3,"sourceMunicipality":"Ramnagar","sourceType":"Gaunpalika"},"geometry":{"type":"Polygon","coordinates":[[[85.38095233365065,26.842316562174283],[85.3830716683299,26.841912117726473],[85.38343467513523,26.84191311557285],[85.38476622660136,26.84215961747974],[85.38498293351901,26.842444137729057],[85.38514124258919,26.842582427390393],[85.38517569175004,26.842521221555494],[85.3854760520126,26.842493461323315],[85.38581292532379,26.842571357416322],[85.38618600141116,26.84283630751794],[85.38665886330111,26.843023484279538],[85.3874205185988,26.84332300537204],[85.3875271200733,26.843299372499906],[85.38782641437035,26.84292626133338],[85.38900015054155,26.84224892993315],[85.38959767808402,26.841834491479375],[85.38971246743286,26.841499330324904],[85.38970346344588,26.841384358554517],[85.38965375357279,26.840759612700687],[85.38958916605,26.84057524684767],[85.38924696998652,26.83959452340697],[85.38921626981154,26.839398465784896],[85.38917119097219,26.839416971606326],[85.38810923543569,26.83873446557218],[85.38750545227376,26.838792360755043],[85.38686415438517,26.83866545317771],[85.38656366801825,26.83842013275953],[85.38609011236987,26.837454289019124],[85.3858408943762,26.837282927871282],[85.38539510629063,26.83724885840421],[85.3853813510125,26.837253609375182],[85.38448146171937,26.837485870856067],[85.38393495240965,26.8378501065331],[85.3833041010192,26.83847466934052],[85.3830325042907,26.83874362512186],[85.38265049073283,26.838936996256354],[85.38181306750542,26.839902160165384],[85.38155653686842,26.840017508016118],[85.38026581685864,26.84022876552873],[85.37977176220885,26.840411884956467],[85.3789688427686,26.84028885440298],[85.3782050673386,26.840847022704402],[85.37808458869009,26.841130294435917],[85.37792015416855,26.841267336084645],[85.37718676180724,26.841324169148137],[85.37693023045038,26.841385314303526],[85.37625092095425,26.841543177202144],[85.37603321732028,26.84164008164279],[85.3759124873098,26.841907598356553],[85.37577256119536,26.84193829655735],[85.37523367664576,26.841846459829885],[85.37483365193482,26.841383201769528],[85.374755184631,26.841293675177226],[85.3745979392511,26.84119139678926],[85.37427832137327,26.841081616288392],[85.37387904971871,26.84104492029336],[85.3738056499125,26.84126679843913],[85.3738234074652,26.841383957982416],[85.37391350753818,26.841969942374558],[85.37387343230546,26.842245648415016],[85.37371581397623,26.84252479382682],[85.37356313696749,26.843063453163523],[85.37356951616529,26.843280078998816],[85.37357145486078,26.843341034754467],[85.37357251791596,26.843370355677433],[85.37350612051783,26.843603486729133],[85.37358277928969,26.8443723370363],[85.37375090985189,26.845219335204135],[85.37379842911817,26.84545815520013],[85.37393373164386,26.845826950175994],[85.37392368089625,26.847804219108095],[85.3739499409794,26.84789649569855],[85.37418990361282,26.847919001020134],[85.37422566672149,26.847911873766023],[85.37458279365181,26.847427666129427],[85.37482143546059,26.846360038656474],[85.37552212173951,26.84541200635939],[85.375807471625,26.844763751150584],[85.37635622945136,26.844160257661088],[85.37650928078831,26.843553891603722],[85.3769062977058,26.84304217566839],[85.37730925579152,26.842814856608115],[85.37751482939593,26.84269769581461],[85.3780154488283,26.84253258139909],[85.38095233365065,26.842316562174283]]]}},{"type":"Feature","properties":{"province":"Madhesh Province","district":"Sarlahi","municipality":"Ramnagar Rural Municipality","ward":"4","wardNumber":4,"sourceMunicipality":"Ramnagar","sourceType":"Gaunpalika"},"geometry":{"type":"Polygon","coordinates":[[[85.38880614221537,26.85828232964097],[85.3885887436521,26.85737712742532],[85.38875667558763,26.856858661531636],[85.38972696150786,26.855948575632237],[85.3901013458391,26.855698875215527],[85.39053074964687,26.85531544711188],[85.39116954382047,26.854975092616357],[85.39231026394786,26.85380830596146],[85.39329354955625,26.852372127736647],[85.3934755482619,26.851668419421127],[85.39390144969956,26.85105261099514],[85.39405781575009,26.85067187281797],[85.39405912683515,26.8504167979719],[85.39384636099989,26.85025412678105],[85.39376101652063,26.850273070488026],[85.39296435611624,26.850919640098304],[85.39267518857913,26.851091755413094],[85.39239977606461,26.85115314952565],[85.392132928212,26.85109032082992],[85.39185357489033,26.850932838868857],[85.39163436729602,26.85070708589987],[85.39159591459978,26.850493023502],[85.39170714074228,26.850227882190683],[85.39189020610772,26.85002525933572],[85.39217330773054,26.849868898851426],[85.39265729621012,26.849735481812143],[85.39363690565828,26.849798056596864],[85.39389168529534,26.849745852166528],[85.39410201093779,26.849558732965882],[85.39413802255729,26.84936880188547],[85.39406980862196,26.849182122653062],[85.39377745132042,26.849049585373677],[85.39359594728937,26.84902195387],[85.3929240147408,26.84911892344139],[85.39218336828792,26.849148812211514],[85.39177984539828,26.849026403891653],[85.39162097243027,26.848739069930286],[85.39169305826857,26.84836145882521],[85.39201986266579,26.847972279681034],[85.39238511838197,26.84764818275138],[85.39276175470116,26.847425552237198],[85.39319253811372,26.847619919326327],[85.39329338884738,26.847743080055473],[85.39340086895947,26.848143759482383],[85.3935926891274,26.848247913778316],[85.39392462202845,26.84807085965929],[85.39402928363336,26.847884741330752],[85.39398557705834,26.847451802272513],[85.39321247582059,26.84663337900678],[85.39324855007388,26.846445699031687],[85.39338709961729,26.846354046294163],[85.39370439934808,26.845913102189567],[85.39444204249432,26.845641704858195],[85.39472395783676,26.845643453412944],[85.39488051558702,26.845689278654994],[85.39558102466887,26.846124776864354],[85.39616874098483,26.846245309110316],[85.39652068154892,26.84616734670166],[85.39668211376079,26.845994232315714],[85.3965997692116,26.845692643874678],[85.39666772865414,26.845335351034315],[85.39669873296896,26.84442770903754],[85.39692324898779,26.844016961789464],[85.39714520431839,26.843852349304598],[85.39743849902958,26.84391936711023],[85.39795187806895,26.844386001403734],[85.39824817451242,26.84448684185902],[85.39868764666873,26.844315475837792],[85.39907872523561,26.8440362664181],[85.39953270297292,26.843923418066872],[85.39995911072576,26.844226191870675],[85.40026416022899,26.844272766069373],[85.40041433948096,26.844205870684767],[85.40052200322107,26.8440625153116],[85.40052362589809,26.84373529387909],[85.40026071083317,26.842918618505365],[85.4003573696674,26.84274837957332],[85.40041582814402,26.842695926756537],[85.40075438955114,26.84260677296545],[85.40130502796569,26.842574135484977],[85.40156887183909,26.842336876621484],[85.40162733077496,26.842284361025314],[85.40159775370059,26.84177458627241],[85.40157467973903,26.841384346240687],[85.40155479441002,26.841045997263965],[85.40145288004862,26.840796487154616],[85.40081901760959,26.840042206873832],[85.4006137521539,26.83966728582384],[85.40037841015445,26.838895497298928],[85.40038284429157,26.83823411588479],[85.40058678493831,26.837173552661184],[85.40052857312608,26.83673636192331],[85.40041590449906,26.836477849938074],[85.40032549616993,26.83643815103331],[85.40003901555086,26.836316866935537],[85.39937439832374,26.836434030581543],[85.39869233970644,26.83682671278103],[85.39829663415938,26.83696832004294],[85.39755423768644,26.83701402485105],[85.3964692149496,26.83691193993792],[85.39474958855001,26.837229106477764],[85.3944080276925,26.837329512411934],[85.3937526689528,26.83815525996235],[85.39335208717726,26.83842327873681],[85.39217997303857,26.83860865295332],[85.39182915755859,26.838722625602248],[85.39174081333643,26.83875063449457],[85.39167741494099,26.83871062322579],[85.39099178887756,26.83876483114478],[85.3904801662694,26.83889849812674],[85.38921626981154,26.839398465784896],[85.38924696998652,26.83959452340697],[85.38958916605,26.84057524684767],[85.38965375357279,26.840759612700687],[85.38970346344588,26.841384358554517],[85.38971246743286,26.841499330324904],[85.38959767808402,26.841834491479375],[85.38900015054155,26.84224892993315],[85.38782641437035,26.84292626133338],[85.3875271200733,26.843299372499906],[85.3874205185988,26.84332300537204],[85.38665886330111,26.843023484279538],[85.38618600141116,26.84283630751794],[85.38581292532379,26.842571357416322],[85.3854760520126,26.842493461323315],[85.38517569175004,26.842521221555494],[85.38514124258919,26.842582427390393],[85.38498293351901,26.842444137729057],[85.38476622660136,26.84215961747974],[85.38343467513523,26.84191311557285],[85.3830716683299,26.841912117726473],[85.38095233365065,26.842316562174283],[85.3780154488283,26.84253258139909],[85.37751482939593,26.84269769581461],[85.37730925579152,26.842814856608115],[85.3769062977058,26.84304217566839],[85.37650928078831,26.843553891603722],[85.37635622945136,26.844160257661088],[85.375807471625,26.844763751150584],[85.37552212173951,26.84541200635939],[85.37482143546059,26.846360038656474],[85.37458279365181,26.847427666129427],[85.37422566672149,26.847911873766023],[85.37418990361282,26.847919001020134],[85.3739499409794,26.84789649569855],[85.37396963603852,26.847964015342082],[85.37397563886306,26.848042975866214],[85.37400527860919,26.84846697522235],[85.37418304057545,26.849792364230833],[85.37435912143387,26.851869347745108],[85.3746305368352,26.852360990768116],[85.3746920002436,26.852759858043726],[85.3753264931075,26.85424560291871],[85.37564873977918,26.854617147514578],[85.3764557881906,26.855130605537482],[85.37636263274811,26.85553778826486],[85.37629810917194,26.855612935714746],[85.37580574278489,26.855735099899853],[85.37510042245067,26.85573291647441],[85.37484489057299,26.8556180716389],[85.37467376553658,26.85561744781249],[85.37454490685964,26.855731544141292],[85.37436565629004,26.856049263772434],[85.37389861296704,26.856444320129242],[85.37395238536837,26.856725902334016],[85.374362795587,26.85799483554552],[85.37463764998266,26.858513548235724],[85.37474468861994,26.85851479797938],[85.37570441125565,26.858069849098065],[85.37648532432847,26.858396252477853],[85.37730212441247,26.85856654779098],[85.37819764155637,26.85884906275901],[85.37827054331335,26.858891136560846],[85.37855621167908,26.85905312010045],[85.37941953217899,26.859631534528443],[85.38098267626432,26.860850820624144],[85.38314172667118,26.86228091484263],[85.38480909557586,26.863478881981358],[85.38597702832448,26.864164825458865],[85.38637030026993,26.864476914997052],[85.38638317809792,26.864293986722142],[85.38624962669147,26.863922877977554],[85.38615758489517,26.862978100945273],[85.38625874335644,26.862401555611935],[85.386687332267,26.861792499498403],[85.38712367616161,26.861404507906776],[85.38759722002828,26.86077238138584],[85.38784474466954,26.860332125489442],[85.38824451329297,26.860095678681663],[85.38847822197812,26.859763891909388],[85.38847865806787,26.85964423222514],[85.38834917030582,26.859291191874853],[85.38830433809838,26.858865066696012],[85.38834591538188,26.85871796074451],[85.38870885880443,26.858556347904635],[85.3887806343391,26.858460881955683],[85.38880614221537,26.85828232964097]]]}}]}