{"type":"FeatureCollection","features":[{"type":"Feature","properties":{"province":"Madhesh Province","district":"Bara","municipality":"Prasauni Rural Municipality","ward":"4","wardNumber":4,"sourceMunicipality":"Prasauni","sourceType":"Gaunpalika"},"geometry":{"type":"Polygon","coordinates":[[[84.93326117841421,27.05727045326498],[84.93336896791565,27.057195243950996],[84.93362537481332,27.057254447468306],[84.93420183814071,27.05760279759319],[84.93439390882446,27.05766243874274],[84.9347150891676,27.057703199578498],[84.9351659419882,27.057648306858635],[84.93549387426307,27.057521955219364],[84.935553583184,27.057499010931437],[84.93559641177497,27.057498698347352],[84.93598405289075,27.057270379105585],[84.93662922581554,27.057085509728967],[84.93720900098324,27.056993605806923],[84.93753043115625,27.056995979690353],[84.9379390182613,27.0568646271098],[84.93804724406786,27.056692325665043],[84.93813827454409,27.05611834454507],[84.93807849974,27.055601942890256],[84.93816496808584,27.055468153005858],[84.93829439008886,27.0554131359861],[84.93842293745186,27.05541226033047],[84.93861538369241,27.055510226080017],[84.93874286810686,27.0556065034262],[84.93887022900094,27.05576142419333],[84.9389118076072,27.055914593833396],[84.9390808085561,27.056222683595827],[84.93946220106213,27.056761840443293],[84.9395883112672,27.057067991943185],[84.939801077759,27.057260672817417],[84.94025018074898,27.05737958103217],[84.93987410004895,27.05626706805865],[84.93970697347389,27.05572872333757],[84.93953815867134,27.055364178905652],[84.93907410953022,27.054518619938147],[84.93888559943876,27.053980399896698],[84.93873760604707,27.05369244121013],[84.93844087019161,27.05332652243464],[84.93799782908519,27.05250109450161],[84.93778724926193,27.05203983483255],[84.93768327079852,27.051654534755865],[84.93768508274813,27.051426529867623],[84.93775123146087,27.05119589942374],[84.93783819985953,27.051044041891046],[84.93814149714406,27.050683121726554],[84.9382716061133,27.05056940056184],[84.93850812995176,27.050436923237545],[84.93911003714574,27.050288439683424],[84.93926084211625,27.050230984629508],[84.94007876554002,27.04983505199201],[84.94016279588807,27.049782598994135],[84.94059601637623,27.049513329773376],[84.94083391466373,27.049324398739113],[84.9412645720454,27.049116085215772],[84.94154529920701,27.048926903748697],[84.94206242481316,27.048661573515663],[84.94240761193973,27.04841549996789],[84.94234446340334,27.048318846269744],[84.94226199378802,27.04795599034463],[84.94237178317886,27.047668592651473],[84.94263218915387,27.04738469614156],[84.94280706429012,27.047040469173666],[84.942850829921,27.04692499703841],[84.94283094583618,27.046735566397516],[84.94283175889761,27.04667686221081],[84.94283313303073,27.046543697862408],[84.94275003918547,27.046255363222254],[84.94281787425716,27.045853120126523],[84.9428033032092,27.045164793053676],[84.94270563688886,27.044188068843468],[84.94262179239281,27.043956125553144],[84.94188151472608,27.042859619327803],[84.94186131899946,27.04278303398246],[84.94158571662904,27.042455313853992],[84.94126659808681,27.04220467975151],[84.94100994041453,27.042107089643945],[84.9407108931838,27.04198943071815],[84.94060454115896,27.04193147694902],[84.94058340830072,27.041893216111564],[84.9404129071057,27.041776994932416],[84.94024471940436,27.041412450609446],[84.94018132065614,27.04135418447843],[84.93992472557635,27.041276912665236],[84.93960466936224,27.041062413514798],[84.93924291083695,27.040830034170092],[84.9389868785607,27.04065573415151],[84.93888027613369,27.040579711680124],[84.93845174381516,27.04057577522485],[84.93819427508903,27.04061134962634],[84.93750627356859,27.04078071421095],[84.93647695820276,27.04083054598084],[84.93617628634648,27.04090469444073],[84.93598202841586,27.04103692115384],[84.93585204369876,27.041168710191226],[84.93563290298174,27.04164641459181],[84.93548191115168,27.041742255785657],[84.93531053531423,27.041759198551283],[84.93481704171694,27.041755700087666],[84.93468880763895,27.041715938446817],[84.93453987670082,27.041619848383228],[84.93445528343605,27.04152332094724],[84.93443477535844,27.041408349396956],[84.93447922722598,27.041216229990777],[84.93443714921611,27.041160089110384],[84.9342021873444,27.041023925118374],[84.93366680347745,27.04098235208074],[84.93347485685614,27.04086400595267],[84.93317787147974,27.040536410871866],[84.93300705866366,27.040458576019752],[84.93249343214546,27.040378492938594],[84.93232261950163,27.040300594941442],[84.93189489926743,27.040183812851172],[84.93135926492042,27.040178313809385],[84.93116625615917,27.04015930836169],[84.92962356560486,27.040090545361167],[84.92910806370665,27.040161630879087],[84.92867859443551,27.040275102965595],[84.92848302423248,27.040484040156777],[84.92867334510285,27.040792004874124],[84.92877907220866,27.04092673178077],[84.92911944899559,27.041236009059606],[84.92964883398108,27.041927709517445],[84.92975349934409,27.04215946548069],[84.9297523739057,27.04225430540254],[84.92970892117462,27.04233132857958],[84.92882247475134,27.0431271912545],[84.92808883353327,27.04358120221319],[84.92757252028551,27.04378776543945],[84.92722883122221,27.04384422121446],[84.9265404550962,27.044049658913558],[84.92645473647372,27.04404797104319],[84.92587252423884,27.044446840896704],[84.92578636843434,27.044465471792673],[84.92477256224362,27.045108664885667],[84.92459987431856,27.045184250821837],[84.92389048924821,27.045369496029846],[84.92369598139807,27.045560365152863],[84.92356487196433,27.04578924562907],[84.9234350757223,27.045941290682514],[84.92402767209246,27.04672964440534],[84.9241530946838,27.0470380475825],[84.92459963562858,27.047461732889026],[84.92483272315658,27.047751378838765],[84.92491650405303,27.047904298636833],[84.92497890391734,27.048134116364952],[84.92525119459562,27.048825318011335],[84.92527182771258,27.048883834848795],[84.92541919596448,27.04917173152844],[84.92550172766003,27.049478196787554],[84.92549922760413,27.049782973592677],[84.92538931383608,27.050070308245424],[84.9249769156982,27.050662171116574],[84.92484511997222,27.05102421626606],[84.92462916620237,27.051215210829728],[84.92454163462817,27.051367005554027],[84.92449687029162,27.051595260276805],[84.92458102701185,27.051788816530618],[84.92475133986567,27.051961554777986],[84.92487913696661,27.05201938364012],[84.92526552954658,27.052023570691333],[84.92539376377358,27.052063393975363],[84.92558489738607,27.05223588195159],[84.92562653877985,27.052389114232117],[84.92556032770564,27.05261980664214],[84.92532130437311,27.052980288473886],[84.9250841562296,27.05311276614318],[84.92484806933226,27.05315040312142],[84.92473996805323,27.053263999652206],[84.92467313233232,27.053569152325856],[84.92466938338158,27.053952890028935],[84.92475197772306,27.054336065177885],[84.92496249464834,27.05479738709309],[84.92517357450484,27.055181999359036],[84.92534320051438,27.055413316360205],[84.92544842732629,27.055642883686517],[84.92529593560013,27.05594859861193],[84.92512193588824,27.056177729732088],[84.9250995530919,27.056290700103048],[84.92516307698989,27.056425739923093],[84.92535452318197,27.05656215377878],[84.92570659153891,27.056832981901074],[84.92578080644937,27.05688887353596],[84.9259098528549,27.056795470539363],[84.9263605187888,27.056799281693213],[84.92706715307153,27.056880427629853],[84.92719620096051,27.056861484462353],[84.92745510664876,27.05669274576574],[84.92779898261016,27.056579899198837],[84.92790608441337,27.056579147810456],[84.92816311707111,27.05663841411566],[84.928312547205,27.0567164363386],[84.92854638400688,27.056949629547358],[84.92867436913126,27.057025526157744],[84.92886643961837,27.057085230011218],[84.9291242838357,27.057087979819297],[84.93034773258394,27.056942182101043],[84.93073349900446,27.056946431990674],[84.93124693817927,27.057064901873986],[84.9315031577371,27.057180559350623],[84.93163083012911,27.057297093176672],[84.93182027658527,27.057720217327454],[84.9319256916317,27.057970040249813],[84.93211607603335,27.05827800473207],[84.93228595144306,27.058468747418214],[84.93241399874918,27.05854689456503],[84.93260650782014,27.058586218097957],[84.93273492933993,27.05856958803311],[84.93288548486035,27.058494065047295],[84.93301590620031,27.058321701056855],[84.93305967133844,27.05820629236741],[84.93317370975741,27.057442567104054],[84.93326117841421,27.05727045326498]]]}},{"type":"Feature","properties":{"province":"Madhesh Province","district":"Bara","municipality":"Prasauni Rural Municipality","ward":"1","wardNumber":1,"sourceMunicipality":"Prasauni","sourceType":"Gaunpalika"},"geometry":{"type":"Polygon","coordinates":[[[84.91562104303452,27.03814884559911],[84.91613641924378,27.038055190758236],[84.9167792178672,27.038060002251683],[84.91787193099333,27.038127330148935],[84.91838699504977,27.038072061782206],[84.91890105923086,27.038134140168143],[84.92057654723205,27.037802660893977],[84.92102733732804,27.037747830471503],[84.92184226102934,27.037753765853687],[84.92209904309165,27.037794964184975],[84.92325646719544,27.037841536058306],[84.92370756966356,27.037748256362107],[84.9240930866663,27.037732187573326],[84.92428565716385,27.03777151119021],[84.9249934170871,27.03777819778686],[84.92518655038577,27.037740810710364],[84.92602285731289,27.037746559313266],[84.92627970120529,27.037787757704635],[84.92743725105271,27.037775561066795],[84.92820897146551,27.037820133879872],[84.92846581622732,27.03786133186765],[84.92878624655982,27.037978865066066],[84.92932006876714,27.03821230649209],[84.92908685699105,27.037902342042177],[84.92876905099541,27.03749816196857],[84.9281523844258,27.036996641573722],[84.92804665685138,27.03686191494565],[84.92755728807816,27.03643629224492],[84.92775079637055,27.0364395426596],[84.92800839056109,27.036345263304018],[84.9291029166722,27.03625679562713],[84.92974777742579,27.036051607195976],[84.93052118505148,27.035922379031785],[84.93071519360176,27.03582853778603],[84.93084355287617,27.035809656740685],[84.93123113199621,27.035660361364933],[84.93187505489274,27.03556801873698],[84.93264883778434,27.03540265463267],[84.93297001803876,27.035384710141273],[84.9333570343355,27.035312187005882],[84.93516256915291,27.03479002599826],[84.93552839008078,27.03467699109192],[84.93542153832571,27.034637105540785],[84.93510198276152,27.034406726038267],[84.93433344873122,27.034055188756252],[84.93347763428599,27.033896145954746],[84.93294349980053,27.033701027909373],[84.93236791177914,27.033370808181676],[84.93217684072012,27.033198258630286],[84.93187841741751,27.03300389017486],[84.93162332331349,27.03279114109171],[84.93153935403548,27.032617903561366],[84.93156267333164,27.032389773319935],[84.93167121236392,27.032255858845993],[84.93218808795822,27.0319725854878],[84.93334938727511,27.031655612672896],[84.93367219269648,27.031522572141373],[84.93451268612645,27.031051993221002],[84.9348368658224,27.030785725744114],[84.93499348453435,27.03059510656031],[84.93511890546668,27.03044306132464],[84.93511902956304,27.030386606992128],[84.93505669388134,27.03023124963809],[84.93477965390711,27.030039006513956],[84.93428853484919,27.029784934094653],[84.9340131192949,27.02947753244219],[84.93296954534364,27.028780269728742],[84.93277841180772,27.028607719364576],[84.931181820219,27.027408499194063],[84.93086245141147,27.027196187958346],[84.93034982561994,27.027001007841314],[84.9300510897452,27.02684490056094],[84.92998731676798,27.026825020053934],[84.92979455772877,27.026765315660647],[84.92964418979054,27.0267843845908],[84.92913062690882,27.026704300981418],[84.92878781304393,27.026702051271194],[84.92827231196009,27.026773137219962],[84.92790667807839,27.026906489797895],[84.92758181114792,27.02724721641571],[84.92734047593919,27.02785820954849],[84.92720936618193,27.028087089840408],[84.92694871033169,27.028429629333925],[84.92677583521024,27.028620373277406],[84.92649473296679,27.028847942093424],[84.92599861555662,27.029131151697175],[84.92556933276944,27.029185857486667],[84.92546266916216,27.029166226900735],[84.92531317562853,27.029067886524494],[84.9251856912673,27.02897167080973],[84.92442246905746,27.028105419875306],[84.92413148568205,27.027667229966664],[84.92378123358421,27.02790880227928],[84.92306909972386,27.028362626106688],[84.92267983318364,27.028762494707372],[84.92230988773015,27.0292953407164],[84.92202784865158,27.029638005476908],[84.92187404437345,27.030020555477734],[84.92172186530041,27.030285571914863],[84.92157174766808,27.030266254272483],[84.92146545780082,27.030149532800912],[84.92133966032108,27.029861448433895],[84.92129951869184,27.02957505200604],[84.92117440868611,27.02922826295541],[84.92113333026593,27.02905702532009],[84.92115540059406,27.028980127727742],[84.92126393942827,27.02884615062441],[84.92128900954117,27.028444281976157],[84.9211442660432,27.027928381621358],[84.92104110106521,27.027486627341307],[84.92089373311575,27.027198667594334],[84.92078950519823,27.026928464168606],[84.9205529195713,27.027042935884634],[84.92020673168894,27.027327333774732],[84.91977351280829,27.027822231328944],[84.91940494229183,27.028219661358452],[84.91927608281117,27.02825886142092],[84.9190386214173,27.0284274119012],[84.91878040202472,27.028521690568223],[84.91843552698737,27.02872931552549],[84.91817686960567,27.028843850023975],[84.917617540264,27.0290303446884],[84.9175529548274,27.029069169281026],[84.91723058700723,27.02918189091213],[84.91637120989941,27.02934775560616],[84.91568489665318,27.02941765395902],[84.91544855971318,27.02941703050994],[84.91502215219242,27.029203031344046],[84.91485102676707,27.02916352066749],[84.91480019526021,27.029111943114927],[84.91468133838313,27.028988595304952],[84.91442618168459,27.028834488428423],[84.91391430486145,27.028659501804768],[84.91305917831083,27.028577043047118],[84.91254655222195,27.02845851088947],[84.91235429389623,27.02838073810569],[84.9122270597,27.02830252827179],[84.91214234065632,27.028187995126498],[84.91199584770968,27.027841331654212],[84.91176319862653,27.027592321969077],[84.91165540939517,27.02766746962909],[84.91150272975406,27.027952866445503],[84.91104981499822,27.028353110392647],[84.91096215922433,27.028504842885717],[84.9108738783268,27.02881018373589],[84.91091158270261,27.02934715308108],[84.91082405103192,27.02949888558311],[84.91045898055835,27.029629988483038],[84.9103719487021,27.02978403423711],[84.91037057403503,27.029937516577114],[84.9106242314544,27.030283492262562],[84.91081517751996,27.03043797464489],[84.91151606312083,27.03099769814174],[84.911771219949,27.03115180571645],[84.91202725164183,27.031249520226126],[84.9122180095267,27.03138593452134],[84.91249592442603,27.03146314359649],[84.91260177588885,27.031541416199566],[84.91259990127354,27.031771671790093],[84.91253300309869,27.032000051211032],[84.912446659947,27.032075199182138],[84.91231617542904,27.032303953717502],[84.91233555826156,27.03251601651223],[84.91237801207463,27.03255409006411],[84.91263410647132,27.032651742482393],[84.91295484949654,27.0326541792097],[84.9132116935559,27.0326931274611],[84.91368036650215,27.032906750301695],[84.9137432023777,27.033041789856146],[84.91392839965279,27.033808014205526],[84.91402344040834,27.035035312461215],[84.91408233976327,27.035533771203404],[84.91403657505649,27.035877122152286],[84.91411910645068,27.03618358728521],[84.91420226382887,27.03641559232207],[84.91470745345497,27.037317354676606],[84.91480042621149,27.03751541250442],[84.91495886099715,27.03785519940104],[84.91506152667179,27.03831502200694],[84.91562104303452,27.03814884559911]]]}},{"type":"Feature","properties":{"province":"Madhesh Province","district":"Bara","municipality":"Prasauni Rural Municipality","ward":"5","wardNumber":5,"sourceMunicipality":"Prasauni","sourceType":"Gaunpalika"},"geometry":{"type":"Polygon","coordinates":[[[84.97323097296764,27.06901604465644],[84.97331656746985,27.06899735142289],[84.97348744260782,27.06900072638248],[84.97391309881398,27.0690970651069],[84.97408491184206,27.06906199196049],[84.97421395865206,27.068966337808142],[84.97453901216781,27.06843361801712],[84.97481761470003,27.068359469780138],[84.9752437713974,27.068437740318878],[84.97552131119838,27.068458433076874],[84.97556451385941,27.068421985117464],[84.97541627116573,27.06826725239465],[84.97493015191483,27.06774697644834],[84.97408383689304,27.06689966896381],[84.9736616166183,27.06640152424858],[84.97345091298612,27.066093747135422],[84.9733884519539,27.06594070305924],[84.97341164638951,27.065710322085966],[84.97339113822039,27.06567206137012],[84.97352368410125,27.065176852769],[84.97369693411443,27.064947659842964],[84.97408501249409,27.064568046053598],[84.97436623825661,27.064207188730684],[84.97471267548673,27.063674405780702],[84.97490855682,27.0632937933746],[84.97507999483166,27.0632181447229],[84.9754430650887,27.06322014407004],[84.97586972257457,27.06328034713185],[84.97638266113387,27.063265528060487],[84.97659648909531,27.06320982377711],[84.97657779285244,27.062941369694325],[84.9765158938868,27.062711614660547],[84.97638928465044,27.06257701303859],[84.97626311188509,27.062345446069703],[84.97618039253148,27.06203904328231],[84.97618401623878,27.061657556091543],[84.97640134418813,27.061276818678998],[84.97681011723549,27.060953472191407],[84.97704795341706,27.06068776748869],[84.97702850746882,27.06047795638234],[84.97690289734814,27.060171803768668],[84.97678041180806,27.059635521986962],[84.9763359331756,27.05919170625628],[84.97591158822452,27.058883180173773],[84.97534050055272,27.0583634669925],[84.97521339134359,27.05824699603461],[84.97457959217944,27.05747946043335],[84.97420263718494,27.056748497184373],[84.97418181678476,27.056671912408458],[84.97424640196843,27.056635339042675],[84.97450312160356,27.056579383746197],[84.97469650397667,27.056426775511536],[84.97486856651715,27.056353378249717],[84.97589500509902,27.056167944127903],[84.9761519731745,27.056073665995225],[84.97717841243384,27.055967129523786],[84.9776061938804,27.055873913058054],[84.97803310084626,27.055895729795342],[84.97880025811376,27.056055148239757],[84.97914225844428,27.05601901154331],[84.979589922954,27.056117351073674],[84.98020983730687,27.056083713163225],[84.98018901756228,27.056007190737922],[84.98027517350617,27.055911725116665],[84.98027604789817,27.055796566063663],[84.98019232877397,27.055661714186876],[84.97951157740353,27.055370881967786],[84.97919302241476,27.05519701957488],[84.97891766956695,27.054984458492545],[84.97870652869126,27.054696999630284],[84.97853627769447,27.05461922725848],[84.97810968365243,27.054558961631507],[84.97785321530088,27.054632985098],[84.97742568367157,27.054687877848135],[84.97716808910141,27.054782219483386],[84.9759746504453,27.054524211184482],[84.97546402375771,27.0543674799723],[84.97520793000153,27.054346662663452],[84.9747816478762,27.054248072884928],[84.97433473299901,27.05409315401399],[84.97410095927442,27.05395717742245],[84.97365779383517,27.053438777042047],[84.9734031990165,27.05322609063305],[84.97336130852258,27.053188080094372],[84.9732543315097,27.053206835637656],[84.97301843287873,27.053262665889147],[84.97242058901652,27.05329611625249],[84.9722497768484,27.05329505400858],[84.97096824349273,27.053342323614483],[84.97002764900803,27.053393967626537],[84.96942849274984,27.053562895419308],[84.96891524203936,27.05361603753048],[84.96857305422819,27.053690686367904],[84.96788749166487,27.053934636366293],[84.96771667924607,27.053931323228753],[84.96686442790299,27.053697945824943],[84.96639619273445,27.053558969997162],[84.96590682427609,27.053383983038355],[84.9647134472206,27.053128100743212],[84.96300988184333,27.052618395279236],[84.96224378706994,27.052364074104776],[84.9617325992118,27.052207343218456],[84.96105197231131,27.051916322700617],[84.96022354089017,27.05145250312566],[84.95975705529153,27.051141975684658],[84.95922779659598,27.050642206399786],[84.9589101776943,27.050353185067298],[84.95876049872346,27.050390321804134],[84.95835247451781,27.050654964372672],[84.95809456825805,27.0507876286853],[84.95792344401423,27.050824953342953],[84.95724031787444,27.05083858492865],[84.95698459854844,27.05077944405972],[84.95683566821725,27.050683353934804],[84.95668811322004,27.050528621625936],[84.9564820361943,27.050234348165755],[84.95635061168517,27.050047918997727],[84.95615960359183,27.049816727235495],[84.9557299464339,27.0499098812819],[84.95495585111638,27.050192842971157],[84.95426866259358,27.05032163402667],[84.95375266098317,27.050489935380337],[84.95263600301413,27.05073001063395],[84.95212056454906,27.05082154011434],[84.95134865612746,27.050835797607718],[84.95091893633153,27.050928951967514],[84.95006068460314,27.05101829409254],[84.94982509781548,27.050958965063046],[84.94962990280575,27.051206289183682],[84.9491951214612,27.051893179699697],[84.94910759072513,27.05212174762578],[84.94886363123557,27.05309622263917],[84.9487762249585,27.05326833631286],[84.94866649863378,27.053553482802066],[84.94860078829134,27.053763857446356],[84.94844629742285,27.054279447372334],[84.94842060262611,27.054740082828875],[84.94846143157667,27.05502654205119],[84.94865062842216,27.055487988716525],[84.94875723049653,27.0555640104564],[84.94888546496966,27.05560377233999],[84.94914274660871,27.055547816896105],[84.9494016538589,27.05537907906842],[84.9496613098747,27.05514932218441],[84.95052593544328,27.054315136482888],[84.95071938087385,27.054239300637747],[84.95097672546372,27.054260118043278],[84.95106213208666,27.05429794166146],[84.95146703258582,27.05455026386273],[84.951679798931,27.054742944591695],[84.95201855038073,27.05514693641541],[84.95267623289409,27.05578124502597],[84.953120148206,27.056319901340906],[84.95360795461559,27.05683798963324],[84.9539870973107,27.0574719239428],[84.95413540328708,27.057644723564007],[84.95434573165197,27.057990887350485],[84.9544293270924,27.058258965704834],[84.95459688975825,27.05862344725712],[84.9548491098251,27.059082206156344],[84.95505837747004,27.0595999192151],[84.95535273858412,27.06011932065461],[84.95537249585593,27.060290746576136],[84.95537199685877,27.06038552401032],[84.95534780134925,27.060654291138864],[84.95528259087841,27.06076763666461],[84.95515310623085,27.060881358220875],[84.95489451196637,27.061013961197926],[84.954100784163,27.06114356495814],[84.9537134551614,27.061331309097266],[84.95345473653559,27.061522616942863],[84.9532385961095,27.06174980908874],[84.95319464303738,27.06184489973866],[84.95321471342447,27.061980189616133],[84.95329874517049,27.06215117745181],[84.95334069880684,27.062266023275292],[84.9534891913378,27.062382369012166],[84.95355240296097,27.062479022172443],[84.95372265304954,27.062633566950307],[84.95440396796951,27.06299910913665],[84.95474534393158,27.06311645470792],[84.95500218811941,27.063155339343975],[84.95517243921505,27.063233174491153],[84.95560047184063,27.063313758679048],[84.9559410353111,27.06348749577936],[84.9561326061792,27.063621596926847],[84.95617499697423,27.063641664855695],[84.95619656719506,27.06365954526336],[84.95632392704307,27.06373762969228],[84.95648179665497,27.063632786426144],[84.9564963013872,27.063623658075187],[84.95675345804402,27.06354969807513],[84.95718161431732,27.063418094863746],[84.95743908366086,27.06330574826727],[84.95784766967252,27.063020787917395],[84.95801910714138,27.062945139988866],[84.95844707605863,27.062872241733654],[84.95878870126694,27.06287442786362],[84.9597270465678,27.06299671005096],[84.96023867259943,27.0631150554718],[84.96074942294568,27.06328991669363],[84.96089841635391,27.063385943903484],[84.9609404938943,27.06344433613947],[84.96093905688696,27.063577500377104],[84.9606155647749,27.06392054038312],[84.96052797170316,27.0641491702738],[84.96054785510933,27.0642640790473],[84.96071729281107,27.064398367731407],[84.96103753555902,27.0644006793403],[84.9612947543228,27.064326718766353],[84.96140204368247,27.064269514540584],[84.96148957406426,27.06404094686864],[84.96168383152221,27.063832009054998],[84.96200576195739,27.06366277116841],[84.96217669923678,27.063681900941805],[84.96232506714395,27.063780179005278],[84.96240866158021,27.063971484676397],[84.96240772423162,27.064086581082577],[84.96221121679044,27.064543904220585],[84.96218733382747,27.064772033210712],[84.962227725644,27.065001975918968],[84.96237440597706,27.065346326632888],[84.96245862465003,27.06546311058443],[84.96258548483544,27.065559263317244],[84.96267089075899,27.06559708681181],[84.9627988752481,27.065598461395627],[84.96296956365055,27.065581455882832],[84.96314162565413,27.06550580737183],[84.96348587531031,27.065221285040057],[84.96357146924353,27.06520265373572],[84.96421745383194,27.064672307681246],[84.96438882879855,27.06459665969013],[84.96464542278608,27.064599409487087],[84.96515498644536,27.064850918746366],[84.9651976898545,27.064907059932594],[84.96527965935061,27.065272166796518],[84.96544722262304,27.065559938279396],[84.96612509949881,27.06617599157574],[84.96684674203539,27.06660211378603],[84.967184742607,27.06698578735827],[84.96741820497503,27.067160212488385],[84.96748191528147,27.0671620249705],[84.96799547802631,27.067068183139657],[84.96825207252516,27.0670709325578],[84.9689336986933,27.067246793488152],[84.96910451143768,27.06724791802364],[84.96961482525637,27.06750167790558],[84.96970035626771,27.067483046907917],[84.96974337191358,27.067424029689303],[84.96985366000071,27.067062172880004],[84.96998270697296,27.066968707470398],[84.97013257479081,27.066949638707985],[84.97030282556905,27.067027473236706],[84.97040798935772,27.067162137419277],[84.97051196623998,27.067450346707194],[84.97042274875199,27.067850401654503],[84.97054817104977,27.068138548335423],[84.97063282800211,27.068235014364397],[84.97116389869761,27.068486398409558],[84.97133439984844,27.068525846774662],[84.9715060242313,27.0684704548024],[84.97193674330472,27.068128914757633],[84.97219271251842,27.068129414057125],[84.97229850188836,27.068264077823372],[84.97231838454098,27.06837904872578],[84.97246600270586,27.068610491214642],[84.97259142551262,27.068898575428147],[84.97271766015108,27.069071500987455],[84.97282363660167,27.069147522555532],[84.97297325471351,27.06916902858116],[84.97323097296764,27.06901604465644]]]}},{"type":"Feature","properties":{"province":"Madhesh Province","district":"Bara","municipality":"Prasauni Rural Municipality","ward":"6","wardNumber":6,"sourceMunicipality":"Prasauni","sourceType":"Gaunpalika"},"geometry":{"type":"Polygon","coordinates":[[[84.97096824349273,27.053342323614483],[84.9722497768484,27.05329505400858],[84.97242058901652,27.05329611625249],[84.97301843287873,27.053262665889147],[84.9732543315097,27.053206835637656],[84.97336130852258,27.053188080094372],[84.97308608074398,27.05291912742461],[84.97283286100766,27.052573276974332],[84.9727700874651,27.05245630530354],[84.97272963418177,27.052226362377155],[84.9727321963913,27.051939716245904],[84.97284192193436,27.051654507000315],[84.97297153127788,27.051484331079855],[84.97305906240366,27.051253450559116],[84.97318992154722,27.051006564416703],[84.97347070972206,27.05068409324016],[84.97357968591528,27.050455401193627],[84.97360200601713,27.05034011670742],[84.97358312240397,27.050053594882083],[84.97352128634213,27.049823777838984],[84.97351959836054,27.049780890260894],[84.97350421497732,27.049307001142328],[84.97354885523727,27.04907868388599],[84.97363651057235,27.048793724558163],[84.97376793101222,27.048393293982798],[84.97381257167463,27.048162789004575],[84.97381438333436,27.047934784061642],[84.97377318001206,27.047761295890677],[84.97322509812709,27.04683965234088],[84.97305522344571,27.046725681971697],[84.97271478531496,27.04657007514232],[84.972374222197,27.046470859958802],[84.97228869035621,27.04648949141602],[84.97190342454046,27.046544071469945],[84.97186047135234,27.046600900377477],[84.97175337029863,27.046678298895387],[84.97124074459968,27.046654731403674],[84.97055605656863,27.046842352876634],[84.97021274450607,27.047011716661608],[84.96999854130831,27.04716219911521],[84.96971756598036,27.047543311816185],[84.96928422322387,27.048304725365803],[84.9690430761964,27.04906701317902],[84.96892885060691,27.049781098592867],[84.96890859411981,27.049907635868948],[84.96875429001699,27.05036464514956],[84.968709774806,27.050536508963827],[84.96862343114108,27.050688303728677],[84.96838653268611,27.050838911532207],[84.96823710297257,27.05083766162715],[84.96817332988502,27.050820094855602],[84.96798275844979,27.050645293853382],[84.9674766941163,27.049991978963448],[84.96741335851259,27.04995403039628],[84.96727193044732,27.04978123081092],[84.96715982623104,27.049646566241304],[84.96682019968425,27.04935773274542],[84.96654509669698,27.04903007544155],[84.96612112678278,27.048683162976204],[84.96586628229373,27.04850886260823],[84.96544093792878,27.048297364650388],[84.96522892210515,27.04812275229938],[84.96501721826037,27.047912004136453],[84.9640839966432,27.047121650405],[84.96387247931892,27.046852260206805],[84.96355423658844,27.046563239071975],[84.96325962590791,27.046084536647772],[84.96321779721062,27.045987758975283],[84.96279582631142,27.04535413709356],[84.9626053801818,27.045122944767385],[84.96239448847828,27.044779032091398],[84.96228888664628,27.044662373258305],[84.96203647854597,27.04418335883248],[84.96186766635418,27.04397235951127],[84.96161232139198,27.04381606467253],[84.96127107111465,27.04377555437739],[84.96058632105544,27.043963050159586],[84.96033028937514,27.043942232778242],[84.9597335691398,27.043804132239472],[84.95939394335542,27.04359200857283],[84.95894715316251,27.043378322741784],[84.95877671547828,27.043338874209955],[84.95852018389914,27.043336124963325],[84.95809240275169,27.0434294038975],[84.9576643716277,27.043560944690256],[84.95749249650652,27.04365466014803],[84.95723583971083,27.043710552958043],[84.95648212803317,27.04409035520867],[84.95616201243807,27.044390507757747],[84.95599007428441,27.044484223653118],[84.95564482481608,27.04478675097823],[84.95540830074539,27.044917040081533],[84.95512788716195,27.04514467141268],[84.95439305876894,27.04595997652097],[84.95413421610395,27.04620548762197],[84.95379015294134,27.04635684543725],[84.95334011237844,27.046350845540413],[84.95336074628196,27.04648613551932],[84.95348754403601,27.046715514873824],[84.9538907568436,27.047159706551025],[84.95491176027171,27.047972065836788],[84.95548534952958,27.048568613391666],[84.95592982805158,27.04918404250563],[84.95611902463072,27.04956871699547],[84.95615360112564,27.0497807169021],[84.95615960359183,27.049816727235495],[84.95635061168517,27.050047918997727],[84.9564820361943,27.050234348165755],[84.95668811322004,27.050528621625936],[84.95683566821725,27.050683353934804],[84.95698459854844,27.05077944405972],[84.95724031787444,27.05083858492865],[84.95792344401423,27.050824953342953],[84.95809456825805,27.0507876286853],[84.95835247451781,27.050654964372672],[84.95876049872346,27.050390321804134],[84.9589101776943,27.050353185067298],[84.95922779659598,27.050642206399786],[84.95975705529153,27.051141975684658],[84.96022354089017,27.05145250312566],[84.96105197231131,27.051916322700617],[84.9617325992118,27.052207343218456],[84.96224378706994,27.052364074104776],[84.96300988184333,27.052618395279236],[84.9647134472206,27.053128100743212],[84.96590682427609,27.053383983038355],[84.96639619273445,27.053558969997162],[84.96686442790299,27.053697945824943],[84.96771667924607,27.053931323228753],[84.96788749166487,27.053934636366293],[84.96857305422819,27.053690686367904],[84.96891524203936,27.05361603753048],[84.96942849274984,27.053562895419308],[84.97002764900803,27.053393967626537],[84.97096824349273,27.053342323614483]]]}},{"type":"Feature","properties":{"province":"Madhesh Province","district":"Bara","municipality":"Prasauni Rural Municipality","ward":"7","wardNumber":7,"sourceMunicipality":"Prasauni","sourceType":"Gaunpalika"},"geometry":{"type":"Polygon","coordinates":[[[84.9668123868581,27.08393939641629],[84.96691986380162,27.083900321265208],[84.96773322495356,27.083906007625107],[84.96824703842465,27.083832483311074],[84.96841797603369,27.083851612945374],[84.96899587580334,27.083818288122636],[84.96925278234195,27.083780400753017],[84.96985231479704,27.08378302445835],[84.97027934668108,27.083881676551947],[84.97070712948809,27.083921560790824],[84.97104825437088,27.084000458295993],[84.9716471001225,27.084061785334523],[84.97216091403432,27.0840627213398],[84.97241675767748,27.08412192483239],[84.97267335161813,27.084124674438872],[84.97335735368154,27.08426208747716],[84.97369947941884,27.084243955428526],[84.97430007463097,27.084133669883126],[84.97447263674728,27.083904477217946],[84.97449489404232,27.083771187837215],[84.97443230801291,27.0836181429769],[84.9740497904129,27.083273168682542],[84.97405160246268,27.08304291311171],[84.9741820232271,27.082814095576804],[84.97461380467624,27.082300942461483],[84.97478711666456,27.081997290396018],[84.97506709250837,27.081787664753],[84.97532456139005,27.0816753177137],[84.975625483661,27.08148588573076],[84.97685411625238,27.080384869156497],[84.97700460849202,27.080291278644797],[84.9774332647061,27.08014148320238],[84.9777760786153,27.080123413427696],[84.97803254783665,27.08018255463601],[84.97828776664693,27.080316218368452],[84.97839374393708,27.08047120067139],[84.97856162056625,27.08085374949381],[84.97851698122871,27.081158777395146],[84.9786665987282,27.081178032499718],[84.97877345030102,27.081141145794778],[84.97890243436534,27.081045429956323],[84.97884072279358,27.080759221002943],[84.97882227578724,27.080377921392206],[84.97895213553531,27.080225813523434],[84.97903810414081,27.080186801685905],[84.97916608890989,27.08018817638156],[84.97922961262341,27.08024644370056],[84.97931433240029,27.080417305885284],[84.97942005845255,27.08053402713069],[84.97952734873434,27.08055359490648],[84.97961275453494,27.080514583036592],[84.97967771524782,27.080439685552676],[84.97989435525172,27.080058948038744],[84.98000508065303,27.07960225097708],[84.9800919874584,27.07944814257631],[84.98028611963558,27.079221074715765],[84.98074765546828,27.077714567906114],[84.9809209047434,27.0774109153124],[84.98111485035719,27.07724036444974],[84.98135131083049,27.077107699405982],[84.9814815453001,27.076860813263195],[84.9814624741655,27.076553910716182],[84.98129640943978,27.075943419109084],[84.98119636801552,27.075025462858946],[84.98088437185758,27.073878752574146],[84.9804640874771,27.07295854578294],[84.98020899199942,27.072691719208386],[84.97993288995114,27.07247922001388],[84.9797633894181,27.072268221308388],[84.97965828588224,27.072000393152877],[84.97972349683502,27.071887046777718],[84.98000241160528,27.07177226210529],[84.98008844306122,27.07173556329132],[84.98051659985256,27.071680608190125],[84.9808597879204,27.07156763523101],[84.98171897515572,27.071132753781107],[84.98223310100992,27.071020843996614],[84.9829181027658,27.071007024078767],[84.98377222931238,27.0712199576775],[84.98411335575865,27.071375564910024],[84.98443247351086,27.071605818322638],[84.98500474977982,27.0722405643855],[84.98517443842563,27.07246963127682],[84.98532193197157,27.072757465217677],[84.98549087083958,27.073045236833064],[84.98570338737026,27.07319721817403],[84.98598080149769,27.07327648963894],[84.98632167828714,27.073468232426883],[84.986936532612,27.0742177618682],[84.98706364240671,27.07433198229433],[84.98719118990306,27.07442813524664],[84.98744734725913,27.074525662698292],[84.98770381674497,27.07458255370195],[84.98813141117624,27.07460437044542],[84.98830197349105,27.07464381913348],[84.98855825629084,27.074759351935274],[84.98900373484608,27.0752392401521],[84.98957438634571,27.076119996879203],[84.98991476331973,27.076390762532913],[84.99017042032285,27.07650629486449],[84.99068273400025,27.07662457764491],[84.9910240479563,27.0767981897742],[84.99127964255193,27.076970238985346],[84.991405815159,27.077199555611134],[84.99142638585784,27.077314527416796],[84.99151123038783,27.077428998040734],[84.99172380891162,27.07758329245788],[84.99176651238893,27.07764162175356],[84.99208725477489,27.07762349001061],[84.9924298805747,27.077587290170506],[84.99268734957393,27.077474881098986],[84.99320153736788,27.077380975779928],[84.99380075710533,27.07734740061298],[84.99422991425274,27.07725405864289],[84.99491585251148,27.077048308059503],[84.99551507250071,27.077012419745667],[84.99620057335622,27.076901508728948],[84.99637263557894,27.076825798091594],[84.99662935505327,27.07676978108294],[84.99722813803999,27.076830983867737],[84.99816385714706,27.076925944703262],[84.99950409883573,27.076927689651882],[85.00013795703255,27.077031466731672],[85.0002651913417,27.07709379709439],[85.00027481891506,27.076897363987307],[85.00017127895222,27.076600152584252],[85.00010856759407,27.07642010002082],[84.99969297346401,27.075691637607683],[84.99873924236834,27.074569874862874],[84.99816377565948,27.073648544355052],[84.99800140367232,27.07360909545677],[84.9975990022702,27.073090570597294],[84.99721723465771,27.07268701585747],[84.99681545946393,27.07209396817828],[84.99622211266063,27.071364631639312],[84.99620122894859,27.071288046565808],[84.99603154025571,27.071058980723297],[84.99594819665478,27.07082935058509],[84.9956528346465,27.070292006381823],[84.99539873926354,27.06992815054037],[84.99499796312108,27.069163552625863],[84.99457480466961,27.06856844281363],[84.99421429485886,27.068146632610492],[84.9937504319216,27.067303512335425],[84.99317740616469,27.06672747007416],[84.99300684339349,27.06661356249003],[84.99277375554445,27.066344359474886],[84.99205129927523,27.06569042031529],[84.99156361712988,27.06513407195247],[84.99124681063924,27.064599103424577],[84.99105986288714,27.063909777226467],[84.99084965837343,27.063450830707723],[84.99040467924473,27.062876101225118],[84.9903837961915,27.062799515985294],[84.99049108494175,27.062742311545318],[84.99081357802395,27.062573010041014],[84.9911582021809,27.06226810636875],[84.99133126438085,27.062020845715487],[84.99122472549713,27.06194488635085],[84.99103346656739,27.061772398885957],[84.99052302692004,27.06142392367161],[84.98975505616686,27.061115586276877],[84.98945713350021,27.060923594093026],[84.98943612527093,27.060903400898788],[84.98939342200543,27.0608450083115],[84.9891594602267,27.060693214663463],[84.9886705912323,27.06028809789177],[84.98818140905985,27.059923618092846],[84.98773561911909,27.0596152794053],[84.98741806381503,27.059344388618225],[84.98693181950539,27.058806107590012],[84.98680489746906,27.058709954857957],[84.9865723104298,27.058420433731225],[84.98621742516572,27.057558431727998],[84.98592281520078,27.05709779824063],[84.98579845435006,27.05671493580401],[84.98560863323945,27.05642510168619],[84.98528851597388,27.056425102755085],[84.98486042193991,27.056554518481423],[84.98432447585388,27.056743326106503],[84.98383298411832,27.056834792103274],[84.98331910834108,27.0569467653714],[84.98218625587111,27.0570720572851],[84.98167388052134,27.057010166558406],[84.98133300493724,27.056951650723988],[84.98056491021751,27.05690732813674],[84.98047950377239,27.05686956782351],[84.98033113630149,27.056773539908498],[84.98016201076902,27.056598676764956],[84.98031543920672,27.056198058207237],[84.98020983730687,27.056083713163225],[84.979589922954,27.056117351073674],[84.97914225844428,27.05601901154331],[84.97880025811376,27.056055148239757],[84.97803310084626,27.055895729795342],[84.9776061938804,27.055873913058054],[84.97717841243384,27.055967129523786],[84.9761519731745,27.056073665995225],[84.97589500509902,27.056167944127903],[84.97486856651715,27.056353378249717],[84.97469650397667,27.056426775511536],[84.97450312160356,27.056579383746197],[84.97424640196843,27.056635339042675],[84.97418181678476,27.056671912408458],[84.97420263718494,27.056748497184373],[84.97457959217944,27.05747946043335],[84.97521339134359,27.05824699603461],[84.97534050055272,27.0583634669925],[84.97591158822452,27.058883180173773],[84.9763359331756,27.05919170625628],[84.97678041180806,27.059635521986962],[84.97690289734814,27.060171803768668],[84.97702850746882,27.06047795638234],[84.97704795341706,27.06068776748869],[84.97681011723549,27.060953472191407],[84.97640134418813,27.061276818678998],[84.97618401623878,27.061657556091543],[84.97618039253148,27.06203904328231],[84.97626311188509,27.062345446069703],[84.97638928465044,27.06257701303859],[84.9765158938868,27.062711614660547],[84.97657779285244,27.062941369694325],[84.97659648909531,27.06320982377711],[84.97638266113387,27.063265528060487],[84.97586972257457,27.06328034713185],[84.9754430650887,27.06322014407004],[84.97507999483166,27.0632181447229],[84.97490855682,27.0632937933746],[84.97471267548673,27.063674405780702],[84.97436623825661,27.064207188730684],[84.97408501249409,27.064568046053598],[84.97369693411443,27.064947659842964],[84.97352368410125,27.065176852769],[84.97339113822039,27.06567206137012],[84.97341164638951,27.065710322085966],[84.9733884519539,27.06594070305924],[84.97345091298612,27.066093747135422],[84.9736616166183,27.06640152424858],[84.97408383689304,27.06689966896381],[84.97493015191483,27.06774697644834],[84.97541627116573,27.06826725239465],[84.97556451385941,27.068421985117464],[84.97552131119838,27.068458433076874],[84.9752437713974,27.068437740318878],[84.97481761470003,27.068359469780138],[84.97453901216781,27.06843361801712],[84.97421395865206,27.068966337808142],[84.97408491184206,27.06906199196049],[84.97391309881398,27.0690970651069],[84.97348744260782,27.06900072638248],[84.97331656746985,27.06899735142289],[84.97323097296764,27.06901604465644],[84.97297325471351,27.06916902858116],[84.97282363660167,27.069147522555532],[84.97271766015108,27.069071500987455],[84.97259142551262,27.068898575428147],[84.97246600270586,27.068610491214642],[84.97231838454098,27.06837904872578],[84.97229850188836,27.068264077823372],[84.97219271251842,27.068129414057125],[84.97193674330472,27.068128914757633],[84.9715060242313,27.0684704548024],[84.97133439984844,27.068525846774662],[84.97116389869761,27.068486398409558],[84.97063282800211,27.068235014364397],[84.97054817104977,27.068138548335423],[84.97042274875199,27.067850401654503],[84.97051196623998,27.067450346707194],[84.97040798935772,27.067162137419277],[84.97030282556905,27.067027473236706],[84.97013257479081,27.066949638707985],[84.96998270697296,27.066968707470398],[84.96985366000071,27.067062172880004],[84.96974337191358,27.067424029689303],[84.96970035626771,27.067483046907917],[84.96961482525637,27.06750167790558],[84.96910451143768,27.06724791802364],[84.9689336986933,27.067246793488152],[84.96825207252516,27.0670709325578],[84.96799547802631,27.067068183139657],[84.96748191528147,27.0671620249705],[84.96741820497503,27.067160212488385],[84.967184742607,27.06698578735827],[84.96684674203539,27.06660211378603],[84.96612509949881,27.06617599157574],[84.96544722262304,27.065559938279396],[84.96527965935061,27.065272166796518],[84.9651976898545,27.064907059932594],[84.96515498644536,27.064850918746366],[84.96464542278608,27.064599409487087],[84.96438882879855,27.06459665969013],[84.96421745383194,27.064672307681246],[84.96357146924353,27.06520265373572],[84.96348587531031,27.065221285040057],[84.96314162565413,27.06550580737183],[84.96296956365055,27.065581455882832],[84.9627988752481,27.065598461395627],[84.96267089075899,27.06559708681181],[84.96258548483544,27.065559263317244],[84.96245862465003,27.06546311058443],[84.96237440597706,27.065346326632888],[84.962227725644,27.065001975918968],[84.96218733382747,27.064772033210712],[84.96221121679044,27.064543904220585],[84.96240772423162,27.064086581082577],[84.96240866158021,27.063971484676397],[84.96232506714395,27.063780179005278],[84.96217669923678,27.063681900941805],[84.96200576195739,27.06366277116841],[84.96168383152221,27.063832009054998],[84.96148957406426,27.06404094686864],[84.96140204368247,27.064269514540584],[84.9612947543228,27.064326718766353],[84.96103753555902,27.0644006793403],[84.96071729281107,27.064398367731407],[84.96054785510933,27.0642640790473],[84.96052797170316,27.0641491702738],[84.9606155647749,27.06392054038312],[84.96093905688696,27.063577500377104],[84.9609404938943,27.06344433613947],[84.96089841635391,27.063385943903484],[84.96074942294568,27.06328991669363],[84.96023867259943,27.0631150554718],[84.9597270465678,27.06299671005096],[84.95878870126694,27.06287442786362],[84.95844707605863,27.062872241733654],[84.95801910714138,27.062945139988866],[84.95784766967252,27.063020787917395],[84.95743908366086,27.06330574826727],[84.95718161431732,27.063418094863746],[84.95675345804402,27.06354969807513],[84.9564963013872,27.063623658075187],[84.95648179665497,27.063632786426144],[84.95632392704307,27.06373762969228],[84.95634549682688,27.063755572376245],[84.95648211081786,27.06388104693795],[84.95653606839576,27.06393037340457],[84.9566205999718,27.06400652031335],[84.95672607684284,27.064179633132028],[84.95712372741062,27.064984931104163],[84.95735350187124,27.06554090582745],[84.95745529144108,27.066020983367732],[84.95749474597052,27.066363771379606],[84.95755689500513,27.066557515968597],[84.9575555196324,27.06669067977287],[84.95763892645516,27.066938315303428],[84.95778498191335,27.067284978393356],[84.95807953006806,27.067745675068778],[84.95888432899115,27.06840155172899],[84.9591181660087,27.0685376538091],[84.95951969070664,27.068979531711168],[84.95998692581536,27.06928780812261],[84.96066411530113,27.06990392298025],[84.96128109396108,27.070177313358855],[84.96170650018489,27.070314351925614],[84.96204756363701,27.070393248397185],[84.96256025189706,27.070414565293518],[84.96273081475601,27.070454013729695],[84.96290056527754,27.07055216676638],[84.96302717503275,27.070686767885462],[84.96319617572505,27.070915834503783],[84.96325757425133,27.0711659078832],[84.96327639561318,27.071452429335128],[84.9631624820463,27.07213938147253],[84.96285624941048,27.072884101830002],[84.96285562397753,27.072960874206004],[84.96281260907317,27.073017578969594],[84.96263673502666,27.073531168581372],[84.96258971988534,27.073933161158937],[84.96251676040946,27.07490882334981],[84.96227567553476,27.07553794692919],[84.96209905124032,27.076110241063063],[84.96196856700286,27.07633687067141],[84.96168365435192,27.077081403405256],[84.96163488924273,27.077711463600387],[84.96152585047568,27.077940219186658],[84.96148121112418,27.078170724554756],[84.96099897858936,27.079429034020155],[84.9607742141867,27.080574871318824],[84.96070825339535,27.08074467176185],[84.96066461279503,27.080878148201567],[84.9605730834382,27.08152884024695],[84.96058609221323,27.08238871765619],[84.96070826594482,27.082963448701616],[84.96077172743001,27.083078107353117],[84.96085344640262,27.08342289525173],[84.96091634570362,27.083557872825605],[84.96099981416873,27.083731110592858],[84.9611059163634,27.083827450501992],[84.9613823936541,27.08394292065635],[84.96197948820495,27.08402456739578],[84.96232217618031,27.083988367753538],[84.96292114520382,27.083839821917934],[84.96351861467696,27.083901149809837],[84.96417792204542,27.08432552142249],[84.96456043895854,27.08467049598037],[84.964794962854,27.08474776722724],[84.9649663385825,27.084730886764806],[84.96530958857866,27.084617914343788],[84.96582458948953,27.084390908049862],[84.96608193329833,27.08433495278752],[84.96625399614565,27.084259305552898],[84.96666270732251,27.08397659548836],[84.9668123868581,27.08393939641629]]]}},{"type":"Feature","properties":{"province":"Madhesh Province","district":"Bara","municipality":"Prasauni Rural Municipality","ward":"3","wardNumber":3,"sourceMunicipality":"Prasauni","sourceType":"Gaunpalika"},"geometry":{"type":"Polygon","coordinates":[[[84.92113136048681,27.05892386549921],[84.92164767385405,27.058717303152005],[84.92216205063231,27.058720676695042],[84.92229197238791,27.058645341124457],[84.92242133239742,27.05851136446801],[84.92248610532943,27.0584928579547],[84.92276270805112,27.058705482469712],[84.92284874007602,27.058668783231123],[84.92300129405481,27.058439841032534],[84.92343288835488,27.058116431726177],[84.92381978024012,27.05802365234116],[84.92414208530415,27.05789286227809],[84.92484978181956,27.05787916817115],[84.92502247008223,27.05780352030045],[84.92545362671274,27.05750049176799],[84.92564838422552,27.057271235987823],[84.92569377538547,27.057042981457844],[84.92570659153891,27.056832981901074],[84.92535452318197,27.05656215377878],[84.92516307698989,27.056425739923093],[84.9250995530919,27.056290700103048],[84.92512193588824,27.056177729732088],[84.92529593560013,27.05594859861193],[84.92544842732629,27.055642883686517],[84.92534320051438,27.055413316360205],[84.92517357450484,27.055181999359036],[84.92496249464834,27.05479738709309],[84.92475197772306,27.054336065177885],[84.92466938338158,27.053952890028935],[84.92467313233232,27.053569152325856],[84.92473996805323,27.053263999652206],[84.92484806933226,27.05315040312142],[84.9250841562296,27.05311276614318],[84.92532130437311,27.052980288473886],[84.92556032770564,27.05261980664214],[84.92562653877985,27.052389114232117],[84.92558489738607,27.05223588195159],[84.92539376377358,27.052063393975363],[84.92526552954658,27.052023570691333],[84.92487913696661,27.05201938364012],[84.92475133986567,27.051961554777986],[84.92458102701185,27.051788816530618],[84.92449687029162,27.051595260276805],[84.92454163462817,27.051367005554027],[84.92462916620237,27.051215210829728],[84.92484511997222,27.05102421626606],[84.9249769156982,27.050662171116574],[84.92538931383608,27.050070308245424],[84.92549922760413,27.049782973592677],[84.92550172766003,27.049478196787554],[84.92541919596448,27.04917173152844],[84.92527182771258,27.048883834848795],[84.92525119459562,27.048825318011335],[84.92497890391734,27.048134116364952],[84.92491650405303,27.047904298636833],[84.92483272315658,27.047751378838765],[84.92459963562858,27.047461732889026],[84.9241530946838,27.0470380475825],[84.92402767209246,27.04672964440534],[84.9234350757223,27.045941290682514],[84.92339331021559,27.045844512734064],[84.92324381735371,27.04574842250945],[84.92299078442042,27.045325736600482],[84.92269879798677,27.044460858438338],[84.92265846953387,27.04423097837155],[84.9226630926817,27.04371407691309],[84.92258074880218,27.043369225633267],[84.92247639649882,27.043081016656934],[84.92232877886859,27.04283138148194],[84.92218016049517,27.042694716653],[84.92181633946174,27.042597814955183],[84.92155918265614,27.042594940068234],[84.92061383672113,27.042817884288816],[84.92009889764805,27.042814447813004],[84.91958383445073,27.042867528827998],[84.9188134878646,27.042766439542678],[84.91804314208292,27.042588640221403],[84.91787282889172,27.042490487157416],[84.91770282865859,27.042279425581093],[84.91761748433179,27.042241602521916],[84.91757440613621,27.042298306951828],[84.91744585930103,27.04229686999089],[84.91727423313452,27.042275426947977],[84.91641966799315,27.041962775733815],[84.91582063594004,27.04184474324479],[84.91526349314645,27.0418393694038],[84.91530507196117,27.041918079396076],[84.91502315806623,27.042278812327265],[84.91479995223831,27.04265723669082],[84.91439149381065,27.04334606614419],[84.91413102551529,27.04370892385431],[84.91391288488924,27.044166308453953],[84.91358639331287,27.044701091951712],[84.91323951764504,27.045138972530925],[84.91306489371172,27.045519335329814],[84.91265180754016,27.046187907935217],[84.91249750299794,27.04658840189534],[84.91319670116015,27.047319675832973],[84.91344942115876,27.04778074831919],[84.91370370396976,27.048052264000468],[84.91402007164108,27.048512898471145],[84.91416912718373,27.048629244568065],[84.91438051842175,27.048898698018917],[84.91462154702374,27.049314693738253],[84.91479986367916,27.049622845784985],[84.91489127363947,27.04978026705487],[84.91560404147852,27.05101256390703],[84.91583594108944,27.05139698849375],[84.91602701227424,27.05162824329871],[84.9164288500859,27.052302751882113],[84.916660813517,27.05276388653876],[84.91720652016093,27.0540695809762],[84.91748068631026,27.054607237806078],[84.91760542206794,27.05506687211837],[84.91766594636621,27.055526944185146],[84.91787577588005,27.055988329480336],[84.91800232395184,27.056276413330693],[84.91808660538307,27.05641126475349],[84.91840534959385,27.05677712131467],[84.91942647856267,27.05770489001875],[84.91983031646707,27.058146893036817],[84.91991522268603,27.058205034472945],[84.91995748856972,27.05828149461696],[84.92046886586643,27.058688924244482],[84.92091665698273,27.05895912657397],[84.92113136048681,27.05892386549921]]]}},{"type":"Feature","properties":{"province":"Madhesh Province","district":"Bara","municipality":"Prasauni Rural Municipality","ward":"2","wardNumber":2,"sourceMunicipality":"Prasauni","sourceType":"Gaunpalika"},"geometry":{"type":"Polygon","coordinates":[[[84.95491176027171,27.047972065836788],[84.9538907568436,27.047159706551025],[84.95348754403601,27.046715514873824],[84.95336074628196,27.04648613551932],[84.95334011237844,27.046350845540413],[84.95325483088841,27.046331090373265],[84.95304194007191,27.046197114634108],[84.95287175174674,27.046042569571608],[84.952744829373,27.045869582270406],[84.95228340318866,27.044660666286575],[84.9517323846982,27.043966902124147],[84.95166979828092,27.043795789831446],[84.95162890635679,27.043507142165122],[84.95176195252797,27.042993866202675],[84.95191300691634,27.042823565491947],[84.95249265660226,27.042654888328958],[84.95268597776992,27.042637757699833],[84.9529435719768,27.042545728876735],[84.95347957979227,27.042436007329997],[84.95363069794357,27.0423401661102],[84.95373811111351,27.042226569791023],[84.95399895400192,27.041771122375277],[84.95434826611454,27.040971947816796],[84.95435101526841,27.0406288470584],[84.95422684115313,27.040110570667935],[84.95384563629032,27.039591732612674],[84.95367632281089,27.039398801601475],[84.95339959570309,27.039165921258917],[84.95297243777271,27.039028945837124],[84.95271528111847,27.03902613317251],[84.95200814713371,27.039096344227517],[84.95157874055333,27.039284338938007],[84.95134065458144,27.039529725046158],[84.95097258506998,27.040042377093492],[84.95084310094074,27.040156098236043],[84.9507573810882,27.040156661521173],[84.95033097359301,27.039960918344885],[84.95015984813388,27.03992147017153],[84.94994726961146,27.039746857491796],[84.94971293243741,27.03961075608223],[84.94935161109396,27.039283660840958],[84.94901242169074,27.038820963939994],[84.94897128059257,27.03864966372202],[84.9490161081311,27.03836270449494],[84.94914684238513,27.038093249855883],[84.94871955966475,27.03801710430147],[84.94837605939827,27.038089502164077],[84.9482902160884,27.038146456675566],[84.94790469918797,27.038162588112094],[84.94713291655671,27.03826937249752],[84.94674721248346,27.038265122605456],[84.9464904302971,27.03822630064571],[84.94616918762098,27.03824199408813],[84.94597661746711,27.03820267078834],[84.94539884246277,27.038215614034264],[84.94488315385107,27.03834546697819],[84.94456147399393,27.03838147955115],[84.94417570746968,27.038377291652974],[84.94404747288587,27.038339781230157],[84.94359686990548,27.03833603214044],[84.94340367455162,27.038371230983017],[84.94276118788778,27.03833034688271],[84.94031729152583,27.03833098240863],[84.94005982225057,27.038289721860906],[84.93967411757376,27.038287847878497],[84.93935337475409,27.038208700902928],[84.93883906129868,27.038205452134452],[84.93871082642191,27.038165628186455],[84.93832449743854,27.038163691468704],[84.93772421444419,27.03819707890709],[84.93768201115333,27.038120619043745],[84.93753558004558,27.037717563918537],[84.93751582204855,27.03754388804032],[84.93733018809185,27.036816050365513],[84.93682305946764,27.036006876782007],[84.93654720703493,27.035717542796398],[84.93625097099695,27.035333556823094],[84.93591140721377,27.034967888258073],[84.9356988290409,27.034793212698975],[84.93552839008078,27.03467699109192],[84.93516256915291,27.03479002599826],[84.9333570343355,27.035312187005882],[84.93297001803876,27.035384710141273],[84.93264883778434,27.03540265463267],[84.93187505489274,27.03556801873698],[84.93123113199621,27.035660361364933],[84.93084355287617,27.035809656740685],[84.93071519360176,27.03582853778603],[84.93052118505148,27.035922379031785],[84.92974777742579,27.036051607195976],[84.9291029166722,27.03625679562713],[84.92800839056109,27.036345263304018],[84.92775079637055,27.0364395426596],[84.92755728807816,27.03643629224492],[84.92804665685138,27.03686191494565],[84.9281523844258,27.036996641573722],[84.92876905099541,27.03749816196857],[84.92908685699105,27.037902342042177],[84.92932006876714,27.03821230649209],[84.92878624655982,27.037978865066066],[84.92846581622732,27.03786133186765],[84.92820897146551,27.037820133879872],[84.92743725105271,27.037775561066795],[84.92627970120529,27.037787757704635],[84.92602285731289,27.037746559313266],[84.92518655038577,27.037740810710364],[84.9249934170871,27.03777819778686],[84.92428565716385,27.03777151119021],[84.9240930866663,27.037732187573326],[84.92370756966356,27.037748256362107],[84.92325646719544,27.037841536058306],[84.92209904309165,27.037794964184975],[84.92184226102934,27.037753765853687],[84.92102733732804,27.037747830471503],[84.92057654723205,27.037802660893977],[84.91890105923086,27.038134140168143],[84.91838699504977,27.038072061782206],[84.91787193099333,27.038127330148935],[84.9167792178672,27.038060002251683],[84.91613641924378,27.038055190758236],[84.91562104303452,27.03814884559911],[84.91506152667179,27.03831502200694],[84.91503883079393,27.038468629503942],[84.91516262871647,27.038966650035935],[84.91526829377824,27.03910137703405],[84.91546036525395,27.039237853744826],[84.91565243537403,27.039297495230624],[84.91603607781104,27.039509431140313],[84.91665718055378,27.03962952639889],[84.91674258728304,27.039669600538748],[84.9169968068677,27.0399388034462],[84.91718712854934,27.040246830371515],[84.91722808209542,27.040399938361844],[84.91762123395623,27.041857864846],[84.91761748433179,27.042241602521916],[84.91770282865859,27.042279425581093],[84.91787282889172,27.042490487157416],[84.91804314208292,27.042588640221403],[84.9188134878646,27.042766439542678],[84.91958383445073,27.042867528827998],[84.92009889764805,27.042814447813004],[84.92061383672113,27.042817884288816],[84.92155918265614,27.042594940068234],[84.92181633946174,27.042597814955183],[84.92218016049517,27.042694716653],[84.92232877886859,27.04283138148194],[84.92247639649882,27.043081016656934],[84.92258074880218,27.043369225633267],[84.9226630926817,27.04371407691309],[84.92265846953387,27.04423097837155],[84.92269879798677,27.044460858438338],[84.92299078442042,27.045325736600482],[84.92324381735371,27.04574842250945],[84.92339331021559,27.045844512734064],[84.9234350757223,27.045941290682514],[84.92356487196433,27.04578924562907],[84.92369598139807,27.045560365152863],[84.92389048924821,27.045369496029846],[84.92459987431856,27.045184250821837],[84.92477256224362,27.045108664885667],[84.92578636843434,27.044465471792673],[84.92587252423884,27.044446840896704],[84.92645473647372,27.04404797104319],[84.9265404550962,27.044049658913558],[84.92722883122221,27.04384422121446],[84.92757252028551,27.04378776543945],[84.92808883353327,27.04358120221319],[84.92882247475134,27.0431271912545],[84.92970892117462,27.04233132857958],[84.9297523739057,27.04225430540254],[84.92975349934409,27.04215946548069],[84.92964883398108,27.041927709517445],[84.92911944899559,27.041236009059606],[84.92877907220866,27.04092673178077],[84.92867334510285,27.040792004874124],[84.92848302423248,27.040484040156777],[84.92867859443551,27.040275102965595],[84.92910806370665,27.040161630879087],[84.92962356560486,27.040090545361167],[84.93116625615917,27.04015930836169],[84.93135926492042,27.040178313809385],[84.93189489926743,27.040183812851172],[84.93232261950163,27.040300594941442],[84.93249343214546,27.040378492938594],[84.93300705866366,27.040458576019752],[84.93317787147974,27.040536410871866],[84.93347485685614,27.04086400595267],[84.93366680347745,27.04098235208074],[84.9342021873444,27.041023925118374],[84.93443714921611,27.041160089110384],[84.93447922722598,27.041216229990777],[84.93443477535844,27.041408349396956],[84.93445528343605,27.04152332094724],[84.93453987670082,27.041619848383228],[84.93468880763895,27.041715938446817],[84.93481704171694,27.041755700087666],[84.93531053531423,27.041759198551283],[84.93548191115168,27.041742255785657],[84.93563290298174,27.04164641459181],[84.93585204369876,27.041168710191226],[84.93598202841586,27.04103692115384],[84.93617628634648,27.04090469444073],[84.93647695820276,27.04083054598084],[84.93750627356859,27.04078071421095],[84.93819427508903,27.04061134962634],[84.93845174381516,27.04057577522485],[84.93888027613369,27.040579711680124],[84.9389868785607,27.04065573415151],[84.93924291083695,27.040830034170092],[84.93960466936224,27.041062413514798],[84.93992472557635,27.041276912665236],[84.94018132065614,27.04135418447843],[84.94024471940436,27.041412450609446],[84.9404129071057,27.041776994932416],[84.94058340830072,27.041893216111564],[84.94060454115896,27.04193147694902],[84.9407108931838,27.04198943071815],[84.94100994041453,27.042107089643945],[84.94126659808681,27.04220467975151],[84.94158571662904,27.042455313853992],[84.94186131899946,27.04278303398246],[84.94188151472608,27.042859619327803],[84.94262179239281,27.043956125553144],[84.94270563688886,27.044188068843468],[84.9428033032092,27.045164793053676],[84.94281787425716,27.045853120126523],[84.94275003918547,27.046255363222254],[84.94283313303073,27.046543697862408],[84.94283175889761,27.04667686221081],[84.94283094583618,27.046735566397516],[84.942850829921,27.04692499703841],[84.94280706429012,27.047040469173666],[84.94263218915387,27.04738469614156],[84.94237178317886,27.047668592651473],[84.94226199378802,27.04795599034463],[84.94234446340334,27.048318846269744],[84.94240761193973,27.04841549996789],[84.94266276974636,27.048628186020522],[84.94317708372884,27.04870826974595],[84.94360611622427,27.04869182558776],[84.94395074140866,27.048522461998463],[84.94418820265012,27.04835159824109],[84.94444629696908,27.048239251547493],[84.9449208440331,27.04793584833407],[84.945351126851,27.0477681718901],[84.94586712804123,27.047674454245556],[84.9460386277713,27.047677766914425],[84.94646828521053,27.047584613558517],[84.94749566314177,27.04774471829244],[84.94835347753369,27.047750216438647],[84.94955216867135,27.047970025948565],[84.94980932561141,27.047972837676742],[84.95006510792825,27.048108814069625],[84.95023454616052,27.048319812672315],[84.95031807858199,27.0485878909687],[84.9503765403582,27.04916306034297],[84.95035247089211,27.0494498944179],[84.95022542536707,27.049782555076888],[84.95017672130837,27.049909279912978],[84.95006512011386,27.05042462015879],[84.94984666831678,27.050902385766477],[84.94982509781548,27.050958965063046],[84.95006068460314,27.05101829409254],[84.95091893633153,27.050928951967514],[84.95134865612746,27.050835797607718],[84.95212056454906,27.05082154011434],[84.95263600301413,27.05073001063395],[84.95375266098317,27.050489935380337],[84.95426866259358,27.05032163402667],[84.95495585111638,27.050192842971157],[84.9557299464339,27.0499098812819],[84.95615960359183,27.049816727235495],[84.95615360112564,27.0497807169021],[84.95611902463072,27.04956871699547],[84.95592982805158,27.04918404250563],[84.95548534952958,27.048568613391666],[84.95491176027171,27.047972065836788]]]}}]}