{"type":"FeatureCollection","features":[{"type":"Feature","properties":{"province":"Madhesh Province","district":"Bara","municipality":"Parwanipur Rural Municipality","ward":"5","wardNumber":5,"sourceMunicipality":"Parwanipur","sourceType":"Gaunpalika"},"geometry":{"type":"Polygon","coordinates":[[[84.91682076617178,27.05653693199976],[84.9175949861086,27.05625422122173],[84.9177449793928,27.05625547055892],[84.91808660538307,27.05641126475349],[84.91800232395184,27.056276413330693],[84.91787577588005,27.055988329480336],[84.91766594636621,27.055526944185146],[84.91760542206794,27.05506687211837],[84.91748068631026,27.054607237806078],[84.91720652016093,27.0540695809762],[84.916660813517,27.05276388653876],[84.9164288500859,27.052302751882113],[84.91602701227424,27.05162824329871],[84.91583594108944,27.05139698849375],[84.91560404147852,27.05101256390703],[84.91489127363947,27.04978026705487],[84.91479986367916,27.049622845784985],[84.91462154702374,27.049314693738253],[84.91438051842175,27.048898698018917],[84.91416912718373,27.048629244568065],[84.91402007164108,27.048512898471145],[84.91370370396976,27.048052264000468],[84.91344942115876,27.04778074831919],[84.91319670116015,27.047319675832973],[84.91249750299794,27.04658840189534],[84.91265180754016,27.046187907935217],[84.91306489371172,27.045519335329814],[84.91323951764504,27.045138972530925],[84.91358639331287,27.044701091951712],[84.91391288488924,27.044166308453953],[84.91413102551529,27.04370892385431],[84.91439149381065,27.04334606614419],[84.91479995223831,27.04265723669082],[84.91502315806623,27.042278812327265],[84.91530507196117,27.041918079396076],[84.91526349314645,27.0418393694038],[84.91513538324924,27.0417431543571],[84.91480025960735,27.041603114109222],[84.91462319478067,27.04152978111841],[84.91317109790667,27.04121194363985],[84.91240243931341,27.040998008999956],[84.91146290638456,27.040780636270497],[84.91069368546937,27.040659229002028],[84.9105224359629,27.040678422343923],[84.9098151138409,27.04073037850157],[84.90975127780148,27.040710497476233],[84.9094305349612,27.040708061094435],[84.90859672893885,27.040627665358848],[84.90853195568017,27.040646171695265],[84.90799788390161,27.040527763768907],[84.90714163241653,27.040560339674197],[84.90662738175976,27.040633675275576],[84.9055148485379,27.040606984844104],[84.90500309788548,27.040526776315154],[84.90457675335095,27.040407617539525],[84.90346672061536,27.040380989552837],[84.90240101596616,27.040143986352767],[84.90197454690738,27.040083533130773],[84.90173896052674,27.04017756169397],[84.90139539809856,27.04040325435357],[84.90120157769982,27.04059412385267],[84.90094460922877,27.04076505035837],[84.90077310925567,27.0408383849028],[84.89983201504766,27.041061078779205],[84.89948920273201,27.041212250009217],[84.89927424973882,27.04136485866338],[84.89918721950929,27.041593426000038],[84.8992274858205,27.041900141194933],[84.89952297123757,27.042360962779725],[84.89965008096358,27.042495564326256],[84.89983971520724,27.042880301445845],[84.90024080245688,27.04347591191815],[84.90064089099111,27.044245198993078],[84.90076818866068,27.04439793145585],[84.90121047973369,27.045167093051724],[84.9015070899243,27.045533074383076],[84.90175906063583,27.04607091853006],[84.90192731173369,27.046379071176876],[84.90201140579708,27.046570376968344],[84.90220103967042,27.046955176328115],[84.90240949531074,27.047644503103957],[84.90245044859276,27.04787450838449],[84.90240430857253,27.048333018132677],[84.90242187990904,27.04879334112363],[84.90239993516413,27.048888306889033],[84.90220230495879,27.049783382924037],[84.9021122733938,27.050188002487765],[84.90169606450097,27.051260568838597],[84.90115380719217,27.052175902497265],[84.90110960478827,27.0523296983035],[84.90084794805705,27.05286410643957],[84.90047906629194,27.05347585018822],[84.90037027825298,27.053742929503258],[84.9004109187182,27.053934548168602],[84.90049470028309,27.054089780708207],[84.9006428181702,27.054244575066537],[84.90085327162248,27.05455241522064],[84.90114688284137,27.05516903287912],[84.9015258991077,27.05566992867786],[84.90186971548948,27.056096552133774],[84.90205365858421,27.05632561840318],[84.90220115189818,27.05655718583906],[84.9030019514886,27.05769414220345],[84.90388409555828,27.059234653248517],[84.90405303384814,27.05946603343137],[84.90462224675782,27.060256888195468],[84.90472941019715,27.06018167830671],[84.90485833235599,27.06014247882844],[84.90537145814483,27.060069205146082],[84.9057575364031,27.059956108040126],[84.90633655996443,27.05969052736897],[84.90691508385609,27.05952203825576],[84.90755875677435,27.059220009529376],[84.90807300616189,27.059049582118284],[84.90845902260598,27.058936484414208],[84.9091649067181,27.05884614258602],[84.90929351540294,27.058768556658837],[84.90955035958025,27.0587330455674],[84.91038603998165,27.058488344701395],[84.91077249367012,27.058260151323516],[84.91128718071573,27.058071718954682],[84.91173647087064,27.057978502426636],[84.91244260432576,27.05792423293952],[84.91269913600848,27.05785033553806],[84.91314955043381,27.057660089754577],[84.9140493783066,27.057396883632038],[84.91479996671605,27.057387503088304],[84.91501173182566,27.057383876240905],[84.91552754531085,27.057254085793407],[84.91610919472625,27.057008824211415],[84.91682076617178,27.05653693199976]]]}},{"type":"Feature","properties":{"province":"Madhesh Province","district":"Bara","municipality":"Parwanipur Rural Municipality","ward":"1","wardNumber":1,"sourceMunicipality":"Parwanipur","sourceType":"Gaunpalika"},"geometry":{"type":"Polygon","coordinates":[[[84.95511140868588,27.0848367111503],[84.95543402686468,27.08474424539999],[84.95556201099947,27.084745619830198],[84.95620662160579,27.084556124073842],[84.95648191042035,27.08453386598153],[84.9570413654746,27.08448722458609],[84.95742688126307,27.084374002738997],[84.95774749832462,27.08433792784235],[84.95845356926067,27.08419094383215],[84.95853916329246,27.084172313536858],[84.9586034994804,27.08417187565988],[84.95980318834076,27.083798010378953],[84.96018926644851,27.08361026632788],[84.96091634570362,27.083557872825605],[84.96085344640262,27.08342289525173],[84.96077172743001,27.083078107353117],[84.96070826594482,27.082963448701616],[84.96058609221323,27.08238871765619],[84.9605730834382,27.08152884024695],[84.96066461279503,27.080878148201567],[84.96070825339535,27.08074467176185],[84.9607742141867,27.080574871318824],[84.96099897858936,27.079429034020155],[84.96148121112418,27.078170724554756],[84.96152585047568,27.077940219186658],[84.96163488924273,27.077711463600387],[84.96168365435192,27.077081403405256],[84.96196856700286,27.07633687067141],[84.96209905124032,27.076110241063063],[84.96227567553476,27.07553794692919],[84.96251676040946,27.07490882334981],[84.96258971988534,27.073933161158937],[84.96263673502666,27.073531168581372],[84.96281260907317,27.073017578969594],[84.96285562397753,27.072960874206004],[84.96285624941048,27.072884101830002],[84.9631624820463,27.07213938147253],[84.96327639561318,27.071452429335128],[84.96325757425133,27.0711659078832],[84.96319617572505,27.070915834503783],[84.96302717503275,27.070686767885462],[84.96290056527754,27.07055216676638],[84.96273081475601,27.070454013729695],[84.96256025189706,27.070414565293518],[84.96204756363701,27.070393248397185],[84.96170650018489,27.070314351925614],[84.96128109396108,27.070177313358855],[84.96066411530113,27.06990392298025],[84.95998692581536,27.06928780812261],[84.95951969070664,27.068979531711168],[84.9591181660087,27.0685376538091],[84.95888432899115,27.06840155172899],[84.95807953006806,27.067745675068778],[84.95778498191335,27.067284978393356],[84.95763892645516,27.066938315303428],[84.9575555196324,27.06669067977287],[84.95755689500513,27.066557515968597],[84.95749474597052,27.066363771379606],[84.95745529144108,27.066020983367732],[84.95735350187124,27.06554090582745],[84.95712372741062,27.064984931104163],[84.95672607684284,27.064179633132028],[84.9566205999718,27.06400652031335],[84.95653606839576,27.06393037340457],[84.95648211081786,27.06388104693795],[84.95634549682688,27.063755572376245],[84.95632392704307,27.06373762969228],[84.95619656719506,27.06365954526336],[84.95617499697423,27.063641664855695],[84.9561326061792,27.063621596926847],[84.9559410353111,27.06348749577936],[84.95560047184063,27.063313758679048],[84.95517243921505,27.063233174491153],[84.95500218811941,27.063155339343975],[84.95474534393158,27.06311645470792],[84.95440396796951,27.06299910913665],[84.95372265304954,27.062633566950307],[84.95355240296097,27.062479022172443],[84.9534891913378,27.062382369012166],[84.95334069880684,27.062266023275292],[84.95329874517049,27.06215117745181],[84.95321471342447,27.061980189616133],[84.95319464303738,27.06184489973866],[84.9532385961095,27.06174980908874],[84.95345473653559,27.061522616942863],[84.9537134551614,27.061331309097266],[84.954100784163,27.06114356495814],[84.95489451196637,27.061013961197926],[84.95515310623085,27.060881358220875],[84.95528259087841,27.06076763666461],[84.95534780134925,27.060654291138864],[84.95537199685877,27.06038552401032],[84.95537249585593,27.060290746576136],[84.95535273858412,27.06011932065461],[84.95505837747004,27.0595999192151],[84.9548491098251,27.059082206156344],[84.95459688975825,27.05862344725712],[84.9544293270924,27.058258965704834],[84.95434573165197,27.057990887350485],[84.95413540328708,27.057644723564007],[84.9539870973107,27.0574719239428],[84.95360795461559,27.05683798963324],[84.953120148206,27.056319901340906],[84.95267623289409,27.05578124502597],[84.95201855038073,27.05514693641541],[84.951679798931,27.054742944591695],[84.95146703258582,27.05455026386273],[84.95106213208666,27.05429794166146],[84.95097672546372,27.054260118043278],[84.95071938087385,27.054239300637747],[84.95052593544328,27.054315136482888],[84.9496613098747,27.05514932218441],[84.9494016538589,27.05537907906842],[84.94914274660871,27.055547816896105],[84.94888546496966,27.05560377233999],[84.94875723049653,27.0555640104564],[84.94865062842216,27.055487988716525],[84.94846143157667,27.05502654205119],[84.94842060262611,27.054740082828875],[84.94844629742285,27.054279447372334],[84.94860078829134,27.053763857446356],[84.94866649863378,27.053553482802066],[84.9487762249585,27.05326833631286],[84.94886363123557,27.05309622263917],[84.94910759072513,27.05212174762578],[84.9491951214612,27.051893179699697],[84.94962990280575,27.051206289183682],[84.94982509781548,27.050958965063046],[84.94984666831678,27.050902385766477],[84.95006512011386,27.05042462015879],[84.95017672130837,27.049909279912978],[84.95022542536707,27.049782555076888],[84.95035247089211,27.0494498944179],[84.9503765403582,27.04916306034297],[84.95031807858199,27.0485878909687],[84.95023454616052,27.048319812672315],[84.95006510792825,27.048108814069625],[84.94980932561141,27.047972837676742],[84.94955216867135,27.047970025948565],[84.94835347753369,27.047750216438647],[84.94749566314177,27.04774471829244],[84.94646828521053,27.047584613558517],[84.9460386277713,27.047677766914425],[84.94586712804123,27.047674454245556],[84.945351126851,27.0477681718901],[84.9449208440331,27.04793584833407],[84.94444629696908,27.048239251547493],[84.94418820265012,27.04835159824109],[84.94395074140866,27.048522461998463],[84.94360611622427,27.04869182558776],[84.94317708372884,27.04870826974595],[84.94266276974636,27.048628186020522],[84.94240761193973,27.04841549996789],[84.94206242481316,27.048661573515663],[84.94154529920701,27.048926903748697],[84.9412645720454,27.049116085215772],[84.94083391466373,27.049324398739113],[84.94059601637623,27.049513329773376],[84.94016279588807,27.049782598994135],[84.94007876554002,27.04983505199201],[84.93926084211625,27.050230984629508],[84.93911003714574,27.050288439683424],[84.93850812995176,27.050436923237545],[84.9382716061133,27.05056940056184],[84.93814149714406,27.050683121726554],[84.93783819985953,27.051044041891046],[84.93775123146087,27.05119589942374],[84.93768508274813,27.051426529867623],[84.93768327079852,27.051654534755865],[84.93778724926193,27.05203983483255],[84.93799782908519,27.05250109450161],[84.93844087019161,27.05332652243464],[84.93873760604707,27.05369244121013],[84.93888559943876,27.053980399896698],[84.93907410953022,27.054518619938147],[84.93953815867134,27.055364178905652],[84.93970697347389,27.05572872333757],[84.93987410004895,27.05626706805865],[84.94025018074898,27.05737958103217],[84.94037460429905,27.05785953402519],[84.94075474722209,27.058549922928336],[84.94119616494469,27.059625862208236],[84.94123718152655,27.059855804170514],[84.94133547293357,27.0609092383178],[84.94135616871729,27.060967817986725],[84.94137698900451,27.06104440348261],[84.9414168183536,27.061427827973183],[84.94164196962738,27.062654250113443],[84.94170499406118,27.06280729462004],[84.94189387831781,27.063307190663878],[84.94193564482951,27.063403906478637],[84.94225095175057,27.06417144334938],[84.94225063900048,27.06420982967303],[84.94245934327675,27.064745611309267],[84.942627407744,27.06509208740677],[84.94264803977423,27.06514841642119],[84.9430257458622,27.065915578033035],[84.9430675108616,27.066012355747457],[84.9432558951173,27.06645123396978],[84.94338125549564,27.066816027976184],[84.9434224595201,27.066989516340833],[84.94346309999708,27.067178884370325],[84.94369143789054,27.067946983900054],[84.94381479851685,27.06844275429464],[84.94385681383115,27.06850114673886],[84.94383524427941,27.06855772599915],[84.94395822934202,27.069094132841414],[84.94405858273461,27.069784147265292],[84.94459410326036,27.07192708721267],[84.94478379978018,27.072216984801113],[84.94484688565458,27.072370028906374],[84.94543704509626,27.07329148485104],[84.94573153122799,27.07382670391259],[84.94630212019227,27.074653506462386],[84.9469784355073,27.07553601334871],[84.94735676619165,27.076303111638712],[84.94741797699737,27.07660970174942],[84.9473919081302,27.07702969975276],[84.94741316552299,27.077088217610576],[84.94738803385391,27.077469829652944],[84.94752759020834,27.078541080947563],[84.94779506990912,27.07961364530716],[84.94834065124768,27.080763356140984],[84.94863082513898,27.0817590842952],[84.94869391166115,27.081837544810536],[84.94888192074913,27.08237357625884],[84.9490913128011,27.082832522991996],[84.94947039295437,27.083522974479532],[84.94980283317324,27.08452064163301],[84.9500556154091,27.084961332270034],[84.95009769394517,27.085017473090996],[84.95035372643798,27.085173705957434],[84.95086585262106,27.085348567220553],[84.95109881478764,27.085617832955165],[84.95122548755015,27.085829144332717],[84.95186103670922,27.08650208960174],[84.95224749137361,27.086427128515247],[84.95252865482048,27.086122787626806],[84.95274685799647,27.085760180096752],[84.9529195461759,27.08560775950311],[84.95356465619608,27.085325736752715],[84.95414586795007,27.085023832429],[84.95466111847666,27.08489172890188],[84.95511140868588,27.0848367111503]]]}},{"type":"Feature","properties":{"province":"Madhesh Province","district":"Bara","municipality":"Parwanipur Rural Municipality","ward":"3","wardNumber":3,"sourceMunicipality":"Parwanipur","sourceType":"Gaunpalika"},"geometry":{"type":"Polygon","coordinates":[[[84.9190389530347,27.080082655644066],[84.91910322694487,27.08008221733825],[84.91974571334241,27.080163801250222],[84.92026202695637,27.080013692377307],[84.92064773042836,27.07999762376869],[84.92090626252097,27.079923663342697],[84.9211214037258,27.079791248098868],[84.92144608414644,27.079486719973684],[84.92170442821333,27.07939250363194],[84.92215440606539,27.07937824766294],[84.92266871984133,27.079438138047106],[84.9229902750709,27.07944051244223],[84.92318397114367,27.07938505791228],[84.92389241839547,27.079294590859387],[84.92427968516238,27.079163362803378],[84.92466788822871,27.078917038848395],[84.92492560773763,27.078899533309546],[84.92511917887106,27.07882607300513],[84.92570095325104,27.078503976163965],[84.92615218091787,27.078410697038702],[84.92640939972506,27.0784135092009],[84.92686175315357,27.078225451534415],[84.92705563568279,27.07811129187367],[84.92718530794242,27.078017889725174],[84.92724995631713,27.07797912780532],[84.92731441773718,27.07792223583055],[84.92757369896101,27.077712860738462],[84.92772437857191,27.077637399892147],[84.92809219943896,27.077296361302054],[84.92869398239893,27.077109553636532],[84.9283759251722,27.076685055163406],[84.92814277546763,27.07639772204869],[84.92803579899636,27.076339704986935],[84.92788674335769,27.076223358734175],[84.92754655460762,27.0758756954829],[84.92711895891158,27.07570020874222],[84.92666973058597,27.07558130055801],[84.92667023119598,27.075563232793264],[84.92605231369512,27.075079780477417],[84.92586243026933,27.074695043183475],[84.92554362407522,27.074406022645856],[84.9251612309281,27.0739818992832],[84.92511852809673,27.073923507489912],[84.92503405875131,27.07377058784947],[84.92475945545645,27.07327131691893],[84.92463403194049,27.072886141979133],[84.92440331958385,27.072348234562153],[84.92432009989011,27.07204170760034],[84.92395971449945,27.071522744265312],[84.92353555617353,27.071001905545724],[84.9234725321221,27.07084886080948],[84.92341013337054,27.07061904330084],[84.9231787958703,27.070081073521447],[84.92318129503995,27.069774108043845],[84.92305774700063,27.069237701171723],[84.92305968419167,27.069007445698926],[84.92316872263898,27.06877875355486],[84.92329858238098,27.068626646008518],[84.9234283164173,27.06853099159178],[84.92458855360037,27.068272848632713],[84.92510330451044,27.0682378364541],[84.92570514970868,27.06806915950539],[84.92583457165128,27.06801407962524],[84.92583594679589,27.06787866550584],[84.92581575106905,27.067725307569923],[84.92556065584671,27.067438036503486],[84.92549756932085,27.067282741286245],[84.92556315475453,27.067131071899567],[84.92580161622895,27.06684511130943],[84.92588858507219,27.066693253733778],[84.92591190497924,27.06653964655103],[84.92584950596095,27.066309829136515],[84.9257227704081,27.066078198859007],[84.92506546183075,27.06517512383856],[84.92459710119806,27.064787699802135],[84.92439596325518,27.06455431932996],[84.92376154390101,27.064743565364164],[84.92324635563038,27.064796645145368],[84.92189210962545,27.06515088000081],[84.92118372540868,27.0652412845399],[84.9207324982594,27.065334564126267],[84.92028208233995,27.065369075861163],[84.91989456646095,27.065538690084214],[84.91963690923328,27.0655561340032],[84.91925014323904,27.065667042755482],[84.91828341422881,27.065851664117528],[84.9174446697112,27.066112243359413],[84.91664925478389,27.066356693840934],[84.91654065329031,27.06648829515237],[84.91611024605096,27.066658097105744],[84.91585277674542,27.066695922307577],[84.9152723771679,27.066862223397955],[84.9150783057003,27.066956064459678],[84.91490680603215,27.066954876941466],[84.91484259477257,27.066973382713716],[84.91479989109189,27.066982697916288],[84.91456386737622,27.067029400570377],[84.91437098443741,27.06710517382429],[84.91398609355423,27.067141498385322],[84.9136647887335,27.067236152740584],[84.91340700697737,27.06738676049722],[84.9130836404128,27.067711669218607],[84.91264948439287,27.068436759598896],[84.91243028289621,27.0690679460876],[84.91227816568197,27.069353343079484],[84.9122547829467,27.069583722900376],[84.91233669098222,27.0700436079013],[84.91233494085917,27.07021522043007],[84.91226873093879,27.070445851637906],[84.91216044200267,27.07061583923338],[84.91196655854775,27.07080670845783],[84.91177298844784,27.070959191905185],[84.91162230855583,27.071034652008723],[84.91164362896988,27.07109329446409],[84.91189578730699,27.071554303300754],[84.91240228934255,27.07230264648147],[84.91269839928196,27.072668627586324],[84.91320390221588,27.073514061749965],[84.91415507049103,27.074742481555493],[84.91480018665207,27.07562311220532],[84.91483088538523,27.075665812467765],[84.91489403374335,27.075762465676043],[84.9151051760828,27.0761470147067],[84.91531744280773,27.076436849284068],[84.91565644489833,27.076879290672892],[84.91565663244343,27.076897358450545],[84.91624916778142,27.077821126996515],[84.9162698005397,27.07787970720982],[84.91635508156745,27.07797623497311],[84.91643892629153,27.078129154953995],[84.91664975617623,27.078552090421578],[84.91673472479715,27.078687005185785],[84.9169458670545,27.079071554690362],[84.9175603471778,27.07989817000751],[84.91787796613505,27.080417508524675],[84.91806997469381,27.080477213157973],[84.91826379514514,27.080421758203705],[84.91878060909063,27.08017687166238],[84.9190389530347,27.080082655644066]]]}},{"type":"Feature","properties":{"province":"Madhesh Province","district":"Bara","municipality":"Parwanipur Rural Municipality","ward":"4","wardNumber":4,"sourceMunicipality":"Parwanipur","sourceType":"Gaunpalika"},"geometry":{"type":"Polygon","coordinates":[[[84.91484259477257,27.066973382713716],[84.91490680603215,27.066954876941466],[84.9150783057003,27.066956064459678],[84.9152723771679,27.066862223397955],[84.91585277674542,27.066695922307577],[84.91611024605096,27.066658097105744],[84.91654065329031,27.06648829515237],[84.91664925478389,27.066356693840934],[84.9174446697112,27.066112243359413],[84.91828341422881,27.065851664117528],[84.91925014323904,27.065667042755482],[84.91963690923328,27.0655561340032],[84.91989456646095,27.065538690084214],[84.92028208233995,27.065369075861163],[84.9207324982594,27.065334564126267],[84.92118372540868,27.0652412845399],[84.92189210962545,27.06515088000081],[84.92324635563038,27.064796645145368],[84.92376154390101,27.064743565364164],[84.92439596325518,27.06455431932996],[84.92421527108,27.064345571235556],[84.92396098759264,27.063940953609013],[84.92379461184935,27.06340260875383],[84.92345567235746,27.062883457522734],[84.92339327300978,27.062653577378224],[84.92330880382524,27.062500658066735],[84.92318163093591,27.062366056153053],[84.92279773894282,27.06213161367578],[84.92254245630681,27.061900734264366],[84.9223725803719,27.061707866083207],[84.92224572080733,27.061458106305523],[84.92211836039742,27.06130549877674],[84.92160829605527,27.060821234153234],[84.92139521656334,27.06066687660695],[84.92133281723288,27.06043705947966],[84.92131449634613,27.060053509317203],[84.92120820619773,27.05991872052702],[84.92106071295186,27.05961275622782],[84.92093747715425,27.05903571177617],[84.92091665698273,27.05895912657397],[84.92046886586643,27.058688924244482],[84.91995748856972,27.05828149461696],[84.91991522268603,27.058205034472945],[84.91983031646707,27.058146893036817],[84.91942647856267,27.05770489001875],[84.91840534959385,27.05677712131467],[84.91808660538307,27.05641126475349],[84.9177449793928,27.05625547055892],[84.9175949861086,27.05625422122173],[84.91682076617178,27.05653693199976],[84.91610919472625,27.057008824211415],[84.91552754531085,27.057254085793407],[84.91501173182566,27.057383876240905],[84.91479996671605,27.057387503088304],[84.9140493783066,27.057396883632038],[84.91314955043381,27.057660089754577],[84.91269913600848,27.05785033553806],[84.91244260432576,27.05792423293952],[84.91173647087064,27.057978502426636],[84.91128718071573,27.058071718954682],[84.91077249367012,27.058260151323516],[84.91038603998165,27.058488344701395],[84.90955035958025,27.0587330455674],[84.90929351540294,27.058768556658837],[84.9091649067181,27.05884614258602],[84.90845902260598,27.058936484414208],[84.90807300616189,27.059049582118284],[84.90755875677435,27.059220009529376],[84.90691508385609,27.05952203825576],[84.90633655996443,27.05969052736897],[84.9057575364031,27.059956108040126],[84.90537145814483,27.060069205146082],[84.90485833235599,27.06014247882844],[84.90472941019715,27.06018167830671],[84.90462224675782,27.060256888195468],[84.90481112973771,27.060621307152907],[84.90514888151628,27.061081878895436],[84.90546462546287,27.061621536610836],[84.90582475961594,27.06204359662573],[84.90628730876662,27.06288928002494],[84.90687703031927,27.063867315279698],[84.9072361015402,27.064309693578853],[84.9080799805081,27.065617887421727],[84.90850238831986,27.066174924293858],[84.90852320864514,27.06625150958355],[84.90856447515435,27.06636635502524],[84.90862762383641,27.066463008656996],[84.90898750763556,27.066846682403266],[84.90940979030954,27.067462424110804],[84.90949488445766,27.067538570941597],[84.90991591794335,27.068231085179715],[84.91044342761091,27.068999621717275],[84.91063249918288,27.06938210773722],[84.91090729017067,27.06976853320232],[84.91113793949047,27.070227479351335],[84.91160173867058,27.070978385526296],[84.91162230855583,27.071034652008723],[84.91177298844784,27.070959191905185],[84.91196655854775,27.07080670845783],[84.91216044200267,27.07061583923338],[84.91226873093879,27.070445851637906],[84.91233494085917,27.07021522043007],[84.91233669098222,27.0700436079013],[84.9122547829467,27.069583722900376],[84.91227816568197,27.069353343079484],[84.91243028289621,27.0690679460876],[84.91264948439287,27.068436759598896],[84.9130836404128,27.067711669218607],[84.91340700697737,27.06738676049722],[84.9136647887335,27.067236152740584],[84.91398609355423,27.067141498385322],[84.91437098443741,27.06710517382429],[84.91456386737622,27.067029400570377],[84.91479989109189,27.066982697916288],[84.91484259477257,27.066973382713716]]]}},{"type":"Feature","properties":{"province":"Madhesh Province","district":"Bara","municipality":"Parwanipur Rural Municipality","ward":"2","wardNumber":2,"sourceMunicipality":"Parwanipur","sourceType":"Gaunpalika"},"geometry":{"type":"Polygon","coordinates":[[[84.93589143585055,27.077039189376656],[84.93575075484856,27.076119169791912],[84.93579627003939,27.075834460664844],[84.93578076116695,27.075258979798818],[84.93571911194813,27.074972770749415],[84.9356813457372,27.074456118764466],[84.93572835981621,27.074035994900463],[84.93598539221884,27.07401848924711],[84.93667083090824,27.074040993087998],[84.93744123991118,27.074121575630535],[84.93812461665972,27.074279556701455],[84.93876504014693,27.07449424247002],[84.94021832530007,27.07482758423593],[84.94047491919389,27.074828082636568],[84.9405179349356,27.074848151038562],[84.94148016351747,27.074949989428394],[84.94218423672723,27.07524094729889],[84.94229065129953,27.075298963577673],[84.94235429992088,27.07537529805556],[84.94250435512254,27.075376485766242],[84.9426331512167,27.075319217883617],[84.94297602718493,27.07532140441612],[84.94357418583638,27.075459629775896],[84.94425637536779,27.07576878054926],[84.94519559621693,27.07606036204608],[84.94673222577298,27.076625584533716],[84.94728599323807,27.07695367835148],[84.9473919081302,27.07702969975276],[84.94741797699737,27.07660970174942],[84.94735676619165,27.076303111638712],[84.9469784355073,27.07553601334871],[84.94630212019227,27.074653506462386],[84.94573153122799,27.07382670391259],[84.94543704509626,27.07329148485104],[84.94484688565458,27.072370028906374],[84.94478379978018,27.072216984801113],[84.94459410326036,27.07192708721267],[84.94405858273461,27.069784147265292],[84.94395822934202,27.069094132841414],[84.94383524427941,27.06855772599915],[84.94385681383115,27.06850114673886],[84.94381479851685,27.06844275429464],[84.94369143789054,27.067946983900054],[84.94346309999708,27.067178884370325],[84.9434224595201,27.066989516340833],[84.94338125549564,27.066816027976184],[84.9432558951173,27.06645123396978],[84.9430675108616,27.066012355747457],[84.9430257458622,27.065915578033035],[84.94264803977423,27.06514841642119],[84.942627407744,27.06509208740677],[84.94245934327675,27.064745611309267],[84.94225063900048,27.06420982967303],[84.94225095175057,27.06417144334938],[84.94193564482951,27.063403906478637],[84.94189387831781,27.063307190663878],[84.94170499406118,27.06280729462004],[84.94164196962738,27.062654250113443],[84.9414168183536,27.061427827973183],[84.94137698900451,27.06104440348261],[84.94135616871729,27.060967817986725],[84.94133547293357,27.0609092383178],[84.94123718152655,27.059855804170514],[84.94119616494469,27.059625862208236],[84.94075474722209,27.058549922928336],[84.94037460429905,27.05785953402519],[84.94025018074898,27.05737958103217],[84.939801077759,27.057260672817417],[84.9395883112672,27.057067991943185],[84.93946220106213,27.056761840443293],[84.9390808085561,27.056222683595827],[84.9389118076072,27.055914593833396],[84.93887022900094,27.05576142419333],[84.93874286810686,27.0556065034262],[84.93861538369241,27.055510226080017],[84.93842293745186,27.05541226033047],[84.93829439008886,27.0554131359861],[84.93816496808584,27.055468153005858],[84.93807849974,27.055601942890256],[84.93813827454409,27.05611834454507],[84.93804724406786,27.056692325665043],[84.9379390182613,27.0568646271098],[84.93753043115625,27.056995979690353],[84.93720900098324,27.056993605806923],[84.93662922581554,27.057085509728967],[84.93598405289075,27.057270379105585],[84.93559641177497,27.057498698347352],[84.935553583184,27.057499010931437],[84.93549387426307,27.057521955219364],[84.9351659419882,27.057648306858635],[84.9347150891676,27.057703199578498],[84.93439390882446,27.05766243874274],[84.93420183814071,27.05760279759319],[84.93362537481332,27.057254447468306],[84.93336896791565,27.057195243950996],[84.93326117841421,27.05727045326498],[84.93317370975741,27.057442567104054],[84.93305967133844,27.05820629236741],[84.93301590620031,27.058321701056855],[84.93288548486035,27.058494065047295],[84.93273492933993,27.05856958803311],[84.93260650782014,27.058586218097957],[84.93241399874918,27.05854689456503],[84.93228595144306,27.058468747418214],[84.93211607603335,27.05827800473207],[84.9319256916317,27.057970040249813],[84.93182027658527,27.057720217327454],[84.93163083012911,27.057297093176672],[84.9315031577371,27.057180559350623],[84.93124693817927,27.057064901873986],[84.93073349900446,27.056946431990674],[84.93034773258394,27.056942182101043],[84.9291242838357,27.057087979819297],[84.92886643961837,27.057085230011218],[84.92867436913126,27.057025526157744],[84.92854638400688,27.056949629547358],[84.928312547205,27.0567164363386],[84.92816311707111,27.05663841411566],[84.92790608441337,27.056579147810456],[84.92779898261016,27.056579899198837],[84.92745510664876,27.05669274576574],[84.92719620096051,27.056861484462353],[84.92706715307153,27.056880427629853],[84.9263605187888,27.056799281693213],[84.9259098528549,27.056795470539363],[84.92578080644937,27.05688887353596],[84.92570659153891,27.056832981901074],[84.92569377538547,27.057042981457844],[84.92564838422552,27.057271235987823],[84.92545362671274,27.05750049176799],[84.92502247008223,27.05780352030045],[84.92484978181956,27.05787916817115],[84.92414208530415,27.05789286227809],[84.92381978024012,27.05802365234116],[84.92343288835488,27.058116431726177],[84.92300129405481,27.058439841032534],[84.92284874007602,27.058668783231123],[84.92276270805112,27.058705482469712],[84.92248610532943,27.0584928579547],[84.92242133239742,27.05851136446801],[84.92229197238791,27.058645341124457],[84.92216205063231,27.058720676695042],[84.92164767385405,27.058717303152005],[84.92113136048681,27.05892386549921],[84.92091665698273,27.05895912657397],[84.92093747715425,27.05903571177617],[84.92106071295186,27.05961275622782],[84.92120820619773,27.05991872052702],[84.92131449634613,27.060053509317203],[84.92133281723288,27.06043705947966],[84.92139521656334,27.06066687660695],[84.92160829605527,27.060821234153234],[84.92211836039742,27.06130549877674],[84.92224572080733,27.061458106305523],[84.9223725803719,27.061707866083207],[84.92254245630681,27.061900734264366],[84.92279773894282,27.06213161367578],[84.92318163093591,27.062366056153053],[84.92330880382524,27.062500658066735],[84.92339327300978,27.062653577378224],[84.92345567235746,27.062883457522734],[84.92379461184935,27.06340260875383],[84.92396098759264,27.063940953609013],[84.92421527108,27.064345571235556],[84.92439596325518,27.06455431932996],[84.92459710119806,27.064787699802135],[84.92506546183075,27.06517512383856],[84.9257227704081,27.066078198859007],[84.92584950596095,27.066309829136515],[84.92591190497924,27.06653964655103],[84.92588858507219,27.066693253733778],[84.92580161622895,27.06684511130943],[84.92556315475453,27.067131071899567],[84.92549756932085,27.067282741286245],[84.92556065584671,27.067438036503486],[84.92581575106905,27.067725307569923],[84.92583594679589,27.06787866550584],[84.92583457165128,27.06801407962524],[84.92570514970868,27.06806915950539],[84.92510330451044,27.0682378364541],[84.92458855360037,27.068272848632713],[84.9234283164173,27.06853099159178],[84.92329858238098,27.068626646008518],[84.92316872263898,27.06877875355486],[84.92305968419167,27.069007445698926],[84.92305774700063,27.069237701171723],[84.92318129503995,27.069774108043845],[84.9231787958703,27.070081073521447],[84.92341013337054,27.07061904330084],[84.9234725321221,27.07084886080948],[84.92353555617353,27.071001905545724],[84.92395971449945,27.071522744265312],[84.92432009989011,27.07204170760034],[84.92440331958385,27.072348234562153],[84.92463403194049,27.072886141979133],[84.92475945545645,27.07327131691893],[84.92503405875131,27.07377058784947],[84.92511852809673,27.073923507489912],[84.9251612309281,27.0739818992832],[84.92554362407522,27.074406022645856],[84.92586243026933,27.074695043183475],[84.92605231369512,27.075079780477417],[84.92667023119598,27.075563232793264],[84.92666973058597,27.07558130055801],[84.92711895891158,27.07570020874222],[84.92754655460762,27.0758756954829],[84.92788674335769,27.076223358734175],[84.92803579899636,27.076339704986935],[84.92814277546763,27.07639772204869],[84.9283759251722,27.076685055163406],[84.92869398239893,27.077109553636532],[84.92905749111642,27.077226773892644],[84.9292074839347,27.077228024018307],[84.92940042940643,27.077229022815512],[84.93019459529737,27.07706128270392],[84.93038847789308,27.07694937387561],[84.93129168265278,27.07655287874256],[84.9316138634379,27.0764785431145],[84.93182819144695,27.076479355066972],[84.93193441794371,27.07651699029538],[84.93223121587037,27.076806198971774],[84.93237920952323,27.077017385862423],[84.9325704057381,27.077189935467658],[84.93276185118901,27.07730603178083],[84.93336888733798,27.0773854896966],[84.9338529397837,27.077447756198918],[84.93462347293912,27.07746969679129],[84.93494340398526,27.07758722993815],[84.93522038109005,27.077761405252488],[84.93579178255715,27.07847086125506],[84.93581272724747,27.07849105393615],[84.93581835142894,27.077956084486075],[84.93588631148184,27.077553841202565],[84.93589143585055,27.077039189376656]]]}}]}