{"type":"FeatureCollection","features":[{"type":"Feature","properties":{"province":"Madhesh Province","district":"Rautahat","municipality":"Madhav Narayan Municipality","ward":"2","wardNumber":2,"sourceMunicipality":"Madhav Narayan","sourceType":"Nagarpalika"},"geometry":{"type":"Polygon","coordinates":[[[85.2822835387693,26.916621616287387],[85.28297872996362,26.916479882846517],[85.28454186491133,26.916492752696776],[85.28478876769985,26.91645211424598],[85.28546101264739,26.916337638888994],[85.28599026842156,26.91622222713238],[85.2870547184041,26.91588299654159],[85.28796392549258,26.91579790308799],[85.28993639748295,26.91577313439],[85.29038324859302,26.915766755072898],[85.29088067968218,26.915726115069106],[85.29405333949104,26.915405877760044],[85.29472333335097,26.915210066431897],[85.29503250808146,26.9151643637842],[85.29651874055273,26.915171044121465],[85.29749997582041,26.915380912959105],[85.297615892031,26.91517447631899],[85.2977904501542,26.914360360767407],[85.29777318184927,26.91279858984168],[85.29784914450822,26.91239840950134],[85.29781806477381,26.91166069279173],[85.29763612168361,26.911384737167822],[85.29711130144578,26.911012568769706],[85.29650832848213,26.910738304309312],[85.29549645302859,26.90994407659871],[85.29514569564671,26.909371785938404],[85.29508323281829,26.909083450835972],[85.29514769322022,26.908940658844585],[85.2951476302957,26.908884330067444],[85.29514950286816,26.908550169172116],[85.29522227867378,26.908420880892404],[85.29558584696228,26.908124104002077],[85.29596385752363,26.907714355972786],[85.29598999096754,26.907578691609793],[85.29591052363791,26.90739888892841],[85.29528353992808,26.906896807910847],[85.29485544262955,26.906449303304232],[85.29473070679855,26.90610957920855],[85.29464817307108,26.90560255571047],[85.29426233633595,26.904500233980947],[85.29365323079674,26.903523950780365],[85.29336862074231,26.902628251747895],[85.29333591751441,26.902188435057298],[85.29353967162173,26.901071606265944],[85.29369353825719,26.900713562048853],[85.29425304793871,26.89977403343987],[85.29434020268857,26.89936922653886],[85.29425960664116,26.898862140154858],[85.29419520529382,26.898458709088178],[85.29395911562044,26.898009453996867],[85.29265506814183,26.89701704492509],[85.29203608942483,26.896657067234596],[85.29105897992793,26.896350045660984],[85.28993606798356,26.896342237671806],[85.28616969032268,26.89631568888286],[85.28275200083672,26.89629045141797],[85.28257706252133,26.896289764989866],[85.28048317166737,26.89640356044739],[85.27973821108027,26.896362990728104],[85.27964855663018,26.896731662060766],[85.27943610831917,26.897480695242947],[85.27955903313548,26.89810700347879],[85.27953071442487,26.898608339045452],[85.2792670601722,26.89927653677482],[85.27934990859825,26.90003869751071],[85.27946632829793,26.90031977941127],[85.27946395762937,26.901060122027577],[85.27971749261347,26.901716876402453],[85.27975006843114,26.901985142388614],[85.27980146552385,26.902413517721275],[85.27977558318527,26.902684597569294],[85.27964097228168,26.90280319592563],[85.27902043330383,26.902973561902808],[85.27857921500475,26.90375173098729],[85.27810004463585,26.904406113318302],[85.27788015777318,26.905220666789873],[85.27750108415503,26.905652921058245],[85.27730470093131,26.905763078688427],[85.2767391197441,26.905957764634007],[85.27664883758973,26.905987961853548],[85.27610020114153,26.906284051817305],[85.27555575502078,26.906677170260078],[85.27542064328117,26.90675513157926],[85.2747321444408,26.90715187682814],[85.27424747010907,26.907650526687533],[85.27420320409111,26.907691538384068],[85.27414280743088,26.907748555711567],[85.27369345828421,26.90809115884579],[85.2729223676405,26.90864432593929],[85.27258724563765,26.90884369903508],[85.27195414147269,26.909079647091513],[85.27127564642373,26.90964550497522],[85.2710240567828,26.90999310806745],[85.27097222724834,26.910257686465744],[85.27112453858207,26.91098302359017],[85.27113335668871,26.911380202955083],[85.27126246821413,26.91161152005733],[85.27146160605716,26.91196862358859],[85.27149724722773,26.912394873622446],[85.27156702561082,26.91277792356752],[85.2716605006701,26.91314271768882],[85.27218832222636,26.91373157532148],[85.27227823120332,26.913893246854464],[85.27230787194361,26.914459538218463],[85.27223615989945,26.91474456017254],[85.27191804626206,26.915169499592754],[85.2719106708575,26.91541107035137],[85.27233633044963,26.915982735674234],[85.27234177216336,26.91624224978312],[85.27242780524267,26.916449122339426],[85.27283439294996,26.916716323493713],[85.27500006469609,26.91719782729247],[85.27527016432457,26.91731498512547],[85.27532574814413,26.917438709036524],[85.27538577124342,26.91757124758727],[85.27540127655729,26.917607195621063],[85.27586275999717,26.917837760991908],[85.27638538893082,26.917853386887344],[85.27791500772932,26.91740387136639],[85.28151638540544,26.916861066239473],[85.2822835387693,26.916621616287387]]]}},{"type":"Feature","properties":{"province":"Madhesh Province","district":"Rautahat","municipality":"Madhav Narayan Municipality","ward":"5","wardNumber":5,"sourceMunicipality":"Madhav Narayan","sourceType":"Nagarpalika"},"geometry":{"type":"Polygon","coordinates":[[[85.31396903541237,26.902613813873447],[85.31466847565139,26.90219418645188],[85.31566233274906,26.90127766081193],[85.31599839280474,26.901166188784057],[85.31708678787274,26.90080620128708],[85.31825133409828,26.900120430020475],[85.31937848992474,26.89914388695633],[85.31964127057626,26.898791593786108],[85.31989023535573,26.898552272767446],[85.32002715955251,26.898422358406023],[85.3210794761363,26.897615740376352],[85.32128442201191,26.89716241811008],[85.32176271863624,26.89667270875969],[85.32251599004788,26.896074278354277],[85.3231677252819,26.895677720173264],[85.32324744194706,26.895656651658012],[85.32390318115495,26.895490223321836],[85.32432552315862,26.8955562406134],[85.32498357445085,26.895261149544172],[85.32552821081492,26.895222197195142],[85.32593598441909,26.89511453847224],[85.32703025908587,26.894948482908763],[85.32743690731671,26.894951481610658],[85.32826145809217,26.894742790539983],[85.32829290644406,26.894688336552054],[85.3288364108222,26.89375330823731],[85.32941943486261,26.89356049808651],[85.33021290943027,26.893013519946916],[85.33134081668989,26.892382265919686],[85.33159246711381,26.891788527169975],[85.3316186631267,26.891607724232017],[85.33161866305414,26.8915490813363],[85.33144859474211,26.89084418800343],[85.33146915899813,26.890024696751837],[85.33148247267722,26.889494165793163],[85.33137649375072,26.889206269849627],[85.33107750616514,26.888771268906797],[85.33024838440599,26.888047748571317],[85.32996477812816,26.88763744256194],[85.32967442126267,26.887507093361656],[85.32936543277243,26.887505407150528],[85.3291457221066,26.88680101411394],[85.32883791989235,26.886472169405923],[85.32858457329336,26.886011847473323],[85.32823256741611,26.885780406661766],[85.32816885507872,26.88554858877165],[85.3281706038328,26.885216741400786],[85.32836936004178,26.884722845786147],[85.32833884665357,26.88437561858955],[85.32826556742236,26.884134735371305],[85.32820798221461,26.88394568006165],[85.327599253449,26.88306442480546],[85.32754860951809,26.88299040325752],[85.32703860024425,26.881672582347104],[85.32696162633451,26.88058313773764],[85.32689322492428,26.880328750339903],[85.32665901171856,26.87999465394545],[85.3266417546857,26.879970021409406],[85.325577051653,26.87981073132113],[85.3247419311376,26.879480014432662],[85.32360213724768,26.879195062130044],[85.3210638238307,26.877961714977264],[85.32094847256536,26.878373523795613],[85.32050694085359,26.879043535700074],[85.32038227386528,26.879523177501483],[85.31999819942699,26.880041394548154],[85.31937572615715,26.88061819329512],[85.31903291525941,26.88085613978409],[85.31876131568696,26.880930913296897],[85.31816109730282,26.880990684965372],[85.31715573120626,26.88122807276186],[85.31698785700365,26.881292843490066],[85.31672351153732,26.881396875134772],[85.31522921594078,26.881525921876563],[85.31443655082468,26.881488166102674],[85.31353490902404,26.88160939429977],[85.3106015251463,26.881848857337427],[85.30959490786469,26.8820861827673],[85.30924215493437,26.882170709853103],[85.3082720505301,26.88224286182933],[85.30690580321966,26.88261666694049],[85.30642656621325,26.882747520510446],[85.30602873563099,26.883064928716088],[85.30600378942218,26.883085435139588],[85.30562277611371,26.883276305818804],[85.30518686700402,26.883404470995128],[85.30498016759684,26.883541824897602],[85.30368569663857,26.883811099773492],[85.30284870430448,26.884139326123172],[85.30258767258152,26.88431325322589],[85.3019987716794,26.884544449840785],[85.30103679503574,26.88461428839406],[85.30065015445027,26.884755457180756],[85.30045189490887,26.88475508332306],[85.29961603108913,26.885345074016776],[85.29956451235105,26.885350076346082],[85.29948104649064,26.885757133874197],[85.29979247635166,26.886133430202065],[85.29982505268649,26.88650328857512],[85.29957246383671,26.886925413509065],[85.29950900527925,26.887260012529914],[85.2996416176963,26.887466447499097],[85.29966337623267,26.88750014505937],[85.29977110380734,26.887562349473214],[85.30041077596198,26.88764218161183],[85.30066611974266,26.887739146751716],[85.30087851106941,26.887883875689838],[85.30122051603271,26.888451790028945],[85.3012611574656,26.88875612914126],[85.30117606585516,26.88901870662578],[85.30102713713804,26.889150997107613],[85.30054996317487,26.889241151457572],[85.30050150940393,26.889410889020116],[85.30054233900448,26.88967909228149],[85.30107828950928,26.89026326080712],[85.30130162202701,26.890364977121816],[85.30186782997471,26.890456813095632],[85.30193272942864,26.890575847926808],[85.30203802033186,26.89086380676768],[85.3020363963257,26.891159456080835],[85.30195580573472,26.891266299974482],[85.30196043279577,26.891340759435792],[85.3020339053475,26.892529420942843],[85.30187841486088,26.89307939567165],[85.30187673012811,26.89342474728048],[85.30236378855032,26.894133390157986],[85.30261256974124,26.894584833744826],[85.30315614780277,26.895175691939215],[85.30368453839338,26.89640992681515],[85.30370179609379,26.896653498406536],[85.30376620148732,26.897546697772327],[85.30415947888135,26.898687405449717],[85.304230759473,26.899357038977065],[85.30449355057762,26.900316132263463],[85.3049217146901,26.90131654816026],[85.30528235179656,26.901969988007778],[85.30589026590023,26.90262567765148],[85.30646879103404,26.902739957649757],[85.30671244292031,26.902739956563384],[85.30700054707945,26.90262673370005],[85.3072762736357,26.902628670557764],[85.30833572305909,26.90248112032826],[85.30946050828052,26.90232400490133],[85.30996162969615,26.902387020819962],[85.3102244768839,26.902477108495408],[85.3105740440267,26.902715363585248],[85.31115276493934,26.9039942361665],[85.311325391972,26.904121272299683],[85.31145124936928,26.903955347321354],[85.3118325113589,26.90372383998513],[85.31210042094197,26.903486643567323],[85.31257734067653,26.902931477742243],[85.31396903541237,26.902613813873447]]]}},{"type":"Feature","properties":{"province":"Madhesh Province","district":"Rautahat","municipality":"Madhav Narayan Municipality","ward":"3","wardNumber":3,"sourceMunicipality":"Madhav Narayan","sourceType":"Nagarpalika"},"geometry":{"type":"Polygon","coordinates":[[[85.30619003184454,26.915298399854613],[85.30687315592121,26.915149851583],[85.30732919630273,26.914960543841598],[85.3073175654836,26.91482300359434],[85.3074042837971,26.91459199747324],[85.30779723664071,26.914173059153473],[85.30803025845873,26.914017387110064],[85.30829666788897,26.91397881185481],[85.30919505642177,26.91355518167963],[85.3095036658296,26.913087354956165],[85.30967791636483,26.912966131409686],[85.31058974666527,26.91245660064999],[85.3110138980502,26.91195607632391],[85.31113112611179,26.911643546610215],[85.31116650637755,26.910568855413214],[85.31106264936328,26.909698599985344],[85.31148398602453,26.909064973755434],[85.3116399765958,26.908569264476657],[85.31164066362486,26.908406716743777],[85.31137900172926,26.907932954065853],[85.31076195779535,26.90715554234584],[85.31034555208514,26.906741797951142],[85.31014566417697,26.90643896027099],[85.31007450761294,26.905674486204013],[85.31021368079732,26.90524435863817],[85.31113263589596,26.9043781611022],[85.311325391972,26.904121272299683],[85.31115276493934,26.9039942361665],[85.3105740440267,26.902715363585248],[85.3102244768839,26.902477108495408],[85.30996162969615,26.902387020819962],[85.30946050828052,26.90232400490133],[85.30833572305909,26.90248112032826],[85.3072762736357,26.902628670557764],[85.30700054707945,26.90262673370005],[85.30671244292031,26.902739956563384],[85.30646879103404,26.902739957649757],[85.30589026590023,26.90262567765148],[85.30528235179656,26.901969988007778],[85.3049217146901,26.90131654816026],[85.30449355057762,26.900316132263463],[85.304230759473,26.899357038977065],[85.30415947888135,26.898687405449717],[85.30376620148732,26.897546697772327],[85.30370179609379,26.896653498406536],[85.30368453839338,26.89640992681515],[85.30315614780277,26.895175691939215],[85.30261256974124,26.894584833744826],[85.30236378855032,26.894133390157986],[85.30187673012811,26.89342474728048],[85.30187841486088,26.89307939567165],[85.3020339053475,26.892529420942843],[85.30196043279577,26.891340759435792],[85.30195580573472,26.891266299974482],[85.3020363963257,26.891159456080835],[85.30203802033186,26.89086380676768],[85.30193272942864,26.890575847926808],[85.30186782997471,26.890456813095632],[85.30130162202701,26.890364977121816],[85.30107828950928,26.89026326080712],[85.30054233900448,26.88967909228149],[85.30050150940393,26.889410889020116],[85.30054996317487,26.889241151457572],[85.30102713713804,26.889150997107613],[85.30117606585516,26.88901870662578],[85.3012611574656,26.88875612914126],[85.30122051603271,26.888451790028945],[85.30087851106941,26.887883875689838],[85.30066611974266,26.887739146751716],[85.30041077596198,26.88764218161183],[85.29977110380734,26.887562349473214],[85.29966337623267,26.88750014505937],[85.2996416176963,26.887466447499097],[85.29950900527925,26.887260012529914],[85.29957246383671,26.886925413509065],[85.29982505268649,26.88650328857512],[85.29979247635166,26.886133430202065],[85.29948104649064,26.885757133874197],[85.29956451235105,26.885350076346082],[85.29962290571993,26.88506742959114],[85.29953362078093,26.884686755993815],[85.29924751351906,26.884375666355385],[85.2990320589709,26.884246754959342],[85.29770026022479,26.884335789176195],[85.2975764641924,26.884296277838555],[85.29703195126645,26.884118479034015],[85.29542254384455,26.883262049020324],[85.29513099809292,26.88308187309013],[85.29510436267888,26.883064054966884],[85.29467839315319,26.88279260315199],[85.29319084014317,26.881585194742904],[85.2922739385369,26.88119414731942],[85.29178551026963,26.881187335905906],[85.29134028409143,26.881098875358205],[85.29109869469255,26.88099497123945],[85.29014703082383,26.88058835715847],[85.28993620248666,26.880364604692215],[85.2897636376772,26.88018336521124],[85.28932473028219,26.880600427685984],[85.28884243463229,26.881408355846574],[85.28806990587871,26.881984153866327],[85.28737921823709,26.88228162070432],[85.28691573699786,26.882362584427817],[85.28578313396726,26.882264562330217],[85.28503604676214,26.882029872345623],[85.28420468089818,26.88218867452773],[85.283774588072,26.882386734959404],[85.28320713087787,26.882563352352165],[85.2829667960057,26.882901890887652],[85.28300374668287,26.882942215133347],[85.28300124748606,26.883064125922413],[85.28299868490306,26.88321985966798],[85.28302194428217,26.883384407500817],[85.28341709171586,26.883771269005557],[85.28342603284493,26.88377795790078],[85.28399230542175,26.884160942919216],[85.28418800366988,26.88443689776033],[85.28423764893083,26.884709539922596],[85.2840075087305,26.885614432272508],[85.2841166778732,26.886143837232538],[85.28488009390328,26.887872590415192],[85.28508323703743,26.888638126517893],[85.28504828805852,26.8888844498462],[85.2849368735669,26.889106640529018],[85.28489317130342,26.889192791242987],[85.28377082459964,26.88938810501578],[85.28339481121706,26.88936222455904],[85.28261515201118,26.889536342986457],[85.28180254266388,26.889523406071753],[85.28122489545758,26.889749850774017],[85.28115712238105,26.889989671497972],[85.2812338412558,26.890485567307888],[85.28119533023218,26.890921508190186],[85.28108873105651,26.89117752158729],[85.28091022946958,26.891364202300625],[85.28066964442296,26.89179301700299],[85.28042255722305,26.892318860493777],[85.280453508802,26.89266164848558],[85.28057987054432,26.893041947117602],[85.28057831143676,26.893572352829757],[85.28044995576542,26.894072375350085],[85.28025638961797,26.89482347277497],[85.27995234541544,26.895485293526768],[85.27973821108027,26.896362990728104],[85.28048317166737,26.89640356044739],[85.28257706252133,26.896289764989866],[85.28275200083672,26.89629045141797],[85.28616969032268,26.89631568888286],[85.28993606798356,26.896342237671806],[85.29105897992793,26.896350045660984],[85.29203608942483,26.896657067234596],[85.29265506814183,26.89701704492509],[85.29395911562044,26.898009453996867],[85.29419520529382,26.898458709088178],[85.29425960664116,26.898862140154858],[85.29434020268857,26.89936922653886],[85.29425304793871,26.89977403343987],[85.29369353825719,26.900713562048853],[85.29353967162173,26.901071606265944],[85.29333591751441,26.902188435057298],[85.29336862074231,26.902628251747895],[85.29365323079674,26.903523950780365],[85.29426233633595,26.904500233980947],[85.29464817307108,26.90560255571047],[85.29473070679855,26.90610957920855],[85.29485544262955,26.906449303304232],[85.29528353992808,26.906896807910847],[85.29591052363791,26.90739888892841],[85.29598999096754,26.907578691609793],[85.29596385752363,26.907714355972786],[85.29558584696228,26.908124104002077],[85.29522227867378,26.908420880892404],[85.29514950286816,26.908550169172116],[85.2951476302957,26.908884330067444],[85.2952290350187,26.908901521924335],[85.29555315584221,26.909280006174164],[85.29807903100186,26.91098117884041],[85.29952568904893,26.91154789933383],[85.30037612986143,26.912052354858396],[85.30053393877571,26.912195395978873],[85.30074189121794,26.912383075123188],[85.30093602695399,26.912735615161573],[85.30100280472934,26.913231510131617],[85.30096398177908,26.913687831750146],[85.3008309980802,26.914002800432158],[85.3002682360464,26.914879185919744],[85.3003154418105,26.91509543736829],[85.30048669351015,26.915211220287528],[85.3009588035714,26.915213592671606],[85.3017771038774,26.91537751160243],[85.30291539480001,26.915283601957466],[85.30409670246442,26.915268153053773],[85.30506930935071,26.91538780716789],[85.30541618672493,26.91539136935532],[85.30600265060734,26.91532046950464],[85.30619003184454,26.915298399854613]]]}},{"type":"Feature","properties":{"province":"Madhesh Province","district":"Rautahat","municipality":"Madhav Narayan Municipality","ward":"4","wardNumber":4,"sourceMunicipality":"Madhav Narayan","sourceType":"Nagarpalika"},"geometry":{"type":"Polygon","coordinates":[[[85.32881293433041,26.93140287196579],[85.3299953660272,26.931251820026876],[85.33020400510432,26.931276888335827],[85.33068499220671,26.931062447517924],[85.33130853275235,26.931081387363307],[85.33136304995222,26.93069946239721],[85.3315539920099,26.930225946822244],[85.33161832730907,26.930128292647534],[85.33186260136134,26.929758057240402],[85.33194318617768,26.928793586350388],[85.33183013733127,26.927799294363407],[85.3319328593874,26.927434937037912],[85.33190603426763,26.92708308395389],[85.33177741959257,26.926425266274567],[85.33161817227015,26.926158188584097],[85.33148074531076,26.925926996846158],[85.33129836173383,26.925409595287313],[85.33108096526583,26.924743588317785],[85.33100124629276,26.924498329519118],[85.33102850107535,26.923818692677663],[85.33084904665792,26.922044172057966],[85.33104573704772,26.921053692018347],[85.33095744967211,26.920395499054262],[85.3309611309323,26.91947910507603],[85.33108660081727,26.917672261144556],[85.33107797040259,26.9173180317135],[85.33096092488205,26.916892595311925],[85.3306810077201,26.916692100697396],[85.3301547455277,26.91577620915834],[85.32997674119032,26.915466431441008],[85.32946929681412,26.914385554555146],[85.32917455554714,26.91324628398141],[85.32919249379813,26.91252613485352],[85.32921074490075,26.911774288745306],[85.32944345010665,26.91100481142365],[85.32974067919893,26.910482906883836],[85.3299356239262,26.910142493166763],[85.33060630238404,26.909635152495987],[85.33066682414662,26.909589388440235],[85.33091647487049,26.909144631434394],[85.33095686105274,26.908670304109563],[85.33093153798802,26.90844261225826],[85.33079998064528,26.907265642326323],[85.3311759122501,26.90475909136951],[85.33128763210672,26.90361144033592],[85.33148450914145,26.902580386080274],[85.3315118898609,26.90212418945236],[85.33122946259199,26.900587615006373],[85.33107552504767,26.899749431975533],[85.33058908899737,26.89868418403908],[85.32911609072916,26.89581585056136],[85.32829290644406,26.894688336552054],[85.32826145809217,26.894742790539983],[85.32743690731671,26.894951481610658],[85.32703025908587,26.894948482908763],[85.32593598441909,26.89511453847224],[85.32552821081492,26.895222197195142],[85.32498357445085,26.895261149544172],[85.32432552315862,26.8955562406134],[85.32390318115495,26.895490223321836],[85.32324744194706,26.895656651658012],[85.3231677252819,26.895677720173264],[85.32251599004788,26.896074278354277],[85.32176271863624,26.89667270875969],[85.32128442201191,26.89716241811008],[85.3210794761363,26.897615740376352],[85.32002715955251,26.898422358406023],[85.31989023535573,26.898552272767446],[85.31964127057626,26.898791593786108],[85.31937848992474,26.89914388695633],[85.31825133409828,26.900120430020475],[85.31708678787274,26.90080620128708],[85.31599839280474,26.901166188784057],[85.31566233274906,26.90127766081193],[85.31466847565139,26.90219418645188],[85.31396903541237,26.902613813873447],[85.31257734067653,26.902931477742243],[85.31210042094197,26.903486643567323],[85.3118325113589,26.90372383998513],[85.31145124936928,26.903955347321354],[85.311325391972,26.904121272299683],[85.31113263589596,26.9043781611022],[85.31021368079732,26.90524435863817],[85.31007450761294,26.905674486204013],[85.31014566417697,26.90643896027099],[85.31034555208514,26.906741797951142],[85.31076195779535,26.90715554234584],[85.31137900172926,26.907932954065853],[85.31164066362486,26.908406716743777],[85.3116399765958,26.908569264476657],[85.31148398602453,26.909064973755434],[85.31106264936328,26.909698599985344],[85.31116650637755,26.910568855413214],[85.31113112611179,26.911643546610215],[85.3110138980502,26.91195607632391],[85.31058974666527,26.91245660064999],[85.30967791636483,26.912966131409686],[85.3095036658296,26.913087354956165],[85.30919505642177,26.91355518167963],[85.30829666788897,26.91397881185481],[85.30803025845873,26.914017387110064],[85.30779723664071,26.914173059153473],[85.3074042837971,26.91459199747324],[85.3073175654836,26.91482300359434],[85.30732919630273,26.914960543841598],[85.30733582407045,26.915041754399645],[85.30797230796546,26.91510802062384],[85.30855127054527,26.915256185741583],[85.30892665793209,26.915279752648527],[85.30958264701226,26.915124702973774],[85.31051023637539,26.914991971357566],[85.31275349094192,26.914492623893157],[85.31338897245664,26.914308378441262],[85.31635024192407,26.91406178820038],[85.31699116352527,26.91396781922467],[85.31775194222554,26.914001324851764],[85.31814221057978,26.91410829134052],[85.31845032505245,26.91424758026906],[85.31850415701095,26.91427189943611],[85.3186803486886,26.914592992856637],[85.31871480092352,26.914847754836103],[85.31871324069176,26.915197608126682],[85.31850091979484,26.916102375188373],[85.31881229002165,26.916950372292963],[85.31901987470086,26.918128842656028],[85.31896817897726,26.91962797049162],[85.3192469139182,26.920593627444745],[85.31931037818843,26.9211234704214],[85.31948507143629,26.92169282420493],[85.31981226197806,26.92275957366233],[85.32025574341645,26.923705660964817],[85.32055617326228,26.924743339206838],[85.32062370017788,26.92497740750252],[85.320609634978,26.925331886915675],[85.3205985086914,26.925620909575223],[85.3205117298381,26.92600546045408],[85.32012115870742,26.927390369356296],[85.31981861724479,26.9282193648855],[85.31976410050376,26.928619295744472],[85.31979348726418,26.928871806608193],[85.32002350996854,26.928892186648987],[85.32036238482992,26.929015407918012],[85.32096991964163,26.929072921271388],[85.32203356203816,26.92948047212571],[85.32219637290957,26.929627952582575],[85.3223418058964,26.930217874747377],[85.32249168031292,26.93119153544191],[85.32265380415767,26.931487933350343],[85.32318431237213,26.931688364568835],[85.32399498654311,26.931994449007025],[85.32584091211919,26.931893596362794],[85.3274772586112,26.931580243961783],[85.32839972176332,26.93154222756002],[85.32881293433041,26.93140287196579]]]}},{"type":"Feature","properties":{"province":"Madhesh Province","district":"Rautahat","municipality":"Madhav Narayan Municipality","ward":"9","wardNumber":9,"sourceMunicipality":"Madhav Narayan","sourceType":"Nagarpalika"},"geometry":{"type":"Polygon","coordinates":[[[85.39041655687666,26.91585135982074],[85.39076448402912,26.914252263000527],[85.39085444909107,26.91358106544046],[85.39100693950671,26.91318457307967],[85.39125883252851,26.911706012072706],[85.39170730095637,26.910557296614506],[85.39208124593694,26.910050270527442],[85.39216827162565,26.90924140697483],[85.39211581164686,26.90886735944328],[85.39206422859539,26.90866242451108],[85.39205434946446,26.90862866548396],[85.39200895673501,26.908468868678124],[85.39196455686997,26.907361105638874],[85.39196280608112,26.907322782159227],[85.39201582147672,26.906825698400567],[85.39221145257632,26.906458151198002],[85.39267249242212,26.905920928224347],[85.39368191745761,26.90503978756336],[85.39419485300269,26.90477964519321],[85.39442174755732,26.904603654964724],[85.39465276500206,26.904093503175925],[85.39468821158081,26.903601171340757],[85.39464825404596,26.902863517101153],[85.39490315502405,26.902301225230417],[85.39560659512527,26.901565317556535],[85.39592927113735,26.901036222326397],[85.39607550851895,26.900542763451373],[85.39606675211365,26.9001410833077],[85.39589674888552,26.89967557222587],[85.39573362365955,26.89935666706954],[85.39503848339335,26.89800258613469],[85.39493606780754,26.897608659155058],[85.39461113132867,26.89687388266423],[85.39444450309534,26.89632253431168],[85.39407473846663,26.895734864015076],[85.3935804274488,26.895098680316263],[85.39337685027446,26.89471481825244],[85.39331301054388,26.89423242728255],[85.3933836558548,26.89363137481764],[85.39355859148503,26.89316698706668],[85.39362579899755,26.892595381502126],[85.39346967234448,26.891666985115368],[85.39336850793276,26.89137002321159],[85.39325527818926,26.891274121083352],[85.39310196939935,26.89088513206507],[85.39260340763212,26.890312217598495],[85.39236093950475,26.889833952914575],[85.3918054797602,26.889031408291277],[85.39096598100603,26.88841229417708],[85.39046204437946,26.888168975886384],[85.38986832562891,26.887987489198206],[85.3891210516992,26.887965549708817],[85.38874697936102,26.888199495399945],[85.38829356770798,26.888741032232264],[85.38774674523444,26.888999174281846],[85.38726819499736,26.88907838812598],[85.38671818093313,26.88902962728232],[85.38603086622074,26.888966425491702],[85.38502756068297,26.88879794462285],[85.38438864164785,26.889038957490612],[85.38320733475919,26.889086665927707],[85.38314162250803,26.88906240937758],[85.3826074886089,26.88886685503099],[85.38034103086557,26.88852570685901],[85.37980076960238,26.888293954246645],[85.37881008806133,26.88745277558034],[85.37842663266409,26.88712699537415],[85.37771623955403,26.88609344569998],[85.37743307077007,26.885787045593204],[85.37565191350207,26.885088913607913],[85.37405332167118,26.884190409103848],[85.37402287254105,26.884165965349712],[85.37335012253094,26.88364425363938],[85.37330029169239,26.88358386108946],[85.3728673792971,26.883062210447765],[85.37244334464573,26.88255175065616],[85.37115354863779,26.881009180208864],[85.37057314502984,26.880518352332125],[85.37002613095899,26.880295664887388],[85.36912961416596,26.880207269555623],[85.36681757593738,26.87946456570324],[85.36597301425739,26.8791410387645],[85.36483178221457,26.87889922433633],[85.364509664566,26.87895655547224],[85.3634480884959,26.87895099856873],[85.36230410851968,26.879056849152985],[85.36162823503638,26.87889411734223],[85.36084219520734,26.878569902218278],[85.36007222243141,26.87816878926965],[85.35904341884786,26.879537447956565],[85.35783286705352,26.881546545739095],[85.35719652041968,26.883008478728062],[85.35719533258745,26.883064870324215],[85.35719058298824,26.883351580052572],[85.35742110685541,26.883629222344332],[85.35748494456244,26.883917556993488],[85.35744855962618,26.884346683423733],[85.35758148742423,26.884832950231324],[85.35742474983931,26.885827493188373],[85.35721117381759,26.88612301860062],[85.35713533680033,26.88651869821337],[85.35728651858349,26.886738449533265],[85.35797365083515,26.887417956892136],[85.35804974225974,26.88762483040488],[85.35806537371005,26.88766759288555],[85.35795465015703,26.88824645093087],[85.35790963422235,26.888328162895995],[85.35763616063433,26.888509092188357],[85.35749442317896,26.888760980119486],[85.35749261255673,26.889137902932145],[85.35786963133201,26.88987230413463],[85.3583470057765,26.89152885076514],[85.35857315470565,26.891917150281508],[85.35914919021592,26.893561505515027],[85.35899039087543,26.89470052822094],[85.3589080496418,26.894918030586812],[85.35890792536628,26.89496091764101],[85.3589058022469,26.895306269313192],[85.35911482205081,26.89604679864138],[85.35884610143373,26.89652331480141],[85.358938074445,26.89668948854535],[85.35978420065051,26.897177876853878],[85.35995595169963,26.89738612392037],[85.360070059921,26.897874766647504],[85.35998765872411,26.898351782517206],[85.36008313377489,26.89870294735371],[85.36071330671751,26.899349258525824],[85.36071280669812,26.899407838962663],[85.36070887425038,26.900233956213462],[85.36051161948718,26.900791058609],[85.36028922827205,26.901242379989803],[85.36020951808047,26.902048867307627],[85.36001132873588,26.903048412380176],[85.36002890808145,26.904461140284777],[85.36010187390585,26.90466807535518],[85.36063456877991,26.90463581238723],[85.36204058111582,26.904423616805943],[85.36264361328308,26.904268879778645],[85.36586172425453,26.903646364276046],[85.36694430718345,26.903597531139162],[85.36773572362087,26.903779454548477],[85.36816663175271,26.90381358658487],[85.36996303746983,26.903615580615938],[85.37139599780718,26.903394006399882],[85.3719406970788,26.903366182192606],[85.37209731717208,26.903357866293007],[85.37241756042248,26.903557860153832],[85.37245294935569,26.903722346004013],[85.37245057414715,26.90373359904297],[85.37236354594894,26.904190358809164],[85.37214115517179,26.904639429691017],[85.37187731585796,26.905614780373607],[85.37182850041613,26.907508838039686],[85.37186257711339,26.90767551155294],[85.37232981596748,26.908472242735762],[85.37249550729663,26.909156755544135],[85.37282938605306,26.91001338003167],[85.37280556604419,26.910178366360736],[85.37329974909393,26.910446691632853],[85.37363243524459,26.91062849300471],[85.37505358900731,26.91176119186485],[85.37569207574008,26.912197316398302],[85.37634150288402,26.912443759909078],[85.37722314226492,26.912999417357838],[85.37787382274482,26.91360696720459],[85.37821276116618,26.913836094734002],[85.37873283012262,26.914316295036535],[85.3795492586694,26.91488608257071],[85.38009327349832,26.915311828413735],[85.38028190635902,26.91544986858364],[85.38029397360894,26.915458870452444],[85.38058357909125,26.915465058369772],[85.3807189419653,26.915470496152075],[85.38118267376056,26.91540047285535],[85.38198509123006,26.915340700256856],[85.3823106494509,26.915452669255636],[85.3825271674935,26.915608463481774],[85.38306117879459,26.916140429050298],[85.38328069997976,26.916544546079262],[85.38343613643401,26.91715234839801],[85.38342332446032,26.917755087963556],[85.38357932023511,26.91795670896005],[85.38416116093461,26.91828273857216],[85.38450122540739,26.918602205156628],[85.38503842636652,26.919192750370218],[85.38537073826998,26.919494212407105],[85.38568785807949,26.91989732863188],[85.38601835892322,26.920514757626883],[85.38657881705215,26.92089067755201],[85.38670129978696,26.921024903193878],[85.38742920551958,26.92284362056831],[85.38758970801543,26.923562018804155],[85.38772857483072,26.924111366919714],[85.3882435731555,26.92375200761637],[85.38951484333138,26.92269212541176],[85.38985590248453,26.922329954272307],[85.39008623326664,26.921916894528223],[85.3900587827518,26.921526717297667],[85.38989353013687,26.92093473193064],[85.38985732589813,26.920393448350094],[85.39007977182204,26.919134077029234],[85.39030140968295,26.918418677809747],[85.39041655687666,26.91585135982074]]]}},{"type":"Feature","properties":{"province":"Madhesh Province","district":"Rautahat","municipality":"Madhav Narayan Municipality","ward":"6","wardNumber":6,"sourceMunicipality":"Madhav Narayan","sourceType":"Nagarpalika"},"geometry":{"type":"Polygon","coordinates":[[[85.33879883877395,26.91458618203413],[85.33959862927458,26.914296404653715],[85.33983202789815,26.91433935347499],[85.34008030573304,26.91425801572601],[85.34166881639428,26.913229516070988],[85.3417921742935,26.91317187406611],[85.34188714534474,26.91311454374123],[85.34206189602419,26.91298875603689],[85.34288000165849,26.912073669809672],[85.34353267313719,26.911485117826068],[85.3444395005887,26.910882872078254],[85.3448883498831,26.91046781069661],[85.34537045848205,26.90987863437102],[85.3458319343787,26.909147478955187],[85.34632573620146,26.908592062937327],[85.3468085928806,26.907594392017305],[85.34715439543612,26.906026928818576],[85.34750264236281,26.905301401300637],[85.34755541013254,26.9051903060922],[85.34815056068025,26.904480406092702],[85.34822071017996,26.90439625565065],[85.34853038255075,26.903923803131377],[85.34868937468156,26.903367075634918],[85.34875007872095,26.90265561589165],[85.34868397822954,26.900857337888347],[85.3488807952781,26.900209959678413],[85.3489965192475,26.89935570746402],[85.34914331879398,26.898891570306855],[85.34928411290477,26.897874520679924],[85.34936813899436,26.897266654323957],[85.34989444655236,26.896008968695725],[85.35002649019204,26.895366716649356],[85.35023918917898,26.89489070031217],[85.35047333405363,26.89436479422537],[85.35044194349737,26.893843766421764],[85.35019397456749,26.89341726772265],[85.34969735072741,26.89288261357739],[85.34817247061038,26.891610624590605],[85.34689818316525,26.890453729704436],[85.3467625076331,26.890371518509724],[85.34657362535542,26.890255986148226],[85.34553224134012,26.889898011877275],[85.34545958991127,26.889873880517133],[85.34478940625765,26.88976966692169],[85.34356295766408,26.88972266009424],[85.34286838983643,26.889582623210867],[85.34248518477673,26.889371814033552],[85.34211692221825,26.8888855477068],[85.34130680751747,26.88812139089005],[85.34055365392538,26.887760664475778],[85.34030199879754,26.887715652432252],[85.33966376479754,26.887701402028608],[85.33937741095495,26.887756044872532],[85.33928887867944,26.887772675704138],[85.33883590217629,26.888050072291335],[85.33767973165668,26.888358982201147],[85.33745827566003,26.888417500759946],[85.33543366286946,26.888831634854633],[85.33379369218147,26.8894226939153],[85.33161846308032,26.889984997128288],[85.33146915899813,26.890024696751837],[85.33144859474211,26.89084418800343],[85.33161866305414,26.8915490813363],[85.3316186631267,26.891607724232017],[85.33159246711381,26.891788527169975],[85.33134081668989,26.892382265919686],[85.33021290943027,26.893013519946916],[85.32941943486261,26.89356049808651],[85.3288364108222,26.89375330823731],[85.32829290644406,26.894688336552054],[85.32911609072916,26.89581585056136],[85.33058908899737,26.89868418403908],[85.33107552504767,26.899749431975533],[85.33122946259199,26.900587615006373],[85.3315118898609,26.90212418945236],[85.33148450914145,26.902580386080274],[85.33128763210672,26.90361144033592],[85.3311759122501,26.90475909136951],[85.33079998064528,26.907265642326323],[85.33093153798802,26.90844261225826],[85.33095686105274,26.908670304109563],[85.33091647487049,26.909144631434394],[85.33066682414662,26.909589388440235],[85.33060630238404,26.909635152495987],[85.3299356239262,26.910142493166763],[85.32974067919893,26.910482906883836],[85.32944345010665,26.91100481142365],[85.32921074490075,26.911774288745306],[85.32919249379813,26.91252613485352],[85.32917455554714,26.91324628398141],[85.32946929681412,26.914385554555146],[85.32997674119032,26.915466431441008],[85.3301547455277,26.91577620915834],[85.3306810077201,26.916692100697396],[85.33096092488205,26.916892595311925],[85.33142184129534,26.916689595402666],[85.3316184135014,26.916651644933264],[85.33169000181636,26.91663739030662],[85.33199367400564,26.916442706723387],[85.33250517209942,26.916264088594207],[85.33336786243184,26.916077590999784],[85.33372042761825,26.91592079244246],[85.33433827685916,26.91573892328329],[85.33491586323655,26.915663460160683],[85.33530656690937,26.915431826741784],[85.33746297545967,26.91472973283106],[85.33779115837287,26.914647644383457],[85.33879883877395,26.91458618203413]]]}},{"type":"Feature","properties":{"province":"Madhesh Province","district":"Rautahat","municipality":"Madhav Narayan Municipality","ward":"1","wardNumber":1,"sourceMunicipality":"Madhav Narayan","sourceType":"Nagarpalika"},"geometry":{"type":"Polygon","coordinates":[[[85.28458891273286,26.929296514200885],[85.28570206872003,26.929141900519053],[85.28656951182501,26.92913626842178],[85.28731853540341,26.92901204051038],[85.28774700430269,26.929046485354533],[85.28819310707158,26.929247791917646],[85.28840637305485,26.92934288071903],[85.28890918786165,26.93004245844876],[85.2894260052114,26.930538789118124],[85.28966959536986,26.930647194726006],[85.28993688111291,26.930680827670724],[85.29046457426448,26.93074596841909],[85.29086453435983,26.93081679983939],[85.29300000709529,26.931262167896648],[85.29441502548453,26.93135299875996],[85.2950728294486,26.931455275327064],[85.29575876706986,26.93132029362977],[85.29597409542727,26.931268715118815],[85.29633278839366,26.931143488329415],[85.2963960603315,26.93095105666404],[85.2967041062403,26.930311741621406],[85.29719940846375,26.929693307407437],[85.29728106093908,26.929401408502113],[85.29728337161933,26.928999540906542],[85.29709442246384,26.928389737101018],[85.29705602930869,26.92783707542016],[85.29700919525824,26.92715812649353],[85.29679254607998,26.926214412561286],[85.29648993008065,26.925519772650762],[85.29649099149586,26.92522637392467],[85.2964915527808,26.92511127724767],[85.29637594564652,26.924742169525533],[85.29628834858856,26.9244630880117],[85.29602880031618,26.92235290764635],[85.29567653980676,26.921390126632815],[85.29571436337733,26.92106259283912],[85.29612488508992,26.920575759798048],[85.29619822371109,26.920383203005045],[85.2958372713358,26.919370844490984],[85.29579600293523,26.91889951903483],[85.29603245966523,26.918274396638843],[85.29640033990627,26.91769322370045],[85.2964918105939,26.91754793017896],[85.2969435285127,26.91620534574238],[85.29721618820801,26.91588237433524],[85.29749997582041,26.915380912959105],[85.29651874055273,26.915171044121465],[85.29503250808146,26.9151643637842],[85.29472333335097,26.915210066431897],[85.29405333949104,26.915405877760044],[85.29088067968218,26.915726115069106],[85.29038324859302,26.915766755072898],[85.28993639748295,26.91577313439],[85.28796392549258,26.91579790308799],[85.2870547184041,26.91588299654159],[85.28599026842156,26.91622222713238],[85.28546101264739,26.916337638888994],[85.28478876769985,26.91645211424598],[85.28454186491133,26.916492752696776],[85.28297872996362,26.916479882846517],[85.2822835387693,26.916621616287387],[85.28151638540544,26.916861066239473],[85.27791500772932,26.91740387136639],[85.27638538893082,26.917853386887344],[85.27586275999717,26.917837760991908],[85.27540127655729,26.917607195621063],[85.27541415639092,26.917636454056705],[85.27553359470294,26.920300923983024],[85.27583145672864,26.920704478398914],[85.27578788004496,26.920971243955933],[85.27537936038026,26.921699460670176],[85.2753779244182,26.922019929786124],[85.27553636337713,26.92273176324297],[85.27555112024066,26.922973146044495],[85.2755888258967,26.92358445105216],[85.27561840155323,26.923970126098805],[85.27528653474059,26.924575743818206],[85.27527578168208,26.924742855176532],[85.27522570749866,26.92554684218669],[85.27522295607197,26.925585228707583],[85.27507171586036,26.92590707422281],[85.2742884969646,26.92673801003034],[85.27415776575363,26.927201897196262],[85.27415420556449,26.927779691956218],[85.27436916809488,26.928978542614207],[85.27466709406106,26.92960778869571],[85.27499596934376,26.93030224064204],[85.27610650718071,26.93108440174546],[85.27655586427109,26.93185443794404],[85.27662013978868,26.932136083117115],[85.27874997680459,26.931306513759235],[85.27944666692333,26.930950280064575],[85.27997810996007,26.93073784003397],[85.28157681704712,26.930321520973393],[85.283007711877,26.929703643096044],[85.28458891273286,26.929296514200885]]]}},{"type":"Feature","properties":{"province":"Madhesh Province","district":"Rautahat","municipality":"Madhav Narayan Municipality","ward":"8","wardNumber":8,"sourceMunicipality":"Madhav Narayan","sourceType":"Nagarpalika"},"geometry":{"type":"Polygon","coordinates":[[[85.35616237218402,26.90497231409441],[85.35732066913366,26.90478737764461],[85.3584188838233,26.904772304161003],[85.36010187390585,26.90466807535518],[85.36002890808145,26.904461140284777],[85.36001132873588,26.903048412380176],[85.36020951808047,26.902048867307627],[85.36028922827205,26.901242379989803],[85.36051161948718,26.900791058609],[85.36070887425038,26.900233956213462],[85.36071280669812,26.899407838962663],[85.36071330671751,26.899349258525824],[85.36008313377489,26.89870294735371],[85.35998765872411,26.898351782517206],[85.360070059921,26.897874766647504],[85.35995595169963,26.89738612392037],[85.35978420065051,26.897177876853878],[85.358938074445,26.89668948854535],[85.35884610143373,26.89652331480141],[85.35911482205081,26.89604679864138],[85.3589058022469,26.895306269313192],[85.35890792536628,26.89496091764101],[85.3589080496418,26.894918030586812],[85.35899039087543,26.89470052822094],[85.35914919021592,26.893561505515027],[85.35857315470565,26.891917150281508],[85.3583470057765,26.89152885076514],[85.35786963133201,26.88987230413463],[85.35749261255673,26.889137902932145],[85.35749442317896,26.888760980119486],[85.35763616063433,26.888509092188357],[85.35790963422235,26.888328162895995],[85.35795465015703,26.88824645093087],[85.35806537371005,26.88766759288555],[85.35804974225974,26.88762483040488],[85.35797365083515,26.887417956892136],[85.35728651858349,26.886738449533265],[85.35713533680033,26.88651869821337],[85.35721117381759,26.88612301860062],[85.35742474983931,26.885827493188373],[85.35758148742423,26.884832950231324],[85.35744855962618,26.884346683423733],[85.35748494456244,26.883917556993488],[85.35742110685541,26.883629222344332],[85.35719058298824,26.883351580052572],[85.35719533258745,26.883064870324215],[85.35719652041968,26.883008478728062],[85.35783286705352,26.881546545739095],[85.35904341884786,26.879537447956565],[85.36007222243141,26.87816878926965],[85.35859173757649,26.87739538383748],[85.35770084442701,26.87672237913968],[85.35762562781407,26.876641792683472],[85.3535095053054,26.87766993303897],[85.35315181207254,26.877704945386103],[85.35243117490619,26.877951084864765],[85.35103035222048,26.878260184266416],[85.34809747348758,26.879112077147077],[85.34728930555771,26.87946287276115],[85.34694217819155,26.879479692657135],[85.34685264624662,26.879469314746913],[85.34685658600475,26.879582098294478],[85.34698213312913,26.879727576932027],[85.34712550040754,26.880085181367424],[85.34720146941225,26.88054706707009],[85.34754366317807,26.881331482708365],[85.34763582826885,26.88219954966462],[85.34778726101207,26.88255471527163],[85.3479235027775,26.883063489481227],[85.34794007098283,26.883126570077334],[85.3485505500123,26.88387684927646],[85.3488496637464,26.884422382940656],[85.34889174285539,26.88457549016582],[85.34888048948237,26.884634257639426],[85.34879996293142,26.88505488149697],[85.34886405191573,26.885471816640095],[85.34882597956316,26.88592132332737],[85.34876677139202,26.886025667117686],[85.3484824811068,26.886195406366745],[85.3480403193092,26.88626736784882],[85.34764586410842,26.88649231135967],[85.3472536586696,26.886525385891794],[85.34693373032087,26.88666611678354],[85.34660648519133,26.886664742806754],[85.34615944749056,26.886806725205194],[85.34569596597751,26.886831422360405],[85.34527293705696,26.8869257656251],[85.34518753059388,26.886992035526745],[85.3450806184494,26.88715552161218],[85.3450789326797,26.88744223040258],[85.34560007517672,26.8893579783091],[85.34559838989463,26.88974615432938],[85.34553224134012,26.889898011877275],[85.34657362535542,26.890255986148226],[85.3467625076331,26.890371518509724],[85.34689818316525,26.890453729704436],[85.34817247061038,26.891610624590605],[85.34969735072741,26.89288261357739],[85.35019397456749,26.89341726772265],[85.35044194349737,26.893843766421764],[85.35047333405363,26.89436479422537],[85.35023918917898,26.89489070031217],[85.35002649019204,26.895366716649356],[85.34989444655236,26.896008968695725],[85.34936813899436,26.897266654323957],[85.34928411290477,26.897874520679924],[85.34914331879398,26.898891570306855],[85.3489965192475,26.89935570746402],[85.3488807952781,26.900209959678413],[85.34868397822954,26.900857337888347],[85.34875007872095,26.90265561589165],[85.34868937468156,26.903367075634918],[85.34853038255075,26.903923803131377],[85.34822071017996,26.90439625565065],[85.34815056068025,26.904480406092702],[85.34827798285409,26.904607817297848],[85.348643242806,26.90473297684916],[85.34912223162168,26.90484119389476],[85.3502549598293,26.90498166582669],[85.35156681450131,26.904998411960374],[85.35293037626087,26.90491537924323],[85.35454234224709,26.905028528381074],[85.35616237218402,26.90497231409441]]]}},{"type":"Feature","properties":{"province":"Madhesh Province","district":"Rautahat","municipality":"Madhav Narayan Municipality","ward":"7","wardNumber":7,"sourceMunicipality":"Madhav Narayan","sourceType":"Nagarpalika"},"geometry":{"type":"Polygon","coordinates":[[[85.34560007517672,26.8893579783091],[85.3450789326797,26.88744223040258],[85.3450806184494,26.88715552161218],[85.34518753059388,26.886992035526745],[85.34527293705696,26.8869257656251],[85.34569596597751,26.886831422360405],[85.34615944749056,26.886806725205194],[85.34660648519133,26.886664742806754],[85.34693373032087,26.88666611678354],[85.3472536586696,26.886525385891794],[85.34764586410842,26.88649231135967],[85.3480403193092,26.88626736784882],[85.3484824811068,26.886195406366745],[85.34876677139202,26.886025667117686],[85.34882597956316,26.88592132332737],[85.34886405191573,26.885471816640095],[85.34879996293142,26.88505488149697],[85.34888048948237,26.884634257639426],[85.34889174285539,26.88457549016582],[85.3488496637464,26.884422382940656],[85.3485505500123,26.88387684927646],[85.34794007098283,26.883126570077334],[85.3479235027775,26.883063489481227],[85.34778726101207,26.88255471527163],[85.34763582826885,26.88219954966462],[85.34754366317807,26.881331482708365],[85.34720146941225,26.88054706707009],[85.34712550040754,26.880085181367424],[85.34698213312913,26.879727576932027],[85.34685658600475,26.879582098294478],[85.34685264624662,26.879469314746913],[85.34694217819155,26.879479692657135],[85.34728930555771,26.87946287276115],[85.34809747348758,26.879112077147077],[85.35103035222048,26.878260184266416],[85.35243117490619,26.877951084864765],[85.35315181207254,26.877704945386103],[85.3535095053054,26.87766993303897],[85.35762562781407,26.876641792683472],[85.35734389752895,26.87633983093664],[85.35678331553662,26.876035994959413],[85.35401523134328,26.874916058042054],[85.35316460509594,26.874493126845138],[85.35272387818671,26.874161031321936],[85.35230247085069,26.873641443774357],[85.35133111127442,26.873188067088325],[85.35086937732781,26.872826838015634],[85.3505270615157,26.87234938797364],[85.34906383461285,26.871844247782676],[85.34871170283904,26.87149327185695],[85.34856233361346,26.871156174432482],[85.3482813477559,26.87017476241049],[85.34798348422801,26.86957733897154],[85.34729841674951,26.868942780976155],[85.3470720825901,26.868802741301913],[85.34647286307992,26.86867533305777],[85.34635338104256,26.868629070218443],[85.34622176862636,26.86845877050153],[85.34603050927011,26.8681965702949],[85.3457454040068,26.868032211175745],[85.34529886596316,26.86799132671445],[85.34498025011443,26.868129806982733],[85.34449745125755,26.868484225798873],[85.34419221435908,26.868480351866687],[85.34382514025893,26.86813625282893],[85.3429977663293,26.86697279154293],[85.34277674222889,26.86621200680147],[85.3427827418617,26.865868905329616],[85.34302413611272,26.86510374173594],[85.34340283484102,26.864727691942104],[85.34349261471039,26.864331887608852],[85.34345822563573,26.864199036033828],[85.3434147716308,26.86403242438162],[85.34346478752572,26.8636911364821],[85.34246285910477,26.86383155939592],[85.34074986254262,26.864430183039197],[85.34034521407189,26.864422745302495],[85.33937685855662,26.864255890015183],[85.33893200631073,26.86393511099174],[85.33881764862643,26.86357506778785],[85.3385834981015,26.863193582315724],[85.3376033229675,26.862661181542624],[85.33731777678304,26.86218992045008],[85.33695526965279,26.862130154543095],[85.33607113545978,26.862380045751415],[85.3359030741208,26.862480951419236],[85.33541764866484,26.862776666310726],[85.33420458700834,26.863630050005927],[85.33299639717652,26.8638829441496],[85.33246282642602,26.863876695122563],[85.33221680103615,26.864091196857952],[85.3321308334468,26.8643809075314],[85.33222668441022,26.864716256185773],[85.33216253627472,26.86488168012265],[85.33161758766072,26.86498383775448],[85.33139663298678,26.86502653915732],[85.33154750732481,26.865982132307423],[85.33133461845397,26.866227893109205],[85.33094847957628,26.86646177625034],[85.33079955089056,26.866634703492664],[85.33066613126901,26.86716861122404],[85.33069614724845,26.867746093049707],[85.33117401855617,26.869003271608253],[85.33091780134727,26.869263036963996],[85.3306805280268,26.8693126778175],[85.33026525090317,26.86930755448862],[85.32989774104907,26.869200399786344],[85.3295467376094,26.869312059473003],[85.3294960976198,26.86976844435943],[85.32934966988336,26.869893982353453],[85.32845884645357,26.87017319429861],[85.32815579999598,26.870460468382984],[85.32748049713014,26.871360549387422],[85.32735845723258,26.87195534933404],[85.32684339550778,26.872246813489706],[85.32658255093527,26.872271822102558],[85.32549077628568,26.872212123899082],[85.32524925011934,26.872275331674448],[85.32453536591879,26.87245807655455],[85.32365229477132,26.872757545533705],[85.3219014690676,26.873107971414772],[85.32113863033621,26.87346720588054],[85.31988886383029,26.87383557242483],[85.31921862081533,26.874153293933443],[85.31869780530944,26.87416492581876],[85.31876420577728,26.87436067091814],[85.31930422214906,26.875125266818102],[85.32007225732902,26.875700368740734],[85.3205101062249,26.875962631044843],[85.32093601778364,26.876714724141486],[85.3209820371852,26.877095835818302],[85.32092702132888,26.877552220350093],[85.32098917143261,26.877926267188062],[85.3210638238307,26.877961714977264],[85.32360213724768,26.879195062130044],[85.3247419311376,26.879480014432662],[85.325577051653,26.87981073132113],[85.3266417546857,26.879970021409406],[85.32665901171856,26.87999465394545],[85.32689322492428,26.880328750339903],[85.32696162633451,26.88058313773764],[85.32703860024425,26.881672582347104],[85.32754860951809,26.88299040325752],[85.327599253449,26.88306442480546],[85.32820798221461,26.88394568006165],[85.32826556742236,26.884134735371305],[85.32833884665357,26.88437561858955],[85.32836936004178,26.884722845786147],[85.3281706038328,26.885216741400786],[85.32816885507872,26.88554858877165],[85.32823256741611,26.885780406661766],[85.32858457329336,26.886011847473323],[85.32883791989235,26.886472169405923],[85.3291457221066,26.88680101411394],[85.32936543277243,26.887505407150528],[85.32967442126267,26.887507093361656],[85.32996477812816,26.88763744256194],[85.33024838440599,26.888047748571317],[85.33107750616514,26.888771268906797],[85.33137649375072,26.889206269849627],[85.33148247267722,26.889494165793163],[85.33146915899813,26.890024696751837],[85.33161846308032,26.889984997128288],[85.33379369218147,26.8894226939153],[85.33543366286946,26.888831634854633],[85.33745827566003,26.888417500759946],[85.33767973165668,26.888358982201147],[85.33883590217629,26.888050072291335],[85.33928887867944,26.887772675704138],[85.33937741095495,26.887756044872532],[85.33966376479754,26.887701402028608],[85.34030199879754,26.887715652432252],[85.34055365392538,26.887760664475778],[85.34130680751747,26.88812139089005],[85.34211692221825,26.8888855477068],[85.34248518477673,26.889371814033552],[85.34286838983643,26.889582623210867],[85.34356295766408,26.88972266009424],[85.34478940625765,26.88976966692169],[85.34545958991127,26.889873880517133],[85.34553224134012,26.889898011877275],[85.34559838989463,26.88974615432938],[85.34560007517672,26.8893579783091]]]}}]}