{"type":"FeatureCollection","features":[{"type":"Feature","properties":{"province":"Madhesh Province","district":"Dhanusha","municipality":"Aaurahi Rural Municipality","ward":"2","wardNumber":2,"sourceMunicipality":"Aaurahi","sourceType":"Gaunpalika"},"geometry":{"type":"Polygon","coordinates":[[[86.00772680897055,26.728587987111997],[86.0073966203483,26.72807552700035],[86.00708818918116,26.727583572654645],[86.00712075911136,26.727123312080394],[86.0072863173161,26.726909997940115],[86.00770984502651,26.72680690174928],[86.00798350578559,26.726666607670833],[86.0084067844826,26.72656344889844],[86.00900231396993,26.726551815005294],[86.00925890791726,26.726605516371173],[86.00960278592761,26.726770436629767],[86.0101224167535,26.727182615281016],[86.01035963080474,26.7273332200767],[86.010573959722,26.727404676142157],[86.01074427117314,26.727401423967233],[86.01091326981167,26.727341591877835],[86.01122525464135,26.727009679169637],[86.01147065162677,26.72654641652815],[86.01159575842311,26.726427629819362],[86.01199552701543,26.726211437885567],[86.01214164191308,26.726092839796657],[86.011947757531,26.725980870368883],[86.01170854187983,26.725737676541094],[86.01159599809317,26.725452469218244],[86.011285753651,26.724881491272967],[86.01126086704159,26.724709816370193],[86.01132213785962,26.72459509451113],[86.01152996132284,26.724361774413758],[86.01152483210748,26.724131456021237],[86.0113886524876,26.72373102774061],[86.01118851307645,26.723332349374022],[86.01088832875483,26.72224684664107],[86.01088232316607,26.721960074850678],[86.01094115463223,26.72172800546528],[86.0109211994258,26.720809173951093],[86.01056105794949,26.71989703377768],[86.01034028578346,26.719518487378515],[86.01012126515512,26.719234843955416],[86.0100539263978,26.71906279326089],[86.01002866455927,26.718891118698007],[86.01008649546091,26.71860259532502],[86.01008361792992,26.718469306748283],[86.00994962786217,26.718184036047713],[86.00946200253063,26.717273147906415],[86.00905403027974,26.716342628707693],[86.00903677411941,26.71630417973559],[86.00857034326643,26.715370910329877],[86.00847968249587,26.715103957532175],[86.008517631308,26.714892020471293],[86.00855414132106,26.71460337274083],[86.00843803096136,26.714144300758743],[86.00833210677715,26.71316620198708],[86.00815316209777,26.712747393359795],[86.00789012477934,26.71238666503903],[86.00767248036173,26.712159412535616],[86.00743439145025,26.711972671990548],[86.00659726878051,26.711621451666925],[86.0061447260544,26.711342874298367],[86.00592802008681,26.71115400770955],[86.0056436618246,26.710793154928535],[86.00549116686388,26.7106250441798],[86.00519830184331,26.709860071763277],[86.00501866848808,26.70942313299674],[86.004925818689,26.7090794074406],[86.00496332937874,26.708849402601796],[86.00490555126407,26.70816057594945],[86.00498576533845,26.707928632018252],[86.00498007315556,26.707680246625657],[86.00499720176673,26.7074863145727],[86.00505353093266,26.707141337053965],[86.00485063877551,26.706627500859057],[86.00476310602859,26.706534349232502],[86.0047831019502,26.705498419883625],[86.00465767159201,26.70463754293072],[86.00467767743069,26.70457896348959],[86.00459739072838,26.703833557995324],[86.00460863912393,26.703373109707346],[86.0046043234617,26.70318124101275],[86.00460787813292,26.702375441495747],[86.00466594758059,26.70114789283503],[86.00450882409997,26.700787914089545],[86.00417744671903,26.700237067988123],[86.00380518106321,26.699767245505072],[86.00367488246566,26.699653463467367],[86.00358859977193,26.69959869803598],[86.00305202721822,26.699418837520078],[86.00273172275621,26.69936695001331],[86.00230456647873,26.69931881494674],[86.00177168352029,26.699290248809643],[86.0016658953963,26.699312068328215],[86.00070504368827,26.699196980787676],[86.0003647322497,26.699203610881895],[86.00019548367818,26.699265630554155],[85.99943083120853,26.699339284583438],[85.99904844221724,26.699383988366655],[85.9988985739501,26.69934904150791],[85.99852700307555,26.699459327671303],[85.99810922558932,26.69947896209715],[85.99785350809879,26.6995177882931],[85.99740603500419,26.699747109350433],[85.99676692820641,26.699936733615903],[85.99653265707758,26.700070524655803],[85.99640473647528,26.700184747543894],[85.99612776233334,26.700318226732154],[85.99580802206975,26.700451393104974],[85.99527520576379,26.700700471301282],[85.99487024928105,26.7010249448314],[85.99455050964175,26.701196435913893],[85.99420970050018,26.70144463655492],[85.99369826553072,26.701617067599738],[85.99363436771283,26.70167302159096],[85.9933572062682,26.701788432614443],[85.99265432665041,26.702016005833094],[85.99252621877078,26.70211216062296],[85.992313330147,26.702207690739527],[85.99212138495224,26.70224470345445],[85.99071506744146,26.70297061618374],[85.99020369526373,26.703140795630315],[85.99016074346923,26.703199188200934],[85.98981993322845,26.703370554226822],[85.98969207422178,26.703408003686857],[85.98943635591247,26.703408444359372],[85.98905296848525,26.703561491993554],[85.98854134833186,26.703903222596583],[85.98815777244661,26.70403820308273],[85.98809381222772,26.70409415740863],[85.98783815698005,26.70418931235153],[85.98713496901998,26.70470584578955],[85.9869003841243,26.704801188464426],[85.98628078736333,26.7051263519446],[85.98653470199034,26.705972348223906],[85.98640665530851,26.706027864989593],[85.98602220380906,26.706124459820824],[85.98583019626562,26.70616372276093],[85.98550995443475,26.706143407743404],[85.984997456962,26.70629551931958],[85.984613192186,26.706333408288348],[85.98429313768835,26.70631528135511],[85.98390887484244,26.70646832976739],[85.98358850821776,26.706486337922108],[85.98320424423528,26.706601000075366],[85.9828202286739,26.70658243514122],[85.98262784616182,26.706621698159715],[85.98249967567158,26.70669753466673],[85.98243527835578,26.70683251189247],[85.98247791968267,26.706889215924207],[85.98264841970021,26.706964924136702],[85.98328859244829,26.707082453151806],[85.98343758567734,26.70717822941322],[85.9834801016411,26.707273320188627],[85.98347947939268,26.707485507413622],[85.98337213155749,26.707830108909718],[85.98337157086543,26.708003909949404],[85.98343540757895,26.708099187992612],[85.98364873508939,26.708136821923382],[85.98399060900611,26.70802178502363],[85.98433198363573,26.708003964591374],[85.9845236792181,26.70813856421259],[85.98452299580234,26.708463597303872],[85.98428766279298,26.708753060129922],[85.98405257866663,26.708904918752136],[85.98396667367025,26.709057840035154],[85.98396598976306,26.709346674081765],[85.9838590147605,26.709519726041474],[85.98373065685398,26.70963394805367],[85.98353833765216,26.709711535534534],[85.98330325368433,26.70986345710473],[85.98304716087102,26.709902158249825],[85.98298301225873,26.709940107887387],[85.98279025808577,26.710209562967826],[85.98266133973223,26.71057435934541],[85.98261789080127,26.71097579018478],[85.98268067039065,26.711551833466842],[85.98329653408314,26.71282032610172],[85.98340251404319,26.713164176056747],[85.98344465601112,26.71333828920066],[85.98389263229448,26.713375295429987],[85.9842341947798,26.713375480763037],[85.9844901641935,26.713454063193243],[85.98534378727145,26.713453368573386],[85.98594150423561,26.713340267176125],[85.98619797184143,26.71322473061758],[85.98653947127285,26.713224915807643],[85.98705196964818,26.713149576172505],[85.98764956278904,26.71314925838675],[85.98799112484072,26.713111056687293],[85.9885031870229,26.713189200195547],[85.9889299050417,26.713187757805386],[85.98927140485465,26.713187817258586],[85.98997522620535,26.713362175058233],[85.99048691489004,26.713555414341833],[85.99091344751035,26.71378416590391],[85.99099872934782,26.7138051088747],[85.99116929264775,26.713919140750598],[85.99168085629621,26.71413044832139],[85.99180859248224,26.714284867355467],[85.99193576812944,26.714687547100745],[85.99238274972258,26.715205319990577],[85.99268092334067,26.71541737963234],[85.99353405066607,26.715802610128115],[85.99385367018158,26.71601248160106],[85.99398128024492,26.716148895073566],[85.99411276863604,26.716343951267472],[85.99417291590673,26.716434664998587],[85.99455693486102,26.716780450081945],[85.99466354013195,26.717106294912217],[85.99459945714848,26.717317983376116],[85.99455644310248,26.717489220948142],[85.99444990571239,26.717603630970896],[85.99423614078327,26.71768109270621],[85.9940867740811,26.717700349584078],[85.99383061909057,26.717813698101025],[85.99361729452698,26.71810109704371],[85.99353164169995,26.718407437909452],[85.9936381826808,26.71861812362228],[85.99389428051329,26.71898335310486],[85.99408622755831,26.719156277522018],[85.99444886217756,26.71940484757867],[85.99487527366153,26.719940500428898],[85.99496068180152,26.720056283816742],[85.99515274962472,26.719865789004203],[85.99562278571908,26.719004594353137],[85.99572951110818,26.718869929010612],[85.99628483351447,26.718429169616584],[85.99647684084054,26.718353770614247],[85.99690374478108,26.71825748850903],[85.99741611915411,26.718200154626135],[85.99773617160585,26.718105373515197],[85.99788547809314,26.718277922533908],[85.99801365259101,26.71848873377605],[85.9982910064154,26.718757060069013],[85.99837610195995,26.71890891638482],[85.99848270485822,26.719006694116555],[85.99852703260517,26.718932546525348],[85.99856235849975,26.718986937320512],[85.99859081012853,26.71933022598248],[85.99878032715746,26.720227674631396],[85.99907925962567,26.721256787137204],[85.99924401598888,26.722000628681155],[85.99938082027704,26.722419187816435],[85.9995075642038,26.72337490532893],[85.9996245498324,26.723870049819727],[85.99990359042383,26.723980329296214],[86.00013880258433,26.724033905345063],[86.00047717406096,26.723930184475382],[86.00127577306982,26.723475356108846],[86.00144614777757,26.723472041341896],[86.00159707934614,26.72356563013414],[86.00185761410069,26.723811262447395],[86.00220599561455,26.72418611929325],[86.0022945296571,26.72433797562417],[86.00281566286716,26.72482692696583],[86.00340000605634,26.725275678486796],[86.00372143681966,26.725384020180105],[86.0040491862859,26.725781320976296],[86.0041821741058,26.726028330279743],[86.00440838867121,26.7266551365946],[86.00460602712772,26.726938718363694],[86.00506088498476,26.727314324388832],[86.00550748488155,26.727306130666708],[86.00565804100947,26.727379463827887],[86.0057460740143,26.72751325201239],[86.00574901463011,26.72764641617708],[86.00562878657789,26.727993206177885],[86.00550430610848,26.728148065839836],[86.005443847741,26.728303424503135],[86.0054467880894,26.728436588678868],[86.00551199984714,26.728493479797727],[86.0056624931533,26.72856674967952],[86.00589582794406,26.72854355344187],[86.00608614623705,26.728483971160607],[86.00652736720147,26.728225204273357],[86.0067819598707,26.728184064254773],[86.00686724132038,26.72820050641928],[86.00732359934946,26.72863256621639],[86.0075608127373,26.728780920007956],[86.00792694895259,26.728986602529105],[86.00772680897055,26.728587987111997]]]}},{"type":"Feature","properties":{"province":"Madhesh Province","district":"Dhanusha","municipality":"Aaurahi Rural Municipality","ward":"1","wardNumber":1,"sourceMunicipality":"Aaurahi","sourceType":"Gaunpalika"},"geometry":{"type":"Polygon","coordinates":[[[86.02113794956931,26.739508823306778],[86.02233013480868,26.739487680890562],[86.02258629067985,26.73952106339311],[86.02310166868325,26.73970517555379],[86.02338352451017,26.73992830088199],[86.02362173850209,26.74011729140048],[86.02392453892149,26.740322536532027],[86.0240964144474,26.740395931294213],[86.02460797608525,26.740406179595],[86.0252599599627,26.740049506777005],[86.02555731847549,26.74000417779687],[86.02563778291591,26.7397925530806],[86.02571762200985,26.73956054673533],[86.02551798261194,26.739200317036357],[86.02540894136779,26.73908897305736],[86.02508525817835,26.7389016707631],[86.02455012374773,26.738778327528156],[86.02435592728105,26.738666420863765],[86.02429059016504,26.738591462029067],[86.0241567879326,26.738324135243086],[86.02399572358799,26.73779035426361],[86.02394119770375,26.737255073134914],[86.0236652115424,26.736341244944423],[86.02357705304378,26.736207455663557],[86.02297432901837,26.735912124478606],[86.02244901673762,26.73622903516395],[86.02200179082567,26.736237229485297],[86.0217647028337,26.73610694339217],[86.02167704421302,26.735993473077066],[86.02173693944346,26.73582010881123],[86.02173399968092,26.735684631530386],[86.02166772409912,26.735571348801955],[86.02149503481668,26.735479823792385],[86.02134591730731,26.73546300743217],[86.02121987231881,26.73554115670133],[86.02118242379164,26.735771162297137],[86.02093558818761,26.736159966284742],[86.02060397148655,26.736568464566883],[86.02045698201361,26.73666680705783],[86.0203722637087,26.736686500700852],[86.02002957538859,26.736598416138683],[86.01964130534392,26.736356473487735],[86.01947093119654,26.73635978835434],[86.01913287142708,26.736461258135133],[86.01887583943507,26.736389552805832],[86.01869558075833,26.735932357073413],[86.01828098682536,26.735462223161132],[86.01823115198235,26.735116497044604],[86.01816487714525,26.735003214302694],[86.01818238092862,26.734831788530627],[86.01824321481257,26.73469674810539],[86.01853875844122,26.734574585164818],[86.01868481028184,26.73443798076469],[86.01870337857946,26.73432294655669],[86.01861215382232,26.734037926170604],[86.01845822060635,26.733811173742154],[86.0183061636449,26.7336611312966],[86.01774601795984,26.73334566839485],[86.01737531568888,26.73293011217945],[86.01728521752698,26.73270154646409],[86.01729390123856,26.732128252402774],[86.01720273975641,26.73184091915258],[86.01717141147815,26.73138253483153],[86.01705148526632,26.730751913065657],[86.01701415046549,26.73000675713992],[86.01709411459181,26.72977481362643],[86.01732325864053,26.729541617658807],[86.01734188829874,26.729426646749864],[86.01729587003544,26.729254784225688],[86.01730705659132,26.728794398862274],[86.01717062698641,26.72839390700083],[86.01709590627473,26.727878756780274],[86.01708708611638,26.72747682590308],[86.0171245345675,26.72724694548952],[86.01712103187889,26.72707308196605],[86.01707513771497,26.7269215377257],[86.01703137184033,26.726864834210808],[86.0167757155364,26.726849519423475],[86.01660627930374,26.726891220617965],[86.01620707405742,26.72712998236412],[86.01527542365335,26.727337989569897],[86.01494155576376,26.727649396264383],[86.0146868377444,26.727674718447116],[86.01417552622819,26.727646339364878],[86.01404697821053,26.727609392255232],[86.01391599201284,26.72745947448313],[86.01386966018312,26.72728761230347],[86.01386371695276,26.726998652254398],[86.01370821957808,26.726695064157727],[86.01349157623062,26.726528830537813],[86.0131467604958,26.72632327287722],[86.01252428106355,26.726066140236593],[86.01214164191308,26.726092839796657],[86.01199552701543,26.726211437885567],[86.01159575842311,26.726427629819362],[86.01147065162677,26.72654641652815],[86.01122525464135,26.727009679169637],[86.01091326981167,26.727341591877835],[86.01074427117314,26.727401423967233],[86.010573959722,26.727404676142157],[86.01035963080474,26.7273332200767],[86.0101224167535,26.727182615281016],[86.00960278592761,26.726770436629767],[86.00925890791726,26.726605516371173],[86.00900231396993,26.726551815005294],[86.0084067844826,26.72656344889844],[86.00798350578559,26.726666607670833],[86.00770984502651,26.72680690174928],[86.0072863173161,26.726909997940115],[86.00712075911136,26.727123312080394],[86.00708818918116,26.727583572654645],[86.0073966203483,26.72807552700035],[86.00772680897055,26.728587987111997],[86.00792694895259,26.728986602529105],[86.0075608127373,26.728780920007956],[86.00732359934946,26.72863256621639],[86.00686724132038,26.72820050641928],[86.0067819598707,26.728184064254773],[86.00652736720147,26.728225204273357],[86.00608614623705,26.728483971160607],[86.00589582794406,26.72854355344187],[86.0056624931533,26.72856674967952],[86.00551199984714,26.728493479797727],[86.0054467880894,26.728436588678868],[86.005443847741,26.728303424503135],[86.00550430610848,26.728148065839836],[86.00562878657789,26.727993206177885],[86.00574901463011,26.72764641617708],[86.0057460740143,26.72751325201239],[86.00565804100947,26.727379463827887],[86.00550748488155,26.727306130666708],[86.00506088498476,26.727314324388832],[86.00460602712772,26.726938718363694],[86.00440838867121,26.7266551365946],[86.0041821741058,26.726028330279743],[86.0040491862859,26.725781320976296],[86.00372143681966,26.725384020180105],[86.00340000605634,26.725275678486796],[86.00281566286716,26.72482692696583],[86.0022945296571,26.72433797562417],[86.00220599561455,26.72418611929325],[86.00185761410069,26.723811262447395],[86.00159707934614,26.72356563013414],[86.00144614777757,26.723472041341896],[86.00127577306982,26.723475356108846],[86.00047717406096,26.723930184475382],[86.00013880258433,26.724033905345063],[85.99990359042383,26.723980329296214],[85.9996245498324,26.723870049819727],[85.9995075642038,26.72337490532893],[85.99938082027704,26.722419187816435],[85.99924401598888,26.722000628681155],[85.99907925962567,26.721256787137204],[85.99878032715746,26.720227674631396],[85.99859081012853,26.71933022598248],[85.99856235849975,26.718986937320512],[85.99852703260517,26.718932546525348],[85.99848270485822,26.719006694116555],[85.99837610195995,26.71890891638482],[85.9982910064154,26.718757060069013],[85.99801365259101,26.71848873377605],[85.99788547809314,26.718277922533908],[85.99773617160585,26.718105373515197],[85.99741611915411,26.718200154626135],[85.99690374478108,26.71825748850903],[85.99647684084054,26.718353770614247],[85.99628483351447,26.718429169616584],[85.99572951110818,26.718869929010612],[85.99562278571908,26.719004594353137],[85.99515274962472,26.719865789004203],[85.99496068180152,26.720056283816742],[85.99444818510038,26.720382259721887],[85.99410674939179,26.720476914967513],[85.99344482374036,26.720783698693197],[85.99329552126831,26.720897796158255],[85.99303936531592,26.7209749464429],[85.99286855495693,26.721070850752987],[85.99261239924432,26.721145749985926],[85.99244146222361,26.721146814304838],[85.99201462221302,26.72141464725794],[85.99184368515739,26.72149017036378],[85.99167287357022,26.721509303041294],[85.99133150071468,26.72170098749161],[85.99081906600587,26.721911803648876],[85.99064838006313,26.722025713311314],[85.99013588149539,26.72210105299375],[85.98990104779331,26.722255162359776],[85.98947420650391,26.722446222242947],[85.98896170792256,26.7225599483701],[85.98836399356239,26.722846912752978],[85.98795834813686,26.723096864754073],[85.98776603107359,26.723384388812708],[85.98721021969544,26.724838632611235],[85.98697520114665,26.725297395232683],[85.98622725999316,26.726982771992223],[85.98605607702167,26.727365260698146],[85.98594910491511,26.727768567745088],[85.98532939211925,26.728973989260727],[85.98505167187425,26.729509211705334],[85.98464528505076,26.730583030670232],[85.98436743950433,26.73111825281495],[85.98428216142258,26.731347820615174],[85.98381181137167,26.732191010102582],[85.98370508857441,26.732497225898413],[85.98334165182202,26.7332620795297],[85.98302122827172,26.733778920962695],[85.98304236439272,26.734124460128008],[85.98310576935992,26.734736638834523],[85.98329784357811,26.735121688159076],[85.98342545721262,26.735504111396924],[85.98353218554847,26.735658343719223],[85.9838306755892,26.736269895761122],[85.98421438915328,26.737191350293745],[85.9848967150013,26.738494164474524],[85.9851099207202,26.738761990751048],[85.98536583013177,26.739145288727208],[85.98555790532625,26.739528149730475],[85.98583513553594,26.73994995894401],[85.9861976481002,26.74039045949616],[85.98630418947505,26.740639532277942],[85.98656015997278,26.74086934681603],[85.98700844991014,26.740965058626394],[85.9878624490255,26.74091022218654],[85.98828947776832,26.740775554000376],[85.9886309145019,26.740757670531213],[85.9891434123459,26.740623626574806],[85.98965578747955,26.74068138876631],[85.98999716252077,26.740681573885237],[85.99016809913448,26.74064212262968],[85.99036029377541,26.740546467859062],[85.99055223622031,26.74037629113852],[85.99095831943649,26.740126339113406],[85.99166282428611,26.739916896650023],[85.99183363615695,26.739897826966843],[85.99202570593714,26.739820177786836],[85.9925382005188,26.73939942424329],[85.99294390843009,26.73919010923716],[85.99313616607478,26.73913277816004],[85.9936696737879,26.739208796045197],[85.99392570575142,26.739323514907507],[85.99413916111085,26.739496563329137],[85.99450173508681,26.73989861577677],[85.99473650955176,26.740033465374403],[85.99524876107458,26.740188319273553],[85.9956756670517,26.740245519862324],[85.99627326204843,26.74039868435777],[85.99721260645663,26.74051377177855],[85.99763957300539,26.74038122958421],[85.99795975324172,26.74049638542923],[85.99810924840621,26.740725388449317],[85.99852708934095,26.740811847357644],[85.99875729996737,26.740971517544143],[85.99935433096333,26.74101858889301],[85.99961092489676,26.741070039038195],[85.9998028072776,26.74108716693245],[85.99992860220556,26.74100682977386],[86.0000930970013,26.740737124587536],[86.00023964960644,26.740618525196965],[86.00047104446466,26.740498175704793],[86.00097841572799,26.740337060968347],[86.00157269473006,26.740268973818914],[86.00174163061855,26.74020689153863],[86.00276131405643,26.74011254136137],[86.00386402635762,26.739939668872783],[86.0047147115994,26.739905025474886],[86.00530848966072,26.739816619563605],[86.00558421518974,26.73977341675377],[86.00634767962815,26.73964555987417],[86.00762164254502,26.739507695544948],[86.00804498422924,26.739402348014885],[86.00872391785053,26.739314503267032],[86.00923372831443,26.739266172302145],[86.00957416531914,26.739259479869585],[86.00991353884353,26.739216714135136],[86.0105081924142,26.7391463758527],[86.0107620966013,26.739084917302026],[86.0111871260383,26.739058531165483],[86.01305467988365,26.738814192573344],[86.01356505384705,26.738804185005478],[86.01399364940356,26.73893128058617],[86.01408043182975,26.739006364609605],[86.01421586049838,26.73936621911508],[86.01441574972596,26.739764897061512],[86.01456862045755,26.739935257499134],[86.01477482796729,26.740620582661638],[86.01495264711475,26.740962681177564],[86.01515003454378,26.741246200422342],[86.01521774852885,26.741415936674752],[86.01567629636918,26.741927020624534],[86.01610958415418,26.742264052924035],[86.01664653153694,26.742464169466167],[86.0184342462531,26.742413325690475],[86.01885677325852,26.74225146136222],[86.0196230531201,26.742238700809704],[86.01987720766022,26.74217724303931],[86.01993904181751,26.74208058945241],[86.0198699508807,26.74185214804541],[86.0196927577116,26.741548434852206],[86.01946792037226,26.741014155044827],[86.01926258875977,26.740405602924277],[86.01921331675855,26.740100514421005],[86.01903706162152,26.739835187693693],[86.01907801356195,26.739756476948774],[86.0191830516777,26.739698521207814],[86.02113794956931,26.739508823306778]]]}},{"type":"Feature","properties":{"province":"Madhesh Province","district":"Dhanusha","municipality":"Aaurahi Rural Municipality","ward":"6","wardNumber":6,"sourceMunicipality":"Aaurahi","sourceType":"Gaunpalika"},"geometry":{"type":"Polygon","coordinates":[[[86.04301372967545,26.732766267034474],[86.04461943157297,26.73198702396538],[86.04538352133338,26.73177995601823],[86.04555264377926,26.731699868734985],[86.04597786103695,26.731614651834075],[86.04868220750825,26.730334876523337],[86.04895724458888,26.730212525118052],[86.04912442865749,26.730055665248845],[86.04954376531587,26.72970405809379],[86.05067260175952,26.72862585590023],[86.05144875287428,26.728017045166265],[86.05192986111489,26.727566595505643],[86.05258015516216,26.727054001480237],[86.05274921519205,26.72697610216466],[86.05325270730029,26.726582169705214],[86.05340088523538,26.72652221325835],[86.05315529064984,26.726046575850702],[86.05293314215737,26.725668090987877],[86.05264734676754,26.7253095507452],[86.05220486454128,26.724629480668465],[86.05200547639552,26.724307575060514],[86.05171761626376,26.723854194461058],[86.05166796973906,26.723546917611706],[86.05170354109663,26.723240139744874],[86.0517802520886,26.72285465082816],[86.05189434962294,26.722239219198762],[86.05187896103529,26.721550641650985],[86.05191640899562,26.72132063669087],[86.05187026581669,26.721166841687698],[86.05179873566964,26.72084356032189],[86.05166018050342,26.72038667738226],[86.05148647969092,26.719315613647673],[86.05127376612609,26.71839997195782],[86.05128789363921,26.718093131663576],[86.0511141923566,26.717024256660054],[86.05111075191255,26.716870774611635],[86.05110681115566,26.716699161462955],[86.05104853587788,26.71634211958543],[86.05095730892704,26.715781643326864],[86.05086276981513,26.715399594349332],[86.05085557641432,26.71509262925003],[86.05093541514262,26.714860623543665],[86.05094766535234,26.714476947767572],[86.05089970791462,26.714246380855666],[86.05066687334757,26.714348663152403],[86.05020352005711,26.71460736809223],[86.04953459609298,26.715214677281775],[86.0494500648708,26.715254752628397],[86.04925849563104,26.71527826184921],[86.04843263523233,26.71556397806854],[86.04790575932905,26.71586069492902],[86.04708127512211,26.716204991506743],[86.04692084269266,26.71634165748875],[86.0468299982528,26.716420057077265],[86.04653551754794,26.716618992467126],[86.04628123878142,26.716700769244735],[86.04595962052164,26.71664894457289],[86.04554890570357,26.71642725828677],[86.04551164174036,26.716341232941506],[86.0453910312206,26.71606502839363],[86.04538540224448,26.71583477343776],[86.04515925071932,26.715302806737125],[86.04506658851277,26.71499746767945],[86.0448673871755,26.714695880953478],[86.044650244043,26.71454546377993],[86.04452107138871,26.71451070495283],[86.04400825956247,26.71448245119335],[86.0433705908258,26.7146091193833],[86.04317970924659,26.714671013871524],[86.04265402127372,26.715008305748267],[86.04220886101382,26.715152039175837],[86.04163440213708,26.715240758331678],[86.04118867844026,26.71534379252718],[86.04099692087148,26.71534929576552],[86.04027697269159,26.715554362877146],[86.04020888617997,26.715578745716922],[86.0398757656723,26.715696158362313],[86.03943285588397,26.715875965286205],[86.03898938410293,26.716040017178884],[86.03848263854765,26.716221700147237],[86.0382459909199,26.716341988035825],[86.03766190601681,26.716638267839322],[86.03743213772255,26.7168353274391],[86.03736335975083,26.716606885686446],[86.0373369720868,26.716376505757854],[86.03703892657467,26.716363192743437],[86.03691125404002,26.716341999983033],[86.03671855874474,26.716311367703163],[86.03633579423504,26.716317810934157],[86.03595165391465,26.716267799565614],[86.03518224620522,26.716109072544434],[86.03473426981087,26.71606087453944],[86.03448005224435,26.716104327145043],[86.03416306239355,26.71620598509331],[86.03392816595571,26.71634209019462],[86.03388996522662,26.716364409149666],[86.03350982780294,26.716506266449322],[86.03293661983727,26.716554348638017],[86.03255247860494,26.716504274779552],[86.03229732305189,26.716509341577037],[86.03191562212798,26.716572238285348],[86.031662468826,26.71667433297811],[86.03109101169727,26.71681713057744],[86.0307096233281,26.716882278021114],[86.02994922378392,26.71714573699705],[86.02961435460546,26.717400752713765],[86.02936213955233,26.717538983317873],[86.0292147118155,26.717619257529687],[86.02928236331955,26.717791245643873],[86.02922054066566,26.718862998329204],[86.02916352243527,26.71917190188119],[86.02917503267041,26.71970693371405],[86.02925563418046,26.72047265841865],[86.02928352186096,26.720777622703714],[86.02930753218162,26.720910911426703],[86.02944846599402,26.72152133968623],[86.02938807075387,26.72167669815043],[86.0295002395321,26.721941524425826],[86.0296741172588,26.722112010367596],[86.02980360296183,26.722185156324066],[86.0299960484157,26.722240670653754],[86.030251079154,26.722215285497775],[86.03063496959601,26.722265297077527],[86.03082822825831,26.72233887929278],[86.03102361477441,26.722527558287542],[86.03124632575687,26.722982751842128],[86.0313380497591,26.723288090925312],[86.03130060192761,26.7235180966943],[86.03107483583399,26.723904774708917],[86.03090884040341,26.724100020402513],[86.03080355267124,26.72413997106952],[86.03053151790694,26.72435703745685],[86.03053301925735,26.724433809462052],[86.030734723033,26.724888878677213],[86.0309770035122,26.72526748849811],[86.03118045888479,26.725799329788742],[86.03132170502555,26.726409757882504],[86.03145506887729,26.726656703858083],[86.03150039905385,26.726790180879146],[86.03165658510598,26.72709370596178],[86.0318616663429,26.727704570801585],[86.03187380219363,26.728239665425555],[86.03205624938842,26.728773570837014],[86.03232172696416,26.72922907699291],[86.03256162973867,26.72947452197786],[86.03275582657545,26.729584177489677],[86.03339506029113,26.72961111668775],[86.03358788079537,26.729666568646824],[86.03386773436767,26.729794915821163],[86.0344300686273,26.730186963927448],[86.03475575364823,26.73046904375662],[86.03501766456321,26.730750749097982],[86.0355010363148,26.731413126404505],[86.03580677640288,26.73175378666727],[86.03633697996803,26.73260609381011],[86.0364674037001,26.732717563241067],[86.03698296858848,26.732919743028962],[86.03717391300566,26.732896171429122],[86.03780958106366,26.732751498408916],[86.03799990032785,26.73268960353263],[86.03851246277922,26.73275849398186],[86.0390227734677,26.732730355873247],[86.0394043490028,26.73264489026326],[86.03997930930642,26.73265557521521],[86.04020908078493,26.732688707825844],[86.0403217468672,26.732705273918327],[86.04045354710338,26.732875448478254],[86.04058866241012,26.733178848632438],[86.04074484786686,26.733482373797365],[86.0410631508265,26.733400971761235],[86.0420819566356,26.733112127689946],[86.04301372967545,26.732766267034474]]]}},{"type":"Feature","properties":{"province":"Madhesh Province","district":"Dhanusha","municipality":"Aaurahi Rural Municipality","ward":"5","wardNumber":5,"sourceMunicipality":"Aaurahi","sourceType":"Gaunpalika"},"geometry":{"type":"Polygon","coordinates":[[[86.02788016490247,26.71789228778606],[86.02851345623398,26.717650585804417],[86.02876904898864,26.717665837805455],[86.02902282925652,26.717604318055688],[86.0292147118155,26.717619257529687],[86.02936213955233,26.717538983317873],[86.02961435460546,26.717400752713765],[86.02994922378392,26.71714573699705],[86.0307096233281,26.716882278021114],[86.03109101169727,26.71681713057744],[86.031662468826,26.71667433297811],[86.03191562212798,26.716572238285348],[86.03229732305189,26.716509341577037],[86.03255247860494,26.716504274779552],[86.03293661983727,26.716554348638017],[86.03350982780294,26.716506266449322],[86.03388996522662,26.716364409149666],[86.03392816595571,26.71634209019462],[86.03416306239355,26.71620598509331],[86.03448005224435,26.716104327145043],[86.03473426981087,26.71606087453944],[86.03518224620522,26.716109072544434],[86.03595165391465,26.716267799565614],[86.03633579423504,26.716317810934157],[86.03671855874474,26.716311367703163],[86.03691125404002,26.716341999983033],[86.03703892657467,26.716363192743437],[86.0373369720868,26.716376505757854],[86.03736335975083,26.716606885686446],[86.03743213772255,26.7168353274391],[86.03766190601681,26.716638267839322],[86.0382459909199,26.716341988035825],[86.03848263854765,26.716221700147237],[86.03898938410293,26.716040017178884],[86.03943285588397,26.715875965286205],[86.0398757656723,26.715696158362313],[86.04020888617997,26.715578745716922],[86.04027697269159,26.715554362877146],[86.04099692087148,26.71534929576552],[86.04118867844026,26.71534379252718],[86.04163440213708,26.715240758331678],[86.04220886101382,26.715152039175837],[86.04265402127372,26.715008305748267],[86.04317970924659,26.714671013871524],[86.0433705908258,26.7146091193833],[86.04400825956247,26.71448245119335],[86.04452107138871,26.71451070495283],[86.044650244043,26.71454546377993],[86.0448673871755,26.714695880953478],[86.04506658851277,26.71499746767945],[86.04515925071932,26.715302806737125],[86.04538540224448,26.71583477343776],[86.0453910312206,26.71606502839363],[86.04551164174036,26.716341232941506],[86.04554890570357,26.71642725828677],[86.04595962052164,26.71664894457289],[86.04628123878142,26.716700769244735],[86.04653551754794,26.716618992467126],[86.0468299982528,26.716420057077265],[86.04692084269266,26.71634165748875],[86.04708127512211,26.716204991506743],[86.04790575932905,26.71586069492902],[86.04843263523233,26.71556397806854],[86.04925849563104,26.71527826184921],[86.0494500648708,26.715254752628397],[86.04953459609298,26.715214677281775],[86.05020352005711,26.71460736809223],[86.05066687334757,26.714348663152403],[86.05089970791462,26.714246380855666],[86.05082924148353,26.713979553358374],[86.05082173469334,26.71367246275306],[86.0512549486042,26.71302977033557],[86.05146964219266,26.712182581980436],[86.05143918834041,26.711798594560104],[86.05149201489947,26.71133839669641],[86.05137452929866,26.710879512279394],[86.05121590526818,26.710499214849396],[86.05084670446456,26.710237140938013],[86.05067038811559,26.71001032657932],[86.05040334736185,26.709554757532857],[86.04994473818418,26.709122822135992],[86.04972759502145,26.708974655514673],[86.04959735894751,26.708881254492596],[86.04927624168769,26.70884974830439],[86.04859805833647,26.70905512716827],[86.04817059058043,26.709043252476977],[86.04791287044962,26.70897379749398],[86.04757130862036,26.708980552028784],[86.04680759446178,26.70912897806467],[86.04655318953814,26.70919043555564],[86.04630022331106,26.709310661146663],[86.04579141405418,26.709435952342645],[86.04536676064005,26.709500788456904],[86.04511329411243,26.70960288263674],[86.04485845140869,26.709646335063955],[86.04460298319574,26.709651401691957],[86.04426048291525,26.70957913368962],[86.04408860632,26.709505739156782],[86.04340454396537,26.70940402788639],[86.04323379391754,26.709387148839976],[86.04297938933604,26.709450920681856],[86.04280907652976,26.70945423574889],[86.04195513921455,26.70937409435976],[86.04126801147397,26.70911658796078],[86.04077057564285,26.708781494201116],[86.0404270118348,26.708652709083967],[86.04020874614804,26.70883182681351],[86.03996378264969,26.708891095833803],[86.03945347233754,26.70890122892032],[86.03868475248474,26.70878088809554],[86.03805870681641,26.70835008019069],[86.03788439088072,26.708161588190787],[86.03753907512504,26.707937963120965],[86.03736751150352,26.707864568266704],[86.03713342670149,26.707867571811324],[86.03704714456372,26.707812743797348],[86.03670120304152,26.707550857427783],[86.03635263388459,26.707171499193212],[86.0360061913283,26.70688929441015],[86.03557515659723,26.706629034398382],[86.03531793714036,26.70653700991346],[86.03506034117869,26.706426917770823],[86.03423878487754,26.705827686539138],[86.03389240574533,26.705545419271356],[86.03380662429136,26.70550872132651],[86.03342548595862,26.705591937187364],[86.03329743880076,26.705575245619315],[86.03323272780518,26.705538672919285],[86.0330352774361,26.705255216647714],[86.03292160695136,26.704911304019056],[86.0329395492204,26.704755695666524],[86.0330223286465,26.704659166510563],[86.03329592662493,26.704518810449105],[86.03346223446165,26.704323564710126],[86.03373639610433,26.704223844590373],[86.03371188544266,26.704070238022517],[86.03364410863986,26.70387786922608],[86.03346166066899,26.703305578243047],[86.03338794138588,26.702846818942067],[86.03316466700186,26.702350987762394],[86.03305500002624,26.702198944424236],[86.03298935040347,26.70212404726705],[86.03281891259579,26.702107106416506],[86.03262853102164,26.70214868316608],[86.03245665557148,26.70207528808532],[86.03228277733547,26.701904802226046],[86.03212371399701,26.701427475990982],[86.03207944744868,26.7013526419171],[86.03199322730333,26.701295626100215],[86.03190757053756,26.701279247020842],[86.03180297164467,26.701357583258183],[86.03163497398953,26.701455739194774],[86.03152693326066,26.701380529928212],[86.03156575840417,26.701206978500217],[86.03166885673816,26.701051932514158],[86.03196221082253,26.70083499075212],[86.03233452848852,26.70034765692867],[86.03249595742034,26.6999424738011],[86.03257116741155,26.699477961516997],[86.03269408518356,26.699246329862724],[86.03290247117705,26.699049082526244],[86.03338314113383,26.698637019602483],[86.03359196554223,26.698460090635148],[86.03396265651254,26.697896046764917],[86.03412896537905,26.697700800529386],[86.03425651149608,26.69769942451375],[86.03453054768438,26.69757938601802],[86.03530438566168,26.696968387419414],[86.03578768380663,26.696691738856956],[86.03586877360739,26.696495930772738],[86.03588627803092,26.696324505178133],[86.03588183665435,26.696112255231288],[86.03581549875479,26.695998972773676],[86.03564412340722,26.6959436457112],[86.03547518741615,26.69600572822145],[86.03530524982654,26.696006792209378],[86.03521852999411,26.69593170827492],[86.03519608410262,26.69587513003885],[86.03526985500389,26.695354226119935],[86.035263786626,26.695067579707164],[86.0351950713717,26.694836824804074],[86.03475408976283,26.69411599202306],[86.03432461901957,26.693932505008796],[86.03398418236422,26.693918940944833],[86.033668381303,26.694079304024786],[86.03347756159867,26.694100562058225],[86.03339146753034,26.694063864312465],[86.03368831448384,26.69302080520425],[86.03366136397197,26.69275197636903],[86.03342465089749,26.6926216905342],[86.03295835671719,26.692708845183056],[86.03256914877242,26.692408260832686],[86.03241527778266,26.692179194226046],[86.03217562481544,26.69191574414828],[86.03219444298072,26.69180077346155],[86.03244459439038,26.691565451935386],[86.03258858176888,26.69133156880052],[86.03285855157156,26.691019724780368],[86.03325556754189,26.690683810424296],[86.03359287632941,26.69054389087796],[86.03386484812066,26.69032682499585],[86.03396700781123,26.690133392015838],[86.03391823708385,26.68984637112656],[86.03370490931806,26.68981104969473],[86.03302441087585,26.689824497566292],[86.0326850999665,26.68986970165786],[86.03253617127604,26.68987082815802],[86.03228120287278,26.68989621264364],[86.03168923965994,26.690061454752836],[86.02933026691339,26.691160548739838],[86.02874136795295,26.69147927233497],[86.02848827685874,26.691579116381103],[86.02802598668784,26.69185814028915],[86.02748235597036,26.692290084937387],[86.02689889884769,26.692859444447876],[86.02644505414371,26.693519955670407],[86.02559669468211,26.694649544964538],[86.0251646701793,26.695330561131463],[86.02496247695613,26.695834773789073],[86.02503613403492,26.696293533161402],[86.0249548566827,26.69646902278358],[86.02485081983684,26.696585682870047],[86.02468288454375,26.696686151277806],[86.0242801755917,26.69675111126804],[86.02470083833734,26.697530461288515],[86.02487609212743,26.697757401424337],[86.02517857994447,26.697982902983806],[86.02537384073855,26.698151325505386],[86.02552489735228,26.698265170212455],[86.0259768765613,26.69850529877424],[86.02629805737338,26.69859551014442],[86.02678836216992,26.698644020153242],[86.02702507418493,26.698774305952774],[86.02732900076555,26.69905626107806],[86.02779036452328,26.699741144847277],[86.02792285306167,26.699967773561035],[86.02824941415446,26.70032662522558],[86.02857960245257,26.700841273743592],[86.02862405704225,26.700936363349353],[86.02860799094474,26.70116649353734],[86.02850345472875,26.70126514854369],[86.0283350190913,26.70134523612166],[86.02816501962343,26.701348614358405],[86.02793231062037,26.701410197126524],[86.02787010117613,26.70148878258808],[86.02785215848826,26.70164214035918],[86.02785860242315,26.70194916836205],[86.02804261401745,26.702598294428444],[86.02817697880575,26.702903945306883],[86.02831115633361,26.70320953460811],[86.02838638880577,26.70474498442304],[86.0283619520244,26.70559129581472],[86.02838977835168,26.705898510434835],[86.02834402103427,26.706744634881858],[86.0282220415634,26.707014590301757],[86.02814320388391,26.707305300992005],[86.02802016192898,26.707518990169604],[86.02765940571904,26.70756388110332],[86.02689312563892,26.707558637003537],[86.02663940907544,26.707620094338743],[86.02612878501964,26.70763016476638],[86.02545247879567,26.707835419217837],[86.02513761624863,26.708034167160527],[86.02488490056011,26.70815207985367],[86.02465219074718,26.70821597583424],[86.02461036393223,26.708254049088975],[86.02453021221321,26.70848599343964],[86.02453358980429,26.708639476012262],[86.0247918216678,26.709787935627073],[86.02488198277845,26.710016565036867],[86.02507980778022,26.71032040202924],[86.0251320823448,26.710781223990775],[86.02533841583976,26.711468799582274],[86.02556412957885,26.712079851840336],[86.02500193088261,26.712647085996508],[86.02451312796366,26.71267534926427],[86.02438708286803,26.712755748891098],[86.02430536734622,26.712910919865404],[86.02437558417294,26.713216133488242],[86.0242938683659,26.713371305368447],[86.02410605193454,26.71354835890142],[86.0237069095022,26.713784869416507],[86.02347957942297,26.714097087964028],[86.02344181838488,26.714329282216994],[86.02353998611575,26.71494177337425],[86.02340275523817,26.715482495479616],[86.02338794045255,26.715789398431262],[86.02343370836603,26.715943193651352],[86.02356625942244,26.716172072239285],[86.02373038420613,26.716342495302495],[86.02397985342428,26.716603819788524],[86.02421894311478,26.716831134403517],[86.0245428755221,26.71705463502754],[86.02531766329855,26.71746168429166],[86.0265415524544,26.717975699862738],[86.02730852042758,26.718017016885554],[86.02788016490247,26.71789228778606]]]}},{"type":"Feature","properties":{"province":"Madhesh Province","district":"Dhanusha","municipality":"Aaurahi Rural Municipality","ward":"4","wardNumber":4,"sourceMunicipality":"Aaurahi","sourceType":"Gaunpalika"},"geometry":{"type":"Polygon","coordinates":[[[86.02430536734622,26.712910919865404],[86.02438708286803,26.712755748891098],[86.02451312796366,26.71267534926427],[86.02500193088261,26.712647085996508],[86.02556412957885,26.712079851840336],[86.02533841583976,26.711468799582274],[86.0251320823448,26.710781223990775],[86.02507980778022,26.71032040202924],[86.02488198277845,26.710016565036867],[86.0247918216678,26.709787935627073],[86.02453358980429,26.708639476012262],[86.02453021221321,26.70848599343964],[86.02461036393223,26.708254049088975],[86.02465219074718,26.70821597583424],[86.02488490056011,26.70815207985367],[86.02513761624863,26.708034167160527],[86.02545247879567,26.707835419217837],[86.02612878501964,26.70763016476638],[86.02663940907544,26.707620094338743],[86.02689312563892,26.707558637003537],[86.02765940571904,26.70756388110332],[86.02802016192898,26.707518990169604],[86.02814320388391,26.707305300992005],[86.0282220415634,26.707014590301757],[86.02834402103427,26.706744634881858],[86.02838977835168,26.705898510434835],[86.0283619520244,26.70559129581472],[86.02838638880577,26.70474498442304],[86.02831115633361,26.70320953460811],[86.02817697880575,26.702903945306883],[86.02804261401745,26.702598294428444],[86.02785860242315,26.70194916836205],[86.02785215848826,26.70164214035918],[86.02787010117613,26.70148878258808],[86.02793231062037,26.701410197126524],[86.02816501962343,26.701348614358405],[86.0283350190913,26.70134523612166],[86.02850345472875,26.70126514854369],[86.02860799094474,26.70116649353734],[86.02862405704225,26.700936363349353],[86.02857960245257,26.700841273743592],[86.02824941415446,26.70032662522558],[86.02792285306167,26.699967773561035],[86.02779036452328,26.699741144847277],[86.02732900076555,26.69905626107806],[86.02702507418493,26.698774305952774],[86.02678836216992,26.698644020153242],[86.02629805737338,26.69859551014442],[86.0259768765613,26.69850529877424],[86.02552489735228,26.698265170212455],[86.02537384073855,26.698151325505386],[86.0249562548328,26.69852537641687],[86.02455623586982,26.698723563041323],[86.02421642563162,26.69875057421712],[86.02378989361193,26.69870025132051],[86.0235347383294,26.698705316920673],[86.02302467773055,26.69873339309496],[86.02285530423184,26.69877509373986],[86.02200474449825,26.698789605886756],[86.02166355667276,26.69875791199905],[86.02106902829362,26.698807995156983],[86.01987527905936,26.698695910506597],[86.01970577970528,26.69871735574573],[86.01936740767773,26.698821076579037],[86.01937597821365,26.6992229443347],[86.019427189027,26.69962506218731],[86.01953942013131,26.6999125209831],[86.01961201408348,26.70031482601784],[86.01966028405523,26.700581528828895],[86.01973056369039,26.700888993644387],[86.01979927908381,26.70111743454751],[86.02001756004177,26.70238305473113],[86.02020238552934,26.70307050464684],[86.02025159449501,26.703377781845173],[86.02035126298767,26.704066920689172],[86.02036471222395,26.704701357025066],[86.02029300632383,26.70533735726002],[86.020315213833,26.706373598445673],[86.02012090229259,26.707241292914166],[86.02008701950022,26.70764509923802],[86.02005325945272,26.707843533144235],[86.02001124657686,26.708089292777355],[86.01997623803601,26.708436582709936],[86.01981693572296,26.70895698685793],[86.0196309334654,26.709210750308287],[86.01948788446998,26.709482894888264],[86.0192486176845,26.710237431143455],[86.01900440986131,26.710759461195384],[86.01878771498079,26.71157057681737],[86.01858583476687,26.712092856315152],[86.01825740832928,26.712657150448877],[86.01813830722475,26.713062645675773],[86.01866599734508,26.712860831275506],[86.01898448865116,26.71283594604648],[86.01943127597974,26.712827752383255],[86.01994277576121,26.71287644908531],[86.02167578785432,26.71332400228938],[86.02244857333203,26.71363627522935],[86.02309393762643,26.7139703048668],[86.02347957942297,26.714097087964028],[86.0237069095022,26.713784869416507],[86.02410605193454,26.71354835890142],[86.0242938683659,26.713371305368447],[86.02437558417294,26.713216133488242],[86.02430536734622,26.712910919865404]]]}},{"type":"Feature","properties":{"province":"Madhesh Province","district":"Dhanusha","municipality":"Aaurahi Rural Municipality","ward":"3","wardNumber":3,"sourceMunicipality":"Aaurahi","sourceType":"Gaunpalika"},"geometry":{"type":"Polygon","coordinates":[[[86.02060397148655,26.736568464566883],[86.02093558818761,26.736159966284742],[86.02118242379164,26.735771162297137],[86.02121987231881,26.73554115670133],[86.02134591730731,26.73546300743217],[86.02149503481668,26.735479823792385],[86.02166772409912,26.735571348801955],[86.02173399968092,26.735684631530386],[86.02173693944346,26.73582010881123],[86.02167704421302,26.735993473077066],[86.0217647028337,26.73610694339217],[86.02200179082567,26.736237229485297],[86.02244901673762,26.73622903516395],[86.02297432901837,26.735912124478606],[86.02339835780612,26.73582697117757],[86.02373829391183,26.735802272683753],[86.0244159767881,26.73563759366997],[86.02458635140576,26.735634278312183],[86.02509397231468,26.735472976524065],[86.02560334578078,26.735404201493406],[86.02679409121531,26.735326605715972],[86.02704755766901,26.73522676110379],[86.02738843187683,26.735238136915445],[86.02820191840115,26.735435562324923],[86.02847933294876,26.735448688155728],[86.02873455053454,26.735443685133905],[86.0291619574075,26.73551432618422],[86.02941748859976,26.735509260567415],[86.02967552134233,26.73561941514996],[86.03010248964766,26.73566973858253],[86.03036045993075,26.735779831387255],[86.03083019427434,26.735828153075676],[86.03142753795171,26.73587509971594],[86.03174796868775,26.73592698672747],[86.03204545161509,26.73590191422277],[86.03238663909458,26.7359154776285],[86.03272888908506,26.735985556896566],[86.03349560688262,26.735990739672225],[86.03408994718414,26.735904521067628],[86.03443038455381,26.735897765723372],[86.03493956923757,26.735810923563715],[86.03562050414286,26.735779470020592],[86.03587509713958,26.735738268424278],[86.03638584603513,26.73572819822184],[86.03740283900984,26.735498058390395],[86.03782386535875,26.735279741208245],[86.03811934708341,26.735159828186156],[86.03828784433746,26.735079615564842],[86.03854193631331,26.735018220102546],[86.03896690364768,26.73497145216617],[86.03955780394362,26.734731626341837],[86.03972724066456,26.734689862372882],[86.0401513947203,26.734625027474213],[86.04020897774798,26.734618649573445],[86.04093986894378,26.734551373170902],[86.04086589898633,26.7341129326509],[86.04074484786686,26.733482373797365],[86.04058866241012,26.733178848632438],[86.04045354710338,26.732875448478254],[86.0403217468672,26.732705273918327],[86.04020908078493,26.732688707825844],[86.03997930930642,26.73265557521521],[86.0394043490028,26.73264489026326],[86.0390227734677,26.732730355873247],[86.03851246277922,26.73275849398186],[86.03799990032785,26.73268960353263],[86.03780958106366,26.732751498408916],[86.03717391300566,26.732896171429122],[86.03698296858848,26.732919743028962],[86.0364674037001,26.732717563241067],[86.03633697996803,26.73260609381011],[86.03580677640288,26.73175378666727],[86.0355010363148,26.731413126404505],[86.03501766456321,26.730750749097982],[86.03475575364823,26.73046904375662],[86.0344300686273,26.730186963927448],[86.03386773436767,26.729794915821163],[86.03358788079537,26.729666568646824],[86.03339506029113,26.72961111668775],[86.03275582657545,26.729584177489677],[86.03256162973867,26.72947452197786],[86.03232172696416,26.72922907699291],[86.03205624938842,26.728773570837014],[86.03187380219363,26.728239665425555],[86.0318616663429,26.727704570801585],[86.03165658510598,26.72709370596178],[86.03150039905385,26.726790180879146],[86.03145506887729,26.726656703858083],[86.03132170502555,26.726409757882504],[86.03118045888479,26.725799329788742],[86.0309770035122,26.72526748849811],[86.030734723033,26.724888878677213],[86.03053301925735,26.724433809462052],[86.03053151790694,26.72435703745685],[86.03080355267124,26.72413997106952],[86.03090884040341,26.724100020402513],[86.03107483583399,26.723904774708917],[86.03130060192761,26.7235180966943],[86.0313380497591,26.723288090925312],[86.03124632575687,26.722982751842128],[86.03102361477441,26.722527558287542],[86.03082822825831,26.72233887929278],[86.03063496959601,26.722265297077527],[86.030251079154,26.722215285497775],[86.0299960484157,26.722240670653754],[86.02980360296183,26.722185156324066],[86.0296741172588,26.722112010367596],[86.0295002395321,26.721941524425826],[86.02938807075387,26.72167669815043],[86.02944846599402,26.72152133968623],[86.02930753218162,26.720910911426703],[86.02928352186096,26.720777622703714],[86.02925563418046,26.72047265841865],[86.02917503267041,26.71970693371405],[86.02916352243527,26.71917190188119],[86.02922054066566,26.718862998329204],[86.02928236331955,26.717791245643873],[86.0292147118155,26.717619257529687],[86.02902282925652,26.717604318055688],[86.02876904898864,26.717665837805455],[86.02851345623398,26.717650585804417],[86.02788016490247,26.71789228778606],[86.02730852042758,26.718017016885554],[86.0265415524544,26.717975699862738],[86.02531766329855,26.71746168429166],[86.0245428755221,26.71705463502754],[86.02421894311478,26.716831134403517],[86.02397985342428,26.716603819788524],[86.02373038420613,26.716342495302495],[86.02356625942244,26.716172072239285],[86.02343370836603,26.715943193651352],[86.02338794045255,26.715789398431262],[86.02340275523817,26.715482495479616],[86.02353998611575,26.71494177337425],[86.02344181838488,26.714329282216994],[86.02347957942297,26.714097087964028],[86.02309393762643,26.7139703048668],[86.02244857333203,26.71363627522935],[86.02167578785432,26.71332400228938],[86.01994277576121,26.71287644908531],[86.01943127597974,26.712827752383255],[86.01898448865116,26.71283594604648],[86.01866599734508,26.712860831275506],[86.01813830722475,26.713062645675773],[86.01825740832928,26.712657150448877],[86.01858583476687,26.712092856315152],[86.01878771498079,26.71157057681737],[86.01900440986131,26.710759461195384],[86.0192486176845,26.710237431143455],[86.01948788446998,26.709482894888264],[86.0196309334654,26.709210750308287],[86.01981693572296,26.70895698685793],[86.01997623803601,26.708436582709936],[86.02001124657686,26.708089292777355],[86.02005325945272,26.707843533144235],[86.02008701950022,26.70764509923802],[86.02012090229259,26.707241292914166],[86.020315213833,26.706373598445673],[86.02029300632383,26.70533735726002],[86.02036471222395,26.704701357025066],[86.02035126298767,26.704066920689172],[86.02025159449501,26.703377781845173],[86.02020238552934,26.70307050464684],[86.02001756004177,26.70238305473113],[86.01979927908381,26.70111743454751],[86.01973056369039,26.700888993644387],[86.01966028405523,26.700581528828895],[86.01961201408348,26.70031482601784],[86.01953942013131,26.6999125209831],[86.019427189027,26.69962506218731],[86.01937597821365,26.6992229443347],[86.01936740767773,26.698821076579037],[86.01866940524003,26.699005886970035],[86.0174866663292,26.69941308002004],[86.01731823094906,26.6994931673646],[86.01619557384898,26.699724683793985],[86.01551545094858,26.69975613649827],[86.01509142210084,26.699820909272802],[86.01432501756105,26.69983817095854],[86.01304949162197,26.699921894849936],[86.01262602543089,26.70002505443538],[86.01237105728495,26.700050376227647],[86.01160853210267,26.70023918893921],[86.01127116074758,26.700379044786903],[86.01101681822887,26.700442753815945],[86.01084882080183,26.70054090928174],[86.01066300548096,26.70081274060996],[86.01003747221256,26.70140204454311],[86.00974455503523,26.701636991229094],[86.0091761016239,26.701937771528343],[86.0090296740453,26.702056433356397],[86.00843827316021,26.702278003984365],[86.00776459377808,26.702618671856317],[86.00657872758697,26.702910643566128],[86.00615582490563,26.70305437752885],[86.0059028585704,26.70317453952429],[86.00547845463814,26.703241501057477],[86.00505592791174,26.703383045728415],[86.00488561562106,26.703386360898374],[86.00460863912393,26.703373109707346],[86.00459739072838,26.703833557995324],[86.00467767743069,26.70457896348959],[86.00465767159201,26.70463754293072],[86.0047831019502,26.705498419883625],[86.00476310602859,26.706534349232502],[86.00485063877551,26.706627500859057],[86.00505353093266,26.707141337053965],[86.00499720176673,26.7074863145727],[86.00498007315556,26.707680246625657],[86.00498576533845,26.707928632018252],[86.00490555126407,26.70816057594945],[86.00496332937874,26.708849402601796],[86.004925818689,26.7090794074406],[86.00501866848808,26.70942313299674],[86.00519830184331,26.709860071763277],[86.00549116686388,26.7106250441798],[86.0056436618246,26.710793154928535],[86.00592802008681,26.71115400770955],[86.0061447260544,26.711342874298367],[86.00659726878051,26.711621451666925],[86.00743439145025,26.711972671990548],[86.00767248036173,26.712159412535616],[86.00789012477934,26.71238666503903],[86.00815316209777,26.712747393359795],[86.00833210677715,26.71316620198708],[86.00843803096136,26.714144300758743],[86.00855414132106,26.71460337274083],[86.008517631308,26.714892020471293],[86.00847968249587,26.715103957532175],[86.00857034326643,26.715370910329877],[86.00903677411941,26.71630417973559],[86.00905403027974,26.716342628707693],[86.00946200253063,26.717273147906415],[86.00994962786217,26.718184036047713],[86.01008361792992,26.718469306748283],[86.01008649546091,26.71860259532502],[86.01002866455927,26.718891118698007],[86.0100539263978,26.71906279326089],[86.01012126515512,26.719234843955416],[86.01034028578346,26.719518487378515],[86.01056105794949,26.71989703377768],[86.0109211994258,26.720809173951093],[86.01094115463223,26.72172800546528],[86.01088232316607,26.721960074850678],[86.01088832875483,26.72224684664107],[86.01118851307645,26.723332349374022],[86.0113886524876,26.72373102774061],[86.01152483210748,26.724131456021237],[86.01152996132284,26.724361774413758],[86.01132213785962,26.72459509451113],[86.01126086704159,26.724709816370193],[86.011285753651,26.724881491272967],[86.01159599809317,26.725452469218244],[86.01170854187983,26.725737676541094],[86.011947757531,26.725980870368883],[86.01214164191308,26.726092839796657],[86.01252428106355,26.726066140236593],[86.0131467604958,26.72632327287722],[86.01349157623062,26.726528830537813],[86.01370821957808,26.726695064157727],[86.01386371695276,26.726998652254398],[86.01386966018312,26.72728761230347],[86.01391599201284,26.72745947448313],[86.01404697821053,26.727609392255232],[86.01417552622819,26.727646339364878],[86.0146868377444,26.727674718447116],[86.01494155576376,26.727649396264383],[86.01527542365335,26.727337989569897],[86.01620707405742,26.72712998236412],[86.01660627930374,26.726891220617965],[86.0167757155364,26.726849519423475],[86.01703137184033,26.726864834210808],[86.01707513771497,26.7269215377257],[86.01712103187889,26.72707308196605],[86.0171245345675,26.72724694548952],[86.01708708611638,26.72747682590308],[86.01709590627473,26.727878756780274],[86.01717062698641,26.72839390700083],[86.01730705659132,26.728794398862274],[86.01729587003544,26.729254784225688],[86.01734188829874,26.729426646749864],[86.01732325864053,26.729541617658807],[86.01709411459181,26.72977481362643],[86.01701415046549,26.73000675713992],[86.01705148526632,26.730751913065657],[86.01717141147815,26.73138253483153],[86.01720273975641,26.73184091915258],[86.01729390123856,26.732128252402774],[86.01728521752698,26.73270154646409],[86.01737531568888,26.73293011217945],[86.01774601795984,26.73334566839485],[86.0183061636449,26.7336611312966],[86.01845822060635,26.733811173742154],[86.01861215382232,26.734037926170604],[86.01870337857946,26.73432294655669],[86.01868481028184,26.73443798076469],[86.01853875844122,26.734574585164818],[86.01824321481257,26.73469674810539],[86.01818238092862,26.734831788530627],[86.01816487714525,26.735003214302694],[86.01823115198235,26.735116497044604],[86.01828098682536,26.735462223161132],[86.01869558075833,26.735932357073413],[86.01887583943507,26.736389552805832],[86.01913287142708,26.736461258135133],[86.01947093119654,26.73635978835434],[86.01964130534392,26.736356473487735],[86.02002957538859,26.736598416138683],[86.0203722637087,26.736686500700852],[86.02045698201361,26.73666680705783],[86.02060397148655,26.736568464566883]]]}}]}