{"type":"FeatureCollection","features":[{"type":"Feature","properties":{"province":"Madhesh Province","district":"Mahottari","municipality":"Aaurahi Municipality","ward":"4","wardNumber":4,"sourceMunicipality":"Aurahi","sourceType":"Nagarpalika"},"geometry":{"type":"Polygon","coordinates":[[[85.78436165657888,26.88810700258888],[85.78438196630425,26.887147970499534],[85.78431949553634,26.886073030359185],[85.78390932774666,26.88437891140488],[85.78391126500705,26.884281882410914],[85.7837149979401,26.883512783448527],[85.78360751723812,26.883060463868553],[85.78357706696208,26.882933801670003],[85.78334873071941,26.882631652707218],[85.78308875576138,26.882193775781587],[85.78272293038674,26.881775343765305],[85.78190743796668,26.881093462145543],[85.78171261383288,26.880771306576147],[85.78147564945027,26.880484849957725],[85.78104661405553,26.880144815904483],[85.78066197072917,26.87995638867875],[85.78032084527601,26.879903875538037],[85.77998065919785,26.87990769242104],[85.77934061106735,26.879741961453337],[85.7789993604279,26.87966675465459],[85.77874426720652,26.879689387527574],[85.77857339156297,26.879633748062602],[85.77793140271342,26.879237761473984],[85.77758808665098,26.87897299900781],[85.77752324947286,26.87885946657153],[85.77754338081195,26.878744620055944],[85.77781566335317,26.878320368610694],[85.7778999441788,26.878260162024965],[85.77848890205209,26.877565578325644],[85.77869966517254,26.87739133808632],[85.77882596004515,26.87723666673222],[85.77897113394204,26.876869995344524],[85.77894899990046,26.876793035084937],[85.77877856286314,26.876757776678403],[85.77852303180505,26.876760092014912],[85.77809887799835,26.87687831759122],[85.77784378474797,26.87690088814086],[85.77733222178425,26.876810741651365],[85.77716115869022,26.876716715410264],[85.77679552043178,26.87633660602542],[85.77664252370786,26.875935802620166],[85.77667834192619,26.875265730274503],[85.77676011838125,26.874918877984697],[85.77703196370393,26.874476557953404],[85.77721934036342,26.87405161927158],[85.77763980157354,26.87356772320479],[85.77789051425566,26.873107149019955],[85.77797285318239,26.87281893823006],[85.77796872281547,26.87241488215834],[85.7778571775175,26.871899356387193],[85.77742100694933,26.87085048947917],[85.77728964261972,26.870488196513655],[85.77713602005441,26.870028750872937],[85.77700390478539,26.86958968525109],[85.7767445553571,26.869190257260644],[85.7766575220348,26.86899982722354],[85.77661087606683,26.86859770958998],[85.776545412432,26.86842565951027],[85.77622260342218,26.868045925257526],[85.7760524788768,26.868066995622122],[85.77528507140252,26.86790239088434],[85.77502860172558,26.86778954729257],[85.77417503671637,26.867529415629594],[85.77408944289631,26.867472211372178],[85.77366303576946,26.867400819015526],[85.77255375262448,26.867104553395325],[85.77178634488358,26.866939949055073],[85.77093409419554,26.866794850731893],[85.77067900131524,26.866817484308736],[85.77042284489,26.86676334522716],[85.76999737684436,26.866748344129217],[85.76908222868053,26.866717842977067],[85.7677415503703,26.86667459090319],[85.76518943022283,26.866738129663204],[85.76484886865714,26.866723878258046],[85.76425189862563,26.866594532811156],[85.76408214905864,26.866613351683572],[85.76263518209073,26.866566912743533],[85.76218826873325,26.866551724346348],[85.76182601100446,26.866478580514567],[85.76131544865848,26.86648314866787],[85.76097476131909,26.866446264978105],[85.75978470278775,26.86655099256127],[85.75884879809624,26.866578883731357],[85.75802012018991,26.86664159560902],[85.75842902501444,26.86713723860125],[85.75890189046008,26.867653761666308],[85.7592237611471,26.867938717637692],[85.75969656330157,26.868434859084054],[85.7619487185843,26.870298638974674],[85.76220625204046,26.870544646462157],[85.76252743436878,26.87075283063547],[85.76265667029203,26.870902935716682],[85.76310715133512,26.871281543365146],[85.76321531792385,26.87143371196986],[85.76347247586389,26.87162326570375],[85.76392377112138,26.87207870827095],[85.76443883878768,26.8725345254741],[85.76493390012531,26.87310312612878],[85.76600730218144,26.874069464184043],[85.76633036215502,26.874449260516375],[85.76654606837101,26.87475359807529],[85.76695641252189,26.8753823419968],[85.76722076811022,26.876280728746448],[85.76735200734971,26.87662495402578],[85.76763367796642,26.877139727838884],[85.76780618081347,26.877366918731937],[85.76796036749624,26.87788288160321],[85.76845993541812,26.878911991692362],[85.76883139323854,26.879885712685745],[85.76891899010687,26.88013478519003],[85.76920547993974,26.881107818703253],[85.7693996781551,26.88139396398837],[85.76957149309837,26.881564637436085],[85.77000027785633,26.881866409897807],[85.77042781144183,26.88207315508287],[85.7708541558874,26.88216499122867],[85.77119690808401,26.88239130514902],[85.77145331552916,26.882504147988378],[85.77168909173709,26.882673195959093],[85.77211631111241,26.882823612243396],[85.77257116780793,26.883039796321412],[85.77257341815522,26.883062303012398],[85.77258911315894,26.883213659861998],[85.77291792651596,26.883735686037554],[85.77327162139925,26.884088599464196],[85.7734775127414,26.884397313313777],[85.77362006719616,26.884687460164354],[85.77404179550918,26.88584673459679],[85.77420079702298,26.886367260738528],[85.77423825054616,26.886597765647874],[85.77447965738655,26.88723413804456],[85.77453511962112,26.88763869465388],[85.77469874473253,26.887928965875865],[85.77533903969125,26.887785543966377],[85.77550891483274,26.887786979899943],[85.77610656974727,26.887663501894313],[85.7766161935029,26.88767243718247],[85.77729431694,26.88775952025006],[85.77763656597956,26.887649609845184],[85.77778755822003,26.887538076532778],[85.77829574528329,26.887623722358992],[85.7791457428842,26.887617526208896],[85.77948474260182,26.887661035747634],[85.7799969291262,26.887554812928137],[85.78050730252934,26.887525425141735],[85.78076139574743,26.88756824832115],[85.78101692634198,26.88753429940772],[85.78135580135176,26.887595877065277],[85.78169630084093,26.887564990169096],[85.78237336248193,26.88769039686312],[85.78279733035316,26.887734718728137],[85.78339442213377,26.88762924498095],[85.78407254616712,26.887718578193674],[85.78436165657888,26.88810700258888]]]}},{"type":"Feature","properties":{"province":"Madhesh Province","district":"Mahottari","municipality":"Aaurahi Municipality","ward":"6","wardNumber":6,"sourceMunicipality":"Aurahi","sourceType":"Nagarpalika"},"geometry":{"type":"Polygon","coordinates":[[[85.77657609940024,26.867236434989827],[85.77680386378375,26.866622189913972],[85.77683793055367,26.865796384514837],[85.77689650891173,26.86525972639757],[85.7769554631949,26.864779460542554],[85.77707988064087,26.864471306054778],[85.77709412962228,26.863783041478953],[85.77719747687904,26.86345438103941],[85.77725736938476,26.86309152453806],[85.7773592149534,26.862629700446224],[85.77746331353434,26.862398068743147],[85.77758929577742,26.862263778416537],[85.77845616971422,26.861718173420392],[85.77894328255528,26.861501231399224],[85.7801280849343,26.860877225752382],[85.78114363814112,26.860310363683997],[85.7816079294018,26.859962257951107],[85.7819871894668,26.85959308360693],[85.78230405243684,26.859379143211466],[85.78272764341722,26.85918414534408],[85.78350804693598,26.8585430754324],[85.78384623054025,26.858309066259107],[85.78422636736812,26.8580571771898],[85.78481883111216,26.857723636952592],[85.78498764160874,26.857589720684587],[85.78549620033634,26.857390971354636],[85.78572840852439,26.857237236257397],[85.78606828256594,26.857194971497016],[85.78623778126095,26.85711519611186],[85.78666218548355,26.857014976114666],[85.78700255925727,26.856993092037968],[85.78861533237266,26.856611841537703],[85.78904011254615,26.8565703265734],[85.78972161261586,26.856621336099902],[85.79011900677773,26.856586322336707],[85.7902319855348,26.856576005519592],[85.79091436006718,26.856570561623244],[85.79151051505372,26.856451521858467],[85.79193704566168,26.856428073272976],[85.79285218995368,26.856210127436075],[85.79331960929169,26.856033571097694],[85.79361652889617,26.85586001788216],[85.79395496178024,26.855569492546625],[85.7942053610673,26.855029894137946],[85.79418103600166,26.85474306038561],[85.79402822636365,26.854380580321536],[85.79392031131749,26.854266860465277],[85.79368403539256,26.85411588034497],[85.79325543927571,26.853927140879353],[85.79291318834672,26.853833928256044],[85.79274149985069,26.85373990248875],[85.79259188228377,26.853702517598865],[85.79237661427364,26.85353140644801],[85.79218254091583,26.853322096450285],[85.79160207422778,26.852886035786476],[85.79138868424052,26.85286840719668],[85.7912385031416,26.852792698567942],[85.79089149611954,26.852259295180936],[85.7908260331851,26.85208718230059],[85.79056637254207,26.851746396984467],[85.79011901788527,26.85141980425799],[85.79007225049372,26.851385607188718],[85.78968516727427,26.850987305952533],[85.78947096258452,26.850836513348145],[85.78934160084732,26.85066383907478],[85.78901966826707,26.85038119610391],[85.78873943694812,26.85001996695931],[85.78858950632323,26.849926128651298],[85.78839562056936,26.849696499796185],[85.78824468813465,26.849487564485297],[85.78756581672589,26.84966681007779],[85.78735248861736,26.84961310886289],[85.78705218852062,26.849366726684817],[85.7862507767506,26.850043806597704],[85.78540528566796,26.850571468891278],[85.78502283383067,26.850593040833928],[85.78419465703521,26.85073715176246],[85.78387579130607,26.850759223408126],[85.78311289018232,26.851034873431303],[85.78298640719291,26.851151220722233],[85.7823714340733,26.85133090343586],[85.78163085552065,26.851721836537536],[85.78042210425816,26.852097394031933],[85.78008379535328,26.85229307945212],[85.77993630472201,26.852427245595056],[85.77945025577714,26.852759346442433],[85.77858094112953,26.853036310187843],[85.77843295033244,26.85311402177135],[85.77818023561899,26.85338491555534],[85.77801123640869,26.85348282109815],[85.7776089036691,26.853657625084917],[85.7774816073168,26.85367913304523],[85.77722751610568,26.853814612232597],[85.77678147869472,26.853876196691367],[85.7761454980694,26.85407388443309],[85.77595430293835,26.85409476674424],[85.77569996137382,26.8541738547085],[85.77518996304829,26.854234877303153],[85.77480851212661,26.854371545415027],[85.77423724351864,26.85466451110481],[85.77391900298548,26.854743036696526],[85.77270718623558,26.854811566154343],[85.77251530222865,26.85475567594552],[85.77200461561435,26.85473998874574],[85.77168612458554,26.85478012782326],[85.77149530532233,26.854859714795705],[85.77132837323558,26.85516749466891],[85.7713737043529,26.855454515960552],[85.77148230881131,26.855685707442138],[85.77184876097787,26.856180912599626],[85.77264249458082,26.856846851715623],[85.77275028618965,26.85700127117877],[85.77290271976727,26.857345683890042],[85.77301345273843,26.85780475580075],[85.77327342685378,26.858263012931424],[85.77336183845162,26.858609113733763],[85.77329950416939,26.858762034298824],[85.77242887492301,26.8589237759787],[85.7721111346657,26.85904068805322],[85.77147396528879,26.85914347351132],[85.77102861648669,26.8592795797972],[85.76975465297076,26.859482961666373],[85.76918200781641,26.85964045057255],[85.7686733236574,26.859836949599476],[85.7685460266377,26.85985614340637],[85.76816482745399,26.860051454312288],[85.76797419586964,26.860110722830573],[85.76759218200291,26.86020894236371],[85.76712494905917,26.86027040167287],[85.76680752272614,26.860445955816523],[85.76640456401373,26.86056430643246],[85.76557826477394,26.860897910707806],[85.76513322819393,26.8610362679771],[85.76455939417148,26.86109897867661],[85.76424034002856,26.861100668896245],[85.7640493333868,26.861139682075],[85.76392147361027,26.861122739995036],[85.76304195696915,26.8603612108854],[85.7627005811212,26.860247617580377],[85.76238096396492,26.86019291682092],[85.76212593308976,26.86021323722973],[85.76187152807077,26.860292325336268],[85.76161774962124,26.860429992482434],[85.76079107564428,26.86074327839548],[85.76055886720849,26.860917331699394],[85.7604740234072,26.860936900612714],[85.76021886832005,26.86093915337184],[85.75983528949084,26.860865822684985],[85.75953649159176,26.860772922516464],[85.75866986809147,26.86131608867782],[85.75765475280578,26.86192114933751],[85.75712731429836,26.862365659169697],[85.75670616397709,26.862790787703354],[85.75611576603069,26.863334076970983],[85.75582022253849,26.86354820463521],[85.75518793496931,26.864147510541695],[85.75514967571232,26.864571510421772],[85.75451619823957,26.86507603886178],[85.75496580306779,26.865359868913384],[85.75605514393031,26.865832061433444],[85.7565903428413,26.86617315756294],[85.75678222653319,26.866229047257065],[85.75716724369518,26.86643779326984],[85.75802012018991,26.86664159560902],[85.75884879809624,26.866578883731357],[85.75978470278775,26.86655099256127],[85.76097476131909,26.866446264978105],[85.76131544865848,26.86648314866787],[85.76182601100446,26.866478580514567],[85.76218826873325,26.866551724346348],[85.76263518209073,26.866566912743533],[85.76408214905864,26.866613351683572],[85.76425189862563,26.866594532811156],[85.76484886865714,26.866723878258046],[85.76518943022283,26.866738129663204],[85.7677415503703,26.86667459090319],[85.76908222868053,26.866717842977067],[85.76999737684436,26.866748344129217],[85.77042284489,26.86676334522716],[85.77067900131524,26.866817484308736],[85.77093409419554,26.866794850731893],[85.77178634488358,26.866939949055073],[85.77255375262448,26.867104553395325],[85.77366303576946,26.867400819015526],[85.77408944289631,26.867472211372178],[85.77417503671637,26.867529415629594],[85.77502860172558,26.86778954729257],[85.77528507140252,26.86790239088434],[85.7760524788768,26.868066995622122],[85.77622260342218,26.868045925257526],[85.77647350319236,26.867621486190817],[85.77657609940024,26.867236434989827]]]}},{"type":"Feature","properties":{"province":"Madhesh Province","district":"Mahottari","municipality":"Aaurahi Municipality","ward":"1","wardNumber":1,"sourceMunicipality":"Aurahi","sourceType":"Nagarpalika"},"geometry":{"type":"Polygon","coordinates":[[[85.84347431792234,26.91589049066703],[85.84311529922903,26.91473652986388],[85.84276247806446,26.91432960024455],[85.84258371892967,26.913714108550707],[85.842567147761,26.913486042432798],[85.84266461465887,26.912875174664812],[85.84264785587533,26.912644793821023],[85.84254625388951,26.912413727248985],[85.84246303497052,26.912336329944907],[85.84229934707885,26.912027991330884],[85.84215847907925,26.91164312888195],[85.84224999850852,26.910267036964857],[85.84211219272177,26.909731005771665],[85.84183045666359,26.90896128162368],[85.84172321910128,26.907964989957296],[85.84158691318625,26.907349997555585],[85.84157659165271,26.906814966006905],[85.841517567817,26.9065842737403],[85.84147247848988,26.905667504292964],[85.84133929734712,26.904898967831844],[85.84126826427973,26.904209953286117],[85.84115027889212,26.903748568242463],[85.84080083198931,26.903170151332713],[85.840722112339,26.902862562064893],[85.84036034467616,26.90186189641755],[85.8401967195974,26.901553619242993],[85.83991779519756,26.90063266415924],[85.83956947364842,26.90001367233083],[85.83932544137055,26.89947445380817],[85.83893454193604,26.89885733774541],[85.83868426049814,26.89862277157319],[85.83851607380302,26.898544624883016],[85.83816287766103,26.898155825483713],[85.83797499491354,26.89799853078359],[85.83742215724462,26.896976047811027],[85.8366396707335,26.89575975982276],[85.83624383424373,26.89538865378665],[85.83597698217461,26.894925958235216],[85.83581141887537,26.894712458763703],[85.83562409847978,26.894537096929145],[85.83497304427297,26.894163867555957],[85.8348696928991,26.894027577862094],[85.8347281369654,26.893681040204804],[85.83461015152001,26.89322190616135],[85.83432679074905,26.89252889274338],[85.83411357761686,26.89152947551105],[85.83406730217955,26.890669161236175],[85.83353654499263,26.890660287298513],[85.8331984836486,26.89057845416121],[85.83260339037,26.890587149313465],[85.83184229762742,26.890422919225855],[85.83180109507906,26.890388659544303],[85.83167467268794,26.890286068618334],[85.83138131308115,26.890051126541078],[85.83100292183241,26.88979524221021],[85.83037381126675,26.889286722631425],[85.82987193589993,26.888819839573994],[85.82970312342508,26.88874169322816],[85.8295143028466,26.888584399105984],[85.828769893915,26.887481331022926],[85.82864428467808,26.887365172817166],[85.8281922977297,26.886553375364073],[85.82767541332512,26.88577940243362],[85.82754980413486,26.88566324401739],[85.82729696027518,26.88552576828906],[85.82700309984286,26.88530889524501],[85.82630708153329,26.883901486890373],[85.8258740403861,26.883207224530604],[85.82579157143817,26.88305980672993],[85.82577175177968,26.883025797360958],[85.82569265893383,26.88294840023116],[85.82563524988426,26.881647830986427],[85.8256508753366,26.88111073558207],[85.82560041195745,26.880421908377997],[85.82574214446663,26.879732392600896],[85.82531548841062,26.879794351657885],[85.82518869337557,26.879890318559134],[85.8239118560025,26.880286007813453],[85.82372003586251,26.88030701560153],[85.82337947439628,26.88040573458066],[85.82295413298112,26.880582789818245],[85.82276312673861,26.880680507625186],[85.82199678624288,26.88087951009016],[85.8212321356803,26.88125012577071],[85.82104162913494,26.88138616647315],[85.81982931575995,26.881838809486318],[85.81893843300249,26.88236409685589],[85.81855710826217,26.88263399165163],[85.81832471315121,26.882866812118728],[85.81815877961613,26.883061808166236],[85.81807575015895,26.883146833178365],[85.81925725131326,26.88372324342967],[85.81965652483666,26.883997445678833],[85.81992812672465,26.8842705232623],[85.82027901108293,26.884810679130105],[85.82058581737417,26.88544742575854],[85.82089599745528,26.88591055995219],[85.82113884245882,26.886528676815725],[85.82126195238425,26.886759931261864],[85.8215954532225,26.887128349075624],[85.82211865005632,26.887595419346177],[85.82228502541962,26.887790912910052],[85.8224914784423,26.88811769469802],[85.8225919562605,26.88840740361716],[85.82264879305346,26.8887531921745],[85.82285024778473,26.88933048542557],[85.82295204817675,26.890593043196365],[85.82302782977217,26.89105411553844],[85.82321027621093,26.891516062329885],[85.82322797287512,26.891687736848258],[85.82317239606259,26.892317047105756],[85.82307555403032,26.892889528780998],[85.82300835442149,26.894092007356193],[85.8229597765704,26.894378217656676],[85.82295490244424,26.89460840955451],[85.82298766933786,26.89508723810412],[85.82326195834369,26.89522490124507],[85.82334599046314,26.895284292899415],[85.82340888868235,26.895343497336437],[85.8235551313395,26.895477973105898],[85.8237584600762,26.89596036244555],[85.82417305491855,26.896521274139417],[85.82347968262935,26.897084320380134],[85.82300388673364,26.89741892245368],[85.82270221548238,26.8975857237449],[85.82250908329823,26.89764055424633],[85.82173230395853,26.89810582191495],[85.82115353106103,26.898265749425413],[85.8209599613027,26.89835896557756],[85.82089631281016,26.89833808502972],[85.82057500801349,26.898427988579538],[85.81999317391085,26.898725581176173],[85.81934981494557,26.898923332255674],[85.81858059770109,26.89902524340654],[85.81812999692993,26.89917047675888],[85.81723129436179,26.89934578605019],[85.81665077194693,26.89958473628203],[85.81555262608573,26.900139783132932],[85.81523100941466,26.900229686975266],[85.81503718973227,26.900320590336243],[85.8147988542487,26.900508210240666],[85.81464829927718,26.900581419807132],[85.81432668259711,26.90067126207859],[85.81355327809669,26.90096497915663],[85.81297175621813,26.901260258765973],[85.81142838339177,26.901691960534137],[85.81063822025783,26.901773365460613],[85.81073727042582,26.90317133847187],[85.8111314827757,26.903693800682383],[85.81155458641754,26.904886835095397],[85.8119723686714,26.90529663999199],[85.81241415794051,26.905571153902223],[85.81375709745059,26.906589129913968],[85.8143927695832,26.906772740768478],[85.81458496433869,26.9067562968224],[85.81496710584933,26.90683850572478],[85.81535030860991,26.90684619244551],[85.8157319487283,26.906948718771805],[85.81611546415057,26.906954155301467],[85.81652317474631,26.906828927199783],[85.81680496303849,26.906603296504812],[85.81691393903812,26.90647106931238],[85.81760337502978,26.906120210310572],[85.81897487342285,26.905761468777655],[85.8196151693726,26.9057148873494],[85.81993409960893,26.905758147045294],[85.8201237950461,26.905859112638026],[85.82056933384862,26.905962139741366],[85.82158564621479,26.90628428788092],[85.821732826195,26.906382690682854],[85.8219811711299,26.906750297199633],[85.8220404446651,26.90698105187307],[85.82215099443086,26.907823861202687],[85.82223233776719,26.908016353843266],[85.8223581979659,26.908114506923855],[85.82254864353084,26.908174772769726],[85.82293197085068,26.908200589994184],[85.82344522070662,26.908114497982645],[85.82357420463178,26.908059106011525],[85.82389394656579,26.908064041596436],[85.82415185224427,26.907955570210852],[85.82492288243442,26.907776886259725],[85.82530546052158,26.907820708906954],[85.82555930499288,26.907922111927512],[85.82581408600183,26.90796487238747],[85.82699571213931,26.908559286598187],[85.82714264186487,26.90865756481886],[85.82733071282387,26.90885093233778],[85.82770047941665,26.909526627255715],[85.82806468537589,26.910468588570616],[85.82836792984179,26.91127688605733],[85.82853486689072,26.911452061429213],[85.82891894469722,26.91143936646656],[85.82917760036723,26.911292634124404],[85.82930777273053,26.911178599738665],[85.82976012291601,26.910956592813505],[85.8300168411897,26.910904575999503],[85.8302726847685,26.910908949554774],[85.83052677902057,26.91099003417936],[85.83086190479891,26.911263674318445],[85.8309895762496,26.911284991367587],[85.83111537296088,26.91138314421526],[85.83137002956173,26.91144391060169],[85.83172835031563,26.91164096557797],[85.8318013772091,26.911700231742522],[85.83187471736345,26.911759561496673],[85.83197850654176,26.911893600154727],[85.83239666292607,26.9122085011926],[85.83268708577879,26.912556226244398],[85.83283101603365,26.91278766754104],[85.83302014810228,26.912886258032373],[85.83321215562383,26.912851746338887],[85.83344880309865,26.912702449902632],[85.8336883880026,26.912420053078876],[85.83373471539042,26.91222855874157],[85.83379998870849,26.91215459926677],[85.83390727769223,26.91209908197866],[85.83411916751845,26.912121149349108],[85.83424396498489,26.912257563187605],[85.8347692851387,26.912532764814575],[85.83528165878433,26.912408348323293],[85.8354746027129,26.91231513209848],[85.83577071210286,26.9123784604282],[85.83593927466426,26.91245660736703],[85.8360428763154,26.91257482856446],[85.8360973379773,26.91303346327243],[85.83625646456775,26.913571994574163],[85.8363783243839,26.913841573066872],[85.83654457453262,26.91401674813891],[85.83698786358191,26.91415803598076],[85.83717943369426,26.91414159160783],[85.83749648779788,26.914223175982354],[85.83774839335058,26.914360651306744],[85.83844396366678,26.914639477489],[85.83871612787897,26.91483584544459],[85.83877771378947,26.914933373332595],[85.83905112757789,26.915071099152954],[85.83937149438803,26.914981133109606],[85.84013564933896,26.915012260908128],[85.840648773037,26.914849458508087],[85.84090299116669,26.914892218971456],[85.8410284759851,26.914990246470726],[85.84136491242623,26.915148727633152],[85.84153103778527,26.915341908219375],[85.84162939100695,26.915726458031752],[85.84155818129491,26.91610732020198],[85.84142757269063,26.916257490882025],[85.84139993989619,26.916564205901768],[85.8416092055845,26.916719374444654],[85.84205543194444,26.916727561274495],[85.84230858827537,26.916808645075438],[85.84268854025133,26.916929114791365],[85.84331977523114,26.917225446219163],[85.84343587442919,26.91672980010073],[85.84344524798367,26.916271727750875],[85.84349082551086,26.916120870910763],[85.84347431792234,26.91589049066703]]]}},{"type":"Feature","properties":{"province":"Madhesh Province","district":"Mahottari","municipality":"Aaurahi Municipality","ward":"2","wardNumber":2,"sourceMunicipality":"Aurahi","sourceType":"Nagarpalika"},"geometry":{"type":"Polygon","coordinates":[[[85.80844624974908,26.903707389588206],[85.80915306891916,26.903528206254535],[85.80947156159662,26.903589533976643],[85.8096638813858,26.90355508492739],[85.81073727042582,26.90317133847187],[85.81063822025783,26.901773365460613],[85.81142838339177,26.901691960534137],[85.81297175621813,26.901260258765973],[85.81355327809669,26.90096497915663],[85.81432668259711,26.90067126207859],[85.81464829927718,26.900581419807132],[85.8147988542487,26.900508210240666],[85.81503718973227,26.900320590336243],[85.81523100941466,26.900229686975266],[85.81555262608573,26.900139783132932],[85.81665077194693,26.89958473628203],[85.81723129436179,26.89934578605019],[85.81812999692993,26.89917047675888],[85.81858059770109,26.89902524340654],[85.81934981494557,26.898923332255674],[85.81999317391085,26.898725581176173],[85.82057500801349,26.898427988579538],[85.82089631281016,26.89833808502972],[85.8209599613027,26.89835896557756],[85.82115353106103,26.898265749425413],[85.82173230395853,26.89810582191495],[85.82250908329823,26.89764055424633],[85.82270221548238,26.8975857237449],[85.82300388673364,26.89741892245368],[85.82347968262935,26.897084320380134],[85.82417305491855,26.896521274139417],[85.8237584600762,26.89596036244555],[85.8235551313395,26.895477973105898],[85.82340888868235,26.895343497336437],[85.82334599046314,26.895284292899415],[85.82326195834369,26.89522490124507],[85.82298766933786,26.89508723810412],[85.82295490244424,26.89460840955451],[85.8229597765704,26.894378217656676],[85.82300835442149,26.894092007356193],[85.82307555403032,26.892889528780998],[85.82317239606259,26.892317047105756],[85.82322797287512,26.891687736848258],[85.82321027621093,26.891516062329885],[85.82302782977217,26.89105411553844],[85.82295204817675,26.890593043196365],[85.82285024778473,26.88933048542557],[85.82264879305346,26.8887531921745],[85.8225919562605,26.88840740361716],[85.8224914784423,26.88811769469802],[85.82228502541962,26.887790912910052],[85.82211865005632,26.887595419346177],[85.8215954532225,26.887128349075624],[85.82126195238425,26.886759931261864],[85.82113884245882,26.886528676815725],[85.82089599745528,26.88591055995219],[85.82058581737417,26.88544742575854],[85.82027901108293,26.884810679130105],[85.81992812672465,26.8842705232623],[85.81965652483666,26.883997445678833],[85.81925725131326,26.88372324342967],[85.81807575015895,26.883146833178365],[85.81766822749144,26.883274374056054],[85.81676896358834,26.883488069091342],[85.81605733172192,26.883897445125594],[85.81536870879054,26.884209918081616],[85.81519764610756,26.884244617464837],[85.81511136483662,26.884300321915035],[85.81476824100139,26.88441029399649],[85.81459774060667,26.88440660684475],[85.81423317106157,26.88451407951693],[85.81408155459783,26.884627989165406],[85.81399221128336,26.884834925015994],[85.81390505586312,26.88492895360768],[85.8134095648779,26.885188909208136],[85.81291044882988,26.885620352410353],[85.81275995703115,26.885693563108347],[85.8126943088945,26.885769772761126],[85.81183306001601,26.886193717196406],[85.81114556182337,26.8864677412255],[85.81084482802324,26.886578087897888],[85.81056603936534,26.88666830494561],[85.80996569701719,26.886850550746527],[85.80953591584768,26.887013977209033],[85.80927932240839,26.887065994244853],[85.80919285378043,26.887121698549464],[85.80884966687265,26.887231671981045],[85.8085071672572,26.8873010076385],[85.80808019906742,26.88733352030476],[85.80705313784844,26.887543840830766],[85.80645273326859,26.88772608638208],[85.80610729605544,26.887928585970034],[85.80560774298431,26.888398352844117],[85.8052836893266,26.88860329122613],[85.80476856561194,26.888786286366404],[85.80444257408085,26.889086001989067],[85.80426988751171,26.889197411604886],[85.8039257003881,26.88934339447567],[85.80366898145616,26.889397724902743],[85.8033238577924,26.889602412946477],[85.80306563884633,26.88971088488939],[85.80280892064606,26.889765090117233],[85.80255101490937,26.889873561658668],[85.80221045251486,26.889850307705082],[85.80187363961338,26.889653377310292],[85.80174859326945,26.889516900926704],[85.80033943240372,26.887579655836678],[85.79997010283223,26.886885892300768],[85.79974189206958,26.886594996176385],[85.79951586735743,26.886189066315453],[85.79937043753625,26.886014078766696],[85.79918542925769,26.885685233933863],[85.79899867030299,26.885435349596015],[85.7988316707277,26.885278179329934],[85.79853806039016,26.885043237580607],[85.79828578915124,26.88589880345384],[85.798259782141,26.886128809198684],[85.7981010418547,26.886585632280795],[85.79807503394393,26.886813386692655],[85.797444008149,26.8884670028081],[85.79757506481933,26.88934838531919],[85.79750285471007,26.88974725284566],[85.79736805847341,26.890089167242902],[85.7968853891773,26.890771246184062],[85.79681780395296,26.890942172120326],[85.79679173402562,26.891172177499506],[85.79685100806144,26.891402931877902],[85.7970568992032,26.89175003209762],[85.79742991602788,26.89227230800347],[85.79757072171007,26.89267755112624],[85.79756272322025,26.89307923092394],[85.79749513687008,26.893250157162324],[85.79731995018518,26.89347666276573],[85.79727499743619,26.89359138429135],[85.79705742028767,26.893817514380896],[85.79696657722675,26.894103411712635],[85.79685653933393,26.894274025442243],[85.79663908661772,26.894482088728175],[85.79624588569419,26.894973047975668],[85.79606701115036,26.895370979359054],[85.7957372081743,26.895882819875517],[85.79521646024881,26.89635239974773],[85.79519132807809,26.896525888106815],[85.79525353861399,26.89662129057716],[85.79561467123229,26.896667238799132],[85.79587063958968,26.896651356691123],[85.79612467142873,26.896732503647186],[85.7963802026058,26.896736940311396],[85.79655163928733,26.896681985516754],[85.79672220146871,26.89668335957095],[85.79697692025643,26.89672624474072],[85.79703956848543,26.89678544924868],[85.7971214760457,26.896957686855608],[85.79718018756277,26.89720869708989],[85.79719444571353,26.897554174193715],[85.79717469808814,26.898529084917524],[85.79707773170206,26.89910150441203],[85.7970482874003,26.899503060013103],[85.79706467018998,26.899733439643033],[85.79716427332268,26.900079602925864],[85.79743281326328,26.900485907710173],[85.79778788417363,26.900836507918154],[85.7980790562844,26.90118654613876],[85.79835184602955,26.90140104467119],[85.79845551038042,26.901537333121773],[85.79883415070647,26.901773024500173],[85.79919053452241,26.902064982575382],[85.79939905029103,26.90227891867626],[85.79960937865118,26.90241614432604],[85.79969397257531,26.902457468586935],[85.80007061369254,26.902787937992816],[85.80101609100417,26.90343468232704],[85.80152271634906,26.90367374854811],[85.80188366171194,26.90373545119036],[85.80261086365338,26.90359490411456],[85.80286901925166,26.903466114230167],[85.8031263006515,26.903391590176444],[85.80354989371818,26.9035148099316],[85.80378110567267,26.903670229148773],[85.80394798100792,26.903845466213422],[85.80409247367523,26.90407915944137],[85.80428073156766,26.904254521496394],[85.80459034947802,26.904737911163853],[85.80505108520742,26.90512777196507],[85.80524178033538,26.905188037783162],[85.80549706120189,26.905210542116155],[85.80607514622754,26.905066495310784],[85.80672075455101,26.9047513977195],[85.80691507431945,26.904622107672683],[85.80710789445114,26.904567277477025],[85.80745433070628,26.90430388501943],[85.80775618896047,26.90411907873176],[85.80812369555521,26.903855873181808],[85.80844624974908,26.903707389588206]]]}},{"type":"Feature","properties":{"province":"Madhesh Province","district":"Mahottari","municipality":"Aaurahi Municipality","ward":"3","wardNumber":3,"sourceMunicipality":"Aurahi","sourceType":"Nagarpalika"},"geometry":{"type":"Polygon","coordinates":[[[85.79486675176089,26.888422510570688],[85.7954654071397,26.888316974254074],[85.79623262576101,26.88830996644411],[85.79657512517727,26.888240630418274],[85.79717034313171,26.888308895964304],[85.797444008149,26.8884670028081],[85.79807503394393,26.886813386692655],[85.7981010418547,26.886585632280795],[85.798259782141,26.886128809198684],[85.79828578915124,26.88589880345384],[85.79853806039016,26.885043237580607],[85.79858738779502,26.884718642149434],[85.7988607916824,26.88386326402456],[85.79894913479835,26.88371278118719],[85.79905848641813,26.883580553635948],[85.79946800836348,26.883358298320424],[85.79968633547315,26.883062208794772],[85.79970659322247,26.88304657939015],[85.79978436466035,26.882356563749585],[85.79979892605265,26.881724690526386],[85.79972094714343,26.880462319945202],[85.79967267398611,26.879965424842656],[85.79929352050165,26.87847705300067],[85.7992010424712,26.877846431393067],[85.79906811504041,26.87738711000275],[85.79887060025021,26.87692953972111],[85.79865270384711,26.876530423571683],[85.79836696658795,26.875787708038903],[85.79762668204032,26.874415874033495],[85.79747393514677,26.87407146115662],[85.79740578147842,26.873669156171708],[85.79748874677874,26.873439588399066],[85.79763629954678,26.873264785704176],[85.79814667180719,26.873106610023687],[85.79859514820087,26.873123986133102],[85.79872344603149,26.873161183925042],[85.79904331218899,26.873139049390208],[85.79929978237621,26.873193126036956],[85.79974800800815,26.87320825125032],[85.79987668072259,26.873245448611364],[85.80013258651105,26.873225066097046],[85.80051810397497,26.873336657721474],[85.80090230717735,26.873333091568234],[85.80115777432113,26.873272071832304],[85.80179900982303,26.87332489415177],[85.8025008266283,26.87306900040545],[85.803076661725,26.873006165405286],[85.80333194137482,26.872927077749246],[85.80345886160812,26.87282885994201],[85.80365043159823,26.872769528791398],[85.80394922825536,26.872749457857132],[85.80420194154452,26.87244011434272],[85.80438894346425,26.871978977346757],[85.80449072533528,26.87151934226098],[85.80452892313586,26.871115723203367],[85.80452529333859,26.870772559503173],[85.80443344110274,26.870198579190927],[85.80414707817177,26.86939709675073],[85.80399433246525,26.869111388647962],[85.80382082882205,26.868825555662095],[85.80347300808923,26.868215441970296],[85.80323585633971,26.867967433493888],[85.80306410456144,26.86787340792397],[85.80287021919378,26.86770248383666],[85.80244143559602,26.867495738965292],[85.80201177608612,26.867212221868996],[85.80166889883144,26.867060367223083],[85.80141205392445,26.866985973238876],[85.80081408474477,26.866915457293185],[85.80047089484367,26.866763540438797],[85.79967659971987,26.86627383998433],[85.79950503605325,26.866197882070747],[85.79907781694925,26.866162687651986],[85.79882241216905,26.86622145733428],[85.79865184945328,26.866224521762906],[85.79822444210352,26.866150941045376],[85.79779784940986,26.866154070314355],[85.7963436268537,26.865839302588878],[85.79600081186406,26.86570995422069],[85.7952311545996,26.865543161639298],[85.79506034162912,26.865543976266654],[85.79463293464381,26.865470457600132],[85.79394718108199,26.865189192889833],[85.79383926525159,26.865075410325634],[85.79375235687732,26.86490311076631],[85.79355578131285,26.864483864345793],[85.79346887283666,26.864311626853617],[85.7933122454577,26.863624113388976],[85.79312317879744,26.863893319126497],[85.79310486319532,26.864200159203236],[85.79315144696679,26.864582021073495],[85.79315482562735,26.864888986344543],[85.79309399437359,26.86519545202808],[85.79292606122301,26.86548516371877],[85.79290793152178,26.86577168533571],[85.79276063011987,26.865984874271778],[85.79259056857533,26.86606239820083],[85.79148379152569,26.866301227460987],[85.79022927515108,26.866732926900994],[85.79011917222033,26.866761311155052],[85.78929512345428,26.866973255464412],[85.78861756591412,26.86726765965505],[85.78819303635746,26.86736781702533],[85.78785391324799,26.867484541797307],[85.78692201448597,26.86789867130316],[85.7866683612274,26.86805446859618],[85.78632880006732,26.868153125202188],[85.78533506805805,26.868738243166973],[85.78525016203207,26.868757811548274],[85.78478630857732,26.869184940876647],[85.7843629690269,26.869379939128],[85.7840863045073,26.869364061924884],[85.7837898225191,26.869519484819268],[85.78345345361427,26.8699071017825],[85.78299166641993,26.87052378654979],[85.78271506459701,26.87052828976221],[85.78252386975629,26.870549109680805],[85.78213997886905,26.87043751773284],[85.78143672064856,26.870350185499415],[85.7812448373368,26.870294358025973],[85.78054289300702,26.87029961514439],[85.78009541648261,26.870248353486314],[85.77958522986714,26.870271051974424],[85.77882020121255,26.8703750892025],[85.77837372621882,26.87038021905315],[85.77767272053303,26.870502823445676],[85.77728964261972,26.870488196513655],[85.77742100694933,26.87085048947917],[85.7778571775175,26.871899356387193],[85.77796872281547,26.87241488215834],[85.77797285318239,26.87281893823006],[85.77789051425566,26.873107149019955],[85.77763980157354,26.87356772320479],[85.77721934036342,26.87405161927158],[85.77703196370393,26.874476557953404],[85.77676011838125,26.874918877984697],[85.77667834192619,26.875265730274503],[85.77664252370786,26.875935802620166],[85.77679552043178,26.87633660602542],[85.77716115869022,26.876716715410264],[85.77733222178425,26.876810741651365],[85.77784378474797,26.87690088814086],[85.77809887799835,26.87687831759122],[85.77852303180505,26.876760092014912],[85.77877856286314,26.876757776678403],[85.77894899990046,26.876793035084937],[85.77897113394204,26.876869995344524],[85.77882596004515,26.87723666673222],[85.77869966517254,26.87739133808632],[85.77848890205209,26.877565578325644],[85.7778999441788,26.878260162024965],[85.77781566335317,26.878320368610694],[85.77754338081195,26.878744620055944],[85.77752324947286,26.87885946657153],[85.77758808665098,26.87897299900781],[85.77793140271342,26.879237761473984],[85.77857339156297,26.879633748062602],[85.77874426720652,26.879689387527574],[85.7789993604279,26.87966675465459],[85.77934061106735,26.879741961453337],[85.77998065919785,26.87990769242104],[85.78032084527601,26.879903875538037],[85.78066197072917,26.87995638867875],[85.78104661405553,26.880144815904483],[85.78147564945027,26.880484849957725],[85.78171261383288,26.880771306576147],[85.78190743796668,26.881093462145543],[85.78272293038674,26.881775343765305],[85.78308875576138,26.882193775781587],[85.78334873071941,26.882631652707218],[85.78357706696208,26.882933801670003],[85.78360751723812,26.883060463868553],[85.7837149979401,26.883512783448527],[85.78391126500705,26.884281882410914],[85.78390932774666,26.88437891140488],[85.78431949553634,26.886073030359185],[85.78438196630425,26.887147970499534],[85.78436165657888,26.88810700258888],[85.78465357795267,26.888380392909845],[85.7850117730263,26.888518806382205],[85.78518264754541,26.88848429436388],[85.78542017017487,26.888314742372366],[85.78576760636736,26.88795657188831],[85.78600456607671,26.887807339421034],[85.78669081453002,26.887510808966898],[85.78720475038662,26.887325625522237],[85.78762978132545,26.88733149894],[85.78831290518264,26.8871883887889],[85.78907905994475,26.887161061654712],[85.78984758878599,26.887000633394205],[85.79011912575425,26.886973623423724],[85.79018840110916,26.88696743295259],[85.79035840082496,26.886989188033322],[85.7907809321435,26.887168862877235],[85.79103521323697,26.887229690923363],[85.79137571362969,26.88725519545474],[85.7915444633144,26.887333342604425],[85.7916284947087,26.88739279648404],[85.79177317423293,26.887606170822515],[85.79196086998412,26.887799600651],[85.79223353470796,26.888016349649813],[85.792482441488,26.88834575710869],[85.7925425903586,26.88851780690622],[85.79281550458236,26.888714237308946],[85.79298481744526,26.888774379384603],[85.79332531669495,26.888799821260427],[85.79349625377485,26.88876293430644],[85.79392665928974,26.888558932904214],[85.79418262829321,26.88854530220366],[85.794610783178,26.888436141591427],[85.79486675176089,26.888422510570688]]]}},{"type":"Feature","properties":{"province":"Madhesh Province","district":"Mahottari","municipality":"Aaurahi Municipality","ward":"5","wardNumber":5,"sourceMunicipality":"Aurahi","sourceType":"Nagarpalika"},"geometry":{"type":"Polygon","coordinates":[[[85.78299166641993,26.87052378654979],[85.78345345361427,26.8699071017825],[85.7837898225191,26.869519484819268],[85.7840863045073,26.869364061924884],[85.7843629690269,26.869379939128],[85.78478630857732,26.869184940876647],[85.78525016203207,26.868757811548274],[85.78533506805805,26.868738243166973],[85.78632880006732,26.868153125202188],[85.7866683612274,26.86805446859618],[85.78692201448597,26.86789867130316],[85.78785391324799,26.867484541797307],[85.78819303635746,26.86736781702533],[85.78861756591412,26.86726765965505],[85.78929512345428,26.866973255464412],[85.79011917222033,26.866761311155052],[85.79022927515108,26.866732926900994],[85.79148379152569,26.866301227460987],[85.79259056857533,26.86606239820083],[85.79276063011987,26.865984874271778],[85.79290793152178,26.86577168533571],[85.79292606122301,26.86548516371877],[85.79309399437359,26.86519545202808],[85.79315482562735,26.864888986344543],[85.79315144696679,26.864582021073495],[85.79310486319532,26.864200159203236],[85.79312317879744,26.863893319126497],[85.7933122454577,26.863624113388976],[85.79320120110604,26.863183047501245],[85.79300437400086,26.86272541433278],[85.79293690835806,26.86237950101714],[85.79294909190651,26.861499367758135],[85.79287868475689,26.86086674431244],[85.79276682622778,26.860351157088697],[85.79250190785434,26.859491218496157],[85.79243256488255,26.85897375501252],[85.792319267057,26.858322752239882],[85.7923755923148,26.857576094789998],[85.79245793154448,26.857287947159513],[85.79260448252246,26.85699798585278],[85.79277010094785,26.856536723310438],[85.79285218995368,26.856210127436075],[85.79193704566168,26.856428073272976],[85.79151051505372,26.856451521858467],[85.79091436006718,26.856570561623244],[85.7902319855348,26.856576005519592],[85.79011900677773,26.856586322336707],[85.78972161261586,26.856621336099902],[85.78904011254615,26.8565703265734],[85.78861533237266,26.856611841537703],[85.78700255925727,26.856993092037968],[85.78666218548355,26.857014976114666],[85.78623778126095,26.85711519611186],[85.78606828256594,26.857194971497016],[85.78572840852439,26.857237236257397],[85.78549620033634,26.857390971354636],[85.78498764160874,26.857589720684587],[85.78481883111216,26.857723636952592],[85.78422636736812,26.8580571771898],[85.78384623054025,26.858309066259107],[85.78350804693598,26.8585430754324],[85.78272764341722,26.85918414534408],[85.78230405243684,26.859379143211466],[85.7819871894668,26.85959308360693],[85.7816079294018,26.859962257951107],[85.78114363814112,26.860310363683997],[85.7801280849343,26.860877225752382],[85.77894328255528,26.861501231399224],[85.77845616971422,26.861718173420392],[85.77758929577742,26.862263778416537],[85.77746331353434,26.862398068743147],[85.7773592149534,26.862629700446224],[85.77725736938476,26.86309152453806],[85.77719747687904,26.86345438103941],[85.77709412962228,26.863783041478953],[85.77707988064087,26.864471306054778],[85.7769554631949,26.864779460542554],[85.77689650891173,26.86525972639757],[85.77683793055367,26.865796384514837],[85.77680386378375,26.866622189913972],[85.77657609940024,26.867236434989827],[85.77647350319236,26.867621486190817],[85.77622260342218,26.868045925257526],[85.776545412432,26.86842565951027],[85.77661087606683,26.86859770958998],[85.7766575220348,26.86899982722354],[85.7767445553571,26.869190257260644],[85.77700390478539,26.86958968525109],[85.77713602005441,26.870028750872937],[85.77728964261972,26.870488196513655],[85.77767272053303,26.870502823445676],[85.77837372621882,26.87038021905315],[85.77882020121255,26.8703750892025],[85.77958522986714,26.870271051974424],[85.78009541648261,26.870248353486314],[85.78054289300702,26.87029961514439],[85.7812448373368,26.870294358025973],[85.78143672064856,26.870350185499415],[85.78213997886905,26.87043751773284],[85.78252386975629,26.870549109680805],[85.78271506459701,26.87052828976221],[85.78299166641993,26.87052378654979]]]}},{"type":"Feature","properties":{"province":"Madhesh Province","district":"Mahottari","municipality":"Aaurahi Municipality","ward":"7","wardNumber":7,"sourceMunicipality":"Aurahi","sourceType":"Nagarpalika"},"geometry":{"type":"Polygon","coordinates":[[[85.81423317106157,26.88451407951693],[85.81459774060667,26.88440660684475],[85.81476824100139,26.88441029399649],[85.81511136483662,26.884300321915035],[85.81519764610756,26.884244617464837],[85.81536870879054,26.884209918081616],[85.81605733172192,26.883897445125594],[85.81676896358834,26.883488069091342],[85.81766822749144,26.883274374056054],[85.81807575015895,26.883146833178365],[85.81815877961613,26.883061808166236],[85.81832471315121,26.882866812118728],[85.81855710826217,26.88263399165163],[85.81893843300249,26.88236409685589],[85.81982931575995,26.881838809486318],[85.82104162913494,26.88138616647315],[85.8212321356803,26.88125012577071],[85.82199678624288,26.88087951009016],[85.82276312673861,26.880680507625186],[85.82295413298112,26.880582789818245],[85.82337947439628,26.88040573458066],[85.82372003586251,26.88030701560153],[85.8239118560025,26.880286007813453],[85.82518869337557,26.879890318559134],[85.82531548841062,26.879794351657885],[85.82574214446663,26.879732392600896],[85.82578040402652,26.879349029050765],[85.82585498396269,26.87837230419988],[85.8258516670087,26.878085657635744],[85.82569504088742,26.877436530790064],[85.82545294613435,26.87680703503669],[85.82521354207174,26.87640779475866],[85.8247387381966,26.875952540786486],[85.82434909091936,26.875479779748144],[85.82409112055747,26.875328612784337],[85.82381264196144,26.875236024658875],[85.823639890356,26.875083356488474],[85.82348751884666,26.874797711205577],[85.8233094476143,26.8741484597666],[85.82320034241265,26.87396021801108],[85.82305078822097,26.87394090078435],[85.82279544523848,26.874020051570557],[85.82249652325741,26.874024304755956],[85.82234615505475,26.873928278116214],[85.82212882271408,26.873587929545486],[85.82192492411369,26.87255469029814],[85.82172772286788,26.872097120114933],[85.82140034650264,26.871469250863115],[85.82105283954576,26.87093816004779],[85.82100369020377,26.870364429829483],[85.82099674402343,26.86973236872309],[85.82105494739696,26.869215966735965],[85.82111778186051,26.869099119403362],[85.8211579192574,26.868869239030733],[85.82106400154181,26.86812364621521],[85.82106037176382,26.867780482869907],[85.82105711816945,26.86751190358945],[85.82029234174479,26.867844070469406],[85.81882249527594,26.868145608626726],[85.81786483566476,26.868442328913478],[85.81754634499983,26.86857962186764],[85.81646126432847,26.8689158539809],[85.81569611278972,26.869248020539604],[85.81537693489223,26.869326608627738],[85.81518542759463,26.86940625861769],[85.81495228114895,26.86956230655063],[85.81469887881484,26.869813006780415],[85.81446748509417,26.87010221936252],[85.81421714921723,26.870639566627176],[85.81419708030366,26.87075453812572],[85.81409235563959,26.87092746435125],[85.8133748516593,26.871700134707552],[85.8131645272508,26.87198953411247],[85.8131230757415,26.872104318012425],[85.81293319628699,26.872299127197437],[85.81253393092591,26.87287586168368],[85.81219637399579,26.87326122823461],[85.8119215887455,26.873513992106258],[85.81164868089185,26.87391798757932],[85.81146105374332,26.874322670774596],[85.81163693499653,26.874798121849928],[85.81112762700089,26.875071518806028],[85.81087203311802,26.87511221968963],[85.80942488390541,26.87554698432873],[85.80932214240944,26.87399771830528],[85.80943848663598,26.872924338964747],[85.80954095814354,26.87254147578609],[85.80996035403497,26.87184758114274],[85.8101473555311,26.871386506902493],[85.81014466449189,26.87115844010823],[85.8099005045531,26.8703190078993],[85.80989624898102,26.869935269843047],[85.80982903427365,26.869629992898012],[85.80965290227023,26.869172610117438],[85.80954536194376,26.869076895631167],[85.80931008783014,26.86904107444482],[85.80898765561953,26.86885327203237],[85.80874837705247,26.868453969227218],[85.80850759575463,26.86792156465679],[85.8083753558434,26.867538953280008],[85.80837354098719,26.86738547054542],[85.80845569281651,26.867079192479522],[85.80840936067749,26.86675378511126],[85.80734497433201,26.867031562749023],[85.80606500659742,26.86714035517401],[85.80568149262969,26.867200313245398],[85.80542652543599,26.867299720235927],[85.80472721168931,26.867745169217752],[85.80449481670341,26.86797805121612],[85.804389717006,26.868130659595103],[85.80413618952136,26.868363229863096],[85.80392542705398,26.868632311324692],[85.80382082882205,26.868825555662095],[85.80399433246525,26.869111388647962],[85.80414707817177,26.86939709675073],[85.80443344110274,26.870198579190927],[85.80452529333859,26.870772559503173],[85.80452892313586,26.871115723203367],[85.80449072533528,26.87151934226098],[85.80438894346425,26.871978977346757],[85.80420194154452,26.87244011434272],[85.80394922825536,26.872749457857132],[85.80365043159823,26.872769528791398],[85.80345886160812,26.87282885994201],[85.80333194137482,26.872927077749246],[85.803076661725,26.873006165405286],[85.8025008266283,26.87306900040545],[85.80179900982303,26.87332489415177],[85.80115777432113,26.873272071832304],[85.80090230717735,26.873333091568234],[85.80051810397497,26.873336657721474],[85.80013258651105,26.873225066097046],[85.79987668072259,26.873245448611364],[85.79974800800815,26.87320825125032],[85.79929978237621,26.873193126036956],[85.79904331218899,26.873139049390208],[85.79872344603149,26.873161183925042],[85.79859514820087,26.873123986133102],[85.79814667180719,26.873106610023687],[85.79763629954678,26.873264785704176],[85.79748874677874,26.873439588399066],[85.79740578147842,26.873669156171708],[85.79747393514677,26.87407146115662],[85.79762668204032,26.874415874033495],[85.79836696658795,26.875787708038903],[85.79865270384711,26.876530423571683],[85.79887060025021,26.87692953972111],[85.79906811504041,26.87738711000275],[85.7992010424712,26.877846431393067],[85.79929352050165,26.87847705300067],[85.79967267398611,26.879965424842656],[85.79972094714343,26.880462319945202],[85.79979892605265,26.881724690526386],[85.79978436466035,26.882356563749585],[85.79970659322247,26.88304657939015],[85.79968633547315,26.883062208794772],[85.79946800836348,26.883358298320424],[85.79905848641813,26.883580553635948],[85.79894913479835,26.88371278118719],[85.7988607916824,26.88386326402456],[85.79858738779502,26.884718642149434],[85.79853806039016,26.885043237580607],[85.7988316707277,26.885278179329934],[85.79899867030299,26.885435349596015],[85.79918542925769,26.885685233933863],[85.79937043753625,26.886014078766696],[85.79951586735743,26.886189066315453],[85.79974189206958,26.886594996176385],[85.79997010283223,26.886885892300768],[85.80033943240372,26.887579655836678],[85.80174859326945,26.889516900926704],[85.80187363961338,26.889653377310292],[85.80221045251486,26.889850307705082],[85.80255101490937,26.889873561658668],[85.80280892064606,26.889765090117233],[85.80306563884633,26.88971088488939],[85.8033238577924,26.889602412946477],[85.80366898145616,26.889397724902743],[85.8039257003881,26.88934339447567],[85.80426988751171,26.889197411604886],[85.80444257408085,26.889086001989067],[85.80476856561194,26.888786286366404],[85.8052836893266,26.88860329122613],[85.80560774298431,26.888398352844117],[85.80610729605544,26.887928585970034],[85.80645273326859,26.88772608638208],[85.80705313784844,26.887543840830766],[85.80808019906742,26.88733352030476],[85.8085071672572,26.8873010076385],[85.80884966687265,26.887231671981045],[85.80919285378043,26.887121698549464],[85.80927932240839,26.887065994244853],[85.80953591584768,26.887013977209033],[85.80996569701719,26.886850550746527],[85.81056603936534,26.88666830494561],[85.81084482802324,26.886578087897888],[85.81114556182337,26.8864677412255],[85.81183306001601,26.886193717196406],[85.8126943088945,26.885769772761126],[85.81275995703115,26.885693563108347],[85.81291044882988,26.885620352410353],[85.8134095648779,26.885188909208136],[85.81390505586312,26.88492895360768],[85.81399221128336,26.884834925015994],[85.81408155459783,26.884627989165406],[85.81423317106157,26.88451407951693]]]}},{"type":"Feature","properties":{"province":"Madhesh Province","district":"Mahottari","municipality":"Aaurahi Municipality","ward":"8","wardNumber":8,"sourceMunicipality":"Aurahi","sourceType":"Nagarpalika"},"geometry":{"type":"Polygon","coordinates":[[[85.821097255331,26.86728202320759],[85.82104047143366,26.866019778066256],[85.82092479593007,26.865217543874333],[85.82109028955563,26.864756218832653],[85.8211298014565,26.864467633951804],[85.82127560066371,26.864123531968033],[85.82138082578348,26.863986740715234],[85.82133443029268,26.86366358369754],[85.82126896724957,26.86354792489752],[85.82122250913737,26.863204450048254],[85.82130484883577,26.86293649500148],[85.82147453551937,26.862838652510213],[85.82151592434998,26.862723869080774],[85.8214928516302,26.862552131028615],[85.82125269681158,26.862076117867254],[85.82075669779478,26.861640869238233],[85.82051510386208,26.861029442141902],[85.82019073124076,26.860670151501473],[85.82003760900366,26.86032580164519],[85.81998952425073,26.859867230059727],[85.82004804098875,26.859350827434913],[85.81997988711655,26.859007164790867],[85.81982689035208,26.858683133300758],[85.81965157187412,26.858264074536763],[85.81955771740623,26.85751848091474],[85.8194905020899,26.857231272477105],[85.81944704894562,26.857174505471498],[85.81942328796684,26.856946313466374],[85.81903952296072,26.857006272579575],[85.81861505712862,26.85720139532024],[85.81810443466472,26.857359633986253],[85.81801946662635,26.857417589323024],[85.81716909677685,26.85773331392993],[85.81699934808661,26.85781083786489],[85.81659682822463,26.858100926700665],[85.81642670493088,26.8581807638754],[85.81566123965852,26.85843615746427],[85.81498186983204,26.858787140775217],[85.81421640551386,26.85906285352116],[85.81345225455689,26.859433406261612],[85.8130270386151,26.85956982421073],[85.812432448742,26.859844722391415],[85.8120921382337,26.859961509961057],[85.81166817263059,26.860194894660285],[85.81113673096957,26.86041158693763],[85.81107358339595,26.860467541441306],[85.81081824064194,26.860546692435502],[85.81039171017795,26.86057020209185],[85.80962586932732,26.860766891244758],[85.8086018070162,26.86077634027754],[85.80783446522199,26.860839865165396],[85.80715309209606,26.860960530691056],[85.8069822173142,26.86096134493111],[85.80630090692048,26.86110232968735],[85.80595946933136,26.86108588997714],[85.80536268949074,26.861148600673125],[85.8045095027086,26.861154922244644],[85.80416875338457,26.86121525505868],[85.80382681614459,26.861180748299795],[85.80333044075502,26.860610022326735],[85.80319976549232,26.860380955271143],[85.80293609906673,26.859636176935997],[85.80239464335217,26.85883482073892],[85.80147924798797,26.85903476156504],[85.80133113249047,26.859150859220033],[85.80120333601047,26.85919043440676],[85.80049914069048,26.859175435916953],[85.80011456248441,26.859102229938575],[85.79947482890026,26.859146436195736],[85.79838624241296,26.859078550023632],[85.79755400096661,26.859084996386382],[85.79684830379068,26.858918765019762],[85.79665623362459,26.85890132395589],[85.79639895106804,26.858806611306445],[85.79601449730025,26.858753723811624],[85.79537263556264,26.85858574214677],[85.79464298984959,26.858150682764848],[85.79415055819466,26.85798169940017],[85.79387289355569,26.85794550363577],[85.79380868199091,26.857947192387712],[85.79370320772209,26.85804334611054],[85.79353458542519,26.858256347941474],[85.79311037030033,26.858507800209104],[85.79243256488255,26.85897375501252],[85.79250190785434,26.859491218496157],[85.79276682622778,26.860351157088697],[85.79287868475689,26.86086674431244],[85.79294909190651,26.861499367758135],[85.79293690835806,26.86237950101714],[85.79300437400086,26.86272541433278],[85.79320120110604,26.863183047501245],[85.7933122454577,26.863624113388976],[85.79346887283666,26.864311626853617],[85.79355578131285,26.864483864345793],[85.79375235687732,26.86490311076631],[85.79383926525159,26.865075410325634],[85.79394718108199,26.865189192889833],[85.79463293464381,26.865470457600132],[85.79506034162912,26.865543976266654],[85.7952311545996,26.865543161639298],[85.79600081186406,26.86570995422069],[85.7963436268537,26.865839302588878],[85.79779784940986,26.866154070314355],[85.79822444210352,26.866150941045376],[85.79865184945328,26.866224521762906],[85.79882241216905,26.86622145733428],[85.79907781694925,26.866162687651986],[85.79950503605325,26.866197882070747],[85.79967659971987,26.86627383998433],[85.80047089484367,26.866763540438797],[85.80081408474477,26.866915457293185],[85.80141205392445,26.866985973238876],[85.80166889883144,26.867060367223083],[85.80201177608612,26.867212221868996],[85.80244143559602,26.867495738965292],[85.80287021919378,26.86770248383666],[85.80306410456144,26.86787340792397],[85.80323585633971,26.867967433493888],[85.80347300808923,26.868215441970296],[85.80382082882205,26.868825555662095],[85.80392542705398,26.868632311324692],[85.80413618952136,26.868363229863096],[85.804389717006,26.868130659595103],[85.80449481670341,26.86797805121612],[85.80472721168931,26.867745169217752],[85.80542652543599,26.867299720235927],[85.80568149262969,26.867200313245398],[85.80606500659742,26.86714035517401],[85.80734497433201,26.867031562749023],[85.80840936067749,26.86675378511126],[85.80845569281651,26.867079192479522],[85.80837354098719,26.86738547054542],[85.8083753558434,26.867538953280008],[85.80850759575463,26.86792156465679],[85.80874837705247,26.868453969227218],[85.80898765561953,26.86885327203237],[85.80931008783014,26.86904107444482],[85.80954536194376,26.869076895631167],[85.80965290227023,26.869172610117438],[85.80982903427365,26.869629992898012],[85.80989624898102,26.869935269843047],[85.8099005045531,26.8703190078993],[85.81014466449189,26.87115844010823],[85.8101473555311,26.871386506902493],[85.80996035403497,26.87184758114274],[85.80954095814354,26.87254147578609],[85.80943848663598,26.872924338964747],[85.80932214240944,26.87399771830528],[85.80942488390541,26.87554698432873],[85.81087203311802,26.87511221968963],[85.81112762700089,26.875071518806028],[85.81163693499653,26.874798121849928],[85.81146105374332,26.874322670774596],[85.81164868089185,26.87391798757932],[85.8119215887455,26.873513992106258],[85.81219637399579,26.87326122823461],[85.81253393092591,26.87287586168368],[85.81293319628699,26.872299127197437],[85.8131230757415,26.872104318012425],[85.8131645272508,26.87198953411247],[85.8133748516593,26.871700134707552],[85.81409235563959,26.87092746435125],[85.81419708030366,26.87075453812572],[85.81421714921723,26.870639566627176],[85.81446748509417,26.87010221936252],[85.81469887881484,26.869813006780415],[85.81495228114895,26.86956230655063],[85.81518542759463,26.86940625861769],[85.81537693489223,26.869326608627738],[85.81569611278972,26.869248020539604],[85.81646126432847,26.8689158539809],[85.81754634499983,26.86857962186764],[85.81786483566476,26.868442328913478],[85.81882249527594,26.868145608626726],[85.82029234174479,26.867844070469406],[85.82105711816945,26.86751190358945],[85.821097255331,26.86728202320759]]]}},{"type":"Feature","properties":{"province":"Madhesh Province","district":"Mahottari","municipality":"Aaurahi Municipality","ward":"9","wardNumber":9,"sourceMunicipality":"Aurahi","sourceType":"Nagarpalika"},"geometry":{"type":"Polygon","coordinates":[[[85.80416875338457,26.86121525505868],[85.8045095027086,26.861154922244644],[85.80536268949074,26.861148600673125],[85.80595946933136,26.86108588997714],[85.80630090692048,26.86110232968735],[85.8069822173142,26.86096134493111],[85.80715309209606,26.860960530691056],[85.80783446522199,26.860839865165396],[85.8086018070162,26.86077634027754],[85.80962586932732,26.860766891244758],[85.81039171017795,26.86057020209185],[85.81081824064194,26.860546692435502],[85.81107358339595,26.860467541441306],[85.81113673096957,26.86041158693763],[85.81166817263059,26.860194894660285],[85.8120921382337,26.859961509961057],[85.812432448742,26.859844722391415],[85.8130270386151,26.85956982421073],[85.81345225455689,26.859433406261612],[85.81421640551386,26.85906285352116],[85.81498186983204,26.858787140775217],[85.81566123965852,26.85843615746427],[85.81642670493088,26.8581807638754],[85.81659682822463,26.858100926700665],[85.81699934808661,26.85781083786489],[85.81716909677685,26.85773331392993],[85.81801946662635,26.857417589323024],[85.81810443466472,26.857359633986253],[85.81861505712862,26.85720139532024],[85.81903952296072,26.857006272579575],[85.81942328796684,26.856946313466374],[85.81939714914454,26.8565240029409],[85.8194386005858,26.856409218327304],[85.81947673511785,26.856007787367272],[85.81947310496057,26.855662373769764],[85.81940526470358,26.855318773297785],[85.81916323204243,26.854689340554906],[85.81896671850456,26.85429035032452],[85.81872299582642,26.853430661691505],[85.81863208217918,26.85291301078959],[85.81866758765445,26.852222619812775],[85.81870810104934,26.85201080756611],[85.81896231713978,26.851857197607753],[85.81904659630139,26.85174047577591],[85.81915088263831,26.851508906199047],[85.81914888025133,26.85133735623019],[85.81897337325637,26.85087991041877],[85.81813055518163,26.849832360097242],[85.81789152618035,26.84943086937141],[85.81769688930811,26.849183235186985],[85.81763242767914,26.849146599692343],[85.81732856209572,26.84863170162972],[85.81728279225617,26.848344617129964],[85.81780390844436,26.847170768461623],[85.8178430435148,26.846825791315887],[85.8179673978974,26.84647918911067],[85.81802691598172,26.846077945788476],[85.8180246005774,26.845847690545853],[85.81800152729235,26.845673701736434],[85.81782670973652,26.845272710724533],[85.81696131889241,26.844130194848816],[85.81695962958143,26.84395864414354],[85.81704397174774,26.84386230274973],[85.81717095418107,26.84378434120392],[85.81721234368945,26.843669557043853],[85.81718927105537,26.843497819290562],[85.81712412093111,26.843382160875336],[85.81693023627257,26.84321129992174],[85.8167574203145,26.842984109725037],[85.81675529289649,26.8427922405511],[85.81596550320165,26.842760800401987],[85.8154108632341,26.842744925379456],[85.81506873702031,26.842672094535313],[85.81489823743321,26.842672908893636],[85.81396014467762,26.842719242328585],[85.8137048654256,26.84279839272524],[85.81344877129646,26.842800707958002],[85.81310896085155,26.84293781304409],[85.81293846174087,26.842938690039627],[85.8126831812209,26.84301777816843],[85.81242740046677,26.843020156151116],[85.81225740192089,26.843097742026554],[85.81191684022235,26.84317614291971],[85.81166112243997,26.84317852142867],[85.81106534294548,26.843336009887004],[85.81072453186674,26.843378337792526],[85.80987466194438,26.843712004605315],[85.80936372620523,26.84381153824533],[85.8092565614246,26.84377452860925],[85.8090632391081,26.84364199109175],[85.80886904100647,26.843412299617235],[85.80869459870861,26.84307001298467],[85.80871429224247,26.842896461915522],[85.80867002457252,26.842742605214845],[85.8085184037092,26.842533669651402],[85.80836797256657,26.842419575400804],[85.80819691003887,26.84238425317854],[85.80777037904014,26.84238744547483],[85.80725750378956,26.842315490862173],[85.80687085914622,26.842050353695406],[85.80607199815657,26.841382289060874],[85.80603179588215,26.841348091845926],[85.8057096758408,26.84113997078317],[85.80545264275906,26.84102725224947],[85.80528158057267,26.840989680471907],[85.80502554899296,26.840992058020824],[85.80451530128452,26.84114798252397],[85.80419618568605,26.841228821459257],[85.80360040749798,26.84138174693036],[85.80326034679285,26.841505222809932],[85.8025786605679,26.841605633420787],[85.80206628627914,26.841571940185794],[85.80168426973765,26.84138138746246],[85.80157316606619,26.841326309481566],[85.80133701522129,26.84117532977213],[85.80058404569877,26.840509889801673],[85.8003885955969,26.840167416260797],[85.80038365094693,26.839650451608716],[85.8003185019106,26.83953479367644],[85.80033525257907,26.83907453328731],[85.80026841263874,26.838789574690942],[85.80035137872937,26.83855775585887],[85.80034812351234,26.838212404446132],[85.80021444381468,26.837640237594446],[85.80008314263853,26.837295950081156],[85.79995278052921,26.83704662755466],[85.79975858156014,26.8368193126049],[85.79950154884682,26.836706532040594],[85.79930822768739,26.83657399460867],[85.79922100658827,26.83640169405515],[85.79924088682674,26.836248399588055],[85.79915410341783,26.836096417597748],[85.799068133379,26.83601895808394],[85.79891782750094,26.835925119638528],[85.79874682720424,26.835887546892362],[85.7986615464557,26.835889111187363],[85.79849161051418,26.835966634585223],[85.79840620345752,26.835947879742545],[85.79808420949388,26.83576007800567],[85.79784705676212,26.835494001686932],[85.79750017474048,26.834922273448676],[85.79698141531702,26.834215882666175],[85.79674151020497,26.83370148383996],[85.79656612790653,26.833185396489306],[85.79617597992527,26.83257490747469],[85.79604705601938,26.832481256008293],[85.79564115730018,26.8324078628604],[85.79555506211511,26.832312335081085],[85.79553205259293,26.832140597752616],[85.79559488665393,26.832023750189105],[85.79559363545903,26.831908654109196],[85.79546314737567,26.831661520024877],[85.79537717757253,26.831586311133496],[85.79469311312192,26.831438273404675],[85.79417898576212,26.831212710763957],[85.79400729679968,26.83109836621429],[85.79306688844382,26.830894001674707],[85.79289607635579,26.83089706668702],[85.79247048431968,26.83099503588787],[85.79221464093168,26.830979283385023],[85.79187220239079,26.83088613365351],[85.79127291803641,26.830659884376317],[85.79084557340431,26.830568110952342],[85.79041847935777,26.830532916925378],[85.7901188083283,26.830561927476406],[85.78931282669933,26.830638581364816],[85.78907886646823,26.83063883339957],[85.78888629476386,26.830526614518313],[85.78862876088873,26.830260288332166],[85.788219667658,26.829726385221576],[85.78772648382491,26.829309141838806],[85.78744531340668,26.828832754284736],[85.78723023261477,26.82856680258851],[85.78710162217068,26.82847090071075],[85.78676030839573,26.828339364544103],[85.78573993579475,26.828405079605858],[85.78539943668707,26.82837057193986],[85.78514346688935,26.82827585864585],[85.78412071585163,26.828072995118482],[85.7834386518378,26.827886571011618],[85.7829257744182,26.827642878034325],[85.78230566955288,26.82728321516704],[85.78256833598712,26.828046124850037],[85.7828279353106,26.82850431957809],[85.78317250319476,26.828963201654688],[85.78351425448353,26.829112804996118],[85.7838549423991,26.82916763095153],[85.78394047358854,26.829224834848922],[85.78402575500148,26.829223271484118],[85.7841963180378,26.8292992293415],[85.78443322061747,26.829585749092146],[85.78473621180677,26.830138971547257],[85.78510767014427,26.831169146566772],[85.78515688222568,26.831860224505693],[85.78511868615657,26.83232035954197],[85.78490930018613,26.832666150466096],[85.78484740428617,26.83283945207251],[85.78472129718175,26.833012190938287],[85.78444707472035,26.833226505925474],[85.78412889616516,26.833323100083593],[85.7839595227885,26.83340062351863],[85.78408982329663,26.833688394730068],[85.78458732621867,26.83454583017555],[85.78502136944925,26.835463596654225],[85.78510758935865,26.835577253892033],[85.78549880362564,26.836436065455462],[85.78601581176132,26.837122137853456],[85.7861437335301,26.83715933560356],[85.78635950339037,26.83748392873772],[85.78734330635926,26.83804989949779],[85.78759871272234,26.838106226755247],[85.78768386840571,26.838086658197142],[85.78828021259592,26.83817749230431],[85.78878802042641,26.837924539203833],[85.78955392620018,26.83797623524617],[85.78980970743125,26.838030311419864],[85.79002372457609,26.838163035888055],[85.79011888629188,26.838324145048187],[85.79028363655462,26.838600913232668],[85.79026513219773,26.838889623044796],[85.7901189563424,26.839062174961033],[85.78969555444492,26.83939265058699],[85.78961246428823,26.839604088023858],[85.7894014502145,26.839758010280896],[85.78908270971655,26.839818530562187],[85.78882742845862,26.83978245933599],[85.78850874991616,26.839842979356543],[85.78831849423065,26.839958702207433],[85.78819132372045,26.83999821563266],[85.78798018530706,26.840154450145366],[85.7879856303459,26.840709738641294],[85.78794543076138,26.8409396187348],[85.78796206611649,26.841379872753077],[85.78797401129869,26.841686963144742],[85.78793249687335,26.841801684549676],[85.78780670267297,26.8419766744404],[85.78766121536816,26.842323027229728],[85.78740837478718,26.842555597475165],[85.78736667339629,26.842631995222323],[85.78726614261602,26.84321122923822],[85.78731091088297,26.84343954556567],[85.78731379016273,26.84372850537339],[85.78723013511365,26.843845165372137],[85.78706088700794,26.843940757045885],[85.78701912271134,26.844019405928087],[85.7869802991549,26.844384701129083],[85.78689733396737,26.844614206698758],[85.7867507831094,26.844847714031072],[85.7866032923966,26.844963811883634],[85.78656159070015,26.845040147140125],[85.78656390663524,26.845270464868452],[85.78673797357435,26.845671455828416],[85.78703745990464,26.845841065946352],[85.78710210953331,26.845916087188566],[85.78725510676945,26.84631689173713],[85.78747657137689,26.84717645450485],[85.787702855274,26.84849659072328],[85.78809356853,26.849260562056994],[85.78824468813465,26.849487564485297],[85.78839562056936,26.849696499796185],[85.78858950632323,26.849926128651298],[85.78873943694812,26.85001996695931],[85.78901966826707,26.85038119610391],[85.78934160084732,26.85066383907478],[85.78947096258452,26.850836513348145],[85.78968516727427,26.850987305952533],[85.79007225049372,26.851385607188718],[85.79011901788527,26.85141980425799],[85.79056637254207,26.851746396984467],[85.7908260331851,26.85208718230059],[85.79089149611954,26.852259295180936],[85.7912385031416,26.852792698567942],[85.79138868424052,26.85286840719668],[85.79160207422778,26.852886035786476],[85.79218254091583,26.853322096450285],[85.79237661427364,26.85353140644801],[85.79259188228377,26.853702517598865],[85.79274149985069,26.85373990248875],[85.79291318834672,26.853833928256044],[85.79325543927571,26.853927140879353],[85.79368403539256,26.85411588034497],[85.79392031131749,26.854266860465277],[85.79402822636365,26.854380580321536],[85.79418103600166,26.85474306038561],[85.7942053610673,26.855029894137946],[85.79395496178024,26.855569492546625],[85.79361652889617,26.85586001788216],[85.79331960929169,26.856033571097694],[85.79285218995368,26.856210127436075],[85.79277010094785,26.856536723310438],[85.79260448252246,26.85699798585278],[85.79245793154448,26.857287947159513],[85.7923755923148,26.857576094789998],[85.792319267057,26.858322752239882],[85.79243256488255,26.85897375501252],[85.79311037030033,26.858507800209104],[85.79353458542519,26.858256347941474],[85.79370320772209,26.85804334611054],[85.79380868199091,26.857947192387712],[85.79387289355569,26.85794550363577],[85.79415055819466,26.85798169940017],[85.79464298984959,26.858150682764848],[85.79537263556264,26.85858574214677],[85.79601449730025,26.858753723811624],[85.79639895106804,26.858806611306445],[85.79665623362459,26.85890132395589],[85.79684830379068,26.858918765019762],[85.79755400096661,26.859084996386382],[85.79838624241296,26.859078550023632],[85.79947482890026,26.859146436195736],[85.80011456248441,26.859102229938575],[85.80049914069048,26.859175435916953],[85.80120333601047,26.85919043440676],[85.80133113249047,26.859150859220033],[85.80147924798797,26.85903476156504],[85.80239464335217,26.85883482073892],[85.80293609906673,26.859636176935997],[85.80319976549232,26.860380955271143],[85.80333044075502,26.860610022326735],[85.80382681614459,26.861180748299795],[85.80416875338457,26.86121525505868]]]}}]}