{"type":"FeatureCollection","features":[{"type":"Feature","properties":{"province":"Madhesh Province","district":"Saptari","municipality":"Saptakoshi Municipality","ward":"11","wardNumber":11,"sourceMunicipality":"Saptakoshi","sourceType":"Gaunpalika"},"geometry":{"type":"Polygon","coordinates":[[[86.89014016314529,26.726346536382565],[86.89088474527655,26.726250061274797],[86.89162601580728,26.726311506615918],[86.89241717596077,26.726093182703956],[86.89331887772607,26.726005770414382],[86.89354114436787,26.72587954285988],[86.8936586201414,26.725615463430696],[86.8947648293391,26.725205453786405],[86.8955346741309,26.7252917818113],[86.89599552644862,26.72509571823157],[86.89634415656408,26.725317153425202],[86.89686584666741,26.725328775008716],[86.8972739295358,26.72507857128343],[86.89794648654475,26.72503836372079],[86.89837145140366,26.724921261075153],[86.8987315782166,26.724612290862925],[86.89963596951083,26.724576768292728],[86.89988543096058,26.72428349192267],[86.90023417261916,26.72367418315371],[86.90069396395532,26.723568396494127],[86.90085733152614,26.723290874977682],[86.90121057866078,26.72288700267879],[86.90137569243274,26.722349842304677],[86.90171775034695,26.722095013203514],[86.90207644011998,26.721910142092803],[86.90243663312104,26.721858434965306],[86.9033180749955,26.72155427143556],[86.90426417216298,26.721719682692903],[86.90476285264721,26.721647779800843],[86.90507183830013,26.721544120607035],[86.90547529298817,26.721246402782526],[86.9059917891258,26.720971378249548],[86.90725024352642,26.720692217360863],[86.90773441505831,26.720405813775542],[86.90830956056297,26.72029108540464],[86.90878172833641,26.72000243190062],[86.90913335033174,26.719673018689576],[86.90958656892234,26.719108971537796],[86.90964057579836,26.718334619334524],[86.90971778769955,26.718045783578898],[86.91003333232824,26.71757420313603],[86.91054426190301,26.717165889663978],[86.91118605565588,26.716999143994553],[86.91162346442549,26.716979132923754],[86.91319959534229,26.716634761362243],[86.91409942563246,26.7167910453795],[86.91511917184417,26.716760022550606],[86.9155280682046,26.716588654697375],[86.91555445230607,26.716577400878037],[86.9156410424584,26.71633364059276],[86.9158256017517,26.71581454882901],[86.9160508018792,26.71543543407095],[86.9166285023969,26.714803679115743],[86.9171374953652,26.714478889259723],[86.91760815960185,26.714041192249002],[86.91872236278813,26.71314335149826],[86.91961135747945,26.712114475569347],[86.92132940115745,26.710894095216986],[86.92221820369747,26.709587513060367],[86.92268343111562,26.709276227987967],[86.92299047852084,26.709147748269515],[86.92367528819155,26.709012637086346],[86.9246935356141,26.709114716040833],[86.92591122668212,26.70895734164298],[86.92694490989301,26.708583155988272],[86.92882252478518,26.70819795591943],[86.93034532501095,26.707952676007338],[86.93283079083903,26.707766526208456],[86.93447369418071,26.70731793571144],[86.93548855403742,26.706731437337645],[86.9365418636469,26.7060230903043],[86.93754171462967,26.705237910101154],[86.93793910265111,26.704822719763357],[86.93820926229671,26.704739254734946],[86.93851236869763,26.704454979191443],[86.93900047815752,26.704130065343456],[86.93942475555728,26.703983517111826],[86.93998026882922,26.7038912325353],[86.94057411034251,26.703875720097614],[86.94122503635761,26.703988744483503],[86.94175410734674,26.704174104072756],[86.94194167504088,26.704162848374366],[86.94187414915676,26.70405219155936],[86.94185294880545,26.70379036521077],[86.94067449420193,26.69837879337966],[86.94032285719446,26.6978910302173],[86.93975089582908,26.69766284606172],[86.93966798931825,26.69758376118604],[86.93951605482995,26.697333127141317],[86.93935573860902,26.69685673939565],[86.93948866069809,26.696807161047598],[86.940101006908,26.696701308784938],[86.94040461584925,26.696572705059378],[86.94065275993832,26.69602429054725],[86.94121777343211,26.695717505901353],[86.94208664523782,26.695331818129187],[86.94287724246378,26.6951153692586],[86.9430610574577,26.695018400929737],[86.94385540694438,26.694840338743365],[86.94432407755211,26.694826953400334],[86.94551231111475,26.69412310631094],[86.94654781297108,26.69412121675664],[86.9482249206297,26.69395245753358],[86.94944542827224,26.693973196968116],[86.9505315728979,26.693928419386104],[86.95121226223557,26.694165667663253],[86.9513510649023,26.69426732117481],[86.95203288670162,26.69494476044249],[86.95215030773025,26.695141191326805],[86.95223458370675,26.69486129589566],[86.95262684205282,26.694290310868855],[86.95263321586083,26.69408031170088],[86.95224675348872,26.693486517774716],[86.95163620948088,26.692939989949483],[86.95145313863397,26.692709674721236],[86.9513258337356,26.692172394407596],[86.95145830979466,26.691560650738126],[86.95142954426234,26.691298761329342],[86.95137276989877,26.691066256901504],[86.95108115477643,26.690506283159525],[86.95108752854009,26.690296346976773],[86.951197566536,26.690174497157965],[86.95165285202283,26.68986765099438],[86.95135404573612,26.68921290052929],[86.95115508860586,26.688623605182578],[86.95119859738432,26.688226300445855],[86.95138722270337,26.687881009458298],[86.9514026652282,26.687799735404607],[86.95140272499144,26.68768232570718],[86.95119982290232,26.686707042165196],[86.95122868433364,26.685232922429936],[86.95127475342296,26.684609926045777],[86.95107530694322,26.684675323250136],[86.9506606554295,26.68466613864422],[86.95036598490981,26.684623130025965],[86.94990988011548,26.68455755357288],[86.94722603168029,26.684807225301725],[86.94719276973518,26.6848094766255],[86.94586197444184,26.684921902347078],[86.94531883897805,26.684894588485214],[86.94513539596657,26.68484482666437],[86.94410877319088,26.68488960308446],[86.94260141494024,26.685083180370636],[86.94250087824447,26.685096622527603],[86.94179506001711,26.68513026694669],[86.94090211211298,26.68531952211765],[86.94055898933973,26.68545269080848],[86.93910672048435,26.68601637468568],[86.93791598814106,26.68685113561222],[86.93739348738725,26.68701118923273],[86.9369011840046,26.687062898335096],[86.93535073824488,26.6866965614223],[86.93401531481607,26.686686951561487],[86.93356020920832,26.686537726249842],[86.93269151896665,26.686614072271297],[86.93216001282028,26.686600325623665],[86.93155660285795,26.686430721149858],[86.93060181895756,26.68656346044319],[86.93010451458447,26.686630986727717],[86.93005299571921,26.686637739224384],[86.92861985603633,26.68707494900277],[86.9276412569088,26.687535034040526],[86.9273622830802,26.68769289702813],[86.92671286845469,26.688295331624953],[86.92546154818446,26.688897524835948],[86.92458079437891,26.689199500752654],[86.92338536305286,26.689413328491828],[86.92227808723139,26.689552696405695],[86.92167062014329,26.689841351910044],[86.92114480903112,26.690181958409987],[86.92072079357257,26.691001204684373],[86.92036635350765,26.691118368602808],[86.9198317200817,26.691063922443735],[86.91853449155458,26.69068845366332],[86.91742332882399,26.69019344864778],[86.91713966343556,26.690186512559148],[86.9170186817255,26.690172885168028],[86.91689057016768,26.69006673057729],[86.91667516923383,26.689461618520685],[86.91649341224948,26.689247057615564],[86.91617785636068,26.689034687124533],[86.91590425708064,26.689030001857606],[86.91581597416894,26.689007371969673],[86.91575570148613,26.688941915969778],[86.91565091095394,26.688781557091545],[86.91566153343037,26.68843164197022],[86.9158125759191,26.68763484377873],[86.91566858080652,26.68731650273604],[86.9155273381567,26.687120008960775],[86.91492010377203,26.686275331607753],[86.91437214877757,26.68592742465026],[86.91423159259716,26.685656409539284],[86.91427885679008,26.68543746930233],[86.91427547919926,26.685394582130378],[86.91417454886869,26.68420260856476],[86.91428645476273,26.683613434173303],[86.91406524437826,26.683331166312986],[86.91363001849301,26.683021644275456],[86.91259463560753,26.682641733580592],[86.91222374712524,26.682463185814225],[86.91205618186304,26.682205737906806],[86.91207261648587,26.681663953875976],[86.91192580901237,26.68137943422148],[86.91177155171923,26.680568948553294],[86.91147274870035,26.68011950811914],[86.91119720606547,26.67984618200595],[86.90998315127595,26.680599419148205],[86.90761050159063,26.682286569291918],[86.90621451379478,26.683502445063635],[86.90540147335199,26.68387212598302],[86.90502577971264,26.684242114784936],[86.90481207870494,26.68433226892443],[86.90404699639785,26.684880314400605],[86.9035997202872,26.685609221776826],[86.9031716981461,26.686128129654293],[86.90248082910357,26.68663334985217],[86.90199040279494,26.686768457741476],[86.90159800869796,26.686714010011585],[86.89889150699156,26.685725692785553],[86.89795529264705,26.685788160373374],[86.89749969079548,26.685900761708456],[86.89643537158209,26.686265758120104],[86.89574643908259,26.686640002044868],[86.89556781504393,26.686854316712825],[86.89490958858616,26.6876416811828],[86.89451921683548,26.688930440122185],[86.89439423782261,26.689194456389494],[86.89372772063932,26.69153040047065],[86.89353384214516,26.691857623730087],[86.89333921211879,26.6920471197134],[86.89304091903315,26.692225237968714],[86.89193502239164,26.692608177648665],[86.89048394231669,26.69327076566439],[86.88990336751472,26.693997236206616],[86.8895661825476,26.69401955985037],[86.8893042055364,26.693642389611785],[86.88879676592528,26.69333268065571],[86.88856874479013,26.693291921579984],[86.88779453215479,26.69370667836668],[86.88723621558968,26.694421832948066],[86.8867963114858,26.694859466913123],[86.88611625447797,26.695028213027193],[86.88518028893814,26.695079427390517],[86.88437763116258,26.695658920519918],[86.88417462088826,26.69569943485654],[86.88405782762129,26.695656423819223],[86.88395572668529,26.695618039407798],[86.88326452304078,26.69472572337761],[86.88308558130925,26.694596938426443],[86.88222145596225,26.694756496510227],[86.88171276657923,26.694453601742396],[86.8813209994845,26.694491680340853],[86.88077624758007,26.695080422734666],[86.88076912402506,26.695308427357904],[86.88094800422326,26.69550041863726],[86.88155048022716,26.69586889400331],[86.88159787316935,26.69596148316162],[86.88155317135359,26.696035943136188],[86.88110088455979,26.696245509865616],[86.88045108702421,26.696328480607512],[86.88005244037893,26.69625821486888],[86.87966286126233,26.696282727551893],[86.87943965700077,26.69642477190124],[86.87932761937766,26.69661426638466],[86.87932099583041,26.69683095517436],[86.8794673063958,26.697293901089246],[86.87911468020953,26.69742675739365],[86.87902183621114,26.697582491427344],[86.87901439969323,26.697819499256767],[86.87956248234143,26.698285003002688],[86.87968622008434,26.698607908978143],[86.87935904519787,26.6990252233396],[86.87935060868507,26.699300679231488],[86.87957338148482,26.69957400641151],[86.88015691029919,26.699800189925753],[86.88028908553487,26.699901905963102],[86.88035392917526,26.700409866312537],[86.88058526697593,26.700608734439538],[86.8806813031529,26.700692320185002],[86.88074682925141,26.700818793848462],[86.88074126772794,26.70099715852819],[86.88000094247585,26.701443486966944],[86.8798598294201,26.70152688827645],[86.87976998847635,26.701770648282306],[86.87975867269111,26.701802220255075],[86.87995118611117,26.70217714046899],[86.87999833303526,26.702481916562487],[86.87979951524656,26.7027526858567],[86.87950159435775,26.702788513320016],[86.87913570995676,26.702675359748348],[86.87893626066739,26.702614219317127],[86.87871374312047,26.702674989573165],[86.87852974173991,26.702864485383117],[86.87845303259589,26.70321884024221],[86.87848404968652,26.703607141524003],[86.87851506751791,26.703997693076907],[86.87859241115551,26.70419868819553],[86.87894454546121,26.704582734546165],[86.87901457660745,26.704923645897],[86.87883327053551,26.705575901956294],[86.8786923467808,26.705697689376226],[86.87826181646344,26.705783094897427],[86.87791787693024,26.70570607747301],[86.87746502115246,26.705470951719718],[86.87735942066477,26.705516028596282],[86.87696309496808,26.705919714971532],[86.87683267326935,26.705960165789726],[86.87668774630257,26.706005305987116],[86.87655969777215,26.705883271868696],[86.87643589402204,26.705323296616402],[86.87636330382263,26.705264593058427],[86.87627821017978,26.705271283488752],[86.87613259682999,26.705404324160433],[86.87608139548851,26.70567515391877],[86.87617906628383,26.70631183974112],[86.87607053273042,26.706713583890245],[86.87612536852888,26.706894260962287],[86.87614006185586,26.70693489809673],[86.87611205191855,26.706989039381114],[86.87562862872143,26.70715565702792],[86.87540154881634,26.707349654329036],[86.87507119045509,26.708096565339133],[86.87475701779898,26.70836489839252],[86.87464416922397,26.708671864669345],[86.87463573338701,26.70894725755514],[86.87466743416269,26.709048850013037],[86.87488965154995,26.70975786746509],[86.8748513910932,26.709983559670636],[86.87437122682921,26.710628816964064],[86.87446120487087,26.711148093625045],[86.87447371988524,26.711777902647103],[86.87442032921992,26.712008158717918],[86.87407920857746,26.7122245392617],[86.87384599863861,26.712280809053734],[86.8727786141081,26.712539460790307],[86.87227174793735,26.71287537878331],[86.87219840952037,26.712961091948713],[86.872125887455,26.713213855002433],[86.87216510398477,26.714148503061082],[86.87208671576205,26.71509653289417],[86.87166507201306,26.715725973154672],[86.87158423501563,26.716008119098937],[86.87156504549951,26.71633315237796],[86.87154066768043,26.71674396021236],[86.87181340127253,26.717285990963703],[86.87190656843293,26.717809830704685],[86.87215254321009,26.718453391427726],[86.87212322574699,26.71880330682435],[86.87195511211424,26.71939685850046],[86.87190260195813,26.720008538918663],[86.87207704387762,26.720216409714727],[86.87226586795045,26.72053712660696],[86.87257073356027,26.720785758290525],[86.87297006732557,26.720849271564337],[86.87361755105312,26.720736980484638],[86.87384594801938,26.72077098755224],[86.8738777094769,26.720775550416146],[86.87395061066889,26.7207485420684],[86.87420513707653,26.72052978656359],[86.87438119868078,26.72037867777338],[86.87468930949275,26.720281895563982],[86.87588650037307,26.72058090518613],[86.87629408647074,26.720590277111956],[86.87680458292694,26.7204100932608],[86.87728106378027,26.720076426356428],[86.87771609452116,26.719948070340244],[86.87796049733488,26.71997988965888],[86.8784793777101,26.720262527669945],[86.87905371897591,26.720658073686174],[86.87940747325355,26.72071927544344],[86.87959979341694,26.72069013940089],[86.88024565149531,26.720595853062317],[86.88040914839061,26.72052826877953],[86.88092995606266,26.72010876349816],[86.8815206674078,26.71985193087846],[86.88218009194735,26.719687686152028],[86.88252877915535,26.719514130527394],[86.88309103915506,26.719092437425072],[86.88365968091499,26.718903249922704],[86.88431360620923,26.718883484883005],[86.88487925477182,26.719175125996234],[86.88543559237732,26.71978279705741],[86.88572832538425,26.719877884070673],[86.88623594621039,26.71973602254854],[86.88632404237511,26.719844491153594],[86.88640607963063,26.720334384066255],[86.88703432708685,26.721465832902464],[86.88737489564323,26.72187019673514],[86.88786470537505,26.722299503698824],[86.8884100438494,26.72318481877697],[86.88878481293753,26.723636571322995],[86.88945212721532,26.724165342929922],[86.8898622246749,26.724815778702347],[86.89006437480484,26.72569634667486],[86.889969413766,26.72642543677381],[86.89014016314529,26.726346536382565]]]}},{"type":"Feature","properties":{"province":"Madhesh Province","district":"Saptari","municipality":"Saptakoshi Municipality","ward":"6","wardNumber":6,"sourceMunicipality":"Saptakoshi","sourceType":"Gaunpalika"},"geometry":{"type":"Polygon","coordinates":[[[86.98510429071823,26.720268622315658],[86.98519455841793,26.719338536237572],[86.985491702555,26.717783201086164],[86.98545018785349,26.717771885700838],[86.98463737993892,26.7170562489036],[86.98415919318902,26.716333793982166],[86.98394398415131,26.716008763696085],[86.98384068951913,26.715588829629898],[86.98386555971663,26.71474908269534],[86.9835136780311,26.71453458690974],[86.9832331255445,26.713735418542377],[86.98301416459883,26.713378691898992],[86.98284559549592,26.712915933504775],[86.98255336011596,26.712708189327],[86.9823233307903,26.71218672635623],[86.98219959081173,26.711762291685726],[86.98007561482524,26.710856804429113],[86.9797042884445,26.71064005781213],[86.97925217892549,26.7102381960394],[86.9784963271405,26.709357698010372],[86.97843599044452,26.709269610489926],[86.9782053456261,26.709339572046627],[86.97780345133252,26.70946367564283],[86.97734753518576,26.709443301514497],[86.97692181749788,26.70949063305811],[86.97582960674627,26.70945438735335],[86.97560683867422,26.709447575935055],[86.97314224755522,26.709097256349054],[86.97184071301105,26.709223498161975],[86.97099615395237,26.709133045257154],[86.97068910502576,26.70915780686855],[86.96814794166444,26.709960951204838],[86.96752446918698,26.710188839009785],[86.96705655244776,26.710412223098402],[86.96707224745472,26.710549950574393],[86.96692013329867,26.710789148031797],[86.96697534535033,26.711012712936554],[86.96746059840514,26.71185933005439],[86.96750887291117,26.712306335154114],[86.96746255086148,26.71272845946295],[86.96775654088705,26.713220599886494],[86.96800364719253,26.714222953260713],[86.96850428047398,26.71497929325148],[86.96859688049786,26.715252496923238],[86.96862883884778,26.715765022376516],[86.96874938807042,26.716094555071564],[86.96896334505769,26.716331621186736],[86.96912765747345,26.716514485254333],[86.96993983757615,26.71704062858859],[86.97036581107284,26.717429049948173],[86.97001918618977,26.7174989497096],[86.96932031063764,26.71772902640523],[86.96857986073516,26.718184920616594],[86.96835447059638,26.718458003539855],[86.96830164327956,26.718704076462302],[86.96836655000249,26.719200721230102],[86.96835573955879,26.71959127341308],[86.96841038897075,26.71983959579964],[86.9685184904146,26.71981027321526],[86.96883929371882,26.719771945207356],[86.9699547687858,26.720135599444816],[86.97038905326879,26.720198924421634],[86.97069228957996,26.720241932754064],[86.97091606076853,26.72040216407401],[86.97119648599069,26.720998148294964],[86.97140625664859,26.72144521354167],[86.97150136276821,26.721991560563204],[86.97165305006666,26.72240461709297],[86.97264751035756,26.72454710727759],[86.97296419490453,26.724946720385166],[86.97337610159592,26.72530575745396],[86.97384691875037,26.726560994330338],[86.9738877491249,26.7267167273065],[86.97401055138333,26.727195303210923],[86.9740931469072,26.727355599720145],[86.97432285840519,26.72756334452546],[86.97495497607399,26.728292613007522],[86.97518437606875,26.728516112311482],[86.97555619111341,26.728048908471706],[86.97616627945673,26.727480107738877],[86.97678487194317,26.72701290007791],[86.97698000312474,26.726861603398707],[86.97780379549472,26.726390016660915],[86.97854580761616,26.72591830549269],[86.97950552539324,26.725514299484445],[86.98100662189506,26.72474242751199],[86.98117968471543,26.724713104017383],[86.98227933262508,26.724528160030037],[86.98249653497759,26.72443788043378],[86.98281489731635,26.724189553161715],[86.98330300284326,26.723607126101484],[86.98352864436123,26.723415316751197],[86.98373859031265,26.72312191507041],[86.98411196842972,26.72259819473802],[86.98510429071823,26.720268622315658]]]}},{"type":"Feature","properties":{"province":"Madhesh Province","district":"Saptari","municipality":"Saptakoshi Municipality","ward":"7","wardNumber":7,"sourceMunicipality":"Saptakoshi","sourceType":"Gaunpalika"},"geometry":{"type":"Polygon","coordinates":[[[86.96750887291117,26.712306335154114],[86.96746059840514,26.71185933005439],[86.96697534535033,26.711012712936554],[86.96692013329867,26.710789148031797],[86.96707224745472,26.710549950574393],[86.96705655244776,26.710412223098402],[86.96690699639727,26.710362523096794],[86.96659938500993,26.71038728424693],[86.96653279609367,26.71025862236277],[86.96502250743326,26.710978416045098],[86.96429875087371,26.71136879008898],[86.963718921613,26.711829121112753],[86.96337328985199,26.711431758820467],[86.96319741290988,26.71142719733908],[86.96175689604985,26.711896416905713],[86.96118531392182,26.711954941326372],[86.9608632576381,26.71191199564357],[86.96072664339268,26.711781021523638],[86.96065505179821,26.711593654858245],[86.96063941283619,26.711058622979834],[86.96043846234429,26.710914083793256],[86.96016886414708,26.710936593366082],[86.95921127210426,26.711338161646264],[86.95872553128396,26.71127258636217],[86.95781201504529,26.711520608876736],[86.95720941902546,26.71144822024334],[86.95642325622204,26.71135545408594],[86.95490088881472,26.71129408095001],[86.95378817556265,26.71160525005003],[86.95332175836086,26.71179699933495],[86.95299858466295,26.71219418272215],[86.9526365197559,26.712408562842832],[86.95226470209954,26.712742541082488],[86.95163078909228,26.713092214344055],[86.95200287186051,26.713663502584257],[86.9523612602738,26.714130884917648],[86.95267813169502,26.71450117681773],[86.95273471514247,26.714541875070502],[86.95310035234179,26.71480157138987],[86.95387396210413,26.715716079676838],[86.95437934409968,26.716330253444454],[86.95469721488283,26.716641903137134],[86.95523179442367,26.71725607610794],[86.95600139930737,26.71796058454102],[86.95672498439265,26.718493543698884],[86.95695232144158,26.718784813692814],[86.95719510286953,26.71909646491481],[86.95720954611117,26.71910996794115],[86.9575915664478,26.71947125656961],[86.95785479378215,26.71986186807152],[86.95850941555449,26.720399329598834],[86.95881296706237,26.72058000313359],[86.95906925344207,26.72094129287937],[86.96003530622768,26.721736138560903],[86.96025357717033,26.721977769245452],[86.96046678870678,26.722508296562516],[86.96081292381992,26.723061454538453],[86.96111547698843,26.7233752922906],[86.9615787818952,26.72403685574356],[86.96189502720928,26.72436882382076],[86.96207140548854,26.72445234570677],[86.96212223929152,26.724603639715497],[86.9621149285858,26.724870093129624],[86.96220258781385,26.725037077716784],[86.96261736489882,26.725080085411633],[86.96301076169858,26.72531496164356],[86.96304627428486,26.725272072846916],[86.96306227976764,26.725233686502328],[86.9634966665932,26.723953805745705],[86.96359976364009,26.72378000284294],[86.96440741596882,26.722723745226805],[86.9655304369131,26.721927121289227],[86.96615477656889,26.72115744961095],[86.96642886737651,26.720620225771015],[86.96670483973757,26.720419412974756],[86.96784562313252,26.71998845886252],[86.96841038897075,26.71983959579964],[86.96835573955879,26.71959127341308],[86.96836655000249,26.719200721230102],[86.96830164327956,26.718704076462302],[86.96835447059638,26.718458003539855],[86.96857986073516,26.718184920616594],[86.96932031063764,26.71772902640523],[86.97001918618977,26.7174989497096],[86.97036581107284,26.717429049948173],[86.96993983757615,26.71704062858859],[86.96912765747345,26.716514485254333],[86.96896334505769,26.716331621186736],[86.96874938807042,26.716094555071564],[86.96862883884778,26.715765022376516],[86.96859688049786,26.715252496923238],[86.96850428047398,26.71497929325148],[86.96800364719253,26.714222953260713],[86.96775654088705,26.713220599886494],[86.96746255086148,26.71272845946295],[86.96750887291117,26.712306335154114]]]}},{"type":"Feature","properties":{"province":"Madhesh Province","district":"Saptari","municipality":"Saptakoshi Municipality","ward":"8","wardNumber":8,"sourceMunicipality":"Saptakoshi","sourceType":"Gaunpalika"},"geometry":{"type":"Polygon","coordinates":[[[86.95378817556265,26.71160525005003],[86.95490088881472,26.71129408095001],[86.95642325622204,26.71135545408594],[86.95720941902546,26.71144822024334],[86.95781201504529,26.711520608876736],[86.95872553128396,26.71127258636217],[86.95921127210426,26.711338161646264],[86.96016886414708,26.710936593366082],[86.96043846234429,26.710914083793256],[86.96063941283619,26.711058622979834],[86.96065505179821,26.711593654858245],[86.96072664339268,26.711781021523638],[86.9608632576381,26.71191199564357],[86.96118531392182,26.711954941326372],[86.96175689604985,26.711896416905713],[86.96319741290988,26.71142719733908],[86.96337328985199,26.711431758820467],[86.963718921613,26.711829121112753],[86.96429875087371,26.71136879008898],[86.96502250743326,26.710978416045098],[86.96653279609367,26.71025862236277],[86.96651929127142,26.710231489271884],[86.96674749417322,26.70992683436599],[86.96750144638573,26.70933777699478],[86.96787582484431,26.70888182604821],[86.96865127564706,26.707721662328492],[86.96906642065575,26.707308660854252],[86.97019807015904,26.70653454334254],[86.97122837661482,26.706162295541564],[86.97150528484147,26.705875645045072],[86.97187072205953,26.705358738840733],[86.97172848048042,26.705225514333048],[86.97140267252904,26.70512836489839],[86.97095969865622,26.705092172661228],[86.97004061650114,26.705299683145725],[86.96950079457214,26.705286061914837],[86.9692281299504,26.705118953993637],[86.96909839449032,26.70503993256638],[86.9686452142758,26.704109790377323],[86.96826706766714,26.70360395976946],[86.96799596472509,26.70334663729478],[86.9674248167802,26.703222359106977],[86.96616454671238,26.703283018435506],[86.96587294142093,26.703341664298414],[86.9635545339833,26.703325315444285],[86.9633459547455,26.703126635257362],[86.96327198286158,26.702647995382247],[86.96297850097594,26.70264118533659],[86.96248795221534,26.702952595362554],[86.9621482678178,26.703058631518832],[86.96147746188883,26.703157794041417],[86.96091156861684,26.703141796845454],[86.9607579500285,26.70316886965766],[86.96045534124013,26.70322520262896],[86.95865280884546,26.70319990707781],[86.95795030159735,26.703109451638277],[86.95761542871153,26.703066444074228],[86.95720915593095,26.703084329977973],[86.95663919891622,26.703111345110678],[86.95521374166135,26.7030861069779],[86.9548960625362,26.703038596657272],[86.95331774323081,26.703376717480534],[86.95276654706105,26.703660994979657],[86.95142362316652,26.703798240456482],[86.95104911097278,26.7037778025338],[86.95103136055458,26.704132281783597],[86.95076235387728,26.7058523519589],[86.95093373413467,26.706181946439774],[86.95145836836629,26.706525290020526],[86.95149188545716,26.70683231726677],[86.95101510443956,26.70790445090208],[86.95096759035216,26.70811432584261],[86.95093803007558,26.708872861338044],[86.95100893663299,26.709216023301504],[86.95104119961765,26.709331119371377],[86.95126222781488,26.709911348757505],[86.95128692725727,26.71013710185288],[86.95112374851797,26.710444069567668],[86.95110543215115,26.710602116180766],[86.95111456008955,26.710620184192873],[86.95113425869285,26.710821055206715],[86.95152072445137,26.71162484840029],[86.95144420599993,26.71216438207011],[86.95163078909228,26.713092214344055],[86.95226470209954,26.712742541082488],[86.9526365197559,26.712408562842832],[86.95299858466295,26.71219418272215],[86.95332175836086,26.71179699933495],[86.95378817556265,26.71160525005003]]]}},{"type":"Feature","properties":{"province":"Madhesh Province","district":"Saptari","municipality":"Saptakoshi Municipality","ward":"2","wardNumber":2,"sourceMunicipality":"Saptakoshi","sourceType":"Gaunpalika"},"geometry":{"type":"Polygon","coordinates":[[[86.94763278152958,26.740353953028134],[86.94721836373536,26.73933347126137],[86.94710450183877,26.73887515088799],[86.94721890651478,26.738148310911985],[86.94732325573536,26.73806028385259],[86.94797674224661,26.737945428930473],[86.94840270683743,26.737740113055587],[86.9487481427656,26.737645455604643],[86.9493068986504,26.73700000923116],[86.94993718534883,26.7366570872719],[86.9501739556021,26.73642689212361],[86.95056952840528,26.73592361426156],[86.95102017911827,26.735077234441945],[86.95158524816736,26.73435276464657],[86.95232249268572,26.732910519642438],[86.95201206370692,26.73268920868811],[86.95163942542023,26.73254460856467],[86.95149792686318,26.731944058910234],[86.95144371226404,26.73152868818749],[86.95095544035532,26.72961419529152],[86.95114837403695,26.728894168867566],[86.95126858553972,26.72774064159263],[86.9512206249936,26.72738622562756],[86.95123231669734,26.727365907715168],[86.95113327989989,26.7273342745336],[86.95081128278677,26.727049695381655],[86.94974944648129,26.726299926473793],[86.94913865651156,26.726006223923353],[86.94854693850333,26.725859313270185],[86.94704051057546,26.725633017477612],[86.94637458011282,26.725616958609763],[86.9453178865654,26.725835599355992],[86.94477994157567,26.725903126104466],[86.94392237815252,26.72584180758428],[86.94358081292218,26.72567920137492],[86.943017600559,26.725252333720416],[86.94231746947902,26.72515725220534],[86.94174844740843,26.72500121431532],[86.94147434125718,26.72465349128081],[86.94113933068749,26.7238181251364],[86.9410240376483,26.72377061286428],[86.9404038699744,26.7235085439933],[86.93999690882478,26.723499359398488],[86.93958801221368,26.723661724952517],[86.93927165375507,26.724020521984542],[86.9389695577668,26.724914350577095],[86.93902015808055,26.726072439887304],[86.93887905403032,26.72669093551005],[86.93869155489828,26.72706792392968],[86.93812429707393,26.727796769585055],[86.93713607748485,26.728758002529926],[86.93672062341456,26.729358308866313],[86.93649423218754,26.729588442256464],[86.9363414275804,26.729653838386913],[86.93604288258305,26.72968085059723],[86.93472177311531,26.72949512564355],[86.93415118694381,26.729357217727234],[86.9340166380317,26.729352592800925],[86.93375792091646,26.72944055956256],[86.93370327464032,26.729402111756745],[86.9334399901437,26.729325279951663],[86.93299220096912,26.72926414305296],[86.93236940990577,26.72916449743906],[86.93152997938144,26.729184514436685],[86.93132409319657,26.729270104878058],[86.93057039248636,26.72995606539449],[86.93016494153201,26.73051342183955],[86.92961063141576,26.731558361232636],[86.92944282745158,26.732032377003403],[86.9291345977709,26.732479200023825],[86.92863429847466,26.732971038462924],[86.92808466769642,26.733368099740396],[86.9264617878635,26.73483917754686],[86.92638763575575,26.734868437417276],[86.92648361234757,26.735082936284364],[86.92743804090397,26.736248265067697],[86.92863987140221,26.737298557457095],[86.92973334069954,26.737807067606845],[86.93022914867248,26.737908840766533],[86.93031024110161,26.737940474417133],[86.93115899325258,26.738268184140942],[86.93212848027075,26.738828460207973],[86.93316135557366,26.738743172001243],[86.93566932386985,26.738231864103366],[86.93589133748405,26.737979099245436],[86.93611384809309,26.737480325300982],[86.9362689638557,26.737256881967614],[86.93646290525452,26.737010932181224],[86.93648841448292,26.7369680446714],[86.93667722615935,26.73654823114418],[86.93697226364151,26.736087842105334],[86.93712219267553,26.7360517675653],[86.9378081950816,26.73618973635052],[86.93807716951831,26.736295951061546],[86.93876842609714,26.736571648207157],[86.93925429189748,26.736671170574404],[86.93962949215214,26.736748125750825],[86.93987770977199,26.73684977730647],[86.9399439248259,26.737059775477945],[86.9399529928325,26.737161367733083],[86.93995406151242,26.737551857852825],[86.9398923543153,26.737734724473672],[86.93971642577097,26.738332839872132],[86.93914829662128,26.73928975295328],[86.93852189258995,26.740000595167448],[86.93840922947143,26.740217285298034],[86.93843811765555,26.74032337830135],[86.93886921486117,26.74051767965997],[86.93965124890019,26.740439020889674],[86.9402402728488,26.74027896671434],[86.94081935537127,26.740017319071733],[86.94123362937371,26.739888838543113],[86.94167522753916,26.739925093253788],[86.94203479512201,26.73985300495402],[86.94243362822029,26.739884759310026],[86.94283552795646,26.7400406746364],[86.94312457353115,26.7402462308874],[86.94342175126225,26.740639154782755],[86.94429882565834,26.740953234931574],[86.94468153111048,26.741115902835745],[86.94476225038191,26.741258193986628],[86.94577710988112,26.740619743078298],[86.94671219732052,26.740441677908795],[86.94757938658987,26.74036745702925],[86.94763278152958,26.740353953028134]]]}},{"type":"Feature","properties":{"province":"Madhesh Province","district":"Saptari","municipality":"Saptakoshi Municipality","ward":"1","wardNumber":1,"sourceMunicipality":"Saptakoshi","sourceType":"Gaunpalika"},"geometry":{"type":"Polygon","coordinates":[[[86.92637523289106,26.771637474065912],[86.92698488391548,26.771095994620243],[86.92724222341072,26.77081165812448],[86.92765030020355,26.770240735233436],[86.92780491136553,26.769782535872494],[86.92779414380256,26.76892247123063],[86.92795137803448,26.76829497256278],[86.92827873722582,26.767667596600827],[86.92840896882969,26.76749610768565],[86.92904118094998,26.76635638979515],[86.92913002165947,26.76607199242616],[86.92915771054136,26.76555502828774],[86.92914126082961,26.765155473601215],[86.92901927068047,26.764694902508676],[86.92873115213317,26.763888857505574],[86.92856408684558,26.76360208799283],[86.92835819028105,26.763026359441525],[86.92810827866815,26.762565727256398],[86.92768992845211,26.76193117213799],[86.92750310362538,26.761529243998748],[86.92716866058144,26.761009908226598],[86.92696213910179,26.76049282162291],[86.9261895870813,26.759223772403246],[86.92606666109234,26.758821906423503],[86.92600713299262,26.758476492718934],[86.92598937242757,26.75818978402001],[86.92603413569306,26.758013731435977],[86.92602481638296,26.75779473022638],[86.92610415505122,26.7576413089817],[86.92666910048588,26.756971042715623],[86.9292413692035,26.754308602384466],[86.92962987814009,26.75384827465534],[86.92999981659571,26.753326991748065],[86.93017412557421,26.753026838985566],[86.93035318597279,26.75271762098835],[86.93082546824554,26.751817163097257],[86.93112088144221,26.751370278660904],[86.93245378321271,26.750054811904686],[86.93284967024897,26.749605799850446],[86.93326499851557,26.748962605779496],[86.93381887793623,26.748366923762926],[86.93517485412688,26.747261332020095],[86.93688771238266,26.746289148469533],[86.93757883141204,26.745779240282914],[86.93768949532466,26.74568902503416],[86.93872054466453,26.744836136234586],[86.93982380875225,26.7440938409763],[86.94145270943197,26.743726523828233],[86.94198971261149,26.743424240796614],[86.9424842621715,26.74307231882773],[86.9436300988614,26.741971104972468],[86.94476225038191,26.741258193986628],[86.94468153111048,26.741115902835745],[86.94429882565834,26.740953234931574],[86.94342175126225,26.740639154782755],[86.94312457353115,26.7402462308874],[86.94283552795646,26.7400406746364],[86.94243362822029,26.739884759310026],[86.94203479512201,26.73985300495402],[86.94167522753916,26.739925093253788],[86.94123362937371,26.739888838543113],[86.94081935537127,26.740017319071733],[86.9402402728488,26.74027896671434],[86.93965124890019,26.740439020889674],[86.93886921486117,26.74051767965997],[86.93843811765555,26.74032337830135],[86.93840922947143,26.740217285298034],[86.93852189258995,26.740000595167448],[86.93914829662128,26.73928975295328],[86.93971642577097,26.738332839872132],[86.9398923543153,26.737734724473672],[86.93995406151242,26.737551857852825],[86.9399529928325,26.737161367733083],[86.9399439248259,26.737059775477945],[86.93987770977199,26.73684977730647],[86.93962949215214,26.736748125750825],[86.93925429189748,26.736671170574404],[86.93876842609714,26.736571648207157],[86.93807716951831,26.736295951061546],[86.9378081950816,26.73618973635052],[86.93712219267553,26.7360517675653],[86.93697226364151,26.736087842105334],[86.93667722615935,26.73654823114418],[86.93648841448292,26.7369680446714],[86.93646290525452,26.737010932181224],[86.9362689638557,26.737256881967614],[86.93611384809309,26.737480325300982],[86.93589133748405,26.737979099245436],[86.93566932386985,26.738231864103366],[86.93316135557366,26.738743172001243],[86.93212848027075,26.738828460207973],[86.93115899325258,26.738268184140942],[86.93031024110161,26.737940474417133],[86.93022914867248,26.737908840766533],[86.92973334069954,26.737807067606845],[86.92863987140221,26.737298557457095],[86.92743804090397,26.736248265067697],[86.92648361234757,26.735082936284364],[86.92638763575575,26.734868437417276],[86.92505565894555,26.73538022930716],[86.92439592042184,26.7355265943159],[86.92376725598136,26.735616566285454],[86.92259489195303,26.73567015954146],[86.92207251679073,26.735823399277525],[86.92143297777727,26.73623840374904],[86.92019259389056,26.73663278622488],[86.91993312843083,26.736826784113486],[86.9194695307554,26.73737282561705],[86.9190636447461,26.738144682314765],[86.91844618088699,26.738819325564695],[86.9181691523009,26.739433196614588],[86.91805455221093,26.739688210593073],[86.91768523797091,26.740175608291693],[86.91712728894082,26.740428127632192],[86.91608628435257,26.740382377339742],[86.91552814156175,26.74030079827746],[86.91508010747029,26.740569195909615],[86.91485252422373,26.740564509892316],[86.91433320653431,26.740300126582685],[86.91405160318453,26.740263807516925],[86.91377469003291,26.740306573115458],[86.91327538810104,26.740586161785806],[86.91298978814396,26.740893005390216],[86.91246697631996,26.741113952674787],[86.91166450515719,26.741630427193318],[86.91118614410632,26.741691076373183],[86.9108945423228,26.741941466062116],[86.9105439788888,26.742090263781282],[86.91017215625367,26.74212390351218],[86.90940669904276,26.742690017403373],[86.9089881748142,26.74289295768699],[86.90838378071845,26.74370520346846],[86.90827874344873,26.74379998235081],[86.90833807876787,26.743842931795186],[86.90856629259649,26.744231355659313],[86.90862775702912,26.74446386007263],[86.90869884946167,26.744734876985202],[86.90857193375663,26.745084668290637],[86.90810052397931,26.7458021972017],[86.90813766804078,26.746140858762224],[86.9083487488322,26.74636898525611],[86.90869944033591,26.746455005802034],[86.90936043056475,26.746410234588364],[86.90967117112174,26.746559399190765],[86.90988231321795,26.746733384481367],[86.91043533063932,26.74693462377176],[86.91106180896708,26.746901168289472],[86.911849408562,26.746942232821755],[86.91209168613764,26.74705970176634],[86.91245964202523,26.747583725484052],[86.91266478916806,26.748188837556796],[86.91269236973386,26.748721618483486],[86.91220151441367,26.749369252357845],[86.91160793260951,26.74999638214699],[86.91115233896282,26.750580809775435],[86.91080509985636,26.751323281914193],[86.91071051654451,26.752162966696115],[86.91061148693436,26.75258059040905],[86.9104069177549,26.752928070357388],[86.91012545568684,26.753898608434447],[86.91008169831066,26.754429077180397],[86.91014560129769,26.754686464382758],[86.91046235052912,26.755230682851526],[86.91049298968625,26.755427114911267],[86.91003176831703,26.75599116172006],[86.90973779404234,26.756489874097287],[86.90977181173723,26.75679690082292],[86.9101816018232,26.75776111640936],[86.91016416203371,26.75801394025859],[86.91014822297501,26.758244196249425],[86.91011139731752,26.758311840792196],[86.90999655974376,26.759307322188846],[86.90992997767195,26.759612037430895],[86.90992754420702,26.75991906539556],[86.9101345671014,26.76053318025329],[86.9101973415359,26.760630270669402],[86.91045025012862,26.760842641481027],[86.91070109886287,26.761303336313546],[86.91069766669031,26.761687073375732],[86.91054168539073,26.762529010283433],[86.91056169562229,26.762682492286714],[86.91074802280025,26.763219897673252],[86.91074627510213,26.76344790195258],[86.91072351976969,26.76360138468189],[86.91044236460425,26.76421300579504],[86.91028713304229,26.764975918649334],[86.91023987473486,26.76551313947882],[86.9099345281841,26.766429475088646],[86.90993246884868,26.76665747947622],[86.9099923072945,26.766939686333043],[86.9102692218316,26.767005326928174],[86.91065117387333,26.767048459290308],[86.91162753142117,26.76711227790133],[86.91213540681754,26.767308954192053],[86.91276989332833,26.767620850037616],[86.91302417475465,26.76765935764789],[86.91353242506844,26.76783571527133],[86.91410544697945,26.767878970285928],[86.91455017408305,26.768016942288394],[86.91474030778184,26.768114093755432],[86.91486760475735,26.768134535372717],[86.91552879017605,26.76853895800158],[86.91581821023371,26.768717443605897],[86.91600865628355,26.76879433894086],[86.91651553341555,26.769085855778037],[86.91702134934148,26.76951053591481],[86.91727463215727,26.76966639083001],[86.91773843222883,26.770032367404287],[86.91784366071583,26.770167905362452],[86.91872837099012,26.770958500542896],[86.91923462389745,26.771306408484833],[86.9197398156653,26.771810049728046],[86.92053831063454,26.7727721961223],[86.92068499265564,26.77300251170322],[86.92110565302802,26.773447449261496],[86.92129541325478,26.773619122321296],[86.92180166604692,26.773987348742892],[86.92205526050338,26.774104880032063],[86.9226274712826,26.774222532193097],[86.92288237661535,26.774224967003907],[86.92300973479999,26.774206959345918],[86.92341444278314,26.77403784232989],[86.92407648883345,26.773584388238945],[86.92439635306395,26.773413021480007],[86.92469614530512,26.77312874623491],[86.92499662342443,26.772729375007987],[86.9250614572791,26.772596210043783],[86.92534024075316,26.77227129866118],[86.92553274597815,26.77212012724954],[86.92591638252186,26.771912623051886],[86.92636447878226,26.771646476432394],[86.92637523289106,26.771637474065912]]]}},{"type":"Feature","properties":{"province":"Madhesh Province","district":"Saptari","municipality":"Saptakoshi Municipality","ward":"3","wardNumber":3,"sourceMunicipality":"Saptakoshi","sourceType":"Gaunpalika"},"geometry":{"type":"Polygon","coordinates":[[[86.97126195071907,26.740044172116942],[86.97200651119672,26.738631247758608],[86.97231785725057,26.737606317526016],[86.97243631736666,26.736330941897098],[86.97273740095706,26.734786859600764],[86.97280715962742,26.733795880684735],[86.97293231949854,26.733107427496932],[86.97306416801798,26.732382712423444],[86.97338614371668,26.731423427048487],[86.97456635152679,26.72929484901024],[86.97518437606875,26.728516112311482],[86.97495497607399,26.728292613007522],[86.97432285840519,26.72756334452546],[86.9740931469072,26.727355599720145],[86.97401055138333,26.727195303210923],[86.9738877491249,26.7267167273065],[86.97384691875037,26.726560994330338],[86.97337610159592,26.72530575745396],[86.97296419490453,26.724946720385166],[86.97264751035756,26.72454710727759],[86.97165305006666,26.72240461709297],[86.97150136276821,26.721991560563204],[86.97140625664859,26.72144521354167],[86.97119648599069,26.720998148294964],[86.97091606076853,26.72040216407401],[86.97069228957996,26.720241932754064],[86.97038905326879,26.720198924421634],[86.9699547687858,26.720135599444816],[86.96883929371882,26.719771945207356],[86.9685184904146,26.71981027321526],[86.96841038897075,26.71983959579964],[86.96784562313252,26.71998845886252],[86.96670483973757,26.720419412974756],[86.96642886737651,26.720620225771015],[86.96615477656889,26.72115744961095],[86.9655304369131,26.721927121289227],[86.96440741596882,26.722723745226805],[86.96359976364009,26.72378000284294],[86.9634966665932,26.723953805745705],[86.96306227976764,26.725233686502328],[86.96304627428486,26.725272072846916],[86.96301076169858,26.72531496164356],[86.96261736489882,26.725080085411633],[86.96220258781385,26.725037077716784],[86.9621149285858,26.724870093129624],[86.96212223929152,26.724603639715497],[86.96207140548854,26.72445234570677],[86.96189502720928,26.72436882382076],[86.9615787818952,26.72403685574356],[86.96111547698843,26.7233752922906],[86.96081292381992,26.723061454538453],[86.96046678870678,26.722508296562516],[86.96025357717033,26.721977769245452],[86.96003530622768,26.721736138560903],[86.95906925344207,26.72094129287937],[86.95881296706237,26.72058000313359],[86.95850941555449,26.720399329598834],[86.95785479378215,26.71986186807152],[86.9575915664478,26.71947125656961],[86.95720954611117,26.71910996794115],[86.95719510286953,26.71909646491481],[86.95695232144158,26.718784813692814],[86.95598209973033,26.71915931144375],[86.95450707659579,26.720055093607073],[86.95405097897445,26.720395825456148],[86.95360488596654,26.720831333353406],[86.95306425542577,26.721059220077024],[86.95272326168302,26.721390884676577],[86.95254614123589,26.721828765635966],[86.95243235297761,26.721975497296473],[86.95229974220345,26.722029639957757],[86.95201532650303,26.722056651685957],[86.95180819044371,26.722142367631943],[86.95135234513698,26.722679468169172],[86.95122430373115,26.72299775069485],[86.95130134227531,26.72361405574571],[86.95152731371249,26.72442904202797],[86.95172545437384,26.724808400676306],[86.95171239463875,26.725268973607648],[86.951283520965,26.72728013156542],[86.95123231669734,26.727365907715168],[86.9512206249936,26.72738622562756],[86.95126858553972,26.72774064159263],[86.95114837403695,26.728894168867566],[86.95095544035532,26.72961419529152],[86.95144371226404,26.73152868818749],[86.95149792686318,26.731944058910234],[86.95163942542023,26.73254460856467],[86.95201206370692,26.73268920868811],[86.95232249268572,26.732910519642438],[86.95158524816736,26.73435276464657],[86.95102017911827,26.735077234441945],[86.95056952840528,26.73592361426156],[86.9501739556021,26.73642689212361],[86.94993718534883,26.7366570872719],[86.9493068986504,26.73700000923116],[86.9487481427656,26.737645455604643],[86.94840270683743,26.737740113055587],[86.94797674224661,26.737945428930473],[86.94732325573536,26.73806028385259],[86.94721890651478,26.738148310911985],[86.94710450183877,26.73887515088799],[86.94721836373536,26.73933347126137],[86.94763278152958,26.740353953028134],[86.94894763050534,26.740018086422374],[86.95014643921373,26.739835642634013],[86.95056978056924,26.739835761597455],[86.95264935516053,26.740105063373214],[86.95303406034785,26.740206775025296],[86.95444977231263,26.7407219073839],[86.95487211521007,26.74082586997426],[86.95721016972686,26.741709160116205],[86.95745913643921,26.741804059713882],[86.96178823231753,26.742861687609242],[86.96243247026544,26.743071802820054],[86.96421512648544,26.74344695221715],[86.96516741260578,26.74357360161746],[86.96739172357114,26.74360114222665],[86.96785976698031,26.743429647625135],[86.96823477853344,26.743422953900705],[86.9684114033826,26.74333498747176],[86.96876352683974,26.74299869690492],[86.96956955750323,26.742231336150486],[86.9702294717897,26.741407460336056],[86.97080673166188,26.740608406406867],[86.97126195071907,26.740044172116942]]]}},{"type":"Feature","properties":{"province":"Madhesh Province","district":"Saptari","municipality":"Saptakoshi Municipality","ward":"4","wardNumber":4,"sourceMunicipality":"Saptakoshi","sourceType":"Gaunpalika"},"geometry":{"type":"Polygon","coordinates":[[[86.951283520965,26.72728013156542],[86.95171239463875,26.725268973607648],[86.95172545437384,26.724808400676306],[86.95152731371249,26.72442904202797],[86.95130134227531,26.72361405574571],[86.95122430373115,26.72299775069485],[86.95135234513698,26.722679468169172],[86.95180819044371,26.722142367631943],[86.95201532650303,26.722056651685957],[86.95229974220345,26.722029639957757],[86.95243235297761,26.721975497296473],[86.95254614123589,26.721828765635966],[86.95272326168302,26.721390884676577],[86.95306425542577,26.721059220077024],[86.95360488596654,26.720831333353406],[86.95405097897445,26.720395825456148],[86.95450707659579,26.720055093607073],[86.95598209973033,26.71915931144375],[86.95695232144158,26.718784813692814],[86.95672498439265,26.718493543698884],[86.95600139930737,26.71796058454102],[86.95523179442367,26.71725607610794],[86.95469721488283,26.716641903137134],[86.95437934409968,26.716330253444454],[86.95387396210413,26.715716079676838],[86.95310035234179,26.71480157138987],[86.95273471514247,26.714541875070502],[86.95267813169502,26.71450117681773],[86.9523612602738,26.714130884917648],[86.95200287186051,26.713663502584257],[86.95163078909228,26.713092214344055],[86.95144420599993,26.71216438207011],[86.95152072445137,26.71162484840029],[86.95113425869285,26.710821055206715],[86.95111456008955,26.710620184192873],[86.95110543215115,26.710602116180766],[86.95112374851797,26.710444069567668],[86.95128692725727,26.71013710185288],[86.95126222781488,26.709911348757505],[86.95104119961765,26.709331119371377],[86.95080080149856,26.70941008339438],[86.94989504033137,26.709836407236427],[86.94929394884092,26.709994274251244],[86.94852535852021,26.71009106281338],[86.94761027816804,26.71028938331774],[86.94712691905978,26.710533023664908],[86.94666857160875,26.710982098728778],[86.9450618170323,26.71210576261831],[86.94479291382403,26.712557148531282],[86.94399681801553,26.71296090247649],[86.94354353551557,26.713378343798638],[86.94353491158127,26.713658300845214],[86.94381509083988,26.71453655427207],[86.94389056623086,26.715159611109282],[86.94367943537019,26.715712588916166],[86.94344641900092,26.71605119082794],[86.94333163106326,26.71633327564984],[86.943293435036,26.71664480536279],[86.94337409372457,26.71688412390383],[86.94336034690532,26.717373955028247],[86.94327850890214,26.717638033727777],[86.94289831794731,26.718288042084485],[86.94203765021082,26.7195451097706],[86.94184264745044,26.71989946686916],[86.94183402395184,26.720208744715702],[86.94193694157576,26.720475134341918],[86.94226237785648,26.720782281983926],[86.94229601416204,26.720780031523486],[86.94226894327035,26.720845488026107],[86.94257001063608,26.722053339137094],[86.94243346731788,26.722470900707147],[86.94224790348923,26.722723664460872],[86.94137890511439,26.723030328475197],[86.9411673307219,26.723197317947985],[86.94110018744118,26.723601312177504],[86.9410240376483,26.72377061286428],[86.94113933068749,26.7238181251364],[86.94147434125718,26.72465349128081],[86.94174844740843,26.72500121431532],[86.94231746947902,26.72515725220534],[86.943017600559,26.725252333720416],[86.94358081292218,26.72567920137492],[86.94392237815252,26.72584180758428],[86.94477994157567,26.725903126104466],[86.9453178865654,26.725835599355992],[86.94637458011282,26.725616958609763],[86.94704051057546,26.725633017477612],[86.94854693850333,26.725859313270185],[86.94913865651156,26.726006223923353],[86.94974944648129,26.726299926473793],[86.95081128278677,26.727049695381655],[86.95113327989989,26.7273342745336],[86.95123231669734,26.727365907715168],[86.951283520965,26.72728013156542]]]}},{"type":"Feature","properties":{"province":"Madhesh Province","district":"Saptari","municipality":"Saptakoshi Municipality","ward":"5","wardNumber":5,"sourceMunicipality":"Saptakoshi","sourceType":"Gaunpalika"},"geometry":{"type":"Polygon","coordinates":[[[86.90827874344873,26.74379998235081],[86.90838378071845,26.74370520346846],[86.9089881748142,26.74289295768699],[86.90940669904276,26.742690017403373],[86.91017215625367,26.74212390351218],[86.9105439788888,26.742090263781282],[86.9108945423228,26.741941466062116],[86.91118614410632,26.741691076373183],[86.91166450515719,26.741630427193318],[86.91246697631996,26.741113952674787],[86.91298978814396,26.740893005390216],[86.91327538810104,26.740586161785806],[86.91377469003291,26.740306573115458],[86.91405160318453,26.740263807516925],[86.91433320653431,26.740300126582685],[86.91485252422373,26.740564509892316],[86.91508010747029,26.740569195909615],[86.91552814156175,26.74030079827746],[86.91608628435257,26.740382377339742],[86.91712728894082,26.740428127632192],[86.91768523797091,26.740175608291693],[86.91805455221093,26.739688210593073],[86.9181691523009,26.739433196614588],[86.91844618088699,26.738819325564695],[86.9190636447461,26.738144682314765],[86.9194695307554,26.73737282561705],[86.91993312843083,26.736826784113486],[86.92019259389056,26.73663278622488],[86.92143297777727,26.73623840374904],[86.92207251679073,26.735823399277525],[86.92259489195303,26.73567015954146],[86.92376725598136,26.735616566285454],[86.92439592042184,26.7355265943159],[86.92505565894555,26.73538022930716],[86.92638763575575,26.734868437417276],[86.9264617878635,26.73483917754686],[86.92808466769642,26.733368099740396],[86.92863429847466,26.732971038462924],[86.9291345977709,26.732479200023825],[86.92944282745158,26.732032377003403],[86.92961063141576,26.731558361232636],[86.93016494153201,26.73051342183955],[86.93057039248636,26.72995606539449],[86.93132409319657,26.729270104878058],[86.93152997938144,26.729184514436685],[86.93236940990577,26.72916449743906],[86.93299220096912,26.72926414305296],[86.9334399901437,26.729325279951663],[86.93370327464032,26.729402111756745],[86.93375792091646,26.72944055956256],[86.9340166380317,26.729352592800925],[86.93415118694381,26.729357217727234],[86.93472177311531,26.72949512564355],[86.93604288258305,26.72968085059723],[86.9363414275804,26.729653838386913],[86.93649423218754,26.729588442256464],[86.93672062341456,26.729358308866313],[86.93713607748485,26.728758002529926],[86.93812429707393,26.727796769585055],[86.93869155489828,26.72706792392968],[86.93887905403032,26.72669093551005],[86.93902015808055,26.726072439887304],[86.9389695577668,26.724914350577095],[86.93927165375507,26.724020521984542],[86.93958801221368,26.723661724952517],[86.93999690882478,26.723499359398488],[86.9404038699744,26.7235085439933],[86.9410240376483,26.72377061286428],[86.94110018744118,26.723601312177504],[86.9411673307219,26.723197317947985],[86.94137890511439,26.723030328475197],[86.94224790348923,26.722723664460872],[86.94243346731788,26.722470900707147],[86.94257001063608,26.722053339137094],[86.94226894327035,26.720845488026107],[86.94229601416204,26.720780031523486],[86.94226237785648,26.720782281983926],[86.94193694157576,26.720475134341918],[86.94183402395184,26.720208744715702],[86.94184264745044,26.71989946686916],[86.94203765021082,26.7195451097706],[86.94289831794731,26.718288042084485],[86.94327850890214,26.717638033727777],[86.94336034690532,26.717373955028247],[86.94337409372457,26.71688412390383],[86.943293435036,26.71664480536279],[86.94333163106326,26.71633327564984],[86.94344641900092,26.71605119082794],[86.94367943537019,26.715712588916166],[86.94389056623086,26.715159611109282],[86.94381509083988,26.71453655427207],[86.94353491158127,26.713658300845214],[86.94354353551557,26.713378343798638],[86.94399681801553,26.71296090247649],[86.94479291382403,26.712557148531282],[86.9450618170323,26.71210576261831],[86.94666857160875,26.710982098728778],[86.94712691905978,26.710533023664908],[86.94761027816804,26.71028938331774],[86.94852535852021,26.71009106281338],[86.94929394884092,26.709994274251244],[86.94989504033137,26.709836407236427],[86.95080080149856,26.70941008339438],[86.95104119961765,26.709331119371377],[86.95100893663299,26.709216023301504],[86.95093803007558,26.708872861338044],[86.95096759035216,26.70811432584261],[86.95101510443956,26.70790445090208],[86.95149188545716,26.70683231726677],[86.95145836836629,26.706525290020526],[86.95093373413467,26.706181946439774],[86.95076235387728,26.7058523519589],[86.95103136055458,26.704132281783597],[86.95104911097278,26.7037778025338],[86.95109505088244,26.70286584659568],[86.95122340277662,26.702425653287612],[86.95117663359692,26.70233312686618],[86.9511225518847,26.70234431851139],[86.95083476056821,26.702400714117452],[86.94872517404187,26.702059141360312],[86.9483075224553,26.702113225840108],[86.94712822314386,26.702422018759837],[86.94601601594961,26.70303115021737],[86.94416547684223,26.703628725097413],[86.943888001031,26.70367149137755],[86.94322270124047,26.703978277752906],[86.94264955697223,26.70412251526129],[86.94194167504088,26.704162848374366],[86.94175410734674,26.704174104072756],[86.94122503635761,26.703988744483503],[86.94057411034251,26.703875720097614],[86.93998026882922,26.7038912325353],[86.93942475555728,26.703983517111826],[86.93900047815752,26.704130065343456],[86.93851236869763,26.704454979191443],[86.93820926229671,26.704739254734946],[86.93793910265111,26.704822719763357],[86.93754171462967,26.705237910101154],[86.9365418636469,26.7060230903043],[86.93548855403742,26.706731437337645],[86.93447369418071,26.70731793571144],[86.93283079083903,26.707766526208456],[86.93034532501095,26.707952676007338],[86.92882252478518,26.70819795591943],[86.92694490989301,26.708583155988272],[86.92591122668212,26.70895734164298],[86.9246935356141,26.709114716040833],[86.92367528819155,26.709012637086346],[86.92299047852084,26.709147748269515],[86.92268343111562,26.709276227987967],[86.92221820369747,26.709587513060367],[86.92132940115745,26.710894095216986],[86.91961135747945,26.712114475569347],[86.91872236278813,26.71314335149826],[86.91760815960185,26.714041192249002],[86.9171374953652,26.714478889259723],[86.9166285023969,26.714803679115743],[86.9160508018792,26.71543543407095],[86.9158256017517,26.71581454882901],[86.9156410424584,26.71633364059276],[86.91555445230607,26.716577400878037],[86.9155280682046,26.716588654697375],[86.91511917184417,26.716760022550606],[86.91409942563246,26.7167910453795],[86.91319959534229,26.716634761362243],[86.91162346442549,26.716979132923754],[86.91118605565588,26.716999143994553],[86.91054426190301,26.717165889663978],[86.91003333232824,26.71757420313603],[86.90971778769955,26.718045783578898],[86.90964057579836,26.718334619334524],[86.90958656892234,26.719108971537796],[86.90913335033174,26.719673018689576],[86.90878172833641,26.72000243190062],[86.90830956056297,26.72029108540464],[86.90773441505831,26.720405813775542],[86.90725024352642,26.720692217360863],[86.9059917891258,26.720971378249548],[86.90547529298817,26.721246402782526],[86.90507183830013,26.721544120607035],[86.90476285264721,26.721647779800843],[86.90426417216298,26.721719682692903],[86.9033180749955,26.72155427143556],[86.90243663312104,26.721858434965306],[86.90207644011998,26.721910142092803],[86.90171775034695,26.722095013203514],[86.90137569243274,26.722349842304677],[86.90121057866078,26.72288700267879],[86.90085733152614,26.723290874977682],[86.90069396395532,26.723568396494127],[86.90023417261916,26.72367418315371],[86.89988543096058,26.72428349192267],[86.89963596951083,26.724576768292728],[86.8987315782166,26.724612290862925],[86.89837145140366,26.724921261075153],[86.89794648654475,26.72503836372079],[86.8972739295358,26.72507857128343],[86.89686584666741,26.725328775008716],[86.89634415656408,26.725317153425202],[86.89599552644862,26.72509571823157],[86.8955346741309,26.7252917818113],[86.8947648293391,26.725205453786405],[86.8936586201414,26.725615463430696],[86.89354114436787,26.72587954285988],[86.89331887772607,26.726005770414382],[86.89241717596077,26.726093182703956],[86.89162601580728,26.726311506615918],[86.89088474527655,26.726250061274797],[86.89014016314529,26.726346536382565],[86.889969413766,26.72642543677381],[86.88996503833168,26.726459259826324],[86.89012429055136,26.72685668634958],[86.89048236627424,26.72737170814553],[86.89115362190815,26.7280358936752],[86.89201556713198,26.728449629169866],[86.89228254371413,26.728673316035582],[86.8927647282941,26.729228972862973],[86.89338102060412,26.7295725654898],[86.89357690821652,26.729794003257652],[86.89352752240805,26.730204749463137],[86.89355747387152,26.730453071549416],[86.89388253395158,26.730683572427274],[86.89428912059581,26.730751650193838],[86.89507917036751,26.731470037494354],[86.89526855368183,26.731610139153716],[86.89551821081632,26.731797691020574],[86.89556941775456,26.731865460398403],[86.89548864362825,26.73219274489758],[86.89556680007719,26.732344038069794],[86.89582133000674,26.732348723159678],[86.89612656421095,26.73224737771756],[86.89655934749402,26.732227366144507],[86.89723078261943,26.732433230330727],[86.89760023836781,26.732948126127187],[86.89804371792623,26.733320980125036],[86.89875485172789,26.73330565358462],[86.89903295506188,26.73340517901436],[86.89932963189635,26.733759841605494],[86.89951345413624,26.734112130247013],[86.89967502464599,26.734854908637114],[86.89965890743538,26.735681088376115],[86.89979639870974,26.73589339950528],[86.90013727459723,26.736017805791075],[86.90032890906826,26.73613758844513],[86.90048710164349,26.736747202792287],[86.90056181878161,26.736860110495584],[86.9010013567626,26.737029717160077],[86.90155649440051,26.73691723895007],[86.90194751187329,26.736903917792013],[86.90220135457423,26.73692898372611],[86.90238954928466,26.73699906500286],[86.90261044329628,26.73708271105549],[86.90271761175458,26.73736047909406],[86.90276714008081,26.737974533279697],[86.90265404251373,26.73834464316301],[86.90216893716524,26.73888387025061],[86.90216281330584,26.73910962428552],[86.90232831375641,26.739267731324446],[86.90266775035794,26.73927472853853],[86.90280829969102,26.739182261960895],[86.90355062073972,26.738406212628927],[86.90387248729148,26.738377074689698],[86.90419954669099,26.7385353040752],[86.90538506033246,26.739728013541466],[86.9054275186375,26.74003504020535],[86.90521782464964,26.740527000348226],[86.90523964962064,26.740788888962495],[86.90534193997517,26.740985383368468],[86.90585019341177,26.74134460638803],[86.90595711235767,26.741624624722487],[86.90594580192966,26.74203093222338],[86.90583220278657,26.742285945460377],[86.90556348338755,26.742549901987218],[86.90485223120938,26.742964782859353],[86.90466466707002,26.743219796937737],[86.9046293442819,26.743386784316517],[86.90471656697133,26.743612599088493],[86.90491789314262,26.743754950829402],[86.90514166222339,26.743786707049107],[86.90532741758676,26.74375744684308],[86.90571236615415,26.74350943154584],[86.90621886634915,26.74368578867731],[86.90650284722628,26.743877841478156],[86.90668666576964,26.743923164470967],[86.90698971318774,26.743896215758646],[86.90734227333256,26.743564613806193],[86.90777517973203,26.743443009872816],[86.90827874344873,26.74379998235081]]]}},{"type":"Feature","properties":{"province":"Madhesh Province","district":"Saptari","municipality":"Saptakoshi Municipality","ward":"9","wardNumber":9,"sourceMunicipality":"Saptakoshi","sourceType":"Gaunpalika"},"geometry":{"type":"Polygon","coordinates":[[[86.96705655244776,26.710412223098402],[86.96752446918698,26.710188839009785],[86.96814794166444,26.709960951204838],[86.97068910502576,26.70915780686855],[86.97099615395237,26.709133045257154],[86.97184071301105,26.709223498161975],[86.97314224755522,26.709097256349054],[86.97560683867422,26.709447575935055],[86.97582960674627,26.70945438735335],[86.97692181749788,26.70949063305811],[86.97734753518576,26.709443301514497],[86.97780345133252,26.70946367564283],[86.9782053456261,26.709339572046627],[86.97843599044452,26.709269610489926],[86.97768019719553,26.7081588573816],[86.97745623214695,26.70767115515594],[86.97697649040008,26.70735513117224],[86.97678110288888,26.707138382641272],[86.9765220010888,26.70670269572443],[86.97557946240828,26.706221692631587],[86.97468105621714,26.705262110228194],[86.97450010949395,26.70491444824982],[86.9743144763551,26.704738336642848],[86.974138848932,26.704627681287],[86.9730357545959,26.704320481294847],[86.97252900368545,26.704105987604837],[86.97208665304171,26.703995273375448],[86.97173595973425,26.703825916038394],[86.97104495053739,26.70334265809588],[86.97059515209857,26.702778248991894],[86.97009226804829,26.701970018539964],[86.96940674630416,26.700626696032245],[86.96914645119547,26.699865850997497],[86.96896206981734,26.699748444264134],[86.96874811725293,26.699789021799297],[86.96847095663588,26.69997189134813],[86.96819160742544,26.700089179191888],[86.9675826987881,26.700129636722775],[86.96727477536353,26.70022441890894],[86.96698661135655,26.700407226472347],[86.96657596198106,26.70042292407914],[86.96632749509097,26.700341590838452],[86.96602350080524,26.699835884426523],[86.96572669897905,26.699476845712677],[86.96540845338109,26.699203644041294],[86.96482736155129,26.698858112917552],[86.9642101283441,26.698377167781015],[86.96330891553224,26.69777419061306],[86.96290557632662,26.697516745445004],[86.96233480094321,26.69720284869443],[86.96055976001904,26.69601271070439],[86.95957513600348,26.69509139105081],[86.95906706475164,26.69437568712442],[86.95888418559404,26.694425266629075],[86.95834686974952,26.69469379019401],[86.95802381827856,26.69493524063229],[86.9575824801027,26.69552204378874],[86.95727299429608,26.695650647751403],[86.95720922123823,26.69565965178564],[86.95602066667105,26.695844408858306],[86.95317487863292,26.69575554541416],[86.95288302086252,26.69568096489877],[86.95251019484559,26.695484412775336],[86.9523610131349,26.695353438556346],[86.95216787673543,26.695170512506433],[86.95215030773025,26.695141191326805],[86.95210779462884,26.69528110849545],[86.95189247205433,26.695637778415986],[86.95178563366547,26.696448142493825],[86.95149867288859,26.697572225498657],[86.95152612786882,26.69800797844119],[86.95167706738168,26.69859264766112],[86.9516723160039,26.698610715995795],[86.95153983829026,26.699100548408733],[86.95128306156433,26.699346561707053],[86.9506090688926,26.6995630094995],[86.95056718255046,26.699757191458797],[86.95063939946468,26.699969315344457],[86.95108944393276,26.70031941201193],[86.95127220377114,26.70067163846832],[86.95134630728458,26.701504694416325],[86.9511791964836,26.702267670533118],[86.9511225518847,26.70234431851139],[86.95117663359692,26.70233312686618],[86.95122340277662,26.702425653287612],[86.95109505088244,26.70286584659568],[86.95104911097278,26.7037778025338],[86.95142362316652,26.703798240456482],[86.95276654706105,26.703660994979657],[86.95331774323081,26.703376717480534],[86.9548960625362,26.703038596657272],[86.95521374166135,26.7030861069779],[86.95663919891622,26.703111345110678],[86.95720915593095,26.703084329977973],[86.95761542871153,26.703066444074228],[86.95795030159735,26.703109451638277],[86.95865280884546,26.70319990707781],[86.96045534124013,26.70322520262896],[86.9607579500285,26.70316886965766],[86.96091156861684,26.703141796845454],[86.96147746188883,26.703157794041417],[86.9621482678178,26.703058631518832],[86.96248795221534,26.702952595362554],[86.96297850097594,26.70264118533659],[86.96327198286158,26.702647995382247],[86.9633459547455,26.703126635257362],[86.9635545339833,26.703325315444285],[86.96587294142093,26.703341664298414],[86.96616454671238,26.703283018435506],[86.9674248167802,26.703222359106977],[86.96799596472509,26.70334663729478],[86.96826706766714,26.70360395976946],[86.9686452142758,26.704109790377323],[86.96909839449032,26.70503993256638],[86.9692281299504,26.705118953993637],[86.96950079457214,26.705286061914837],[86.97004061650114,26.705299683145725],[86.97095969865622,26.705092172661228],[86.97140267252904,26.70512836489839],[86.97172848048042,26.705225514333048],[86.97187072205953,26.705358738840733],[86.97150528484147,26.705875645045072],[86.97122837661482,26.706162295541564],[86.97019807015904,26.70653454334254],[86.96906642065575,26.707308660854252],[86.96865127564706,26.707721662328492],[86.96787582484431,26.70888182604821],[86.96750144638573,26.70933777699478],[86.96674749417322,26.70992683436599],[86.96651929127142,26.710231489271884],[86.96653279609367,26.71025862236277],[86.96659938500993,26.71038728424693],[86.96690699639727,26.710362523096794],[86.96705655244776,26.710412223098402]]]}},{"type":"Feature","properties":{"province":"Madhesh Province","district":"Saptari","municipality":"Saptakoshi Municipality","ward":"10","wardNumber":10,"sourceMunicipality":"Saptakoshi","sourceType":"Gaunpalika"},"geometry":{"type":"MultiPolygon","coordinates":[[[[86.95215030773025,26.695141191326805],[86.95216787673543,26.695170512506433],[86.9523610131349,26.695353438556346],[86.95251019484559,26.695484412775336],[86.95288302086252,26.69568096489877],[86.95317487863292,26.69575554541416],[86.95602066667105,26.695844408858306],[86.95720922123823,26.69565965178564],[86.95727299429608,26.695650647751403],[86.9575824801027,26.69552204378874],[86.95802381827856,26.69493524063229],[86.95834686974952,26.69469379019401],[86.95888418559404,26.694425266629075],[86.95906706475164,26.69437568712442],[86.95903880346862,26.694335051122387],[86.95864426436837,26.693079812608577],[86.95866175746418,26.692278389925267],[86.95883674764744,26.69161475541351],[86.95909664829854,26.691255896561373],[86.95925263667505,26.690894726527727],[86.95919792602392,26.690673474868994],[86.95907712880967,26.690499613028646],[86.95804811785429,26.689804047367847],[86.95776650741952,26.689345729041342],[86.95742275075061,26.68895055510897],[86.9572094200013,26.688715739465522],[86.95707342989057,26.688566697751003],[86.95680970137424,26.688128697380844],[86.95662856866224,26.687821609648076],[86.95625930170206,26.68737223325047],[86.9558027481336,26.68663621060296],[86.9555284503336,26.685999589542885],[86.95550374695807,26.68560672506391],[86.9555601350238,26.685148464605618],[86.9557306257141,26.684597738908188],[86.95598052258647,26.68417348578861],[86.95602258539749,26.683283974443786],[86.95624627835466,26.68248036044422],[86.95629560658818,26.682329065458894],[86.9567151279947,26.68194776047078],[86.95681128688766,26.681850730628128],[86.95682135164098,26.68180102829436],[86.95677989822835,26.681717504363736],[86.95646427992885,26.681552585063635],[86.95546414938548,26.680540989182244],[86.95468578736993,26.679547520816318],[86.95402959499722,26.678608191656675],[86.953312696491,26.67787204779559],[86.95274685815968,26.677400041510325],[86.95244224341363,26.677147158855767],[86.9519801271369,26.676519418683153],[86.9510283295808,26.675729011396648],[86.9508987875962,26.67603372790528],[86.95088891496287,26.676356509954815],[86.95096919759254,26.676595829234838],[86.95158211996069,26.67729358828757],[86.95216789889318,26.677474383955825],[86.9523025745232,26.677576036291125],[86.95232208229781,26.677600856532933],[86.95237197719729,26.677734082461022],[86.95184342922784,26.67892356338425],[86.95180629508316,26.679201207721594],[86.95184487403918,26.679305049903686],[86.95213817233102,26.679580564094834],[86.9521952591416,26.679813131714628],[86.95177405339894,26.680384117759424],[86.9517025937027,26.68066401306086],[86.95158324160387,26.680864886289662],[86.95124406212342,26.68129820486381],[86.95068824057303,26.68165019029957],[86.95053137519018,26.68187813431858],[86.95049961489048,26.68197072472953],[86.95050180429487,26.68205193594424],[86.95067355851765,26.682261933071356],[86.95117543268331,26.6825420710324],[86.95153588329667,26.682919177030026],[86.95166463184661,26.68381993912521],[86.95165700864337,26.684079515807138],[86.95156641935459,26.684433933604623],[86.95141555397879,26.684562535769352],[86.95127475342296,26.684609926045777],[86.95122868433364,26.685232922429936],[86.95119982290232,26.686707042165196],[86.95140272499144,26.68768232570718],[86.9514026652282,26.687799735404607],[86.95138722270337,26.687881009458298],[86.95119859738432,26.688226300445855],[86.95115508860586,26.688623605182578],[86.95135404573612,26.68921290052929],[86.95165285202283,26.68986765099438],[86.951197566536,26.690174497157965],[86.95108752854009,26.690296346976773],[86.95108115477643,26.690506283159525],[86.95137276989877,26.691066256901504],[86.95142954426234,26.691298761329342],[86.95145830979466,26.691560650738126],[86.9513258337356,26.692172394407596],[86.95145313863397,26.692709674721236],[86.95163620948088,26.692939989949483],[86.95224675348872,26.693486517774716],[86.95263321586083,26.69408031170088],[86.95262684205282,26.694290310868855],[86.95223458370675,26.69486129589566],[86.95215030773025,26.695141191326805]]],[[[86.95215030773025,26.695141191326805],[86.95203288670162,26.69494476044249],[86.9513510649023,26.69426732117481],[86.95121226223557,26.694165667663253],[86.9505315728979,26.693928419386104],[86.94944542827224,26.693973196968116],[86.9482249206297,26.69395245753358],[86.94654781297108,26.69412121675664],[86.94551231111475,26.69412310631094],[86.94432407755211,26.694826953400334],[86.94385540694438,26.694840338743365],[86.9430610574577,26.695018400929737],[86.94287724246378,26.6951153692586],[86.94208664523782,26.695331818129187],[86.94121777343211,26.695717505901353],[86.94065275993832,26.69602429054725],[86.94040461584925,26.696572705059378],[86.940101006908,26.696701308784938],[86.93948866069809,26.696807161047598],[86.93935573860902,26.69685673939565],[86.93951605482995,26.697333127141317],[86.93966798931825,26.69758376118604],[86.93975089582908,26.69766284606172],[86.94032285719446,26.6978910302173],[86.94067449420193,26.69837879337966],[86.94185294880545,26.70379036521077],[86.94187414915676,26.70405219155936],[86.94194167504088,26.704162848374366],[86.94264955697223,26.70412251526129],[86.94322270124047,26.703978277752906],[86.943888001031,26.70367149137755],[86.94416547684223,26.703628725097413],[86.94601601594961,26.70303115021737],[86.94712822314386,26.702422018759837],[86.9483075224553,26.702113225840108],[86.94872517404187,26.702059141360312],[86.95083476056821,26.702400714117452],[86.9511225518847,26.70234431851139],[86.9511791964836,26.702267670533118],[86.95134630728458,26.701504694416325],[86.95127220377114,26.70067163846832],[86.95108944393276,26.70031941201193],[86.95063939946468,26.699969315344457],[86.95056718255046,26.699757191458797],[86.9506090688926,26.6995630094995],[86.95128306156433,26.699346561707053],[86.95153983829026,26.699100548408733],[86.9516723160039,26.698610715995795],[86.95167706738168,26.69859264766112],[86.95152612786882,26.69800797844119],[86.95149867288859,26.697572225498657],[86.95178563366547,26.696448142493825],[86.95189247205433,26.695637778415986],[86.95210779462884,26.69528110849545],[86.95215030773025,26.695141191326805]]]]}}]}