{"type":"FeatureCollection","features":[{"type":"Feature","properties":{"province":"Madhesh Province","district":"Bara","municipality":"Pheta Rural Municipality","ward":"1","wardNumber":1,"sourceMunicipality":"Pheta","sourceType":"Gaunpalika"},"geometry":{"type":"Polygon","coordinates":[[[84.94488315385107,27.03834546697819],[84.94539884246277,27.038215614034264],[84.94597661746711,27.03820267078834],[84.94616918762098,27.03824199408813],[84.9464904302971,27.03822630064571],[84.94674721248346,27.038265122605456],[84.94713291655671,27.03826937249752],[84.94790469918797,27.038162588112094],[84.9482902160884,27.038146456675566],[84.94837605939827,27.038089502164077],[84.94871955966475,27.03801710430147],[84.94914684238513,27.038093249855883],[84.94932146672988,27.037735456607933],[84.94925919248384,27.037446934348218],[84.94919648112925,27.037332213427575],[84.94919754354342,27.03716066316853],[84.9491556521841,27.037045879134194],[84.94894507234639,27.036661330126986],[84.94879614240084,27.036488529870354],[84.94856293023726,27.036257587385265],[84.94841431250704,27.036044150317718],[84.94820235830221,27.03579507857874],[84.94790593510812,27.035390773146787],[84.94782190269909,27.03521753550164],[84.94754580046113,27.034910195953703],[84.94729051782393,27.034753901712584],[84.94677782927512,27.034558720966064],[84.94643545315449,27.034536216283847],[84.94609182785128,27.034667193398263],[84.94572544521846,27.034931460156354],[84.94509971816379,27.03553832892434],[84.94501368689593,27.035575026964416],[84.94488557739155,27.035553271369015],[84.94469350668811,27.035419170113048],[84.94446216945036,27.03495803633235],[84.94437907490602,27.034669701214302],[84.94414617484156,27.034323663616227],[84.94402025214055,27.03403782998833],[84.94383093071926,27.03363283704266],[84.94423851726634,27.033542057978572],[84.94466798565497,27.033354063622447],[84.94527033013455,27.033036342939575],[84.94591750169124,27.032449542377826],[84.94727905604888,27.03098904471984],[84.9476690082336,27.030381489674358],[84.94862028927055,27.029300667641426],[84.94894478137462,27.0289214928634],[84.94952180582591,27.029041838080726],[84.94971287722963,27.02921651352336],[84.94994546460855,27.029600937523302],[84.95022219206433,27.029831566589213],[84.95049779462487,27.030159224431646],[84.95062552990446,27.030217053289032],[84.95088218636556,27.030237871236917],[84.95152698374349,27.02995816072696],[84.95225899959931,27.029485956876773],[84.9525164057754,27.029373609771085],[84.95271097685627,27.029205246822805],[84.9527556796138,27.02897474138716],[84.95279925711932,27.028841264380254],[84.9527587409616,27.028593254450925],[84.95263388033192,27.02813362014929],[84.95261424645793,27.027903552870715],[84.95215463274293,27.026523024138438],[84.95215719485003,27.026236314966415],[84.95237421012354,27.025896276075443],[84.9526556858374,27.02549709548526],[84.95274334223588,27.025286595027207],[84.95289377153397,27.025193067199783],[84.9529597952133,27.02502101646005],[84.95302694267667,27.0246210860232],[84.9530090590887,27.024219405765],[84.95262972784003,27.023470375027728],[84.95235481258118,27.02300949044775],[84.95218699841399,27.022606622413072],[84.95214567038725,27.022415004121562],[84.95197673157205,27.022183686746246],[84.95180548111895,27.02212617088345],[84.95129116838736,27.02217931308387],[84.95112097988388,27.022099228408678],[84.95092940867868,27.02194474595374],[84.95078066636194,27.021792264832442],[84.95063242311771,27.0216172762615],[84.95012267053527,27.02109700000457],[84.94974146566891,27.020578162315104],[84.94946823795281,27.020002181853314],[84.94927691631814,27.019809375900838],[84.9491915102083,27.019769239165317],[84.94859291439327,27.01968759313354],[84.94824966458201,27.019780184297403],[84.94816319518831,27.01983720151862],[84.9476480700989,27.020023508389837],[84.94661425762776,27.02072115499713],[84.9462079825687,27.02066070135805],[84.94612320142842,27.020620628068084],[84.94597452171398,27.020468145773876],[84.94595351294119,27.020371242726366],[84.94580558305749,27.02016005627878],[84.94563477000682,27.020082221668826],[84.94554905044046,27.020080534254316],[84.94529151943175,27.020174812912348],[84.94503336340539,27.0203435510413],[84.94477583135038,27.020437829682248],[84.94417504964827,27.020545738984104],[84.94383186175145,27.020658648900657],[84.94363891582567,27.020637330997644],[84.9431714294665,27.020270349487017],[84.94289620141929,27.01990424386904],[84.9424692313658,27.019708500034533],[84.9421714963469,27.01951638267882],[84.94191640141088,27.019226923356985],[84.94164579695193,27.018364233710116],[84.94158902192679,27.0174459637051],[84.94129722240231,27.016468303183395],[84.94123488568071,27.016238486151778],[84.94072013537705,27.01638634365374],[84.9400337585654,27.01651513434209],[84.93986238346447,27.016514072470482],[84.93926185154314,27.01666024315483],[84.93848856904982,27.016940766275763],[84.93814531863711,27.017033357216327],[84.93754391196784,27.017294687225352],[84.93739285785637,27.017388214697938],[84.93670666887313,27.017535011122003],[84.93627676248158,27.017741011166596],[84.9355044177115,27.017906437807596],[84.93509620659991,27.018073926088952],[84.93483905009249,27.018129818586054],[84.93458108136277,27.01826017100209],[84.93363686072861,27.018519251261672],[84.9334648607975,27.018594898875474],[84.93252107891419,27.01883591146795],[84.931985007192,27.0189251898226],[84.93185802250392,27.018734196219555],[84.93156278627654,27.01815609040578],[84.93129230708044,27.017295650858728],[84.93103802441748,27.016947425108157],[84.93082788245553,27.016450029720687],[84.9306371235328,27.016236843231287],[84.93023291201341,27.015966389791195],[84.92972028492404,27.01577114741544],[84.92940129218618,27.015518137065076],[84.92888966518137,27.01528456992459],[84.9283762265608,27.015222554342195],[84.92803472568028,27.0151435324366],[84.92760638181576,27.01515766328425],[84.92717722497704,27.01528914139015],[84.92702716984199,27.015287829258263],[84.9269206931564,27.01520955690969],[84.92679433292534,27.014941790532088],[84.92673180927143,27.014768427712607],[84.92665283773692,27.013965379538046],[84.92652972698414,27.013334194576686],[84.92653447588833,27.012760900707914],[84.926579991085,27.012473878979446],[84.92658555245309,27.011844069077533],[84.92654378666253,27.011670517708847],[84.9265709177165,27.01098194036066],[84.92653058933121,27.01075424882667],[84.92623728927354,27.009948076063836],[84.92619633563761,27.009718133134484],[84.92600620261865,27.009430424511596],[84.92569133321985,27.008680893181253],[84.9256523163774,27.00822294628003],[84.92560786157327,27.00810359887061],[84.92555221334027,27.007462910336287],[84.92555440064166,27.007424587140374],[84.92552620338128,27.00744503056122],[84.92448713484447,27.00742477882029],[84.92362569483487,27.00763809565624],[84.92271473653858,27.007716309957868],[84.92113109299913,27.007668052083368],[84.92074976541552,27.007654737434795],[84.92029666320555,27.007865363271105],[84.92007639561521,27.007968394937883],[84.91980310764436,27.00798371270087],[84.91962804364668,27.007993904385117],[84.91927491381219,27.007881060100015],[84.91892371967162,27.00738679148239],[84.91868400510434,27.0071896720864],[84.91839258619588,27.007151036254122],[84.91817538120661,27.007170480579376],[84.91734145240086,27.007426496499967],[84.91657817346548,27.00777453960819],[84.91573855405865,27.007874822556065],[84.91507087130402,27.007813745570623],[84.91479945900538,27.00783356480208],[84.91451804342756,27.0078556976699],[84.91439424860245,27.00781812401595],[84.91437524116431,27.007811434630263],[84.91385855195429,27.007880332650902],[84.91260771835941,27.00777330599352],[84.91237419540167,27.007795063036546],[84.9119484773898,27.008055203872928],[84.91176178400832,27.008101593314983],[84.91176178406938,27.008103844175356],[84.9117168312668,27.0082350703993],[84.91167306594087,27.0083504796096],[84.91169076150183,27.008752097826697],[84.91173190254614,27.00892564824111],[84.91190071561037,27.009154777065756],[84.91204889643731,27.009329953036087],[84.91226122471588,27.009484247878984],[84.91257921766184,27.00977333120728],[84.91287701544633,27.009985829760577],[84.91321739133302,27.010159692421762],[84.91383099508501,27.010853205783622],[84.91414948851208,27.01112422196864],[84.91433993400562,27.011373607283968],[84.91465774009512,27.011644559910174],[84.91479948014172,27.011797166813132],[84.91489101421882,27.011893632203623],[84.915145546204,27.012203472421398],[84.91544084437021,27.012646226360374],[84.91550349327848,27.012837657520354],[84.91554188464984,27.01329785449472],[84.91547317496452,27.0137564903475],[84.91547048769782,27.0140431992174],[84.9155731524048,27.014502959220632],[84.91567769283095,27.014734776211874],[84.91631442952068,27.015407784212975],[84.91652825826368,27.015428977434734],[84.91678616501679,27.015373146820558],[84.91712891568368,27.01537539612997],[84.91738582239275,27.01543466257718],[84.91755619788505,27.015550946600126],[84.91766242468829,27.015667605190476],[84.91776702679458,27.015897171942466],[84.91778659747453,27.016127176745915],[84.91771976167442,27.016357932895634],[84.91756739513605,27.016604943163852],[84.91747911422152,27.016833510758858],[84.91745329448739,27.017294146884456],[84.91747261524871,27.01750389562557],[84.91755670887815,27.017695264126154],[84.91776828891788,27.017985036034894],[84.91798074196569,27.018159711223987],[84.91813011029092,27.01823548267141],[84.91832261789668,27.018277118848673],[84.91909402650641,27.018301373114625],[84.91969374689651,27.018363013719153],[84.92054924874274,27.018580761423678],[84.92080496812582,27.01871680022408],[84.9214036884965,27.018893474648173],[84.92183153347275,27.018971870972596],[84.9220029711441,27.018973058146113],[84.92234665923212,27.0188623990164],[84.92269166036348,27.018672842221328],[84.9227565589073,27.018595631422553],[84.92292924660838,27.01852229726395],[84.92316714507366,27.01825440483347],[84.9235372152502,27.017665104695123],[84.92373191031625,27.01751255972922],[84.92388234069378,27.01749349057445],[84.92422384213916,27.017649222094203],[84.92426560775154,27.017746063553677],[84.92454208520044,27.017958687495955],[84.92464824985974,27.01807534552161],[84.92473140632588,27.01830503793366],[84.9248527048352,27.019110023897657],[84.92482701030453,27.019512017609966],[84.92454409597104,27.019969778126384],[84.92380770579705,27.020766890253615],[84.92335354092359,27.021167135007154],[84.92309219672285,27.021566128525382],[84.92296015087338,27.0219101053567],[84.9229154478502,27.022140610788885],[84.92294852763725,27.0231741638489],[84.92301017680704,27.02340404357024],[84.92301705673779,27.023934386790945],[84.92302243617169,27.024360949664786],[84.92299849105886,27.024591330389555],[84.92303694517526,27.02505159033019],[84.92316011797406,27.025626321589048],[84.92330567444012,27.026085830441318],[84.92349568274894,27.02643218196671],[84.92359847287544,27.026835549564716],[84.92381005250927,27.027123071402592],[84.92400006116607,27.027469422133453],[84.92413148568205,27.027667229966664],[84.92442246905746,27.028105419875306],[84.9251856912673,27.02897167080973],[84.92531317562853,27.029067886524494],[84.92546266916216,27.029166226900735],[84.92556933276944,27.029185857486667],[84.92599861555662,27.029131151697175],[84.92649473296679,27.028847942093424],[84.92677583521024,27.028620373277406],[84.92694871033169,27.028429629333925],[84.92720936618193,27.028087089840408],[84.92734047593919,27.02785820954849],[84.92758181114792,27.02724721641571],[84.92790667807839,27.026906489797895],[84.92827231196009,27.026773137219962],[84.92878781304393,27.026702051271194],[84.92913062690882,27.026704300981418],[84.92964418979054,27.0267843845908],[84.92979455772877,27.026765315660647],[84.92998731676798,27.026825020053934],[84.9300510897452,27.02684490056094],[84.93034982561994,27.027001007841314],[84.93086245141147,27.027196187958346],[84.931181820219,27.027408499194063],[84.93277841180772,27.028607719364576],[84.93296954534364,27.028780269728742],[84.9340131192949,27.02947753244219],[84.93428853484919,27.029784934094653],[84.93477965390711,27.030039006513956],[84.93505669388134,27.03023124963809],[84.93511902956304,27.030386606992128],[84.93511890546668,27.03044306132464],[84.93499348453435,27.03059510656031],[84.9348368658224,27.030785725744114],[84.93451268612645,27.031051993221002],[84.93367219269648,27.031522572141373],[84.93334938727511,27.031655612672896],[84.93218808795822,27.0319725854878],[84.93167121236392,27.032255858845993],[84.93156267333164,27.032389773319935],[84.93153935403548,27.032617903561366],[84.93162332331349,27.03279114109171],[84.93187841741751,27.03300389017486],[84.93217684072012,27.033198258630286],[84.93236791177914,27.033370808181676],[84.93294349980053,27.033701027909373],[84.93347763428599,27.033896145954746],[84.93433344873122,27.034055188756252],[84.93510198276152,27.034406726038267],[84.93542153832571,27.034637105540785],[84.93552839008078,27.03467699109192],[84.9356988290409,27.034793212698975],[84.93591140721377,27.034967888258073],[84.93625097099695,27.035333556823094],[84.93654720703493,27.035717542796398],[84.93682305946764,27.036006876782007],[84.93733018809185,27.036816050365513],[84.93751582204855,27.03754388804032],[84.93753558004558,27.037717563918537],[84.93768201115333,27.038120619043745],[84.93772421444419,27.03819707890709],[84.93832449743854,27.038163691468704],[84.93871082642191,27.038165628186455],[84.93883906129868,27.038205452134452],[84.93935337475409,27.038208700902928],[84.93967411757376,27.038287847878497],[84.94005982225057,27.038289721860906],[84.94031729152583,27.03833098240863],[84.94276118788778,27.03833034688271],[84.94340367455162,27.038371230983017],[84.94359686990548,27.03833603214044],[84.94404747288587,27.038339781230157],[84.94417570746968,27.038377291652974],[84.94456147399393,27.03838147955115],[84.94488315385107,27.03834546697819]]]}},{"type":"Feature","properties":{"province":"Madhesh Province","district":"Bara","municipality":"Pheta Rural Municipality","ward":"4","wardNumber":4,"sourceMunicipality":"Pheta","sourceType":"Gaunpalika"},"geometry":{"type":"Polygon","coordinates":[[[84.92029666320555,27.007865363271105],[84.92074976541552,27.007654737434795],[84.92113109299913,27.007668052083368],[84.92271473653858,27.007716309957868],[84.92362569483487,27.00763809565624],[84.92448713484447,27.00742477882029],[84.92552620338128,27.00744503056122],[84.92555440064166,27.007424587140374],[84.92575366058523,27.007287796170317],[84.92589764902421,27.006950508449226],[84.9259596073542,27.006516755822965],[84.9260054345748,27.006200413086603],[84.9260174391892,27.006114637130434],[84.92627728193457,27.00561180084432],[84.92624651835978,27.00516729564899],[84.92616379821078,27.00483838697845],[84.92574138878119,27.003875042554398],[84.9257399500108,27.003703492137582],[84.92586599522357,27.003630407756216],[84.92631009615621,27.003776511828782],[84.9264609643319,27.003818398275918],[84.9275161643783,27.00388366321178],[84.92817496916156,27.004091471049637],[84.92870103832385,27.004327225541214],[84.92975073600813,27.00441287150185],[84.92995068539223,27.00444537997946],[84.93011011881991,27.004527841263755],[84.93050739136757,27.004800607508574],[84.93055109610647,27.005057619795505],[84.93048144621648,27.00531994754826],[84.93047982136468,27.005349269074095],[84.9304755077058,27.005360584411576],[84.93045612545251,27.005460114200005],[84.93044580957937,27.005579711635125],[84.93045118748945,27.005622599363466],[84.93046750711606,27.00584816542899],[84.9304984556982,27.005931502150858],[84.93059511735116,27.00604147175921],[84.93071734984738,27.00619639195578],[84.93072122686611,27.006207644927077],[84.93076330538109,27.006340558478165],[84.93077487253602,27.00637206785843],[84.93077068298125,27.006396950707394],[84.93077562347636,27.00646009358262],[84.93082551658892,27.006550057301308],[84.93087972507071,27.00669641273819],[84.93099926964071,27.006837829085416],[84.93120509492113,27.006890656463252],[84.93229736817953,27.006334925568602],[84.9328154947925,27.006295349009235],[84.9331979479929,27.006299599391664],[84.93431198069206,27.00624026411771],[84.93452399648933,27.006274961013172],[84.93481385327324,27.00644232202358],[84.93496397179163,27.006463889651176],[84.93511665199851,27.006404183664667],[84.93523194308722,27.006256702935943],[84.9352749565384,27.005753054533137],[84.93512258589206,27.005225899995853],[84.9348419798276,27.004667987951404],[84.93457487891862,27.004141584066844],[84.93451816964894,27.00397947447227],[84.93410870499216,27.003603052843225],[84.93408000684155,27.00349033252594],[84.93414734059236,27.002950423121238],[84.93416984804814,27.00277193329369],[84.93439286575907,27.00239125814209],[84.9344088707138,27.00219932624192],[84.93440042847402,27.002011958362644],[84.93426412730506,27.001836845516557],[84.9338632277515,27.001277432795025],[84.93353529414205,27.001074249080393],[84.93348521308378,27.001042990295918],[84.9334073090798,27.00091932966666],[84.93340905903634,27.000903512403116],[84.93341543600637,27.000831241356973],[84.93361225748681,27.000638057966313],[84.93377863056143,27.00056928713257],[84.93380257693721,27.000566849193063],[84.93418534233486,27.000539464047808],[84.93464751329601,27.000893066515587],[84.93495156234376,27.000863931993806],[84.9355530938342,27.000618419735027],[84.93638621026004,27.00027656547408],[84.93743340510798,26.99991295421754],[84.93813065834449,26.999524587120057],[84.93918579121117,26.99875466851331],[84.93980757889496,26.998301220323523],[84.94041486076121,26.997696852589307],[84.94095843256483,26.997155940823095],[84.94186445059393,26.996800020119434],[84.94207171316688,26.99664741235245],[84.94221195158477,26.996544881572106],[84.94234343639367,26.9965214365729],[84.94394621009582,26.996235283270725],[84.94500159496143,26.995810653297443],[84.94598332723815,26.99524198178837],[84.94612262678221,26.99510337849137],[84.94672728337125,26.994489882952486],[84.94699331654353,26.994287197360375],[84.9469447351767,26.99405500432182],[84.94700931912085,26.99349252623019],[84.94693891690412,26.99335986253596],[84.94657490700746,26.993071154146634],[84.9464858729004,26.99281889252332],[84.94650719200187,26.99258176032648],[84.94641628279113,26.99241083537902],[84.94567963653132,26.992230723401033],[84.9451672588561,26.991751147625134],[84.94510067166115,26.99162292195784],[84.944982876697,26.9914002328652],[84.94501988933965,26.991079450088893],[84.94519088853853,26.990956413170075],[84.9454413541213,26.99077867311695],[84.94541584183509,26.99021907105837],[84.94533943809142,26.990048083862913],[84.94520726319152,26.98983227032175],[84.94497061179678,26.989483982023504],[84.94497429980075,26.9893214343828],[84.94495998143321,26.989188395268346],[84.94487188680166,26.989128003010496],[84.94470119916251,26.98912462754985],[84.94450143728609,26.988967957542215],[84.94449262115148,26.988889059001895],[84.94455870732256,26.988814099383966],[84.94496904404093,26.98854276808131],[84.94502749988597,26.987998357327243],[84.94514547955481,26.987796673044905],[84.94551098783727,26.987518839343643],[84.9457111837447,26.987122472046753],[84.94573969401358,26.987068143303166],[84.94598640821236,26.98682044435996],[84.94577539232954,26.986670651294954],[84.94528471192181,26.986520484812786],[84.94467542405046,26.986127308820326],[84.94384561574796,26.985498627871745],[84.94286819271919,26.985065004645243],[84.94255076286,26.984841440505708],[84.94249311629389,26.984801178783687],[84.94024504607846,26.985412118010178],[84.9397891301892,26.98565669121472],[84.93952934827068,26.985850311778606],[84.93956568005244,26.986886053691165],[84.93975575198854,26.98732043116118],[84.94011607946167,26.9889093334078],[84.94012720993845,26.98910789227827],[84.94006074804172,26.989221237921715],[84.93958245043464,26.989727763818433],[84.93902443423308,26.989894002372367],[84.93826834531197,26.990025482082714],[84.93803594959356,26.990252736971236],[84.93781649663572,26.990759762524796],[84.93721821631836,26.991079796687202],[84.93573123719602,26.991640529825354],[84.93556111220943,26.991639342618353],[84.93523949152889,26.99121709537743],[84.9349489472154,26.991045233406506],[84.93418254107218,26.991075245710267],[84.93295990564694,26.991157774981602],[84.93143428639486,26.991700628771966],[84.92959761351014,26.99180304147013],[84.9294566248753,26.99182429824625],[84.92799902876874,26.992052933784294],[84.92744270044996,26.99204299618567],[84.92724362705141,26.99203974538339],[84.92668885922863,26.991605558377938],[84.9264169456319,26.991322913301662],[84.92627426717381,26.991055273353165],[84.92608019238011,26.99035681866364],[84.9256410898925,26.989736700509578],[84.9253130931414,26.989456744531466],[84.9250244222374,26.988973353749415],[84.9247361279735,26.988769857613544],[84.9246630396003,26.98876804504312],[84.92430228314552,26.989020996116924],[84.92412690678879,26.989069511030284],[84.92349767560592,26.989071389482636],[84.92348129467922,26.989071514240155],[84.922708824634,26.9891330357041],[84.92197730751052,26.989334160197373],[84.92169301644854,26.989390177751623],[84.92142954503474,26.989443882357335],[84.91952703651923,26.989822000953144],[84.91804843341284,26.99002575518603],[84.91639176423828,26.99009753332],[84.91626096682323,26.99029477900209],[84.91614386444562,26.99076497971944],[84.91619813594617,26.99116641028448],[84.91663142230601,26.991691812871785],[84.91684556711084,26.992311119379593],[84.9167974256295,26.99266578593646],[84.91687845757173,26.99310541456514],[84.9168830895311,26.99406013322194],[84.9164624388519,26.99477622035529],[84.91640960935534,26.995097001736234],[84.91638860194054,26.99522810316755],[84.91649020553598,26.995943000239528],[84.91641605903257,26.997049513135007],[84.91646620433413,26.997484766419323],[84.91677488416882,26.998187033947325],[84.91717615920739,26.998805150932153],[84.9176794706806,26.999108863075133],[84.9180587966086,26.99911536402812],[84.91851377737133,26.999365184846887],[84.9188646583023,26.99975342335303],[84.9190848032176,27.000169544293055],[84.91907673934696,27.000496890910807],[84.91894957011331,27.00081598490655],[84.91840318576729,27.00156445665649],[84.91796434170882,27.00229186058048],[84.91754312852594,27.003025889807404],[84.91708921473443,27.00352772741142],[84.91706301688032,27.003557236296288],[84.91602120093465,27.004207306586316],[84.91572246849496,27.0045794789507],[84.91535521059853,27.0048955736572],[84.91508311450703,27.005522634398],[84.91502997209493,27.005963076442313],[84.91479957699994,27.006370884286174],[84.9145356689241,27.006611893882816],[84.91452829186328,27.006715736973923],[84.91446789860538,27.00757836559771],[84.91439424860245,27.00781812401595],[84.91451804342756,27.0078556976699],[84.91479945900538,27.00783356480208],[84.91507087130402,27.007813745570623],[84.91573855405865,27.007874822556065],[84.91657817346548,27.00777453960819],[84.91734145240086,27.007426496499967],[84.91817538120661,27.007170480579376],[84.91839258619588,27.007151036254122],[84.91868400510434,27.0071896720864],[84.91892371967162,27.00738679148239],[84.91927491381219,27.007881060100015],[84.91962804364668,27.007993904385117],[84.91980310764436,27.00798371270087],[84.92007639561521,27.007968394937883],[84.92029666320555,27.007865363271105]]]}},{"type":"Feature","properties":{"province":"Madhesh Province","district":"Bara","municipality":"Pheta Rural Municipality","ward":"3","wardNumber":3,"sourceMunicipality":"Pheta","sourceType":"Gaunpalika"},"geometry":{"type":"Polygon","coordinates":[[[84.93926185154314,27.01666024315483],[84.93986238346447,27.016514072470482],[84.9400337585654,27.01651513434209],[84.94072013537705,27.01638634365374],[84.94123488568071,27.016238486151778],[84.94138562809067,27.016183281613664],[84.94157782365075,27.01618428065752],[84.94183572988479,27.016130638959744],[84.94228701925593,27.015924451710365],[84.94299521545402,27.015700757773324],[84.94378994344754,27.01542229715598],[84.94374923881318,27.015154030960705],[84.94307317310947,27.01402088878626],[84.94292749211141,27.013559065967705],[84.94282120246606,27.01342433924911],[84.94282245213714,27.01334994274952],[84.94257091917225,27.012658678055544],[84.94257185635826,27.01254351919265],[84.94276473883352,27.012488064875992],[84.94310886457654,27.012339082057427],[84.94362498981161,27.012055683871967],[84.9443113031341,27.011929206019257],[84.94461216195133,27.011739837100937],[84.94480667018588,27.01157147371697],[84.94541145047081,27.010888020286906],[84.9454335211813,27.010811122687578],[84.94580252825418,27.010260146903374],[84.94614852793428,27.009824455072273],[84.94627882436413,27.009595637218087],[84.9465194723307,27.008986832153287],[84.9466489569091,27.008873048294756],[84.94690680037412,27.00874269588746],[84.9470137771269,27.00872387793602],[84.94754934870022,27.00872931437243],[84.94765563806176,27.00878726862757],[84.9478255132677,27.00898026187121],[84.94786802916431,27.00901833519876],[84.94794812466193,27.00963176503764],[84.94803090681152,27.010032945205197],[84.94836840849716,27.01060855025066],[84.94855966714978,27.01080135663188],[84.94906798208967,27.011456984268843],[84.94944956207995,27.01188104508069],[84.94957685958805,27.012033651357253],[84.94972591514203,27.012150059909438],[84.95009148545947,27.011944435582027],[84.9503505161421,27.011658288331752],[84.9512569063934,27.01080797195086],[84.95171063219624,27.010294756034238],[84.95175458602132,27.010199665536344],[84.95177659365024,27.01012501829388],[84.95278283729412,27.010134017458366],[84.95336154917409,27.010023982221778],[84.95355355764879,27.01008362376925],[84.95382978505253,27.010334571335406],[84.95397821567597,27.010525438941055],[84.95435767062281,27.011218016443152],[84.95458657155932,27.012060638062934],[84.95498378591593,27.01321128704423],[84.95572075198893,27.014669024970463],[84.9558884408307,27.015130597042095],[84.95599235628411,27.015493266005002],[84.95648140869443,27.015289078242382],[84.95652973933531,27.01526844741107],[84.95753698059866,27.01472209447024],[84.9580726761553,27.014515282003796],[84.95839216909023,27.01459436635419],[84.95873185667232,27.014826808145436],[84.95922103800595,27.01507850511134],[84.95941292037406,27.015117827523373],[84.95943861516307,27.01458273300213],[84.95946062215154,27.014429062397223],[84.95956953596173,27.014200369787677],[84.95965769143699,27.013897280200254],[84.95963993211198,27.013436957829168],[84.95974947026545,27.01305703373365],[84.95972977460933,27.012826903522775],[84.9597763518638,27.012368393412725],[84.95965267864801,27.011832049039178],[84.95959121673569,27.011563844886457],[84.95946604447718,27.011219369238358],[84.95921694818819,27.010376873221887],[84.95915942365944,27.009691047041557],[84.95901805449067,27.008850175156905],[84.95893420763433,27.008101330478752],[84.95832923155271,27.00733804620332],[84.95828902894998,27.00728190480672],[84.95796078127759,27.00683496265486],[84.9574836627298,27.00584961242578],[84.95706875612811,27.004990173757463],[84.95685911466447,27.004558173241847],[84.95658344511405,27.00348792260173],[84.95648140707812,27.003332877162272],[84.95566772694886,27.002101456484827],[84.95553873905152,27.001452266008155],[84.95543895020216,27.001195628318587],[84.9549438284538,27.000607645240066],[84.95470749125545,27.00052124649492],[84.95427008047925,27.00050161719368],[84.95322838520632,27.00023329314946],[84.9531125286362,27.00001516696448],[84.95323163104511,26.999348470445756],[84.95314384415431,26.99843038846494],[84.95301885943313,26.998253024360505],[84.95284260777409,26.99819769612224],[84.95163447610942,26.998061411757288],[84.95084393685815,26.998148065694288],[84.95024634460819,26.99854931084038],[84.94978999164341,26.998744307855638],[84.9490581604534,26.99876725510732],[84.9486730204871,26.998887229646254],[84.94825492844255,26.998691423476366],[84.94798001342133,26.998431473199215],[84.94791330077366,26.998368705188923],[84.94760749945297,26.99795996119297],[84.94752609268612,26.997639992666603],[84.94777399401791,26.99715978769174],[84.94754572035465,26.996755044945587],[84.94727286897049,26.9965966247933],[84.94694568395023,26.99611804820641],[84.94689516412656,26.995804643518927],[84.94711011314597,26.994846173729723],[84.94699331654353,26.994287197360375],[84.94672728337125,26.994489882952486],[84.94612262678221,26.99510337849137],[84.94598332723815,26.99524198178837],[84.94500159496143,26.995810653297443],[84.94394621009582,26.996235283270725],[84.94234343639367,26.9965214365729],[84.94221195158477,26.996544881572106],[84.94207171316688,26.99664741235245],[84.94186445059393,26.996800020119434],[84.94095843256483,26.997155940823095],[84.94041486076121,26.997696852589307],[84.93980757889496,26.998301220323523],[84.93918579121117,26.99875466851331],[84.93813065834449,26.999524587120057],[84.93743340510798,26.99991295421754],[84.93638621026004,27.00027656547408],[84.9355530938342,27.000618419735027],[84.93495156234376,27.000863931993806],[84.93464751329601,27.000893066515587],[84.93418534233486,27.000539464047808],[84.93380257693721,27.000566849193063],[84.93377863056143,27.00056928713257],[84.93361225748681,27.000638057966313],[84.93341543600637,27.000831241356973],[84.93340905903634,27.000903512403116],[84.9334073090798,27.00091932966666],[84.93348521308378,27.001042990295918],[84.93353529414205,27.001074249080393],[84.9338632277515,27.001277432795025],[84.93426412730506,27.001836845516557],[84.93440042847402,27.002011958362644],[84.9344088707138,27.00219932624192],[84.93439286575907,27.00239125814209],[84.93416984804814,27.00277193329369],[84.93414734059236,27.002950423121238],[84.93408000684155,27.00349033252594],[84.93410870499216,27.003603052843225],[84.93451816964894,27.00397947447227],[84.93457487891862,27.004141584066844],[84.9348419798276,27.004667987951404],[84.93512258589206,27.005225899995853],[84.9352749565384,27.005753054533137],[84.93523194308722,27.006256702935943],[84.93511665199851,27.006404183664667],[84.93496397179163,27.006463889651176],[84.93481385327324,27.00644232202358],[84.93452399648933,27.006274961013172],[84.93431198069206,27.00624026411771],[84.9331979479929,27.006299599391664],[84.9328154947925,27.006295349009235],[84.93229736817953,27.006334925568602],[84.93120509492113,27.006890656463252],[84.93099926964071,27.006837829085416],[84.93087972507071,27.00669641273819],[84.93082551658892,27.006550057301308],[84.93077562347636,27.00646009358262],[84.93077068298125,27.006396950707394],[84.93077487253602,27.00637206785843],[84.93076330538109,27.006340558478165],[84.93072122686611,27.006207644927077],[84.93071734984738,27.00619639195578],[84.93059511735116,27.00604147175921],[84.9304984556982,27.005931502150858],[84.93046750711606,27.00584816542899],[84.93045118748945,27.005622599363466],[84.93044580957937,27.005579711635125],[84.93045612545251,27.005460114200005],[84.9304755077058,27.005360584411576],[84.93047982136468,27.005349269074095],[84.93048144621648,27.00531994754826],[84.93055109610647,27.005057619795505],[84.93050739136757,27.004800607508574],[84.93011011881991,27.004527841263755],[84.92995068539223,27.00444537997946],[84.92975073600813,27.00441287150185],[84.92870103832385,27.004327225541214],[84.92817496916156,27.004091471049637],[84.9275161643783,27.00388366321178],[84.9264609643319,27.003818398275918],[84.92631009615621,27.003776511828782],[84.92586599522357,27.003630407756216],[84.9257399500108,27.003703492137582],[84.92574138878119,27.003875042554398],[84.92616379821078,27.00483838697845],[84.92624651835978,27.00516729564899],[84.92627728193457,27.00561180084432],[84.9260174391892,27.006114637130434],[84.9260054345748,27.006200413086603],[84.9259596073542,27.006516755822965],[84.92589764902421,27.006950508449226],[84.92575366058523,27.007287796170317],[84.92555440064166,27.007424587140374],[84.92555221334027,27.007462910336287],[84.92560786157327,27.00810359887061],[84.9256523163774,27.00822294628003],[84.92569133321985,27.008680893181253],[84.92600620261865,27.009430424511596],[84.92619633563761,27.009718133134484],[84.92623728927354,27.009948076063836],[84.92653058933121,27.01075424882667],[84.9265709177165,27.01098194036066],[84.92654378666253,27.011670517708847],[84.92658555245309,27.011844069077533],[84.926579991085,27.012473878979446],[84.92653447588833,27.012760900707914],[84.92652972698414,27.013334194576686],[84.92665283773692,27.013965379538046],[84.92673180927143,27.014768427712607],[84.92679433292534,27.014941790532088],[84.9269206931564,27.01520955690969],[84.92702716984199,27.015287829258263],[84.92717722497704,27.01528914139015],[84.92760638181576,27.01515766328425],[84.92803472568028,27.0151435324366],[84.9283762265608,27.015222554342195],[84.92888966518137,27.01528456992459],[84.92940129218618,27.015518137065076],[84.92972028492404,27.01577114741544],[84.93023291201341,27.015966389791195],[84.9306371235328,27.016236843231287],[84.93082788245553,27.016450029720687],[84.93103802441748,27.016947425108157],[84.93129230708044,27.017295650858728],[84.93156278627654,27.01815609040578],[84.93185802250392,27.018734196219555],[84.931985007192,27.0189251898226],[84.93252107891419,27.01883591146795],[84.9334648607975,27.018594898875474],[84.93363686072861,27.018519251261672],[84.93458108136277,27.01826017100209],[84.93483905009249,27.018129818586054],[84.93509620659991,27.018073926088952],[84.9355044177115,27.017906437807596],[84.93627676248158,27.017741011166596],[84.93670666887313,27.017535011122003],[84.93739285785637,27.017388214697938],[84.93754391196784,27.017294687225352],[84.93814531863711,27.017033357216327],[84.93848856904982,27.016940766275763],[84.93926185154314,27.01666024315483]]]}},{"type":"Feature","properties":{"province":"Madhesh Province","district":"Bara","municipality":"Pheta Rural Municipality","ward":"2","wardNumber":2,"sourceMunicipality":"Pheta","sourceType":"Gaunpalika"},"geometry":{"type":"Polygon","coordinates":[[[84.95799883714976,27.02613338425354],[84.95808486799142,27.02609668567471],[84.95823311087865,27.02619277558795],[84.9584660098581,27.02646204098588],[84.95859149493953,27.02676813008605],[84.95871835578608,27.02694105544623],[84.95888548184443,27.027402628223978],[84.95905367023556,27.027690399648133],[84.95915927146538,27.027804808015418],[84.9594991480772,27.02805531713358],[84.95983902329965,27.02822905410017],[84.96041448578247,27.028405665877628],[84.96079893877915,27.028333081015454],[84.96105528198493,27.028315511859677],[84.96139665761484,27.028374089999048],[84.9615677201099,27.028336828021406],[84.9620796583824,27.028360395669605],[84.96233625269365,27.02830450318955],[84.96242147096451,27.028324195785668],[84.96344809691931,27.028120819539105],[84.96361947113293,27.028045171384807],[84.96404719002682,27.027954204686182],[84.96481872205534,27.027614851999697],[84.96522799379234,27.027140273249433],[84.96537917342104,27.026911268034038],[84.96553022797633,27.026740904395464],[84.96555329810074,27.02656922915751],[84.96555573434225,27.026264514596487],[84.96543506021972,27.02534443208267],[84.9652085341246,27.02427380571983],[84.96523129149743,27.02414045370811],[84.96525336155,27.02406361926684],[84.96514907150777,27.02373702300031],[84.96473097444164,27.022665460699773],[84.9646501297135,27.02205209284743],[84.96448237792568,27.021669543394317],[84.96448312865903,27.021613089464655],[84.96446230798422,27.021536504431616],[84.96427317372002,27.021151829864507],[84.96410729760787,27.0206157360792],[84.96374978799355,27.01992528421966],[84.9635847858799,27.019197320740158],[84.96356471451097,27.0190642824877],[84.96335188642648,27.018928055367482],[84.96322471436334,27.018870226764403],[84.96311867487911,27.018773948303988],[84.96288696216213,27.018353451600955],[84.96250625777837,27.01796777663409],[84.96216656965203,27.01773539766028],[84.96199613266154,27.01769594944027],[84.96193198409897,27.017714392654373],[84.96178236584565,27.01767481878885],[84.961697459331,27.0176189908847],[84.96157041268037,27.017502456586463],[84.96138021645443,27.017291583403274],[84.96123159851446,27.01715491896691],[84.96114775480167,27.017001999413104],[84.9610847312906,27.016848892241075],[84.96104496422313,27.016542239337884],[84.96087665145497,27.016236400562153],[84.96041004050952,27.015831095496523],[84.96017645348789,27.015697245221368],[84.96004834391663,27.015675489444867],[84.95985758570227,27.015541387506037],[84.95953953079491,27.015270496797342],[84.95941292037406,27.015117827523373],[84.95922103800595,27.01507850511134],[84.95873185667232,27.014826808145436],[84.95839216909023,27.01459436635419],[84.9580726761553,27.014515282003796],[84.95753698059866,27.01472209447024],[84.95652973933531,27.01526844741107],[84.95648140869443,27.015289078242382],[84.95599235628411,27.015493266005002],[84.9558884408307,27.015130597042095],[84.95572075198893,27.014669024970463],[84.95498378591593,27.01321128704423],[84.95458657155932,27.012060638062934],[84.95435767062281,27.011218016443152],[84.95397821567597,27.010525438941055],[84.95382978505253,27.010334571335406],[84.95355355764879,27.01008362376925],[84.95336154917409,27.010023982221778],[84.95278283729412,27.010134017458366],[84.95177659365024,27.01012501829388],[84.95175458602132,27.010199665536344],[84.95171063219624,27.010294756034238],[84.9512569063934,27.01080797195086],[84.9503505161421,27.011658288331752],[84.95009148545947,27.011944435582027],[84.94972591514203,27.012150059909438],[84.94957685958805,27.012033651357253],[84.94944956207995,27.01188104508069],[84.94906798208967,27.011456984268843],[84.94855966714978,27.01080135663188],[84.94836840849716,27.01060855025066],[84.94803090681152,27.010032945205197],[84.94794812466193,27.00963176503764],[84.94786802916431,27.00901833519876],[84.9478255132677,27.00898026187121],[84.94765563806176,27.00878726862757],[84.94754934870022,27.00872931437243],[84.9470137771269,27.00872387793602],[84.94690680037412,27.00874269588746],[84.9466489569091,27.008873048294756],[84.9465194723307,27.008986832153287],[84.94627882436413,27.009595637218087],[84.94614852793428,27.009824455072273],[84.94580252825418,27.010260146903374],[84.9454335211813,27.010811122687578],[84.94541145047081,27.010888020286906],[84.94480667018588,27.01157147371697],[84.94461216195133,27.011739837100937],[84.9443113031341,27.011929206019257],[84.94362498981161,27.012055683871967],[84.94310886457654,27.012339082057427],[84.94276473883352,27.012488064875992],[84.94257185635826,27.01254351919265],[84.94257091917225,27.012658678055544],[84.94282245213714,27.01334994274952],[84.94282120246606,27.01342433924911],[84.94292749211141,27.013559065967705],[84.94307317310947,27.01402088878626],[84.94374923881318,27.015154030960705],[84.94378994344754,27.01542229715598],[84.94299521545402,27.015700757773324],[84.94228701925593,27.015924451710365],[84.94183572988479,27.016130638959744],[84.94157782365075,27.01618428065752],[84.94138562809067,27.016183281613664],[84.94123488568071,27.016238486151778],[84.94129722240231,27.016468303183395],[84.94158902192679,27.0174459637051],[84.94164579695193,27.018364233710116],[84.94191640141088,27.019226923356985],[84.9421714963469,27.01951638267882],[84.9424692313658,27.019708500034533],[84.94289620141929,27.01990424386904],[84.9431714294665,27.020270349487017],[84.94363891582567,27.020637330997644],[84.94383186175145,27.020658648900657],[84.94417504964827,27.020545738984104],[84.94477583135038,27.020437829682248],[84.94503336340539,27.0203435510413],[84.94529151943175,27.020174812912348],[84.94554905044046,27.020080534254316],[84.94563477000682,27.020082221668826],[84.94580558305749,27.02016005627878],[84.94595351294119,27.020371242726366],[84.94597452171398,27.020468145773876],[84.94612320142842,27.020620628068084],[84.9462079825687,27.02066070135805],[84.94661425762776,27.02072115499713],[84.9476480700989,27.020023508389837],[84.94816319518831,27.01983720151862],[84.94824966458201,27.019780184297403],[84.94859291439327,27.01968759313354],[84.9491915102083,27.019769239165317],[84.94927691631814,27.019809375900838],[84.94946823795281,27.020002181853314],[84.94974146566891,27.020578162315104],[84.95012267053527,27.02109700000457],[84.95063242311771,27.0216172762615],[84.95078066636194,27.021792264832442],[84.95092940867868,27.02194474595374],[84.95112097988388,27.022099228408678],[84.95129116838736,27.02217931308387],[84.95180548111895,27.02212617088345],[84.95197673157205,27.022183686746246],[84.95214567038725,27.022415004121562],[84.95218699841399,27.022606622413072],[84.95235481258118,27.02300949044775],[84.95262972784003,27.023470375027728],[84.9530090590887,27.024219405765],[84.95302694267667,27.0246210860232],[84.9529597952133,27.02502101646005],[84.95289377153397,27.025193067199783],[84.95274334223588,27.025286595027207],[84.9526556858374,27.02549709548526],[84.95237421012354,27.025896276075443],[84.95215719485003,27.026236314966415],[84.95215463274293,27.026523024138438],[84.95261424645793,27.027903552870715],[84.95263388033192,27.02813362014929],[84.9527587409616,27.028593254450925],[84.95279925711932,27.028841264380254],[84.95316170404483,27.029075769851648],[84.95367283081015,27.029386046212107],[84.95407716763827,27.029733208478117],[84.9541828951528,27.02986787277803],[84.95437434056758,27.030002036723243],[84.95486964561401,27.02970069563205],[84.95534375539955,27.02928444696765],[84.95583856067634,27.029003423977546],[84.95648185568135,27.028475391422454],[84.95652812283507,27.028436692030358],[84.95678734111911,27.028094090307434],[84.95689694224289,27.02778862560856],[84.95679283869121,27.02740563784011],[84.95679408879329,27.027252155237367],[84.95685961227242,27.027100485642507],[84.95731146327232,27.026663980186374],[84.95780507911593,27.02632431584522],[84.95799883714976,27.02613338425354]]]}},{"type":"Feature","properties":{"province":"Madhesh Province","district":"Bara","municipality":"Pheta Rural Municipality","ward":"7","wardNumber":7,"sourceMunicipality":"Pheta","sourceType":"Gaunpalika"},"geometry":{"type":"Polygon","coordinates":[[[84.96189114820287,27.004808224488123],[84.96220351281202,27.004720322243568],[84.96240408707787,27.004816037601177],[84.96290458570599,27.00536557175462],[84.96320163268896,27.005478665974014],[84.96337288210384,27.005391764300292],[84.9638018499107,27.00493962993816],[84.96447678450583,27.0048921128759],[84.9651921658911,27.003896316903496],[84.96581770511324,27.003305140561093],[84.96600352318704,27.00322711735245],[84.96638172406465,27.003177100830605],[84.96676354916993,27.002815617953164],[84.96727017107993,27.002536720741116],[84.9676016048529,27.002543471724362],[84.96793866668989,27.002690137985894],[84.96799249924028,27.002653627394377],[84.96806958907834,27.002605737605943],[84.96849836957605,27.002207743536236],[84.96861709864874,27.001877396136305],[84.96857351793253,27.001498472635323],[84.96855519792705,27.00134061384773],[84.96857320354866,27.001168938300633],[84.96859183418059,27.000986009652532],[84.96877089937631,27.00093511896047],[84.96902005355622,27.00089279247194],[84.96991344275891,27.000681226268483],[84.97088648480329,27.000360753375205],[84.97106723848843,27.000282729707344],[84.971096749145,27.00026897564603],[84.9712708120392,27.000218147071433],[84.97254702841632,26.99984590740757],[84.97293585755537,26.999777759881596],[84.97376597429434,26.999760751173614],[84.97430817234545,26.999589948908422],[84.97447198189495,26.999448844234735],[84.97457182870967,26.999116371249812],[84.97499266910381,26.998754575385373],[84.97555218514536,26.998482055389157],[84.97630946100536,26.99819240398095],[84.97714145004127,26.99751176333026],[84.97676280348203,26.9961262328187],[84.97661355930552,26.995840586962313],[84.97648870133413,26.995753436806652],[84.97591205077417,26.995579138114806],[84.97564845317227,26.995330441042043],[84.9754960196722,26.9949680852148],[84.97536884721202,26.9947567737503],[84.9750652980357,26.994621172786392],[84.97409268920521,26.994185611913252],[84.97378263643371,26.9940251909947],[84.97259069535801,26.993290792454484],[84.9724555212142,26.993242091630076],[84.97229777578984,26.99328829341637],[84.9719679054284,26.993385448343805],[84.97184542297765,26.993356877942695],[84.9715673822414,26.993180514556244],[84.97129515610862,26.992873176032422],[84.97118004624497,26.991944028268595],[84.9708888734081,26.991266643118724],[84.97077726941781,26.991107096476934],[84.97071012003866,26.991211440191588],[84.96922339593756,26.99274302194174],[84.96898299632798,26.99299072072651],[84.96829843594283,26.993600340034213],[84.96745606983103,26.99445934644186],[84.96710069084777,26.994746182538453],[84.96680483475377,26.995140987494658],[84.96619648966387,26.995677835346083],[84.96567673913196,26.996189300153844],[84.9655103672907,26.996474822117573],[84.96525052320149,26.996729398096466],[84.96501037340441,26.99686656430106],[84.9648276188621,26.99677972706802],[84.96466562016607,26.996473825708776],[84.96461716260767,26.996110781868992],[84.96441358556106,26.995658462406116],[84.96410390882079,26.995396511840987],[84.96374446384645,26.995279353992018],[84.96299143434946,26.994733758871924],[84.96279404874772,26.99464029455271],[84.96219357764984,26.99447287377335],[84.96138259237274,26.994370097156132],[84.96122847323704,26.994319207324676],[84.96110398991306,26.994277195746065],[84.96024792656326,26.9943507833294],[84.95972254670257,26.994426557909932],[84.95892281707728,26.994610365805062],[84.9569487815876,26.99478630091242],[84.9565480729735,26.99477998856118],[84.95648123546205,26.99476911054615],[84.95611097449229,26.99471528405398],[84.95550675234148,26.994624572219323],[84.95467025641994,26.99433680359097],[84.95365831781405,26.993348267584718],[84.95313443587878,26.992843996972304],[84.95275210720101,26.99262312062445],[84.9523278890933,26.992668885699135],[84.95209899367583,26.99286682071821],[84.95194931423197,26.992897142344184],[84.951722542927,26.99274522354951],[84.95143362168484,26.992246078290737],[84.95125549342315,26.992265334737066],[84.95116289975329,26.99263838176229],[84.95102766348057,26.992813121395752],[84.95009857485913,26.993270760053154],[84.94942839345327,26.993507832393128],[84.94797673768,26.99384718858161],[84.94719614075063,26.994134588647103],[84.94699331654353,26.994287197360375],[84.94711011314597,26.994846173729723],[84.94689516412656,26.995804643518927],[84.94694568395023,26.99611804820641],[84.94727286897049,26.9965966247933],[84.94754572035465,26.996755044945587],[84.94777399401791,26.99715978769174],[84.94752609268612,26.997639992666603],[84.94760749945297,26.99795996119297],[84.94791330077366,26.998368705188923],[84.94798001342133,26.998431473199215],[84.94825492844255,26.998691423476366],[84.9486730204871,26.998887229646254],[84.9490581604534,26.99876725510732],[84.94978999164341,26.998744307855638],[84.95024634460819,26.99854931084038],[84.95084393685815,26.998148065694288],[84.95163447610942,26.998061411757288],[84.95284260777409,26.99819769612224],[84.95301885943313,26.998253024360505],[84.95314384415431,26.99843038846494],[84.95323163104511,26.999348470445756],[84.9531125286362,27.00001516696448],[84.95322838520632,27.00023329314946],[84.95427008047925,27.00050161719368],[84.95470749125545,27.00052124649492],[84.9549438284538,27.000607645240066],[84.95543895020216,27.001195628318587],[84.95553873905152,27.001452266008155],[84.95566772694886,27.002101456484827],[84.95648140707812,27.003332877162272],[84.95658344511405,27.00348792260173],[84.95685911466447,27.004558173241847],[84.95706875612811,27.004990173757463],[84.9574836627298,27.00584961242578],[84.95822818650353,27.005979897457745],[84.95865890926233,27.006322308753575],[84.9592583186156,27.006722236450575],[84.95965377611776,27.006776000003132],[84.96001415853893,27.00670579037103],[84.96051446414798,27.006266784594455],[84.96054635089644,27.006239463551378],[84.96069540363096,27.005915680383307],[84.96100526424198,27.005453105210336],[84.96189114820287,27.004808224488123]]]}},{"type":"Feature","properties":{"province":"Madhesh Province","district":"Bara","municipality":"Pheta Rural Municipality","ward":"6","wardNumber":6,"sourceMunicipality":"Pheta","sourceType":"Gaunpalika"},"geometry":{"type":"Polygon","coordinates":[[[84.96332666389496,27.014287504091318],[84.96341263252776,27.01424855470335],[84.96375482108701,27.0142529921871],[84.96435647712443,27.013876441089366],[84.9655559157038,27.013640241885224],[84.96611243227343,27.013586723918966],[84.96677654999839,27.013442240354287],[84.96699268966685,27.013156343046678],[84.96720908039349,27.012893015270958],[84.96748936887654,27.012665384341254],[84.96785418994617,27.012516151323307],[84.96817643168974,27.01232884448698],[84.96841251776122,27.012236942175484],[84.96830704109998,27.012063829062242],[84.96828871992,27.011759239881837],[84.96829115686846,27.011529047136065],[84.96808182723133,27.011069974943265],[84.96795690507975,27.010687113135592],[84.96785167820849,27.01053438182952],[84.96778984179724,27.010304563980235],[84.96762209017837,27.009922014809632],[84.96745446479281,27.00961617543255],[84.96728496347468,27.009402926573312],[84.96713659628269,27.009288830803325],[84.96698904081444,27.00905732629834],[84.96682197732434,27.008674776701316],[84.96673994520299,27.008293915361207],[84.96673894405079,27.00810204651359],[84.96676138816134,27.007781389866295],[84.96654443050043,27.00716889853414],[84.96630427575768,27.006491137506686],[84.96599490906152,27.00589965268851],[84.9660018478196,27.00560394040352],[84.96608193843619,27.005465712103256],[84.96643069049048,27.005219513019224],[84.96709186932426,27.005102100607257],[84.9674368066524,27.00477694096659],[84.96734395685444,27.00408917674862],[84.9675006367547,27.00376983229625],[84.96753096080973,27.003708689236948],[84.9673362002082,27.00347299631873],[84.96731318968497,27.003141273463125],[84.96742185411269,27.00295553134832],[84.96775828929124,27.002813300167055],[84.96793866668989,27.002690137985894],[84.9676016048529,27.002543471724362],[84.96727017107993,27.002536720741116],[84.96676354916993,27.002815617953164],[84.96638172406465,27.003177100830605],[84.96600352318704,27.00322711735245],[84.96581770511324,27.003305140561093],[84.9651921658911,27.003896316903496],[84.96447678450583,27.0048921128759],[84.9638018499107,27.00493962993816],[84.96337288210384,27.005391764300292],[84.96320163268896,27.005478665974014],[84.96290458570599,27.00536557175462],[84.96240408707787,27.004816037601177],[84.96220351281202,27.004720322243568],[84.96189114820287,27.004808224488123],[84.96100526424198,27.005453105210336],[84.96069540363096,27.005915680383307],[84.96054635089644,27.006239463551378],[84.96051446414798,27.006266784594455],[84.96001415853893,27.00670579037103],[84.95965377611776,27.006776000003132],[84.9592583186156,27.006722236450575],[84.95865890926233,27.006322308753575],[84.95822818650353,27.005979897457745],[84.9574836627298,27.00584961242578],[84.95796078127759,27.00683496265486],[84.95828902894998,27.00728190480672],[84.95832923155271,27.00733804620332],[84.95893420763433,27.008101330478752],[84.95901805449067,27.008850175156905],[84.95915942365944,27.009691047041557],[84.95921694818819,27.010376873221887],[84.95946604447718,27.011219369238358],[84.95959121673569,27.011563844886457],[84.96042202277302,27.01176133692263],[84.96097697678013,27.01189975026626],[84.96114685261087,27.012015971612822],[84.96135799330318,27.01224697597177],[84.96167273752208,27.01287909789454],[84.96179940934746,27.01303395510028],[84.96182023001957,27.013110602077298],[84.96196716102959,27.01341656641722],[84.96221931821908,27.0138752625907],[84.96238825666582,27.01410658041249],[84.96262190496658,27.01424274429156],[84.96289944516134,27.014283692535134],[84.962984975638,27.01426506174531],[84.96307038308994,27.01430282281035],[84.96332666389496,27.014287504091318]]]}},{"type":"Feature","properties":{"province":"Madhesh Province","district":"Bara","municipality":"Pheta Rural Municipality","ward":"5","wardNumber":5,"sourceMunicipality":"Pheta","sourceType":"Gaunpalika"},"geometry":{"type":"Polygon","coordinates":[[[84.96745606983103,26.99445934644186],[84.96829843594283,26.993600340034213],[84.96898299632798,26.99299072072651],[84.96922339593756,26.99274302194174],[84.97071012003866,26.991211440191588],[84.97077726941781,26.991107096476934],[84.97071793413105,26.991024010072415],[84.9705754432225,26.990715794895614],[84.97047171471318,26.990224401371123],[84.97015603426625,26.98984741615608],[84.969674980972,26.989579839742188],[84.96955750063081,26.989467807948447],[84.96936824240149,26.989288568642355],[84.96931609456574,26.98865013069486],[84.96926832556365,26.988363797360968],[84.9691364646632,26.98834210394646],[84.96891550901088,26.98842719240821],[84.96860358322455,26.988490274195726],[84.9684735342776,26.98838730702396],[84.96772231686388,26.987460288016702],[84.96759095583258,26.987418339296806],[84.96752430617695,26.987436844424117],[84.96732310869567,26.987551066259694],[84.96717011446039,26.987488924393933],[84.96645441146032,26.986956645393015],[84.96623851833442,26.98675496248195],[84.96620225412494,26.986416675503477],[84.96620594211625,26.98625862953054],[84.96652011802428,26.986026247452365],[84.96652243076976,26.985926905385597],[84.96643652384155,26.98582593869919],[84.96634924164493,26.985783614476286],[84.96619537261304,26.98575985745438],[84.96584255553802,26.985753231897966],[84.9654442851217,26.98580562465973],[84.96534412047968,26.985366183691806],[84.96479135600407,26.98539481893615],[84.96436576093546,26.985199076062],[84.96413973735142,26.98447836474733],[84.96410809704302,26.983941394612554],[84.96404701158276,26.98372283106561],[84.96330329985781,26.98344806594856],[84.96240978269732,26.9829756181491],[84.96226060167047,26.982753178392528],[84.96194304372116,26.982150440425542],[84.96160273003136,26.981836787628446],[84.96042311293527,26.982370761526344],[84.95921210901494,26.982699551753996],[84.95798415982806,26.98295844504295],[84.9578392944767,26.9829571954679],[84.95648117156728,26.982950636917273],[84.95641189582189,26.98295113790138],[84.95591865281013,26.983015408336374],[84.95497212045237,26.983261109781438],[84.95352396785955,26.983853290322113],[84.95303472727952,26.984168072487424],[84.95271705188928,26.98474580603726],[84.95248978404456,26.985433508985626],[84.95232272492875,26.985716843072126],[84.95224544724027,26.985805369078317],[84.95182473155555,26.986045191893545],[84.95166398592673,26.986253941624057],[84.95155013646382,26.98717114849272],[84.95131286491383,26.987637786611383],[84.95106990210816,26.987813152199386],[84.9508064304578,26.987866856347352],[84.95049275209294,26.98779002224999],[84.95012780383536,26.98739065710838],[84.9496465018835,26.98716371771037],[84.9491191830179,26.98715371629702],[84.94803184732605,26.98728744832333],[84.94741443346287,26.987275822416812],[84.94673799785134,26.98713590884067],[84.94608081741899,26.98688752617393],[84.94598640821236,26.98682044435996],[84.94573969401358,26.987068143303166],[84.9457111837447,26.987122472046753],[84.94551098783727,26.987518839343643],[84.94514547955481,26.987796673044905],[84.94502749988597,26.987998357327243],[84.94496904404093,26.98854276808131],[84.94455870732256,26.988814099383966],[84.94449262115148,26.988889059001895],[84.94450143728609,26.988967957542215],[84.94470119916251,26.98912462754985],[84.94487188680166,26.989128003010496],[84.94495998143321,26.989188395268346],[84.94497429980075,26.9893214343828],[84.94497061179678,26.989483982023504],[84.94520726319152,26.98983227032175],[84.94533943809142,26.990048083862913],[84.94541584183509,26.99021907105837],[84.9454413541213,26.99077867311695],[84.94519088853853,26.990956413170075],[84.94501988933965,26.991079450088893],[84.944982876697,26.9914002328652],[84.94510067166115,26.99162292195784],[84.9451672588561,26.991751147625134],[84.94567963653132,26.992230723401033],[84.94641628279113,26.99241083537902],[84.94650719200187,26.99258176032648],[84.9464858729004,26.99281889252332],[84.94657490700746,26.993071154146634],[84.94693891690412,26.99335986253596],[84.94700931912085,26.99349252623019],[84.9469447351767,26.99405500432182],[84.94699331654353,26.994287197360375],[84.94719614075063,26.994134588647103],[84.94797673768,26.99384718858161],[84.94942839345327,26.993507832393128],[84.95009857485913,26.993270760053154],[84.95102766348057,26.992813121395752],[84.95116289975329,26.99263838176229],[84.95125549342315,26.992265334737066],[84.95143362168484,26.992246078290737],[84.951722542927,26.99274522354951],[84.95194931423197,26.992897142344184],[84.95209899367583,26.99286682071821],[84.9523278890933,26.992668885699135],[84.95275210720101,26.99262312062445],[84.95313443587878,26.992843996972304],[84.95365831781405,26.993348267584718],[84.95467025641994,26.99433680359097],[84.95550675234148,26.994624572219323],[84.95611097449229,26.99471528405398],[84.95648123546205,26.99476911054615],[84.9565480729735,26.99477998856118],[84.9569487815876,26.99478630091242],[84.95892281707728,26.994610365805062],[84.95972254670257,26.994426557909932],[84.96024792656326,26.9943507833294],[84.96110398991306,26.994277195746065],[84.96122847323704,26.994319207324676],[84.96138259237274,26.994370097156132],[84.96219357764984,26.99447287377335],[84.96279404874772,26.99464029455271],[84.96299143434946,26.994733758871924],[84.96374446384645,26.995279353992018],[84.96410390882079,26.995396511840987],[84.96441358556106,26.995658462406116],[84.96461716260767,26.996110781868992],[84.96466562016607,26.996473825708776],[84.9648276188621,26.99677972706802],[84.96501037340441,26.99686656430106],[84.96525052320149,26.996729398096466],[84.9655103672907,26.996474822117573],[84.96567673913196,26.996189300153844],[84.96619648966387,26.995677835346083],[84.96680483475377,26.995140987494658],[84.96710069084777,26.994746182538453],[84.96745606983103,26.99445934644186]]]}}]}