{"type":"FeatureCollection","features":[{"type":"Feature","properties":{"province":"Sudurpashchim Province","district":"Acham","municipality":"Ramaroshan Rural Municipality","ward":"4","wardNumber":4,"sourceMunicipality":"Ramaroshan","sourceType":"Gaunpalika"},"geometry":{"type":"Polygon","coordinates":[[[81.48863659130703,29.19529731375207],[81.48937483396813,29.193703605141774],[81.48928594255611,29.1925892769934],[81.48860795353227,29.191440869123305],[81.48881130310465,29.189991321870124],[81.48853527226446,29.189268044230268],[81.48743637364342,29.18815501662475],[81.48671512106435,29.18681949133087],[81.48607977015314,29.185853762168563],[81.48540134643204,29.184581255680452],[81.4859282789605,29.18167734855921],[81.48531393126954,29.181038715964657],[81.48495585793674,29.18104002432284],[81.48444766399582,29.181116290930245],[81.48409409520089,29.180977683009754],[81.48350987941316,29.180607442304442],[81.48297255197102,29.180489838527134],[81.48157359547568,29.179793055179182],[81.48120558142371,29.179756039912977],[81.48090509203857,29.179815803738162],[81.4798799589458,29.179456185796035],[81.47947367748083,29.179595283556544],[81.47841389668095,29.179808958991345],[81.47748423024957,29.179927356738993],[81.47710983860088,29.17988352665705],[81.4767146929155,29.17965251676404],[81.47654982323873,29.179307851450485],[81.4765487041829,29.17892648954912],[81.47642278525962,29.178669725304673],[81.47624334450886,29.178512364194628],[81.47591891049885,29.17841645745336],[81.47565468597004,29.178417454441398],[81.4746429216408,29.178725657352125],[81.4737770308662,29.178726522056262],[81.4733079168724,29.17864467922361],[81.47284624100402,29.178747766992956],[81.47158619187039,29.17930741519237],[81.47062469708409,29.17963356182854],[81.4703842257299,29.17991645394196],[81.47025405008264,29.179984597465477],[81.46980950568222,29.180051611554806],[81.4691597604335,29.179965891645686],[81.4684788224662,29.179503435273055],[81.46572947801579,29.178851834942723],[81.46415532299653,29.17860911960201],[81.46402552261513,29.178627623723518],[81.46389547481976,29.17858066999714],[81.46343111648041,29.17823925225644],[81.46319015138387,29.178131779675372],[81.46255910154169,29.178041496163395],[81.46217282965966,29.178063184690743],[81.46193880555913,29.177926266732776],[81.46144393742051,29.177517265928323],[81.46093282169072,29.176512589565213],[81.46078989576215,29.176323533054013],[81.45959295054342,29.175749912218865],[81.45922400337393,29.175480453508676],[81.45915035107086,29.175392677301158],[81.45890219917322,29.175100213343548],[81.45884112341038,29.174522730836543],[81.45867237738456,29.174168999383312],[81.45837039441379,29.173761626404637],[81.4575669161405,29.17292262077562],[81.45684847560035,29.17166368008471],[81.4563266636411,29.170974908793045],[81.45584705695983,29.170238624993864],[81.45516487020339,29.16962493625195],[81.4551326089335,29.169595677153445],[81.454933788057,29.169266890568316],[81.4547777358144,29.1688567683779],[81.4547763049323,29.168398634263294],[81.45472172437114,29.16825440381004],[81.45429832466982,29.167583389052748],[81.45352435814964,29.16669011832245],[81.45316054688489,29.165820358585044],[81.45291477130567,29.165482693414184],[81.45198394416067,29.163874585724386],[81.45159148867579,29.163483278979918],[81.45148551588791,29.163203819909683],[81.45079495903387,29.162134185948275],[81.44989781972677,29.161284300511088],[81.44893177773362,29.16055413706951],[81.44817163278928,29.159428422468437],[81.44792873737632,29.15884924890848],[81.4469826317069,29.158714760252405],[81.44632950640978,29.158836538181916],[81.44598631129223,29.15898889148253],[81.44540090469567,29.1588667232103],[81.44436864338785,29.15856330847879],[81.44316213557516,29.157804571151413],[81.44195587738261,29.157104475809504],[81.44123360552379,29.15698274377178],[81.4405444140162,29.156497592952153],[81.4399387601451,29.15569853904895],[81.43973099970003,29.15536293786543],[81.43907526144162,29.154724242289372],[81.4384879254138,29.153995021517726],[81.437211087654,29.152688122420418],[81.43689885863114,29.15180454608804],[81.4363287174178,29.15103012519823],[81.43591425717042,29.150451512396184],[81.43542902776774,29.149385756529846],[81.43527747671725,29.148966506229293],[81.43514223398913,29.149201636304824],[81.43432897059746,29.15035290180834],[81.43365395499445,29.15092149712757],[81.43326286816274,29.150997264885408],[81.4330382167324,29.151221390363325],[81.43145178957333,29.152079559172435],[81.4310739486556,29.152699049078677],[81.43073581566169,29.15300025789637],[81.43030315004641,29.153128040321654],[81.43007493587133,29.153264140161657],[81.42938529704725,29.153408611387967],[81.4287173522287,29.153690497603364],[81.4283100001288,29.154325929510918],[81.42825528719402,29.15462395318083],[81.42855401105759,29.155514405689708],[81.42916097503249,29.15649857694647],[81.42927138300615,29.15707593503671],[81.4290358468422,29.15761596597211],[81.42837452602048,29.15810553800919],[81.42774833359805,29.15916140309846],[81.42748310592009,29.159356331920737],[81.42698316290492,29.159533939772192],[81.42674125442436,29.159791950359605],[81.42652554743522,29.15985584112475],[81.42634221823579,29.160431820208633],[81.42568020174353,29.16136596120306],[81.42530243101294,29.161568015406445],[81.42474290510405,29.161651033422288],[81.42386876119707,29.161651522080902],[81.4224787303998,29.161870318626494],[81.42129847072626,29.16184473420045],[81.42082097968144,29.161710814398283],[81.42056069656627,29.161558203436076],[81.42008270960419,29.161135448812953],[81.4197644045662,29.16094913984339],[81.41888113486473,29.160764637611305],[81.41826959686591,29.160385142938086],[81.41756627072076,29.16017976212395],[81.41633637111023,29.159942114176186],[81.416211135338,29.159978623715173],[81.41513879242667,29.15991202756279],[81.41457514097812,29.15993183890279],[81.41395928618346,29.159750965771366],[81.41348292141167,29.1595629046016],[81.41271688512215,29.159258368254562],[81.41094923918092,29.157806045156256],[81.41034495379648,29.157458123091352],[81.41049581859278,29.157730705285072],[81.41082830035944,29.158907616546223],[81.41089725547182,29.159437710752872],[81.41079245820326,29.159914161387892],[81.4102739974868,29.160771031819333],[81.41070308277251,29.161665611527557],[81.41067025050205,29.16213287360596],[81.41084887604016,29.162445905078638],[81.41104050816318,29.162630398892883],[81.41167467103982,29.163533359039683],[81.41176219283582,29.16420555730069],[81.41168383999575,29.164860185869777],[81.41170715652486,29.16520541246098],[81.41215899357236,29.166487981479342],[81.41253531255303,29.167204446064677],[81.41279421806811,29.16749703533825],[81.41288549728445,29.167817192894336],[81.41296095805426,29.16819380425071],[81.41277356262596,29.168909699860304],[81.41229168079622,29.16960621032456],[81.41194540290778,29.17093647113616],[81.41197546997007,29.171383165340373],[81.41188536338105,29.172006284309322],[81.41172347542111,29.172823646811516],[81.41128329260522,29.173833749867324],[81.41120431693089,29.174339459705497],[81.41122912105224,29.175390956301097],[81.41123674443156,29.175702360012735],[81.41150488212354,29.17732627656174],[81.41149686162805,29.178371145425157],[81.41133247876168,29.178895172145612],[81.41130658705309,29.179332987975773],[81.41137497641847,29.18004138362898],[81.41126910961326,29.180899196657897],[81.41140239852992,29.181593839880932],[81.41201384859558,29.183532665614024],[81.41197751638504,29.18392771884507],[81.41176086364088,29.184408982020592],[81.41149106764954,29.184766333825653],[81.41074590021799,29.185427580653883],[81.41035417923763,29.186026814281867],[81.4103159700779,29.186439871934475],[81.4107485461087,29.188020403773425],[81.41066481711766,29.1886209534957],[81.41049687137676,29.18906827036033],[81.41014058245541,29.190818216476714],[81.41022697142235,29.191993625031362],[81.41031987244374,29.192555227772026],[81.41035875255194,29.19312608396194],[81.41020149356387,29.193826099322212],[81.41060658220474,29.193994091333128],[81.41178289665969,29.19440116316092],[81.41251379954613,29.19435378309953],[81.41312452918001,29.19450083433952],[81.41348222634866,29.194544851699447],[81.4137337589517,29.194575738895402],[81.41487312324988,29.194908350569168],[81.41512734064867,29.195130981198343],[81.41543364354179,29.19518868951474],[81.41609601962065,29.195215956203832],[81.4189952926545,29.19602154114777],[81.41947172349474,29.19602004614248],[81.41980428897318,29.195897139661096],[81.42081504758949,29.19589390143256],[81.42169375400842,29.1959995059051],[81.42215768171044,29.195930304131473],[81.42238889756653,29.195701677169748],[81.42280174403325,29.195564954392726],[81.42347399240762,29.195948700888707],[81.42387557805678,29.196197903910242],[81.42428767441892,29.19603636134454],[81.4245721617404,29.195784979275555],[81.42535377405272,29.195577239823354],[81.425667017157,29.195607753181434],[81.42711093554907,29.195855906453524],[81.42772197452365,29.1962217712608],[81.42821171862848,29.19648191616398],[81.42880643917259,29.196775634328475],[81.42977561612084,29.196984645730463],[81.4300714778136,29.19699721566923],[81.43025142343917,29.196816102204856],[81.43032739482938,29.19654283584056],[81.43011832786057,29.19574916274093],[81.43003886946758,29.195203314037204],[81.43028215523177,29.194805387962223],[81.4312623409706,29.194711997365612],[81.43195948046471,29.194754831123845],[81.43335375544075,29.19497822678894],[81.43425616116596,29.194907592689386],[81.43521046243502,29.194791757662543],[81.43603683484812,29.194971757993084],[81.43665824958461,29.19549323165981],[81.4373440634946,29.196052903825045],[81.43781104255267,29.196687721135916],[81.43835424423179,29.196958995240784],[81.43866491941645,29.19729872347083],[81.4388726184801,29.197593687336393],[81.4400099805031,29.19802320209774],[81.44057850330347,29.198361996397978],[81.44104598092999,29.19910972177647],[81.4415123997622,29.19960912386046],[81.44210674687622,29.19981025296654],[81.44282939664804,29.19978525454285],[81.44365458557441,29.199692300058867],[81.4447934423834,29.20046247701436],[81.44549207427646,29.200983700917895],[81.44608667349637,29.201090052568837],[81.44693899299753,29.20131506629295],[81.44776499256639,29.20140266500422],[81.44946913609336,29.20157967518246],[81.45039805119428,29.201531360237507],[81.45088742603667,29.201394325776107],[81.45158456533186,29.201437097130174],[81.4522822009752,29.201707810194275],[81.45298233675597,29.201976209913916],[81.45322993785136,29.201537584116227],[81.45347809634039,29.20139004373263],[81.45440489205221,29.20100556771836],[81.4551641890726,29.20040039978883],[81.45532118841322,29.200275802258314],[81.4557567419686,29.199457443412552],[81.45590455977681,29.19871447680437],[81.45601354239591,29.198495226097293],[81.45634949056809,29.19799764694263],[81.4568190520408,29.197449929665428],[81.4572388383494,29.197295076771713],[81.45756933938434,29.197293893578816],[81.45787970234669,29.197538844274195],[81.45818662231218,29.198153841050477],[81.45830604008044,29.198257184507998],[81.45884705957708,29.198185420582245],[81.459287608034,29.19776192675663],[81.45963724377833,29.19759369446292],[81.45992504120045,29.197536306369447],[81.46055690414785,29.19762890319535],[81.46253794934883,29.198779702811027],[81.46334343712822,29.199158260817494],[81.46428297535671,29.199477678528755],[81.46489432625172,29.19987273989234],[81.46526358593222,29.20018733698857],[81.46544777932863,29.20026342405076],[81.46608846583054,29.19988657130611],[81.46637214068353,29.199635126119308],[81.46713632414787,29.198429781990427],[81.46753992241237,29.19794989633685],[81.46807844270703,29.19775165684705],[81.46844602000039,29.19769620719337],[81.46894227802873,29.197256709583293],[81.46970006425026,29.197321737873484],[81.46985168484578,29.197294107192832],[81.47018600337596,29.197015404007363],[81.47031574105189,29.19697658174567],[81.4708353120992,29.196995030876263],[81.47130136237786,29.197099443006213],[81.47236226532566,29.197097955406775],[81.47283707341008,29.196886398593346],[81.47322647174256,29.196828637192954],[81.47355115742073,29.196827452571597],[81.47384401828782,29.196891850679087],[81.47426055098573,29.196861034210098],[81.47645133244038,29.19606795338251],[81.47688812450127,29.195969366769223],[81.47784261059417,29.196031396785056],[81.4797430771669,29.19628180648257],[81.48014035297061,29.196251052008474],[81.48113580132986,29.19572847356888],[81.4814105947973,29.19564626490569],[81.48281487951301,29.19551480666181],[81.48348151020032,29.1953589563206],[81.48399639511845,29.195192350855034],[81.48457305599892,29.194899147383683],[81.4853562326898,29.19463001533473],[81.48588111978916,29.194551373914422],[81.48654787306964,29.19454894317862],[81.48765184976081,29.194820224425584],[81.48816816606224,29.195089184283933],[81.48863659130703,29.19529731375207]]]}},{"type":"Feature","properties":{"province":"Sudurpashchim Province","district":"Acham","municipality":"Ramaroshan Rural Municipality","ward":"6","wardNumber":6,"sourceMunicipality":"Ramaroshan","sourceType":"Gaunpalika"},"geometry":{"type":"Polygon","coordinates":[[[81.46457972037237,29.281061109367432],[81.46418095660913,29.280254555795924],[81.46354327697479,29.280256861068082],[81.46198418680294,29.2801381187159],[81.46106221518635,29.279893098737453],[81.45956943036906,29.277914749429986],[81.45899409340849,29.277458671335406],[81.45838799932561,29.276770212189835],[81.45791345710384,29.27596853367598],[81.45770332342101,29.275470509985084],[81.45765455607446,29.27535560039237],[81.45730974881522,29.274668520080162],[81.4570932330878,29.27443913751169],[81.45688615877494,29.274182559461643],[81.4566603271721,29.273903537128103],[81.45658998872354,29.273858648005238],[81.45635702804356,29.273710539909047],[81.45583533176084,29.273592686140653],[81.45514076040142,29.273247576573446],[81.45483746341867,29.27290334685204],[81.45479544832241,29.27285608206417],[81.4543614786316,29.272365620331865],[81.45418791520937,29.272251147013424],[81.45407418638554,29.272149991528625],[81.45349409862797,29.271637458509268],[81.45340756706956,29.271565561232425],[81.45275720351196,29.271023957209678],[81.45250648483535,29.270934552828024],[81.45188844126696,29.270715480787487],[81.45136768736933,29.270369748497714],[81.45110815614991,29.270025331365755],[81.45080473207027,29.269796197722457],[81.45029235789993,29.269305985375098],[81.44977098051311,29.26880683214569],[81.44932981225632,29.268873721286695],[81.44911210493036,29.26883383226604],[81.44898180685435,29.268757557979885],[81.44867951139102,29.26833661809383],[81.44841916671324,29.26810729829672],[81.44772547272589,29.2676447790553],[81.44737846872714,29.267454156356354],[81.44685708709227,29.2672595298024],[81.44667370513174,29.267246648618194],[81.44642355424304,29.266838964144704],[81.44673212151567,29.26603917097773],[81.44655993735297,29.26565843151586],[81.44634342174193,29.26542673609948],[81.4459967312116,29.26515934108143],[81.44530178475975,29.264850241825116],[81.44452137363918,29.264275188364454],[81.44400005291823,29.264082875726427],[81.44317562291849,29.26358234369353],[81.44230824117109,29.26296915268047],[81.4419609237738,29.26285298980252],[81.44167513117917,29.262668931974556],[81.44148349761082,29.26254545558306],[81.44100826607904,29.261856497611003],[81.44053246863842,29.261321022180056],[81.43849302852293,29.26001442598949],[81.43820129838238,29.259627246945417],[81.4381475923071,29.259555225130374],[81.43801729417255,29.259478888549324],[81.43762784185164,29.258981487775397],[81.43744346038454,29.258885082048018],[81.437299094023,29.258833627774838],[81.43712271471999,29.258804867398343],[81.43680597040311,29.258751784841404],[81.43670787269724,29.258677636785553],[81.43597723619816,29.257675834443663],[81.4357170204901,29.257162242531244],[81.43513418428735,29.256570624403306],[81.4346845155287,29.256418636474145],[81.43383969830137,29.256245387807002],[81.43297561958326,29.25623012312946],[81.43180336787566,29.255918017111266],[81.43054271321746,29.255215794756786],[81.42990972449354,29.255084685967347],[81.42942291459741,29.255135882678584],[81.42772150964348,29.25566489185236],[81.42728528157387,29.255634690045248],[81.4270314368195,29.25556104007367],[81.42675915106804,29.25522343729628],[81.4266709410337,29.254580560374727],[81.42673479486045,29.253537818181947],[81.4263591747103,29.252171537377222],[81.42639631611686,29.251975042506363],[81.42679610729546,29.25111635809552],[81.42670164131655,29.25067660315276],[81.42647118634142,29.250176391532015],[81.42643174791138,29.249357338031782],[81.42667791961472,29.248381742328643],[81.42712266775281,29.247351321344226],[81.42708459890942,29.246861739293625],[81.42728405380274,29.246554213744698],[81.42759048705204,29.24630502003878],[81.42783945929175,29.2461575426832],[81.42824592660416,29.24612691372774],[81.42902678268331,29.246262025313115],[81.43020822457444,29.24665990670796],[81.43056498386278,29.24673774632036],[81.43065927068388,29.246696798303965],[81.43067771591184,29.24663127880366],[81.43051603554017,29.246277548546786],[81.43018916626121,29.245951385893616],[81.4294653995708,29.24546629765729],[81.42920630595245,29.245207593319524],[81.42906750758722,29.24493276133615],[81.42858172589219,29.243210311990765],[81.42805166488925,29.242280033231264],[81.42690225095166,29.240907178389826],[81.42642094829057,29.240579263730762],[81.42605093857802,29.24023522094528],[81.42463559764273,29.239729742158616],[81.42386506210879,29.239280850896087],[81.42352743847538,29.23898632287294],[81.4234077739978,29.238670791176922],[81.42339646070566,29.23842259308405],[81.42345048364602,29.238259921446893],[81.42377667741376,29.23782110937498],[81.42418733941606,29.237411369512294],[81.42434490436871,29.23709946753176],[81.42452511059173,29.236338433671644],[81.42488306473139,29.235960452338414],[81.42497360478168,29.235610350526592],[81.42479517638652,29.234766976590667],[81.42406773257966,29.233534918821015],[81.42265366466023,29.23159201861607],[81.42271244656486,29.23102091455639],[81.4230729020923,29.230629366366834],[81.42357422424602,29.230228380195058],[81.42370440255458,29.229968430201783],[81.42417420985618,29.229727740405558],[81.42476519212903,29.22923172750946],[81.42519811593453,29.22864581098058],[81.42540958240411,29.227974929838307],[81.42543359537392,29.227719855493927],[81.42517463407569,29.227003079245463],[81.42512943442806,29.22664672422392],[81.42503127626513,29.22638977255619],[81.42503041684176,29.2254149238543],[81.42509569565938,29.225184544822607],[81.42505949753303,29.22498604898895],[81.42511183672866,29.224572927880413],[81.42510452287462,29.22451428583488],[81.42505732302456,29.224142113272762],[81.42484306722787,29.22333943768217],[81.42489078789738,29.22244792700583],[81.42476505870353,29.222062500481652],[81.42421198633858,29.221287953126804],[81.42392763851139,29.22064576142761],[81.42386062851033,29.21968691751767],[81.42330574590879,29.21877701819218],[81.42343492732032,29.218291502749864],[81.42357861079444,29.218038242571062],[81.42362957203002,29.217769539274972],[81.4233372851162,29.217068642849533],[81.42331584111719,29.2170190652491],[81.42340869254001,29.216770556176996],[81.42352955383524,29.216609948035583],[81.42357689013133,29.216221647070075],[81.42329535508581,29.215642599223266],[81.42314561577038,29.2153497610131],[81.42281568557226,29.214874617383558],[81.42229755841078,29.214452050284617],[81.42193317725798,29.214053803589167],[81.42168102942466,29.213415988481593],[81.42140755622054,29.21303768672159],[81.42102053846595,29.212779480604215],[81.42064515092655,29.212505333366224],[81.42021373911757,29.212366786944997],[81.41980458732372,29.212167223239593],[81.41948572177384,29.211868069034363],[81.4191194709124,29.21100950089689],[81.41882205747046,29.21031310468216],[81.41836533573688,29.209475103555768],[81.41788610145505,29.20881765485623],[81.4172489948855,29.208219409298536],[81.41662295334983,29.20766623853469],[81.41591812923913,29.207327693350507],[81.41535060547201,29.207090241403723],[81.415302285509,29.206431485064385],[81.41541277865457,29.205611996188065],[81.41534301075112,29.2050525190448],[81.41518289276164,29.204734923821402],[81.41447725934503,29.204197819475475],[81.4136828983187,29.203979058369423],[81.41348219833628,29.203961675295304],[81.41277718132676,29.20389614722418],[81.41214225453801,29.203839434950062],[81.41168846203671,29.203561035231125],[81.41157317882227,29.202882147267154],[81.41186667461447,29.20232161148508],[81.41195609138322,29.201836158055162],[81.41175089652835,29.20133807141928],[81.41120575706793,29.201059920809534],[81.41068369125864,29.200583149947395],[81.41027767180577,29.20002473026948],[81.41030644373838,29.19933640442388],[81.41007768176729,29.19857886701199],[81.40989437344402,29.197920545894327],[81.40971193888996,29.197302738023104],[81.40910916192091,29.196435850890374],[81.40858678347624,29.196037977793697],[81.40810929921402,29.195459489913908],[81.40776705849612,29.19460304643083],[81.40737698532807,29.19384150617573],[81.407280324406,29.193792177783443],[81.40660689091622,29.19323231779935],[81.40635317581906,29.19281788073264],[81.40589526060133,29.192300285050464],[81.40451587465029,29.19158230722029],[81.40422808499322,29.191149926890724],[81.40418213426042,29.190910856766994],[81.40371559458279,29.190158566994455],[81.4031821496881,29.18971786884657],[81.40279800451196,29.18963558950082],[81.40230988277084,29.189600948250217],[81.40200414076662,29.189685282239253],[81.40139615978865,29.18973228853664],[81.40096305874401,29.189638817961615],[81.40059048458501,29.18938486363202],[81.40029612989996,29.188929976336574],[81.40025437021204,29.188602880165124],[81.40028557381612,29.18835461984223],[81.40016509936666,29.187802081499758],[81.39972106313289,29.187361134183114],[81.39952205110414,29.18728048282523],[81.39873332022906,29.186973695421983],[81.39730159164898,29.18681094214757],[81.39618592004348,29.186780481619927],[81.39526494412175,29.18687343484142],[81.39489848948132,29.187039228958724],[81.39347650718454,29.18741357057699],[81.39294468036606,29.187383492235185],[81.39246262537819,29.187245008082883],[81.39171609014315,29.187384852441365],[81.39072227487758,29.187423914275573],[81.3905357046304,29.18739734141373],[81.39002176344145,29.18717320657295],[81.38968907916512,29.186914688789315],[81.38926098736735,29.186430729267762],[81.38876417910954,29.186141075097193],[81.38732145237944,29.18562403034329],[81.38706304496827,29.18547354590006],[81.38595351564507,29.184465798647683],[81.38535654573765,29.184043291958595],[81.38518210075016,29.184330373730276],[81.3847694970498,29.184879967782006],[81.38464025472636,29.185223316839195],[81.38456415319222,29.185839558762595],[81.3843792609123,29.186431355389686],[81.38392276776872,29.186935872222335],[81.38359575840174,29.187516788733948],[81.38344013218737,29.187846695473482],[81.38336634777671,29.188239559772228],[81.38313293737257,29.188759334734304],[81.38296443354416,29.188908688905425],[81.3826831380671,29.188986207862893],[81.38262586660787,29.189002149188155],[81.38197761308516,29.18944183208071],[81.38173445329272,29.189765236344744],[81.38155319098801,29.190126777629608],[81.38142649818937,29.191325377332884],[81.38149845197617,29.191997638554625],[81.38194335674301,29.19285383232959],[81.38213016739387,29.19346714018549],[81.38184517683506,29.193944088261595],[81.38109857628122,29.194259921671524],[81.38099028252311,29.194366263605747],[81.38077613088518,29.19487916172676],[81.38124141586225,29.195854954148302],[81.38131186738413,29.196635496194453],[81.38132561023099,29.19740047013335],[81.38172012759671,29.197843918363173],[81.38139079230056,29.199192059164144],[81.38142541641264,29.200040433522396],[81.38148380901575,29.200344835933205],[81.38161047929387,29.200511449300116],[81.38167962576192,29.20078434210852],[81.3819133977508,29.201047734927148],[81.38263308184712,29.20264558792909],[81.38287497966832,29.203026265325143],[81.38295168997827,29.20342538294976],[81.38292204845699,29.203743726189664],[81.38245910860321,29.204629667656903],[81.38226621741002,29.20497095297368],[81.38261677261208,29.20585677888684],[81.3829276934372,29.206469713191925],[81.38312275506351,29.207218310083192],[81.38304696400817,29.207933893788525],[81.38293259374947,29.208821090133437],[81.38295551216054,29.210475075113674],[81.38241542334988,29.211022728984084],[81.3817973033697,29.211672161751025],[81.38137938329874,29.212390929991525],[81.38098809967603,29.213003604640704],[81.38044763424129,29.21361896502045],[81.38043054705754,29.214727039914802],[81.3808199909911,29.215714272360337],[81.38116929894132,29.21642861115741],[81.38115559599443,29.21706954842821],[81.38114583490668,29.21754793929517],[81.38122241388062,29.218265338066047],[81.38124026772411,29.21995545908492],[81.38123938580217,29.220400026736908],[81.38108418760586,29.221219639690307],[81.38085120288615,29.222553965474415],[81.38075428724913,29.222775341929605],[81.38052193796997,29.223425905204177],[81.38017329154798,29.22427983802504],[81.37978594664224,29.22493089944826],[81.37947613149568,29.225511753040625],[81.37947454788932,29.2268093210069],[81.37959014605072,29.227287337746034],[81.38026543611579,29.2290116646425],[81.38007046202932,29.230549050642225],[81.37976014011497,29.231506701879237],[81.37964370696332,29.23237132973541],[81.37964275041776,29.233497347415383],[81.37971850355777,29.235036236743593],[81.3797939404733,29.236820886021565],[81.38006421592647,29.23770921261284],[81.37986988068415,29.238393536195534],[81.37814706321548,29.24077239937397],[81.37787607173392,29.24159226051003],[81.37729527635311,29.2423115271896],[81.37718241617146,29.242584917861734],[81.37910143724727,29.243836371916135],[81.37998045394356,29.24409339646978],[81.38038629216919,29.24427276641918],[81.38071566159272,29.24459005095853],[81.38138622186503,29.245010057499933],[81.38205747557349,29.245093903341253],[81.38236027897713,29.24504332988608],[81.3825658575226,29.244956994386616],[81.3829015480349,29.244947058428234],[81.38375155463808,29.245168009541278],[81.38545412528404,29.245973204712545],[81.3862052181054,29.24623729136719],[81.38766882131455,29.2471153800579],[81.38798493418724,29.247534194453433],[81.38835219331531,29.247858043810943],[81.38887144176492,29.248553816916658],[81.38929890134354,29.249475530258874],[81.38961708046473,29.249756679295547],[81.38970936144074,29.25000237732085],[81.39031308037667,29.250569238755453],[81.39113075808386,29.251072334047528],[81.39209311218464,29.25174648195268],[81.39251264050624,29.252108592934942],[81.39266088015212,29.25234278892381],[81.39289327752878,29.25254747673671],[81.39302344833091,29.252777233342535],[81.39303375646723,29.253273753847104],[81.39310947115563,29.253388538903263],[81.39351111961366,29.25361979890749],[81.39462510343617,29.25370221246338],[81.39542852850388,29.254013500971716],[81.39572813179268,29.25464450216754],[81.39592732518202,29.255065878983558],[81.396126759109,29.256067175063812],[81.39613681093951,29.256994634151997],[81.39619082878151,29.257156933093977],[81.39637420531534,29.25749028285845],[81.39693647263424,29.257987435814822],[81.397080327365,29.258749723720683],[81.39656912102471,29.259482369262155],[81.39646313216821,29.260189013001913],[81.39691803791257,29.261200752999983],[81.39788127261326,29.261545490872773],[81.39903332515013,29.262144556226144],[81.39912360924048,29.262191633325717],[81.4003238734567,29.262445285633248],[81.40036307526671,29.262445161040706],[81.40149037848344,29.262450801944663],[81.40209329152391,29.262636302027083],[81.40270263417071,29.26346261422636],[81.4032642040871,29.264577948232017],[81.40386635766033,29.265377190337567],[81.4040629898396,29.265638394529947],[81.40440780612239,29.26579300657988],[81.40546349146398,29.267525153007416],[81.40572246054816,29.26776578939811],[81.40606183239369,29.26816641098218],[81.40617562353336,29.268301451945533],[81.40630554308184,29.26861248240627],[81.40637162328015,29.269063615583175],[81.4061172016261,29.269797765367034],[81.40576611630969,29.270676643088272],[81.40570489348711,29.271466624271703],[81.40609496543088,29.27230037339033],[81.40645140498296,29.272779956069115],[81.40681369784238,29.274728532007227],[81.4077240723988,29.276801777128572],[81.409571918168,29.279465643605807],[81.41021927845732,29.28011352966604],[81.4106102216651,29.28115715314034],[81.41074412697185,29.28245653566349],[81.41094467481535,29.284166414354385],[81.41143252898459,29.285295438937958],[81.41285872673976,29.287240714898328],[81.4136482143905,29.287202151673952],[81.41399573389162,29.286413487203134],[81.41485844561191,29.285855708939685],[81.41537527173871,29.285556252640358],[81.41571294769285,29.286462335405925],[81.4159230788877,29.287176922210985],[81.4160593782526,29.287302960825134],[81.41690431104347,29.288085576662784],[81.41758304982608,29.28929300120541],[81.4184366101513,29.290125255936697],[81.41871521133548,29.290431224035533],[81.41916131000538,29.290919497880306],[81.42018869371368,29.291302186032524],[81.42125909254986,29.29179746928426],[81.42241339379358,29.2925181949954],[81.42245859829572,29.292549642223626],[81.42339644365343,29.293201032787106],[81.42489468750433,29.293972527573263],[81.42502236033232,29.294037548661635],[81.42572124601575,29.294324203483413],[81.42694745398836,29.294825741650936],[81.42738205306748,29.295004862080194],[81.4280801265071,29.295275637465163],[81.42920543068554,29.295195314978617],[81.42992763486424,29.29566683773142],[81.4312618261946,29.295829526755647],[81.43250898815332,29.29578940572604],[81.43374827215092,29.29572671544369],[81.43486739270594,29.295242399956717],[81.43542554188211,29.295283419022034],[81.43683988531426,29.29566917500471],[81.4379993891893,29.295599919183484],[81.44071622861247,29.295954306550197],[81.44158530547304,29.296143184805953],[81.44252004175235,29.295749706714613],[81.44333848334902,29.295406241220103],[81.44415824225929,29.29477169033242],[81.44523384500687,29.294364145957353],[81.44682514531301,29.29384657680829],[81.44794652217182,29.293023724695814],[81.44876515312143,29.292578666472746],[81.4496278038982,29.29190554276619],[81.44999720361713,29.291319875545696],[81.45014807768153,29.291082432720515],[81.45047132875695,29.290839864991355],[81.45193476895143,29.290245959503775],[81.45318431931264,29.28946318286141],[81.45421897275929,29.288830072088558],[81.45542099216944,29.288798890301525],[81.45640949512641,29.288653359819545],[81.45740295125442,29.28760737788398],[81.45878242768467,29.28667518447483],[81.45946782273174,29.2861018996658],[81.45990380670625,29.285739361324833],[81.4606150824341,29.285348754982177],[81.4629540014509,29.283429345917572],[81.46457972037237,29.281061109367432]]]}},{"type":"Feature","properties":{"province":"Sudurpashchim Province","district":"Acham","municipality":"Ramaroshan Rural Municipality","ward":"2","wardNumber":2,"sourceMunicipality":"Ramaroshan","sourceType":"Gaunpalika"},"geometry":{"type":"Polygon","coordinates":[[[81.37860373020608,29.13890765738207],[81.37778167220564,29.138688832895287],[81.37635463929081,29.13822799227649],[81.37552595718218,29.13777228566799],[81.3743967206312,29.1375723373755],[81.37409335553666,29.137550576863795],[81.37331418417816,29.137631778374843],[81.37259822020722,29.137963242096927],[81.37229216476224,29.1380882116939],[81.37250418233647,29.138087589613225],[81.37325589098899,29.13892046845113],[81.373368741331,29.139215744000122],[81.37346108084299,29.139693947529732],[81.37332419965897,29.140745879774897],[81.37342203674503,29.141499289620086],[81.37367880838299,29.142304216252505],[81.37409319828086,29.143329834302616],[81.37418941074294,29.143990716944415],[81.3740983021382,29.14474243657513],[81.37378516386629,29.145930343392607],[81.3737499562891,29.146329834750087],[81.37408206210169,29.147511373264273],[81.37398394107827,29.14882050621743],[81.37418831661857,29.149702267346637],[81.37424745242511,29.15040391093861],[81.3741398954804,29.15139938873503],[81.37446681538101,29.152398123950647],[81.37444048387135,29.152933030100765],[81.37460528917084,29.153365846706865],[81.37482949372449,29.15369469624874],[81.3747703433836,29.153855054827936],[81.37419730950015,29.154111685458396],[81.37351530135912,29.154091045223442],[81.37338562643868,29.15412967996973],[81.37314784587265,29.154322233901517],[81.37306255937878,29.154552612769077],[81.37306579870507,29.155272510920323],[81.37289053853867,29.155674689473855],[81.37292759560818,29.1568615376679],[81.3728371112746,29.15759969096407],[81.37281710160757,29.157759987577805],[81.37287184797667,29.159213101721406],[81.37276254760081,29.159734690646385],[81.37266038149261,29.159917743569952],[81.37212010364628,29.16052178902916],[81.37179998005085,29.160685144806944],[81.37154200556398,29.16081449239992],[81.37152093370304,29.160846126390762],[81.37094501637574,29.161583334943444],[81.37089836942225,29.16181146394256],[81.37095913797705,29.162097860863753],[81.3712351111872,29.162501045167733],[81.37129950974132,29.162539182545686],[81.37134114831733,29.162674534646435],[81.37131619779865,29.162884471619094],[81.37135727293553,29.16305583491748],[81.37135251697931,29.163342418456626],[81.37130687159669,29.163511843058938],[81.37117892764168,29.164769084782783],[81.3711681612007,29.165511552075976],[81.37122899191314,29.165798012346873],[81.37139579759707,29.16623758026535],[81.37167383580585,29.16650985187462],[81.37174017321944,29.16655030151478],[81.37179944483171,29.16658618833047],[81.37227911722017,29.16717161608981],[81.37236507315752,29.168001797566486],[81.37232243011044,29.168117018321713],[81.37180003820488,29.168526882201128],[81.37142057672627,29.168825839609635],[81.37133241583786,29.16898182214797],[81.37100197228892,29.169321230160623],[81.3708901141903,29.169511096921934],[81.37085109888889,29.169554046132195],[81.3706474556943,29.169773482862066],[81.37062457073922,29.16985031784471],[81.37040122825745,29.170300009238712],[81.37033357506637,29.170435548295224],[81.37028786803047,29.170589217531607],[81.37013249257912,29.170833286940333],[81.37004470847275,29.17090799514727],[81.36982074049938,29.171364439196356],[81.36974152077394,29.171509105227994],[81.36939606695002,29.17213966077254],[81.3692833316828,29.172442372856352],[81.36877030746574,29.173504365290025],[81.36854558669046,29.17411204085592],[81.36832487326714,29.174415064584018],[81.36817212658357,29.174489896964015],[81.36870744700536,29.174973607926482],[81.36883536730697,29.175147035913806],[81.36904944521929,29.175320213766547],[81.36910365209069,29.17539223571448],[81.36932648165542,29.175687263293604],[81.36958382640408,29.17590095338763],[81.3696264655214,29.175977539328535],[81.36981928554707,29.17615078035492],[81.3699679010404,29.176362469115],[81.37024750482756,29.176519643811663],[81.37059300923038,29.17659992179282],[81.37069711111734,29.176588357227],[81.37104924560504,29.176546787272933],[81.3715067357954,29.17630403438987],[81.37166931238953,29.175391893978393],[81.37175747858726,29.17489743693204],[81.37179993203075,29.17490869072859],[81.37201938973428,29.174959896045497],[81.3733542660517,29.175229242665427],[81.37373415753989,29.17539291999598],[81.37484094484651,29.175865948254735],[81.37536513556762,29.176304521003686],[81.37593809338932,29.176869319118477],[81.37603962952684,29.17704505938605],[81.37636724876832,29.177328458592754],[81.37689144637758,29.177390171038635],[81.37729566533876,29.17719943313381],[81.37812792592756,29.176757063938805],[81.37872228022881,29.176522939600844],[81.37901351840294,29.176339326980333],[81.37960975142606,29.175899830674062],[81.38016396975367,29.17539281394849],[81.38022030515305,29.175340737067774],[81.38102106122932,29.174399721915915],[81.38116055404934,29.17422779816724],[81.38149625518332,29.173581425021368],[81.38255235158604,29.17303684165595],[81.38384105373251,29.17143545077058],[81.38392777984473,29.171080972846177],[81.38450488915585,29.17017884071246],[81.3849007413785,29.169281832692832],[81.38530703124017,29.168605951969948],[81.38540482136129,29.16844315543436],[81.38679055676093,29.167053640827596],[81.38729833695959,29.165508631425023],[81.38750348245628,29.165194353920285],[81.38758829274688,29.163476789363816],[81.38784659870281,29.16224168026593],[81.38797977904677,29.16195472254348],[81.3879432838602,29.160790380749027],[81.38837635156744,29.15904706248888],[81.38881578536484,29.15797837941735],[81.38897819379054,29.155879265847098],[81.38960258223295,29.154270739598527],[81.389647420893,29.153731269929967],[81.3895244548154,29.15263938512368],[81.38933682640915,29.1523104741802],[81.38924568021567,29.15150061073286],[81.38903223595842,29.150801715471253],[81.38886605238991,29.150529133511263],[81.38820575176346,29.149788658075828],[81.38770087763172,29.149517008981412],[81.38664742677564,29.148806974858513],[81.38624234271059,29.148422294465206],[81.38607165998455,29.147975973899968],[81.38558461145013,29.147320650472],[81.3854895177966,29.146989240133387],[81.38484059868608,29.146167427851793],[81.38474639103754,29.145213147415326],[81.38445785281067,29.144706307053735],[81.38452019740762,29.14418928141775],[81.38430593485184,29.143765654229014],[81.38396449692709,29.14354777336988],[81.38348726142695,29.14309782324454],[81.38343049326136,29.14287682064483],[81.38288361281053,29.142011872130862],[81.38240431154969,29.141697274136465],[81.38169518296671,29.140749299665277],[81.38110228183378,29.140116856411847],[81.38006865258187,29.139345805072782],[81.37919532400377,29.139176743565365],[81.37860373020608,29.13890765738207]]]}},{"type":"Feature","properties":{"province":"Sudurpashchim Province","district":"Acham","municipality":"Ramaroshan Rural Municipality","ward":"1","wardNumber":1,"sourceMunicipality":"Ramaroshan","sourceType":"Gaunpalika"},"geometry":{"type":"Polygon","coordinates":[[[81.35844860337995,29.17601253177916],[81.358515132851,29.17575058068238],[81.35853808024834,29.17567380905326],[81.35862523929524,29.17559910027821],[81.35871408783771,29.17544768232954],[81.35876854731661,29.175393354180144],[81.35897738009119,29.17518292040796],[81.3591082432098,29.175108150086817],[81.35939141437072,29.175017064521224],[81.35991092345165,29.175040453018806],[81.3604299941606,29.175124859663384],[81.36129338066863,29.175325616837416],[81.36144087267219,29.175392950448924],[81.36146594411981,29.175404142047636],[81.36181144904664,29.175484419762135],[81.36207123448862,29.175485986265535],[81.36224423760756,29.175526125340774],[81.36285159373026,29.175477118769866],[81.3633000147575,29.175392412259825],[81.36389424143196,29.175280199182154],[81.36406818449794,29.175205242309936],[81.3645898212952,29.17509777999981],[81.36484948173859,29.175099345813837],[81.36519711419689,29.175046459957183],[81.3658059106367,29.174882294554784],[81.3665866459723,29.17477639830433],[81.3669352801578,29.174667120297826],[81.36762879289857,29.174635870670617],[81.36797636356049,29.174564916885906],[81.36817212658357,29.174489896964015],[81.36832487326714,29.174415064584018],[81.36854558669046,29.17411204085592],[81.36877030746574,29.173504365290025],[81.3692833316828,29.172442372856352],[81.36939606695002,29.17213966077254],[81.36974152077394,29.171509105227994],[81.36982074049938,29.171364439196356],[81.37004470847275,29.17090799514727],[81.37013249257912,29.170833286940333],[81.37028786803047,29.170589217531607],[81.37033357506637,29.170435548295224],[81.37040122825745,29.170300009238712],[81.37062457073922,29.16985031784471],[81.3706474556943,29.169773482862066],[81.37085109888889,29.169554046132195],[81.3708901141903,29.169511096921934],[81.37100197228892,29.169321230160623],[81.37133241583786,29.16898182214797],[81.37142057672627,29.168825839609635],[81.37180003820488,29.168526882201128],[81.37232243011044,29.168117018321713],[81.37236507315752,29.168001797566486],[81.37227911722017,29.16717161608981],[81.37179944483171,29.16658618833047],[81.37174017321944,29.16655030151478],[81.37167383580585,29.16650985187462],[81.37139579759707,29.16623758026535],[81.37122899191314,29.165798012346873],[81.3711681612007,29.165511552075976],[81.37117892764168,29.164769084782783],[81.37130687159669,29.163511843058938],[81.37135251697931,29.163342418456626],[81.37135727293553,29.16305583491748],[81.37131619779865,29.162884471619094],[81.37134114831733,29.162674534646435],[81.37129950974132,29.162539182545686],[81.3712351111872,29.162501045167733],[81.37095913797705,29.162097860863753],[81.37089836942225,29.16181146394256],[81.37094501637574,29.161583334943444],[81.37152093370304,29.160846126390762],[81.37154200556398,29.16081449239992],[81.37179998005085,29.160685144806944],[81.37212010364628,29.16052178902916],[81.37266038149261,29.159917743569952],[81.37276254760081,29.159734690646385],[81.37287184797667,29.159213101721406],[81.37281710160757,29.157759987577805],[81.3728371112746,29.15759969096407],[81.37292759560818,29.1568615376679],[81.37289053853867,29.155674689473855],[81.37306579870507,29.155272510920323],[81.37306255937878,29.154552612769077],[81.37314784587265,29.154322233901517],[81.37338562643868,29.15412967996973],[81.37351530135912,29.154091045223442],[81.37419730950015,29.154111685458396],[81.3747703433836,29.153855054827936],[81.37482949372449,29.15369469624874],[81.37460528917084,29.153365846706865],[81.37444048387135,29.152933030100765],[81.37446681538101,29.152398123950647],[81.3741398954804,29.15139938873503],[81.37424745242511,29.15040391093861],[81.37418831661857,29.149702267346637],[81.37398394107827,29.14882050621743],[81.37408206210169,29.147511373264273],[81.3737499562891,29.146329834750087],[81.37378516386629,29.145930343392607],[81.3740983021382,29.14474243657513],[81.37418941074294,29.143990716944415],[81.37409319828086,29.143329834302616],[81.37367880838299,29.142304216252505],[81.37342203674503,29.141499289620086],[81.37332419965897,29.140745879774897],[81.37346108084299,29.139693947529732],[81.373368741331,29.139215744000122],[81.37325589098899,29.13892046845113],[81.37250418233647,29.138087589613225],[81.37229216476224,29.1380882116939],[81.37194727992443,29.13832834064796],[81.37180078661113,29.138344531290628],[81.3716511676673,29.13836078408322],[81.37124807231338,29.13868006024113],[81.37059031562457,29.13912874573426],[81.36973735924869,29.139593683418234],[81.36906291550359,29.139679074844942],[81.36867282952869,29.139675694435706],[81.36841354547896,29.139595104667904],[81.36827837001093,29.139527770617967],[81.36798282305763,29.13937966053555],[81.36740192186376,29.139029238514514],[81.36710331393326,29.138720893627347],[81.36689811486401,29.138477695524763],[81.36648502880759,29.137986920727904],[81.36632028868462,29.13737580178306],[81.36632498384672,29.137071150292453],[81.36647155631829,29.136005652014763],[81.36670222188548,29.135093325410473],[81.36674119229114,29.13395136582106],[81.36678696254337,29.13380000923616],[81.36687662311489,29.13371179701685],[81.36719806259075,29.133397209106374],[81.36717774433704,29.13328217542735],[81.3669864891277,29.132993837807437],[81.36694428728683,29.132878865998123],[81.36641753683672,29.132189782239763],[81.36640328187637,29.13217177750589],[81.36632581680736,29.13207043371527],[81.36633463330013,29.132018543305815],[81.36589396899916,29.13187305762225],[81.36550263285112,29.13186967716597],[81.365307747705,29.131829600607357],[81.36479130753169,29.131499246817857],[81.36440141175353,29.13138070663459],[81.36414168862278,29.13133850400056],[81.36368476606154,29.131335184816415],[81.36296661770469,29.13140488299769],[81.36107978142923,29.131155035714812],[81.36023584143678,29.13089776266521],[81.35997705845342,29.13076084411335],[81.35978430063162,29.130587602642958],[81.35955040588914,29.130220367469626],[81.35944956420312,29.129685833904315],[81.35949633547791,29.129455516924423],[81.35950040424311,29.129150865652164],[81.35935485700014,29.12869091610113],[81.35927014011163,29.12853768257742],[81.35914184344395,29.128402641509346],[81.35886217803957,29.128189012608058],[81.3586252786565,29.128051969812475],[81.35843033029508,29.12799382483029],[81.35790869524433,29.128024577051114],[81.35751842311215,29.12794436180197],[81.35700035610266,29.127711099007463],[81.3567404470129,29.127630509252427],[81.35628784197425,29.1273789927117],[81.35600823988676,29.127165363952887],[81.35470919072625,29.126846128174858],[81.3543854456066,29.1266890159278],[81.35406220119243,29.126493517103658],[81.35393334143532,29.12637879397191],[81.35361015967047,29.126203675942925],[81.35309052762278,29.126062815219587],[81.35237507014433,29.125978968782153],[81.35211522319761,29.125900692835845],[81.35179335455229,29.125730013482446],[81.3514391518399,29.126064919494056],[81.35134980337624,29.126236656840053],[81.35093095062244,29.1266327051819],[81.35048821027205,29.12720255353137],[81.35024455005883,29.1275439010939],[81.35008811111038,29.127828669396955],[81.34988909449399,29.128054859024893],[81.34960379538816,29.12826322851166],[81.34920933061272,29.128469596112577],[81.34855664440487,29.128518664984025],[81.34796697922457,29.128761666105767],[81.34783499053508,29.128874885379304],[81.34776952726855,29.12889307693868],[81.34759276965451,29.129083130768667],[81.34745927809655,29.129311446235644],[81.3472783272798,29.12976770212226],[81.34711406348093,29.130625638968095],[81.34704659691799,29.130797314156226],[81.34669107904757,29.13130820953878],[81.34585506248946,29.13204603982402],[81.34515185007544,29.13257368584124],[81.34455786602703,29.133082952082802],[81.34422454856265,29.133329770004632],[81.3437939416089,29.133689682710536],[81.34379719226281,29.13371225215515],[81.34382813775977,29.133933317409085],[81.34366644157281,29.134561186595185],[81.34350787422888,29.135015067465698],[81.3435346780946,29.136102699183894],[81.34363470782844,29.136619227028856],[81.34370934783009,29.137420150624717],[81.34369876987556,29.13810616393892],[81.34360034518004,29.138846630390045],[81.3434184542304,29.139415731952724],[81.34339131268071,29.139758832699766],[81.3429843287882,29.14084083222007],[81.3428188134771,29.141696518037882],[81.34268150448648,29.142150399727804],[81.34252406244991,29.14255026462716],[81.34227927650453,29.14294581546731],[81.34185234866918,29.14385632667091],[81.3417172294682,29.144197424994744],[81.34166826748114,29.144538274297066],[81.34172371621233,29.145167771710238],[81.34182699980047,29.145512749234115],[81.34188682745098,29.14591424329394],[81.3419709813911,29.146087794942588],[81.34201049162262,29.146374379958864],[81.34215860538968,29.14666277858976],[81.34217829874713,29.146777812315896],[81.3422708893168,29.147183744972455],[81.3423830494224,29.1476754530597],[81.34294673635804,29.149228790770753],[81.34300806771131,29.149515250658443],[81.34311360378169,29.14974513177065],[81.3432949058626,29.15072179573296],[81.34350641710401,29.151125166636188],[81.34393081678527,29.15176048340206],[81.3440144701166,29.151990427305314],[81.3441138082377,29.152678442930366],[81.34427854756314,29.153309879986008],[81.34527502415266,29.154925304134633],[81.34535761225237,29.155211701656807],[81.34535454562685,29.15543733050781],[81.34535304245509,29.155574933412126],[81.34526018689114,29.156031002761],[81.34529963488417,29.156317587615877],[81.34546744138389,29.156721020251748],[81.34572096797426,29.157180720797296],[81.34589140340763,29.157412729187396],[81.34612373373615,29.157874742750504],[81.34622820573786,29.158161077995388],[81.34624739808794,29.15833256592032],[81.34633155209292,29.15850605489881],[81.34630303244256,29.159020643067024],[81.34634523354119,29.159135615079677],[81.3464922840797,29.15948053092365],[81.34689336063038,29.160230943329733],[81.34742329732103,29.16109601591696],[81.3474639339413,29.161323895767357],[81.34748356517326,29.1614276769728],[81.34754508297891,29.161745707827766],[81.34758697214254,29.161804351298677],[81.34760434830963,29.162147201463664],[81.34766567896135,29.16243366148156],[81.34765804222161,29.16300689163851],[81.3476122713973,29.163178504306043],[81.3475857564749,29.163521541923068],[81.34762069578625,29.164151039274444],[81.34782607192624,29.16501254488167],[81.34835863772219,29.165667868478835],[81.34867975481079,29.165976151325733],[81.34889433315588,29.16613132448948],[81.34906370600483,29.166401655265215],[81.34909809197735,29.166500872879755],[81.34918899684276,29.166764700743204],[81.34923157454168,29.16682321848772],[81.34922850695045,29.167051160571663],[81.34915897488906,29.16739432258816],[81.3489341921139,29.168022254606285],[81.34894987826596,29.168480326039887],[81.34919883420062,29.16928525259015],[81.3491972683714,29.169398098434705],[81.34945142042602,29.169821663822113],[81.34951425396412,29.169993027006893],[81.34957877754886,29.17005154496457],[81.34995709440419,29.170914865537615],[81.35033891662427,29.171491539961647],[81.35050791210558,29.171838580560788],[81.35058856018308,29.172296466308165],[81.35083707775479,29.17315778498811],[81.3508740214289,29.1736181072024],[81.35095623444528,29.17396089690462],[81.35109358135452,29.175050467773175],[81.35119761464928,29.17539319449331],[81.3514258757655,29.176144043273514],[81.35145851026233,29.17630421554013],[81.35157505451095,29.176355856721347],[81.35172729995354,29.17629896700012],[81.35207480831107,29.176228075775118],[81.3524213143391,29.17623170658613],[81.35268059884321,29.176291914920398],[81.35311138364938,29.17650742128364],[81.35337010546021,29.176585759429756],[81.35386522721187,29.176821335530285],[81.35438279508448,29.177018586972835],[81.35524686883892,29.177219344638857],[81.35663257989921,29.177312702615257],[81.35732703289852,29.177207055238682],[81.35758788315279,29.17713184884445],[81.35800185568529,29.17694580006982],[81.35817736288529,29.176757934521305],[81.3583102913778,29.176529681345716],[81.35835537368825,29.17637838747233],[81.35837319450623,29.176308367522832],[81.35844860337995,29.17601253177916]]]}},{"type":"Feature","properties":{"province":"Sudurpashchim Province","district":"Acham","municipality":"Ramaroshan Rural Municipality","ward":"5","wardNumber":5,"sourceMunicipality":"Ramaroshan","sourceType":"Gaunpalika"},"geometry":{"type":"Polygon","coordinates":[[[81.46666264335211,29.280602500776357],[81.46683270754855,29.280642514084427],[81.46864461331225,29.27876773664784],[81.46981082102432,29.277833914958382],[81.47003472502622,29.277413356934794],[81.47066146325426,29.277402173512137],[81.47087147939212,29.277451065279863],[81.47139131598101,29.276589443798848],[81.47192321104318,29.276253602087504],[81.4723556312848,29.27583911124685],[81.4723755141145,29.27582098072852],[81.47295404831827,29.27569707690989],[81.47340428264731,29.27565713324554],[81.47379080801582,29.27546170519341],[81.47416688889616,29.27539944215928],[81.47463326493094,29.27466660777659],[81.47596735820223,29.27318831518357],[81.4762372802288,29.27270674023696],[81.47651401021014,29.27271024476067],[81.47667081861108,29.27280221071437],[81.4772637256461,29.2731521328138],[81.4782634165209,29.27323204379521],[81.47965676383983,29.272868204413847],[81.48093731463824,29.27275756241093],[81.48216078934176,29.272123516163436],[81.48284242897688,29.27176904590703],[81.48351849900433,29.27171922708576],[81.48451343636921,29.2718938528964],[81.48566880948736,29.27209723925512],[81.48637202038984,29.27168850244171],[81.4874038589483,29.27109127763991],[81.48783171140681,29.27094530279387],[81.48890868602311,29.270783393123935],[81.48981985058398,29.270391914352754],[81.4911488239761,29.2684305432326],[81.49158000222118,29.267501525990646],[81.49160226156268,29.267454075151427],[81.49259533160995,29.267109673836472],[81.49294715932764,29.2666751124186],[81.49336851981354,29.265865692683015],[81.49350409022756,29.264624080550494],[81.49349779693384,29.26331982280947],[81.49228897948917,29.262268187208],[81.49185746072465,29.260965487793857],[81.49206412017816,29.259784518574037],[81.49285174863233,29.258752600577417],[81.49325905125954,29.25728661259152],[81.49324794645185,29.255776982235087],[81.493425779986,29.254765375215634],[81.49348180034774,29.254783256509484],[81.49361961249902,29.254144133579917],[81.49382845139208,29.253549899314063],[81.494811474588,29.25195538086153],[81.49537144986256,29.25121085666987],[81.4961798299428,29.250494781946653],[81.49684590124758,29.250140248345005],[81.49800325129645,29.247895166179493],[81.49824022102176,29.24755581970085],[81.49796937309549,29.247276984894917],[81.49775898236753,29.247142379664442],[81.49684612943015,29.247542923818227],[81.49597762525613,29.24671804623744],[81.49542505109528,29.246061159706844],[81.49487397231067,29.24570667423669],[81.49405047679903,29.245432145822996],[81.49343800130742,29.245012453192782],[81.49305698888766,29.24456706750303],[81.49288055188664,29.24425853753464],[81.4927572622711,29.243778394847872],[81.49234874331249,29.243100628813522],[81.49090133419848,29.24214014176287],[81.49052263274899,29.241782782962805],[81.4900757261085,29.240999110176386],[81.48992136779903,29.240200936621086],[81.48962982867043,29.239628764901806],[81.48869185867972,29.238939425968518],[81.48844364790921,29.238410018236696],[81.48783917601445,29.237906800221747],[81.4872496451964,29.237561441837823],[81.48619219687052,29.23661977815072],[81.48593047821639,29.236228097493044],[81.4856466924707,29.235655925840838],[81.48517266051996,29.234166045671518],[81.4851389102024,29.233423765688304],[81.48495004247958,29.232390959914678],[81.48485283749058,29.231145655841736],[81.48494364072171,29.229949368803066],[81.48454314182838,29.22821773161083],[81.48445756132385,29.227250008525687],[81.48460588596474,29.226116678538798],[81.48468418587505,29.2248549345036],[81.48484251055334,29.223924663390353],[81.48481057967929,29.222749067997015],[81.48460358062887,29.22168025237086],[81.48445190465402,29.22128363358563],[81.48429749904751,29.219499233323926],[81.48404916806278,29.218665173933672],[81.4839143189799,29.217763032567944],[81.48368342961592,29.217073327638822],[81.48348773958868,29.216489590976238],[81.48324741507294,29.215436654402353],[81.48286478139408,29.21473850761938],[81.48241326076715,29.213090643856745],[81.4820173745597,29.21218487294435],[81.48087635222946,29.20995495519634],[81.48071242608546,29.2092740656829],[81.48081629221569,29.208384556510666],[81.48105695613462,29.207738307622513],[81.48161092404334,29.207246670162448],[81.48229601108058,29.206341475374895],[81.48249284019766,29.206081339200626],[81.48279385513449,29.204450989306473],[81.48289610057387,29.203225256235548],[81.48330891078845,29.201441050477317],[81.4842719169464,29.20043564216233],[81.48494224512977,29.199693057936955],[81.48554636949622,29.19840912577566],[81.48676165972837,29.19733057484507],[81.48776630917357,29.19617831089626],[81.48844138922941,29.19549205583142],[81.48863659130703,29.19529731375207],[81.48816816606224,29.195089184283933],[81.48765184976081,29.194820224425584],[81.48654787306964,29.19454894317862],[81.48588111978916,29.194551373914422],[81.4853562326898,29.19463001533473],[81.48457305599892,29.194899147383683],[81.48399639511845,29.195192350855034],[81.48348151020032,29.1953589563206],[81.48281487951301,29.19551480666181],[81.4814105947973,29.19564626490569],[81.48113580132986,29.19572847356888],[81.48014035297061,29.196251052008474],[81.4797430771669,29.19628180648257],[81.47784261059417,29.196031396785056],[81.47688812450127,29.195969366769223],[81.47645133244038,29.19606795338251],[81.47426055098573,29.196861034210098],[81.47384401828782,29.196891850679087],[81.47355115742073,29.196827452571597],[81.47322647174256,29.196828637192954],[81.47283707341008,29.196886398593346],[81.47236226532566,29.197097955406775],[81.47130136237786,29.197099443006213],[81.4708353120992,29.196995030876263],[81.47031574105189,29.19697658174567],[81.47018600337596,29.197015404007363],[81.46985168484578,29.197294107192832],[81.46970006425026,29.197321737873484],[81.46894227802873,29.197256709583293],[81.46844602000039,29.19769620719337],[81.46807844270703,29.19775165684705],[81.46753992241237,29.19794989633685],[81.46713632414787,29.198429781990427],[81.46637214068353,29.199635126119308],[81.46608846583054,29.19988657130611],[81.46544777932863,29.20026342405076],[81.46526358593222,29.20018733698857],[81.46489432625172,29.19987273989234],[81.46428297535671,29.199477678528755],[81.46334343712822,29.199158260817494],[81.46253794934883,29.198779702811027],[81.46055690414785,29.19762890319535],[81.45992504120045,29.197536306369447],[81.45963724377833,29.19759369446292],[81.459287608034,29.19776192675663],[81.45884705957708,29.198185420582245],[81.45830604008044,29.198257184507998],[81.45818662231218,29.198153841050477],[81.45787970234669,29.197538844274195],[81.45756933938434,29.197293893578816],[81.4572388383494,29.197295076771713],[81.4568190520408,29.197449929665428],[81.45634949056809,29.19799764694263],[81.45601354239591,29.198495226097293],[81.45590455977681,29.19871447680437],[81.4557567419686,29.199457443412552],[81.45532118841322,29.200275802258314],[81.4551641890726,29.20040039978883],[81.45440489205221,29.20100556771836],[81.45347809634039,29.20139004373263],[81.45322993785136,29.201537584116227],[81.45298233675597,29.201976209913916],[81.4522822009752,29.201707810194275],[81.45158456533186,29.201437097130174],[81.45088742603667,29.201394325776107],[81.45039805119428,29.201531360237507],[81.44946913609336,29.20157967518246],[81.44776499256639,29.20140266500422],[81.44693899299753,29.20131506629295],[81.44608667349637,29.201090052568837],[81.44549207427646,29.200983700917895],[81.4447934423834,29.20046247701436],[81.44365458557441,29.199692300058867],[81.44282939664804,29.19978525454285],[81.44210674687622,29.19981025296654],[81.4415123997622,29.19960912386046],[81.44104598092999,29.19910972177647],[81.44057850330347,29.198361996397978],[81.4400099805031,29.19802320209774],[81.4388726184801,29.197593687336393],[81.43866491941645,29.19729872347083],[81.43835424423179,29.196958995240784],[81.43781104255267,29.196687721135916],[81.4373440634946,29.196052903825045],[81.43665824958461,29.19549323165981],[81.43603683484812,29.194971757993084],[81.43521046243502,29.194791757662543],[81.43425616116596,29.194907592689386],[81.43335375544075,29.19497822678894],[81.43195948046471,29.194754831123845],[81.4312623409706,29.194711997365612],[81.43028215523177,29.194805387962223],[81.43003886946758,29.195203314037204],[81.43011832786057,29.19574916274093],[81.43032739482938,29.19654283584056],[81.43025142343917,29.196816102204856],[81.4300714778136,29.19699721566923],[81.42977561612084,29.196984645730463],[81.42880643917259,29.196775634328475],[81.42821171862848,29.19648191616398],[81.42772197452365,29.1962217712608],[81.42711093554907,29.195855906453524],[81.425667017157,29.195607753181434],[81.42535377405272,29.195577239823354],[81.4245721617404,29.195784979275555],[81.42428767441892,29.19603636134454],[81.42387557805678,29.196197903910242],[81.42347399240762,29.195948700888707],[81.42280174403325,29.195564954392726],[81.42238889756653,29.195701677169748],[81.42215768171044,29.195930304131473],[81.42169375400842,29.1959995059051],[81.42081504758949,29.19589390143256],[81.41980428897318,29.195897139661096],[81.41947172349474,29.19602004614248],[81.4189952926545,29.19602154114777],[81.41609601962065,29.195215956203832],[81.41543364354179,29.19518868951474],[81.41512734064867,29.195130981198343],[81.41487312324988,29.194908350569168],[81.4137337589517,29.194575738895402],[81.41348222634866,29.194544851699447],[81.41312452918001,29.19450083433952],[81.41251379954613,29.19435378309953],[81.41178289665969,29.19440116316092],[81.41060658220474,29.193994091333128],[81.41020149356387,29.193826099322212],[81.40972581330298,29.1938659174612],[81.40875081992608,29.193789945318766],[81.40818410587008,29.193732984331493],[81.40805124174466,29.193780809402647],[81.40737698532807,29.19384150617573],[81.40776705849612,29.19460304643083],[81.40810929921402,29.195459489913908],[81.40858678347624,29.196037977793697],[81.40910916192091,29.196435850890374],[81.40971193888996,29.197302738023104],[81.40989437344402,29.197920545894327],[81.41007768176729,29.19857886701199],[81.41030644373838,29.19933640442388],[81.41027767180577,29.20002473026948],[81.41068369125864,29.200583149947395],[81.41120575706793,29.201059920809534],[81.41175089652835,29.20133807141928],[81.41195609138322,29.201836158055162],[81.41186667461447,29.20232161148508],[81.41157317882227,29.202882147267154],[81.41168846203671,29.203561035231125],[81.41214225453801,29.203839434950062],[81.41277718132676,29.20389614722418],[81.41348219833628,29.203961675295304],[81.4136828983187,29.203979058369423],[81.41447725934503,29.204197819475475],[81.41518289276164,29.204734923821402],[81.41534301075112,29.2050525190448],[81.41541277865457,29.205611996188065],[81.415302285509,29.206431485064385],[81.41535060547201,29.207090241403723],[81.41591812923913,29.207327693350507],[81.41662295334983,29.20766623853469],[81.4172489948855,29.208219409298536],[81.41788610145505,29.20881765485623],[81.41836533573688,29.209475103555768],[81.41882205747046,29.21031310468216],[81.4191194709124,29.21100950089689],[81.41948572177384,29.211868069034363],[81.41980458732372,29.212167223239593],[81.42021373911757,29.212366786944997],[81.42064515092655,29.212505333366224],[81.42102053846595,29.212779480604215],[81.42140755622054,29.21303768672159],[81.42168102942466,29.213415988481593],[81.42193317725798,29.214053803589167],[81.42229755841078,29.214452050284617],[81.42281568557226,29.214874617383558],[81.42314561577038,29.2153497610131],[81.42329535508581,29.215642599223266],[81.42357689013133,29.216221647070075],[81.42352955383524,29.216609948035583],[81.42340869254001,29.216770556176996],[81.42331584111719,29.2170190652491],[81.4233372851162,29.217068642849533],[81.42362957203002,29.217769539274972],[81.42357861079444,29.218038242571062],[81.42343492732032,29.218291502749864],[81.42330574590879,29.21877701819218],[81.42386062851033,29.21968691751767],[81.42392763851139,29.22064576142761],[81.42421198633858,29.221287953126804],[81.42476505870353,29.222062500481652],[81.42489078789738,29.22244792700583],[81.42484306722787,29.22333943768217],[81.42505732302456,29.224142113272762],[81.42510452287462,29.22451428583488],[81.42511183672866,29.224572927880413],[81.42505949753303,29.22498604898895],[81.42509569565938,29.225184544822607],[81.42503041684176,29.2254149238543],[81.42503127626513,29.22638977255619],[81.42512943442806,29.22664672422392],[81.42517463407569,29.227003079245463],[81.42543359537392,29.227719855493927],[81.42540958240411,29.227974929838307],[81.42519811593453,29.22864581098058],[81.42476519212903,29.22923172750946],[81.42417420985618,29.229727740405558],[81.42370440255458,29.229968430201783],[81.42357422424602,29.230228380195058],[81.4230729020923,29.230629366366834],[81.42271244656486,29.23102091455639],[81.42265366466023,29.23159201861607],[81.42406773257966,29.233534918821015],[81.42479517638652,29.234766976590667],[81.42497360478168,29.235610350526592],[81.42488306473139,29.235960452338414],[81.42452511059173,29.236338433671644],[81.42434490436871,29.23709946753176],[81.42418733941606,29.237411369512294],[81.42377667741376,29.23782110937498],[81.42345048364602,29.238259921446893],[81.42339646070566,29.23842259308405],[81.4234077739978,29.238670791176922],[81.42352743847538,29.23898632287294],[81.42386506210879,29.239280850896087],[81.42463559764273,29.239729742158616],[81.42605093857802,29.24023522094528],[81.42642094829057,29.240579263730762],[81.42690225095166,29.240907178389826],[81.42805166488925,29.242280033231264],[81.42858172589219,29.243210311990765],[81.42906750758722,29.24493276133615],[81.42920630595245,29.245207593319524],[81.4294653995708,29.24546629765729],[81.43018916626121,29.245951385893616],[81.43051603554017,29.246277548546786],[81.43067771591184,29.24663127880366],[81.43065927068388,29.246696798303965],[81.43056498386278,29.24673774632036],[81.43020822457444,29.24665990670796],[81.42902678268331,29.246262025313115],[81.42824592660416,29.24612691372774],[81.42783945929175,29.2461575426832],[81.42759048705204,29.24630502003878],[81.42728405380274,29.246554213744698],[81.42708459890942,29.246861739293625],[81.42712266775281,29.247351321344226],[81.42667791961472,29.248381742328643],[81.42643174791138,29.249357338031782],[81.42647118634142,29.250176391532015],[81.42670164131655,29.25067660315276],[81.42679610729546,29.25111635809552],[81.42639631611686,29.251975042506363],[81.4263591747103,29.252171537377222],[81.42673479486045,29.253537818181947],[81.4266709410337,29.254580560374727],[81.42675915106804,29.25522343729628],[81.4270314368195,29.25556104007367],[81.42728528157387,29.255634690045248],[81.42772150964348,29.25566489185236],[81.42942291459741,29.255135882678584],[81.42990972449354,29.255084685967347],[81.43054271321746,29.255215794756786],[81.43180336787566,29.255918017111266],[81.43297561958326,29.25623012312946],[81.43383969830137,29.256245387807002],[81.4346845155287,29.256418636474145],[81.43513418428735,29.256570624403306],[81.4357170204901,29.257162242531244],[81.43597723619816,29.257675834443663],[81.43670787269724,29.258677636785553],[81.43680597040311,29.258751784841404],[81.43712271471999,29.258804867398343],[81.437299094023,29.258833627774838],[81.43744346038454,29.258885082048018],[81.43762784185164,29.258981487775397],[81.43801729417255,29.259478888549324],[81.4381475923071,29.259555225130374],[81.43820129838238,29.259627246945417],[81.43849302852293,29.26001442598949],[81.44053246863842,29.261321022180056],[81.44100826607904,29.261856497611003],[81.44148349761082,29.26254545558306],[81.44167513117917,29.262668931974556],[81.4419609237738,29.26285298980252],[81.44230824117109,29.26296915268047],[81.44317562291849,29.26358234369353],[81.44400005291823,29.264082875726427],[81.44452137363918,29.264275188364454],[81.44530178475975,29.264850241825116],[81.4459967312116,29.26515934108143],[81.44634342174193,29.26542673609948],[81.44655993735297,29.26565843151586],[81.44673212151567,29.26603917097773],[81.44642355424304,29.266838964144704],[81.44667370513174,29.267246648618194],[81.44685708709227,29.2672595298024],[81.44737846872714,29.267454156356354],[81.44772547272589,29.2676447790553],[81.44841916671324,29.26810729829672],[81.44867951139102,29.26833661809383],[81.44898180685435,29.268757557979885],[81.44911210493036,29.26883383226604],[81.44932981225632,29.268873721286695],[81.44977098051311,29.26880683214569],[81.45029235789993,29.269305985375098],[81.45080473207027,29.269796197722457],[81.45110815614991,29.270025331365755],[81.45136768736933,29.270369748497714],[81.45188844126696,29.270715480787487],[81.45250648483535,29.270934552828024],[81.45275720351196,29.271023957209678],[81.45340756706956,29.271565561232425],[81.45349409862797,29.271637458509268],[81.45407418638554,29.272149991528625],[81.45418791520937,29.272251147013424],[81.4543614786316,29.272365620331865],[81.45479544832241,29.27285608206417],[81.45483746341867,29.27290334685204],[81.45514076040142,29.273247576573446],[81.45583533176084,29.273592686140653],[81.45635702804356,29.273710539909047],[81.45658998872354,29.273858648005238],[81.4566603271721,29.273903537128103],[81.45688615877494,29.274182559461643],[81.4570932330878,29.27443913751169],[81.45730974881522,29.274668520080162],[81.45765455607446,29.27535560039237],[81.45770332342101,29.275470509985084],[81.45791345710384,29.27596853367598],[81.45838799932561,29.276770212189835],[81.45899409340849,29.277458671335406],[81.45956943036906,29.277914749429986],[81.46106221518635,29.279893098737453],[81.46198418680294,29.2801381187159],[81.46354327697479,29.280256861068082],[81.46418095660913,29.280254555795924],[81.46457972037237,29.281061109367432],[81.46488146609587,29.280622234193416],[81.4660983034985,29.280608995082094],[81.46666264335211,29.280602500776357]]]}},{"type":"Feature","properties":{"province":"Sudurpashchim Province","district":"Acham","municipality":"Ramaroshan Rural Municipality","ward":"3","wardNumber":3,"sourceMunicipality":"Ramaroshan","sourceType":"Gaunpalika"},"geometry":{"type":"Polygon","coordinates":[[[81.41020149356387,29.193826099322212],[81.41035875255194,29.19312608396194],[81.41031987244374,29.192555227772026],[81.41022697142235,29.191993625031362],[81.41014058245541,29.190818216476714],[81.41049687137676,29.18906827036033],[81.41066481711766,29.1886209534957],[81.4107485461087,29.188020403773425],[81.4103159700779,29.186439871934475],[81.41035417923763,29.186026814281867],[81.41074590021799,29.185427580653883],[81.41149106764954,29.184766333825653],[81.41176086364088,29.184408982020592],[81.41197751638504,29.18392771884507],[81.41201384859558,29.183532665614024],[81.41140239852992,29.181593839880932],[81.41126910961326,29.180899196657897],[81.41137497641847,29.18004138362898],[81.41130658705309,29.179332987975773],[81.41133247876168,29.178895172145612],[81.41149686162805,29.178371145425157],[81.41150488212354,29.17732627656174],[81.41123674443156,29.175702360012735],[81.41122912105224,29.175390956301097],[81.41120431693089,29.174339459705497],[81.41128329260522,29.173833749867324],[81.41172347542111,29.172823646811516],[81.41188536338105,29.172006284309322],[81.41197546997007,29.171383165340373],[81.41194540290778,29.17093647113616],[81.41229168079622,29.16960621032456],[81.41277356262596,29.168909699860304],[81.41296095805426,29.16819380425071],[81.41288549728445,29.167817192894336],[81.41279421806811,29.16749703533825],[81.41253531255303,29.167204446064677],[81.41215899357236,29.166487981479342],[81.41170715652486,29.16520541246098],[81.41168383999575,29.164860185869777],[81.41176219283582,29.16420555730069],[81.41167467103982,29.163533359039683],[81.41104050816318,29.162630398892883],[81.41084887604016,29.162445905078638],[81.41067025050205,29.16213287360596],[81.41070308277251,29.161665611527557],[81.4102739974868,29.160771031819333],[81.41079245820326,29.159914161387892],[81.41089725547182,29.159437710752872],[81.41082830035944,29.158907616546223],[81.41049581859278,29.157730705285072],[81.41034495379648,29.157458123091352],[81.40995908157139,29.15595186374109],[81.40959495781632,29.155059348212284],[81.40926577677587,29.15470611548852],[81.40904745100357,29.154275736061408],[81.40892859909324,29.153964705569116],[81.40885288952958,29.153509071659375],[81.4081747796544,29.152195552533048],[81.40791313594349,29.151056777721816],[81.40790715300055,29.149867553917353],[81.40799577380402,29.14838693343712],[81.40696930227492,29.14576558974358],[81.4065588436574,29.145164345286226],[81.40552915486762,29.144307706447144],[81.40532727197498,29.143956288096227],[81.40526544917152,29.143132796185224],[81.40535261721443,29.14256162907113],[81.40523714236873,29.142121936577258],[81.4050746566064,29.14133933018584],[81.40502652317538,29.14069639057803],[81.40520503712443,29.14016780049452],[81.40529645177935,29.13988315526797],[81.40424899214413,29.139888581436136],[81.40331920711326,29.13959804686617],[81.40276975487227,29.139261191575372],[81.40157805927349,29.1388676237145],[81.39943493471993,29.138876287111664],[81.39829175454571,29.138712724481397],[81.39687559157218,29.138771098358603],[81.39654177896257,29.138688632413444],[81.39551826627353,29.138736759334844],[81.39492279148564,29.138632471123465],[81.39415969467663,29.13838426312079],[81.39330193383417,29.138260466026015],[81.3921701953872,29.13806514466536],[81.39178892677961,29.138025628087597],[81.39086670281652,29.13801255019185],[81.38993878600526,29.13817546179099],[81.38922489026102,29.138179828373737],[81.38858295648117,29.138371251710232],[81.3879751038726,29.13821507343588],[81.3863671229842,29.138000802471694],[81.38618874174104,29.13806675703303],[81.38531440985169,29.138148269931715],[81.38409926412763,29.13799608447288],[81.3832772062999,29.137777322457403],[81.3823132757452,29.137940295956838],[81.38102903483096,29.13819891796396],[81.38017308309452,29.138393214385946],[81.37931762866964,29.138713797017044],[81.37860373020608,29.13890765738207],[81.37919532400377,29.139176743565365],[81.38006865258187,29.139345805072782],[81.38110228183378,29.140116856411847],[81.38169518296671,29.140749299665277],[81.38240431154969,29.141697274136465],[81.38288361281053,29.142011872130862],[81.38343049326136,29.14287682064483],[81.38348726142695,29.14309782324454],[81.38396449692709,29.14354777336988],[81.38430593485184,29.143765654229014],[81.38452019740762,29.14418928141775],[81.38445785281067,29.144706307053735],[81.38474639103754,29.145213147415326],[81.38484059868608,29.146167427851793],[81.3854895177966,29.146989240133387],[81.38558461145013,29.147320650472],[81.38607165998455,29.147975973899968],[81.38624234271059,29.148422294465206],[81.38664742677564,29.148806974858513],[81.38770087763172,29.149517008981412],[81.38820575176346,29.149788658075828],[81.38886605238991,29.150529133511263],[81.38903223595842,29.150801715471253],[81.38924568021567,29.15150061073286],[81.38933682640915,29.1523104741802],[81.3895244548154,29.15263938512368],[81.389647420893,29.153731269929967],[81.38960258223295,29.154270739598527],[81.38897819379054,29.155879265847098],[81.38881578536484,29.15797837941735],[81.38837635156744,29.15904706248888],[81.3879432838602,29.160790380749027],[81.38797977904677,29.16195472254348],[81.38784659870281,29.16224168026593],[81.38758829274688,29.163476789363816],[81.38750348245628,29.165194353920285],[81.38729833695959,29.165508631425023],[81.38679055676093,29.167053640827596],[81.38540482136129,29.16844315543436],[81.38530703124017,29.168605951969948],[81.3849007413785,29.169281832692832],[81.38450488915585,29.17017884071246],[81.38392777984473,29.171080972846177],[81.38384105373251,29.17143545077058],[81.38255235158604,29.17303684165595],[81.38149625518332,29.173581425021368],[81.38116055404934,29.17422779816724],[81.38102106122932,29.174399721915915],[81.38022030515305,29.175340737067774],[81.38016396975367,29.17539281394849],[81.37960975142606,29.175899830674062],[81.37901351840294,29.176339326980333],[81.37872228022881,29.176522939600844],[81.37812792592756,29.176757063938805],[81.37729566533876,29.17719943313381],[81.37689144637758,29.177390171038635],[81.37636724876832,29.177328458592754],[81.37624063236511,29.177678559802715],[81.37657393928097,29.17811094053377],[81.37697452515677,29.17831287999123],[81.37772987441772,29.17830851395861],[81.37848553200098,29.178549969014217],[81.3790365445073,29.179092322681104],[81.3796544624567,29.179300454034433],[81.38061688343893,29.179661009337643],[81.38123617146758,29.180234685769282],[81.38139520890594,29.18166491981778],[81.38216385872765,29.182651093341484],[81.38333941868278,29.183270602750426],[81.38406063088063,29.183236914442606],[81.38535654573765,29.184043291958595],[81.38595351564507,29.184465798647683],[81.38706304496827,29.18547354590006],[81.38732145237944,29.18562403034329],[81.38876417910954,29.186141075097193],[81.38926098736735,29.186430729267762],[81.38968907916512,29.186914688789315],[81.39002176344145,29.18717320657295],[81.3905357046304,29.18739734141373],[81.39072227487758,29.187423914275573],[81.39171609014315,29.187384852441365],[81.39246262537819,29.187245008082883],[81.39294468036606,29.187383492235185],[81.39347650718454,29.18741357057699],[81.39489848948132,29.187039228958724],[81.39526494412175,29.18687343484142],[81.39618592004348,29.186780481619927],[81.39730159164898,29.18681094214757],[81.39873332022906,29.186973695421983],[81.39952205110414,29.18728048282523],[81.39972106313289,29.187361134183114],[81.40016509936666,29.187802081499758],[81.40028557381612,29.18835461984223],[81.40025437021204,29.188602880165124],[81.40029612989996,29.188929976336574],[81.40059048458501,29.18938486363202],[81.40096305874401,29.189638817961615],[81.40139615978865,29.18973228853664],[81.40200414076662,29.189685282239253],[81.40230988277084,29.189600948250217],[81.40279800451196,29.18963558950082],[81.4031821496881,29.18971786884657],[81.40371559458279,29.190158566994455],[81.40418213426042,29.190910856766994],[81.40422808499322,29.191149926890724],[81.40451587465029,29.19158230722029],[81.40589526060133,29.192300285050464],[81.40635317581906,29.19281788073264],[81.40660689091622,29.19323231779935],[81.407280324406,29.193792177783443],[81.40737698532807,29.19384150617573],[81.40805124174466,29.193780809402647],[81.40818410587008,29.193732984331493],[81.40875081992608,29.193789945318766],[81.40972581330298,29.1938659174612],[81.41020149356387,29.193826099322212]]]}},{"type":"Feature","properties":{"province":"Sudurpashchim Province","district":"Acham","municipality":"Ramaroshan Rural Municipality","ward":"7","wardNumber":7,"sourceMunicipality":"Ramaroshan","sourceType":"Gaunpalika"},"geometry":{"type":"Polygon","coordinates":[[[81.38535654573765,29.184043291958595],[81.38406063088063,29.183236914442606],[81.38333941868278,29.183270602750426],[81.38216385872765,29.182651093341484],[81.38139520890594,29.18166491981778],[81.38123617146758,29.180234685769282],[81.38061688343893,29.179661009337643],[81.3796544624567,29.179300454034433],[81.3790365445073,29.179092322681104],[81.37848553200098,29.178549969014217],[81.37772987441772,29.17830851395861],[81.37697452515677,29.17831287999123],[81.37657393928097,29.17811094053377],[81.37624063236511,29.177678559802715],[81.37636724876832,29.177328458592754],[81.37603962952684,29.17704505938605],[81.37593809338932,29.176869319118477],[81.37536513556762,29.176304521003686],[81.37484094484651,29.175865948254735],[81.37373415753989,29.17539291999598],[81.3733542660517,29.175229242665427],[81.37201938973428,29.174959896045497],[81.37179993203075,29.17490869072859],[81.37175747858726,29.17489743693204],[81.37166931238953,29.175391893978393],[81.3715067357954,29.17630403438987],[81.37104924560504,29.176546787272933],[81.37069711111734,29.176588357227],[81.37059300923038,29.17659992179282],[81.37024750482756,29.176519643811663],[81.3699679010404,29.176362469115],[81.36981928554707,29.17615078035492],[81.3696264655214,29.175977539328535],[81.36958382640408,29.17590095338763],[81.36932648165542,29.175687263293604],[81.36910365209069,29.17539223571448],[81.36904944521929,29.175320213766547],[81.36883536730697,29.175147035913806],[81.36870744700536,29.174973607926482],[81.36817212658357,29.174489896964015],[81.36797636356049,29.174564916885906],[81.36762879289857,29.174635870670617],[81.3669352801578,29.174667120297826],[81.3665866459723,29.17477639830433],[81.3658059106367,29.174882294554784],[81.36519711419689,29.175046459957183],[81.36484948173859,29.175099345813837],[81.3645898212952,29.17509777999981],[81.36406818449794,29.175205242309936],[81.36389424143196,29.175280199182154],[81.3633000147575,29.175392412259825],[81.36285159373026,29.175477118769866],[81.36224423760756,29.175526125340774],[81.36207123448862,29.175485986265535],[81.36181144904664,29.175484419762135],[81.36146594411981,29.175404142047636],[81.36144087267219,29.175392950448924],[81.36129338066863,29.175325616837416],[81.3604299941606,29.175124859663384],[81.35991092345165,29.175040453018806],[81.35939141437072,29.175017064521224],[81.3591082432098,29.175108150086817],[81.35897738009119,29.17518292040796],[81.35876854731661,29.175393354180144],[81.35871408783771,29.17544768232954],[81.35862523929524,29.17559910027821],[81.35853808024834,29.17567380905326],[81.358515132851,29.17575058068238],[81.35844860337995,29.17601253177916],[81.35879379595156,29.17600259596989],[81.35905395851894,29.175947708360226],[81.35957403066612,29.175953091693305],[81.3602656027078,29.17609564214638],[81.36061016760463,29.176270760391493],[81.3606933830008,29.17653902763432],[81.36099073733604,29.177000854232542],[81.36107401462449,29.17728950212402],[81.36106593841522,29.177919124666282],[81.36099797152602,29.17814719019575],[81.3608204610295,29.17848841298683],[81.36081839441171,29.17865990114171],[81.36087728429672,29.17912009905343],[81.36102402048687,29.17952140594408],[81.36103976939343,29.179979478110088],[81.36099474888766,29.180151090609975],[81.36057520474708,29.180777268677964],[81.36037731386455,29.181003520120107],[81.36019873977399,29.181403384910485],[81.35993444627366,29.181742605862084],[81.35962388155927,29.182312082096317],[81.35942611496876,29.182538333415863],[81.35922471769574,29.18305110542752],[81.35917857154057,29.183281423087987],[81.3591988891794,29.183394206475633],[81.35915017703184,29.183796011183492],[81.35927459150898,29.18425602190407],[81.35943595002698,29.18517398096529],[81.35944931811932,29.18586224550576],[81.3594020463726,29.186146703363274],[81.35950463964032,29.186606777105485],[81.35976035611331,29.186953632265922],[81.35980199433301,29.187068604147775],[81.35979848881448,29.18735518802369],[81.35966468218724,29.187696286366783],[81.35945871494587,29.18855434722577],[81.35947402440792,29.1890688108262],[81.35961963430223,29.18952876020113],[81.36014243298949,29.191023517845945],[81.36048205246264,29.191600254008467],[81.3608666285982,29.19200769113551],[81.36143369447738,29.19344587000308],[81.36175136871367,29.194022668053556],[81.36185853179774,29.194137515953035],[81.36189854300375,29.19436758323181],[81.3617874970251,29.194595773844892],[81.36173572598312,29.194692926670548],[81.36154345961091,29.19505002891407],[81.3613659489351,29.195391251463754],[81.36116148432366,29.19613421672922],[81.36113659613902,29.196362221020657],[81.36102398505713,29.19670550783184],[81.36060844737166,29.197024846687462],[81.36052116339401,29.197061168700856],[81.36003759609501,29.19761082295138],[81.35961798935759,29.198234813450107],[81.35928967311868,29.198497448260316],[81.35900355892056,29.198856988180193],[81.35845803391989,29.199156381700988],[81.35819724693391,29.199229274428856],[81.35773944472737,29.19941551080355],[81.35630439330298,29.199836865797298],[81.35571472660428,29.20019271270609],[81.3552102153718,29.200645401307824],[81.35492541631217,29.20083345294605],[81.35433712780997,29.201038130550096],[81.3541416776148,29.201056696063063],[81.35355382777387,29.20120266883839],[81.35318218356764,29.201390969084763],[81.35302318290182,29.201547012696317],[81.352631715465,29.201958815858454],[81.352369926637,29.2021084188509],[81.35171185556315,29.20259986672413],[81.35118796633593,29.202824613421235],[81.34968075700398,29.203593569951593],[81.34904344280599,29.204141347541942],[81.34862771857638,29.204424487826522],[81.34830077938615,29.20453595364692],[81.34784178923809,29.204760575476673],[81.34764583965773,29.204815214197485],[81.3467940086036,29.205246205009754],[81.34663957254155,29.205418128173665],[81.34658511368153,29.205467891687707],[81.34633188892813,29.205700957507236],[81.34624354040838,29.20581630243951],[81.34617594992909,29.205987977317783],[81.34608190576165,29.206502689163543],[81.346078775028,29.20673288116609],[81.34589481783557,29.2074757844066],[81.3459312609002,29.207992498695734],[81.3458595382228,29.208450757273415],[81.34581489466464,29.20856597783949],[81.34574886828938,29.208622556358062],[81.34543279657251,29.209478615993],[81.3453221267628,29.20965041462584],[81.34497080157473,29.20997175470743],[81.34483824774993,29.2101436158443],[81.34463704013983,29.210543543175394],[81.344261702639,29.21099810853945],[81.34357398627265,29.21208079250689],[81.3432436044427,29.212478780323192],[81.34300119585147,29.21270734407049],[81.34269507647532,29.2128954578511],[81.3418830704473,29.213536135154467],[81.34159877184247,29.21370611894195],[81.34122493661962,29.214045526218268],[81.34113759034459,29.214084160832037],[81.34047751681341,29.214765039603627],[81.34027893710807,29.2150115472332],[81.33998931895304,29.215526819453313],[81.33985369819129,29.21592655943086],[81.33982981063045,29.216098110086325],[81.33953975419757,29.216669774106247],[81.3392958435885,29.217011121050177],[81.33923238095855,29.217070012137988],[81.33846120060167,29.217803091686775],[81.33817364713936,29.218200955125305],[81.33804021741926,29.218485662093055],[81.337488244957,29.21922493401376],[81.33739877056419,29.21939667022239],[81.33731098637335,29.219491697750563],[81.33722188848535,29.219582160412145],[81.33706932773767,29.219736015489506],[81.33687124964581,29.219926069472287],[81.33671631206371,29.22015213357],[81.33632027984015,29.22058638069591],[81.33627557299594,29.220683595583143],[81.33644926426089,29.220683098042805],[81.33683859847156,29.220765627222995],[81.3371412112985,29.220864160208123],[81.33742037571834,29.221075538179804],[81.33778394388119,29.221519173408762],[81.33797325788466,29.22197906019289],[81.3381646378427,29.22228546548932],[81.33831488011747,29.22240243848419],[81.33869970670797,29.222864016637],[81.33895711231705,29.223095838060555],[81.33947336492255,29.223424003302107],[81.33992728450669,29.22358305561039],[81.34012116942495,29.223679586711413],[81.34096454776154,29.223916604955186],[81.34137420024148,29.22411185437089],[81.34152444268197,29.224228828515965],[81.34173820664661,29.224478716482725],[81.34208195698362,29.224768994109223],[81.34218849599687,29.22490184674535],[81.34276883363852,29.225347172733613],[81.34347965820162,29.225756051590253],[81.34373856717528,29.22587271355167],[81.3439330149159,29.225930921356028],[81.34445283625459,29.225974690775587],[81.34486305214716,29.226131616506464],[81.34497021597117,29.226248652355974],[81.3450971353166,29.22649653964367],[81.3453546037212,29.226748616593436],[81.34610863206915,29.227193506716056],[81.34671072890015,29.22760038408756],[81.34677518945718,29.227640834279253],[81.34735502696857,29.228122232797702],[81.34793586535135,29.22851110442521],[81.348259799508,29.228627580145233],[81.34858266876589,29.22882307879326],[81.34897168821722,29.228980004666344],[81.34929449548522,29.229155122871042],[81.3498119372109,29.229426896598735],[81.35009379346579,29.229466724808262],[81.3503156276613,29.229441344965853],[81.35070352768325,29.229282365724846],[81.3508351418236,29.22920753281767],[81.3511615170357,29.229096129929644],[81.35155304159802,29.229043181989447],[81.3520729878786,29.229125275105087],[81.35233189651198,29.229223932384237],[81.35261212511857,29.22937885644716],[81.35291323616997,29.229572167057892],[81.3531068069077,29.229745407660246],[81.35400600701053,29.230690759075824],[81.35430405015407,29.231132267142975],[81.35503425498362,29.231730576814435],[81.35574464217657,29.23217777976099],[81.35626252275004,29.232393037121174],[81.35658752005513,29.23245305919346],[81.35691145365428,29.23256953464642],[81.35768592553511,29.23312933395975],[81.35794345628753,29.23335884149223],[81.35815565633372,29.233741894346483],[81.35862594974942,29.234318319031086],[81.35881795595755,29.234586338449883],[81.35949994783222,29.235566133838255],[81.35999312710695,29.236065724598433],[81.36016368827322,29.23627516317466],[81.36074571571338,29.236605391987613],[81.36100518858365,29.236683605633203],[81.36132761961538,29.236915115604386],[81.3615867781332,29.23704984593779],[81.36197510974768,29.23720670974386],[81.36275665649165,29.23721365890282],[81.36308259364742,29.23715858407234],[81.36340815455092,29.237180282734634],[81.36379967883434,29.23712727197517],[81.36445117630635,29.237093895170336],[81.364906599389,29.23709721434659],[81.36503671024465,29.237137478045653],[81.36527561215762,29.237209002130154],[81.36536120666251,29.237235885858016],[81.36606821288363,29.23796504689155],[81.36654195124233,29.23823681981499],[81.36658465330979,29.238313405727595],[81.36716411476502,29.238812747086772],[81.36768161953027,29.23908439522069],[81.36793971381115,29.23931609182026],[81.36811039933652,29.239545723539386],[81.36819417678495,29.23977573002488],[81.36849234481643,29.240235305646465],[81.36881490077903,29.240484882850183],[81.3689443863569,29.24054315199314],[81.3691388351509,29.24058322858702],[81.36939937156538,29.24058704547423],[81.36968266818879,29.240493771787246],[81.36974813097544,29.240455261656905],[81.36988068332697,29.240285588295205],[81.36990350703293,29.24019074848228],[81.37003605979281,29.24003914318515],[81.37034280426425,29.239812705378736],[81.37060471818805,29.239681044979143],[81.37093071831129,29.239628283526073],[81.37103994693949,29.239609904626125],[81.37117049758334,29.239571145616292],[81.37162585774338,29.239576652255472],[81.37177778967579,29.23961460306594],[81.37179842218114,29.239621292833565],[81.37211973089747,29.239708447223432],[81.37246679845865,29.239808981433807],[81.37352368775714,29.240514639725244],[81.37461589699996,29.241574401897697],[81.37549553336859,29.242169962097005],[81.37619198325851,29.242298821368376],[81.37679164755997,29.242331025996652],[81.37718241617146,29.242584917861734],[81.37729527635311,29.2423115271896],[81.37787607173392,29.24159226051003],[81.37814706321548,29.24077239937397],[81.37986988068415,29.238393536195534],[81.38006421592647,29.23770921261284],[81.3797939404733,29.236820886021565],[81.37971850355777,29.235036236743593],[81.37964275041776,29.233497347415383],[81.37964370696332,29.23237132973541],[81.37976014011497,29.231506701879237],[81.38007046202932,29.230549050642225],[81.38026543611579,29.2290116646425],[81.37959014605072,29.227287337746034],[81.37947454788932,29.2268093210069],[81.37947613149568,29.225511753040625],[81.37978594664224,29.22493089944826],[81.38017329154798,29.22427983802504],[81.38052193796997,29.223425905204177],[81.38075428724913,29.222775341929605],[81.38085120288615,29.222553965474415],[81.38108418760586,29.221219639690307],[81.38123938580217,29.220400026736908],[81.38124026772411,29.21995545908492],[81.38122241388062,29.218265338066047],[81.38114583490668,29.21754793929517],[81.38115559599443,29.21706954842821],[81.38116929894132,29.21642861115741],[81.3808199909911,29.215714272360337],[81.38043054705754,29.214727039914802],[81.38044763424129,29.21361896502045],[81.38098809967603,29.213003604640704],[81.38137938329874,29.212390929991525],[81.3817973033697,29.211672161751025],[81.38241542334988,29.211022728984084],[81.38295551216054,29.210475075113674],[81.38293259374947,29.208821090133437],[81.38304696400817,29.207933893788525],[81.38312275506351,29.207218310083192],[81.3829276934372,29.206469713191925],[81.38261677261208,29.20585677888684],[81.38226621741002,29.20497095297368],[81.38245910860321,29.204629667656903],[81.38292204845699,29.203743726189664],[81.38295168997827,29.20342538294976],[81.38287497966832,29.203026265325143],[81.38263308184712,29.20264558792909],[81.3819133977508,29.201047734927148],[81.38167962576192,29.20078434210852],[81.38161047929387,29.200511449300116],[81.38148380901575,29.200344835933205],[81.38142541641264,29.200040433522396],[81.38139079230056,29.199192059164144],[81.38172012759671,29.197843918363173],[81.38132561023099,29.19740047013335],[81.38131186738413,29.196635496194453],[81.38124141586225,29.195854954148302],[81.38077613088518,29.19487916172676],[81.38099028252311,29.194366263605747],[81.38109857628122,29.194259921671524],[81.38184517683506,29.193944088261595],[81.38213016739387,29.19346714018549],[81.38194335674301,29.19285383232959],[81.38149845197617,29.191997638554625],[81.38142649818937,29.191325377332884],[81.38155319098801,29.190126777629608],[81.38173445329272,29.189765236344744],[81.38197761308516,29.18944183208071],[81.38262586660787,29.189002149188155],[81.3826831380671,29.188986207862893],[81.38296443354416,29.188908688905425],[81.38313293737257,29.188759334734304],[81.38336634777671,29.188239559772228],[81.38344013218737,29.187846695473482],[81.38359575840174,29.187516788733948],[81.38392276776872,29.186935872222335],[81.3843792609123,29.186431355389686],[81.38456415319222,29.185839558762595],[81.38464025472636,29.185223316839195],[81.3847694970498,29.184879967782006],[81.38518210075016,29.184330373730276],[81.38535654573765,29.184043291958595]]]}}]}