{"type":"FeatureCollection","features":[{"type":"Feature","properties":{"province":"Sudurpashchim Province","district":"Kanchanpur","municipality":"Beldandi Rural Municipality","ward":"4","wardNumber":4,"sourceMunicipality":"Beldandi","sourceType":"Gaunpalika"},"geometry":{"type":"Polygon","coordinates":[[[80.26255755462503,28.776935499413334],[80.26280184570273,28.77642904324415],[80.26287094403999,28.77602773883901],[80.26298111578767,28.775798173854923],[80.26304908481147,28.77551196662936],[80.2630505259005,28.775396869781453],[80.26298769413562,28.77522269302268],[80.2629898230352,28.775051267715597],[80.2628210794188,28.774743424865225],[80.26262644278877,28.77478074491012],[80.26249570376716,28.774892837990947],[80.26232226204442,28.77496866886197],[80.26210505223216,28.775120897396793],[80.26199556964067,28.77525343431446],[80.26184369786247,28.77536771502073],[80.2616481844571,28.775481744488342],[80.26147549409713,28.775498871607162],[80.26113092780467,28.77545635301893],[80.26072384169476,28.775244283905117],[80.26034014440494,28.774856288606117],[80.26032126713424,28.774625970406568],[80.26049583736464,28.774437355972417],[80.26073825223818,28.773978351045177],[80.26108820594703,28.773522160911163],[80.26139476732794,28.773180817057877],[80.26187551995412,28.772745635652466],[80.2619199138035,28.77267142721743],[80.26246519049336,28.772256877794856],[80.26218777938386,28.772004924160665],[80.26167497191662,28.771577851958387],[80.26154867971454,28.771328901586887],[80.26144283117688,28.771174917235168],[80.26144483534682,28.771021435535],[80.26147035256177,28.770716908991247],[80.26153825841024,28.77048715548633],[80.26151963144572,28.770259088452647],[80.26134932135649,28.770084409068414],[80.26117757137273,28.770006758528076],[80.26102795501654,28.769888596306643],[80.26067021205064,28.76917800651292],[80.2608274061702,28.768720750690484],[80.26093732616442,28.76857020825514],[80.26111252148729,28.768381593284186],[80.2615275606015,28.768040814001314],[80.26172545341797,28.76775754657372],[80.26171014581364,28.76729709969281],[80.26175629418871,28.7670694709626],[80.26176149210701,28.766688109713133],[80.26170379551742,28.76615070149828],[80.26170874350665,28.765769339622533],[80.26164785272239,28.765462123648515],[80.26203806396047,28.765371728704253],[80.26281811200205,28.76517062187575],[80.26361922857907,28.765026030666267],[80.2637284596437,28.764931817508998],[80.26350245704548,28.76405049338976],[80.26359494033807,28.763592923511034],[80.26356075551536,28.76290440848641],[80.2634783570576,28.76259706763084],[80.26328879318466,28.762250775164727],[80.2633115539019,28.76215612307552],[80.26337776834592,28.762061659110575],[80.26346455289442,28.76200576910723],[80.26374722438628,28.76187411069484],[80.26400738606553,28.761801093355395],[80.26431275664487,28.761574783290108],[80.26444543740206,28.761327275545824],[80.26462438943868,28.760870144406123],[80.26513852955972,28.760457720321337],[80.26495452515539,28.760398074757088],[80.26469849594352,28.76016425224737],[80.26446297394499,28.760009577818103],[80.26429072305497,28.759970188143225],[80.26317506552317,28.75942250718816],[80.26300287796491,28.75936292465637],[80.26283175332084,28.759246887607986],[80.26231587689313,28.7590500704271],[80.26216607211899,28.75895216393649],[80.262037087789,28.758913088226983],[80.26180212827894,28.758717776661005],[80.26167083197373,28.758586110242604],[80.26137028580752,28.758399425512515],[80.26081264771867,28.75803080738191],[80.2605130406873,28.757796734132903],[80.26025488386357,28.757680257774272],[80.26001204643417,28.757523206969577],[80.25962064062284,28.757870864011387],[80.25932526300635,28.758586881076976],[80.2590137012367,28.758910095100305],[80.25873052650422,28.759168103028607],[80.25784042244464,28.760000456234664],[80.25761095665497,28.76021357677563],[80.25728757880925,28.760493903232508],[80.25647907256392,28.761114570349026],[80.25598050082314,28.76152699469208],[80.25560297686452,28.761854396338997],[80.25513122810223,28.762242251852065],[80.2544171345738,28.76276864317323],[80.25403992370748,28.763050906293525],[80.25293643130422,28.763717268768158],[80.25253252289343,28.763974587203208],[80.25214249649211,28.7642093989266],[80.25118693677416,28.764781799637873],[80.25076921004413,28.7650863808528],[80.25040550438239,28.765355203003846],[80.24953028758931,28.765930293422713],[80.24914044885251,28.766140284974895],[80.24866982880147,28.766361091444672],[80.2487287845978,28.766539644951596],[80.24870264043749,28.76692088049446],[80.24878472518374,28.767304995158437],[80.24880272509155,28.767612022786203],[80.24909744674694,28.76822745787444],[80.24938452403099,28.76953340768572],[80.24940246080968,28.769840436265433],[80.24954719101135,28.77037828353162],[80.2495834398723,28.77099233848407],[80.24968671974986,28.771376516041084],[80.24989641121296,28.771914801749233],[80.24991441070104,28.77222176714465],[80.25011946713929,28.773141353099888],[80.25032884610212,28.773679638760495],[80.25070909753435,28.774374536553445],[80.25109179324332,28.774855059335007],[80.25134788317045,28.775088944717467],[80.25173277216311,28.77534152633122],[80.25230289955651,28.77639853312832],[80.25227800870339,28.776705310410637],[80.25214507609412,28.777029589981883],[80.25190510506167,28.777276470682345],[80.25164544244828,28.777372056708],[80.25138697148549,28.777330039151405],[80.25055097956694,28.776921467181893],[80.25012132105361,28.776783669465317],[80.24977593990765,28.776817860817868],[80.24960243592005,28.776893629429864],[80.24953697139011,28.776969963455077],[80.24951289517422,28.77720003038226],[80.24940065651104,28.77758301575253],[80.24952394067198,28.77811854978428],[80.24949986386274,28.77834861665169],[80.24962483871323,28.778732918514113],[80.24987836103357,28.77919468363457],[80.25002396772202,28.77965588378358],[80.25010837105525,28.77980980546539],[80.25027861817723,28.78000480259783],[80.25040541045279,28.78023568516591],[80.25044679706932,28.780389355685006],[80.2504018389871,28.78054258769693],[80.25030492382129,28.780708947178805],[80.25072207877676,28.780812859530638],[80.25149968597952,28.78070434218471],[80.25184444079085,28.780706348939916],[80.25244873089444,28.780655469581646],[80.2527935485795,28.78065735120467],[80.25374140295855,28.78074158052484],[80.25408678369838,28.78070732651883],[80.25451876065702,28.78061493208031],[80.25494891905856,28.780732411784363],[80.255725148905,28.780720985563047],[80.2560707798295,28.78066635016587],[80.25617819533385,28.78068504495767],[80.25635732218664,28.780794330574025],[80.25671959184875,28.7804600516379],[80.25709136698077,28.780003987571977],[80.2584846680721,28.77880884953053],[80.25924578108165,28.778219503703927],[80.259660572091,28.777784008413363],[80.25987778212367,28.77763171773503],[80.26070523484844,28.776891515704907],[80.26107300118156,28.776778489390324],[80.26150491496617,28.776724418362296],[80.261741752817,28.776745991460757],[80.26255755462503,28.776935499413334]]]}},{"type":"Feature","properties":{"province":"Sudurpashchim Province","district":"Kanchanpur","municipality":"Beldandi Rural Municipality","ward":"3","wardNumber":3,"sourceMunicipality":"Beldandi","sourceType":"Gaunpalika"},"geometry":{"type":"Polygon","coordinates":[[[80.2934031968937,28.75853878737345],[80.29331560757545,28.75827883428693],[80.29342828115395,28.75799281516785],[80.29356071062443,28.757822018240034],[80.29365162593211,28.757535873248045],[80.29376254611931,28.75736495009113],[80.29392017732236,28.75696408556849],[80.29409756344165,28.75667837991293],[80.29432259832258,28.75610634190298],[80.29445527746847,28.755935543457664],[80.29463679611824,28.755363316928822],[80.29495205806968,28.754561588201447],[80.2950630412089,28.754390602199006],[80.29522029638977,28.753989737753756],[80.2952664426476,28.753798182485387],[80.29524668847888,28.753682960340843],[80.29518473268446,28.753472772709074],[80.29490738562887,28.75316217684062],[80.29439069608031,28.752927036434464],[80.29413103759778,28.75288508209768],[80.29369630902853,28.7529776014065],[80.29309001996657,28.75293157753755],[80.29196998513179,28.752440538560872],[80.29162391878526,28.752400333304717],[80.29092727697598,28.7526020675957],[80.29083986849396,28.752660270735483],[80.29062303683419,28.752674895817965],[80.29016554863453,28.752823743759407],[80.28938300058233,28.752988903328458],[80.28860139283235,28.753075039957462],[80.28842726345836,28.75311242227906],[80.28807831665128,28.75326183543743],[80.28806581184622,28.75326402279563],[80.28773080951282,28.753334474864378],[80.28738449200765,28.753332656503293],[80.28708075128637,28.753367161075776],[80.28692806748055,28.75346118544594],[80.28677331694249,28.75367024363904],[80.28674492017589,28.754130441170567],[80.28680637583328,28.75436094648102],[80.2868043715638,28.75451430403934],[80.28673596563719,28.754744182832187],[80.28664717893722,28.754894912575917],[80.2863179851413,28.75520012119355],[80.2857942819283,28.75548169410137],[80.28483979536477,28.755607526681995],[80.2840620688459,28.755486102210437],[80.28345884683092,28.755268528227262],[80.28328521852835,28.755285654576365],[80.28276671248315,28.75522425239599],[80.2819891110285,28.75508244786793],[80.2810369419181,28.75505479774791],[80.28034800190018,28.75478039247707],[80.27994336002317,28.7543178744127],[80.27951420439385,28.754065042513627],[80.27934132815699,28.754025778694768],[80.27891098296776,28.75384971876385],[80.27873785571724,28.7538465273431],[80.27813331814316,28.753725981649154],[80.27750501954213,28.753758730304867],[80.27735202160201,28.753852692158947],[80.27715400503986,28.754061500263806],[80.27669106849532,28.754632220925515],[80.27636193760453,28.754917110860838],[80.27610058752595,28.755030764480562],[80.27603449790988,28.755104910770925],[80.275860055663,28.755180679401132],[80.27473413271976,28.755190536980667],[80.27447353273917,28.75524548583967],[80.2743003433908,28.75524229496078],[80.27377851906907,28.755390703912393],[80.27360545371175,28.755371695519234],[80.27308356655912,28.755520104438595],[80.27256274441689,28.755609871772567],[80.27212732671325,28.75575871941172],[80.27186710352676,28.755795663239464],[80.27143037085618,28.756039289428934],[80.27123485925215,28.756076609303907],[80.27086121044158,28.756455963316366],[80.27059929657499,28.756587684951175],[80.27033612877807,28.756834502526456],[80.2702487829618,28.756872449376523],[80.27002938332458,28.757060813575617],[80.26976765726812,28.757192534997863],[80.26959446715996,28.75719159383577],[80.26929060161032,28.757246354946226],[80.26915948875681,28.757322312287247],[80.26902630849396,28.757549626102236],[80.26899302782277,28.758334730877237],[80.26894744476145,28.75848796168616],[80.26892849735725,28.75858711619064],[80.26884245508518,28.7590357455908],[80.26866263182995,28.7592536810563],[80.26820388781123,28.75966866978831],[80.26802956982576,28.759780573715616],[80.26776947061778,28.75985365338879],[80.26759515153414,28.759967809064882],[80.26724789313555,28.760096777455],[80.26707501655396,28.76009589911041],[80.26672875929279,28.7601684766325],[80.2664694746914,28.76016478383436],[80.26612334344514,28.760219355819547],[80.26560320681287,28.76034744713215],[80.26525576051509,28.760496734158373],[80.26513852955972,28.760457720321337],[80.26462438943868,28.760870144406123],[80.26444543740206,28.761327275545824],[80.26431275664487,28.761574783290108],[80.26400738606553,28.761801093355395],[80.26374722438628,28.76187411069484],[80.26346455289442,28.76200576910723],[80.26337776834592,28.762061659110575],[80.2633115539019,28.76215612307552],[80.26328879318466,28.762250775164727],[80.2634783570576,28.76259706763084],[80.26356075551536,28.76290440848641],[80.26359494033807,28.763592923511034],[80.26350245704548,28.76405049338976],[80.2637284596437,28.764931817508998],[80.26361922857907,28.765026030666267],[80.26281811200205,28.76517062187575],[80.26203806396047,28.765371728704253],[80.26164785272239,28.765462123648515],[80.26170874350665,28.765769339622533],[80.26170379551742,28.76615070149828],[80.26176149210701,28.766688109713133],[80.26175629418871,28.7670694709626],[80.26171014581364,28.76729709969281],[80.26172545341797,28.76775754657372],[80.2615275606015,28.768040814001314],[80.26111252148729,28.768381593284186],[80.26093732616442,28.76857020825514],[80.2608274061702,28.768720750690484],[80.26067021205064,28.76917800651292],[80.26102795501654,28.769888596306643],[80.26117757137273,28.770006758528076],[80.26134932135649,28.770084409068414],[80.26151963144572,28.770259088452647],[80.26153825841024,28.77048715548633],[80.26147035256177,28.770716908991247],[80.26144483534682,28.771021435535],[80.26144283117688,28.771174917235168],[80.26154867971454,28.771328901586887],[80.26167497191662,28.771577851958387],[80.26218777938386,28.772004924160665],[80.26246519049336,28.772256877794856],[80.26253221916832,28.772103833837452],[80.26270666297658,28.771971611364318],[80.26338568438184,28.77125316255377],[80.26373563636523,28.770932387685825],[80.26421839339093,28.770346037236806],[80.26424234467993,28.770172361766743],[80.26415837940232,28.770000434719076],[80.26416445501648,28.769542425846602],[80.26399771488767,28.76908109994922],[80.26402060160048,28.768966192467595],[80.2641527171892,28.768797582202346],[80.26435180032506,28.76843535481084],[80.2646566696173,28.76824743022734],[80.2651117179474,28.76813934451435],[80.26530616681114,28.768122343113927],[80.26558814912906,28.76804713840543],[80.26610653154047,28.76803414361951],[80.26645097134198,28.768133054394063],[80.266750454194,28.768346809524658],[80.26700936430235,28.768350440428264],[80.2671385361149,28.76838951647849],[80.26760939378217,28.768719308619524],[80.2681886666011,28.769031598268832],[80.26844632350286,28.76913000701782],[80.2685964401159,28.769227850526853],[80.26870291543162,28.769343511348886],[80.26876411909859,28.76961240376876],[80.26889197771024,28.769728127080395],[80.26940873131267,28.76986636421797],[80.27024985751338,28.769952092013344],[80.27096381545309,28.76986570498649],[80.27148207277824,28.769870777842286],[80.27180525468242,28.7699514948809],[80.27219170887862,28.770127365238675],[80.27261954941541,28.77043877731806],[80.27332079333348,28.771304605520864],[80.2735982672424,28.771556621548587],[80.27364059383581,28.771633582542563],[80.27359457104691,28.77186346184853],[80.27361113067364,28.772244948837802],[80.27373441664459,28.772705960728505],[80.27388334389704,28.772878263951196],[80.2741708837372,28.773114525955474],[80.27439809250187,28.773169921234715],[80.27518064580626,28.772797200447553],[80.2755060828354,28.772686111529065],[80.27583220931137,28.772518630621832],[80.2764835849785,28.772258128265335],[80.2772675791969,28.771768061959975],[80.27817980564367,28.771378025917553],[80.27968026197802,28.77063002162278],[80.28013549857405,28.770481235575083],[80.28033120020268,28.7703875244479],[80.28052589843834,28.770370460194723],[80.28087002568397,28.770471621496842],[80.28097693877069,28.770566963388113],[80.28114862640508,28.770646927749763],[80.28147281101343,28.770630553506066],[80.28175504415927,28.770519151210856],[80.28188478091583,28.77050183588728],[80.28207885295721,28.770541225650856],[80.28240097087816,28.770678334104847],[80.28298181027553,28.770857396727408],[80.28330505558829,28.77091779521385],[80.28414668257352,28.770983204489568],[80.28466324956993,28.77110549891479],[80.28530648244707,28.771474493652214],[80.28569162114742,28.77176539845436],[80.2865937633146,28.772158279496225],[80.28691456600434,28.77239016592492],[80.28749333860898,28.772740778965773],[80.28806548400681,28.77302130855684],[80.28833076840259,28.773151351511654],[80.28904121680455,28.77342588200655],[80.289427669283,28.77365808169014],[80.29007265486185,28.773970684084652],[80.29052569723811,28.7740700343764],[80.29078404260505,28.77416844290314],[80.29110797544237,28.774228840610906],[80.29169238347916,28.774216097548834],[80.29221195375237,28.774182722123264],[80.29257570799919,28.774511825013263],[80.29268205812527,28.774645491085888],[80.29301180374524,28.77475102761112],[80.29348574012067,28.77440599748835],[80.29368250589701,28.774235514034167],[80.2941451939859,28.77360827535013],[80.29511177096325,28.772471460305137],[80.2952677752412,28.772129237907208],[80.29531379723731,28.77189929582069],[80.29531761812194,28.771612712624737],[80.29542935354422,28.771328943748472],[80.29580525969861,28.77070132892114],[80.2961133846788,28.770303467718378],[80.29635441792881,28.77007684353649],[80.29719858651646,28.76836385708449],[80.2971799602934,28.768133601615553],[80.29699196365578,28.767615759014465],[80.29699728888038,28.76715775033941],[80.29689256831776,28.766870601762548],[80.2967278350748,28.766181459156183],[80.2965184561721,28.765604974093065],[80.29647876049957,28.765318076914642],[80.2964833970608,28.76491645943713],[80.29614421914016,28.764359540353762],[80.2960371814298,28.764282265732795],[80.29539914852161,28.763416876116967],[80.2953619590498,28.76289991175288],[80.29541192824735,28.762326932302372],[80.29537016450111,28.762211648221623],[80.29475357840467,28.76134638327006],[80.29443196195372,28.761132564923408],[80.29421895112989,28.760862919782493],[80.29377386332018,28.760113630243794],[80.29339592964406,28.759193229078313],[80.29335479334489,28.75901923990104],[80.29339838212735,28.75858617626744],[80.2934031968937,28.75853878737345]]]}},{"type":"Feature","properties":{"province":"Sudurpashchim Province","district":"Kanchanpur","municipality":"Beldandi Rural Municipality","ward":"1","wardNumber":1,"sourceMunicipality":"Beldandi","sourceType":"Gaunpalika"},"geometry":{"type":"Polygon","coordinates":[[[80.31279077798993,28.773063321480336],[80.31206283117902,28.77246388320889],[80.31180624026463,28.77223237296794],[80.3114855640193,28.771923839979344],[80.31095043478366,28.771496892384178],[80.31077411223889,28.77178253582198],[80.31061879552138,28.772124820839913],[80.30993507449035,28.773321971243565],[80.30989017922072,28.773475078368726],[80.30971454558895,28.77370214174568],[80.30953778379526,28.774044238279696],[80.30911522637604,28.775053089409326],[80.30887181087309,28.775548292536612],[80.30871818628432,28.7757370945216],[80.30807954793647,28.77678320213574],[80.30764024390575,28.777369928667568],[80.30741977734097,28.77775016172685],[80.30726383510148,28.778130769995116],[80.30695389408247,28.778664046024986],[80.30682027430976,28.778968007598046],[80.30677393966941,28.779198011269603],[80.3065984945818,28.77938662612752],[80.3062536793832,28.779287778159887],[80.30582076633767,28.77928333187383],[80.30547350932544,28.779356034519203],[80.30512518642848,28.779543770976648],[80.30486245737211,28.7797703323794],[80.30462255114588,28.779920310138476],[80.30350654707276,28.78090526604114],[80.3029834064542,28.78118690201925],[80.30246452383787,28.781161697723842],[80.3017742679523,28.781002389039728],[80.301473596737,28.780809014199704],[80.30130347580261,28.78057800603659],[80.30113623601397,28.780116742901914],[80.30099839557431,28.77908250003673],[80.30100190354621,28.77879591632172],[80.30104648472565,28.77868332141739],[80.30126676197924,28.77839780493527],[80.30131140677015,28.778282959215833],[80.30129133854999,28.778170050745057],[80.30101555759113,28.77774660976645],[80.30062916786454,28.777494091367036],[80.30045654132039,28.77745488934046],[80.30019688162541,28.777451258515818],[80.29984999967868,28.77752396064873],[80.29959040166119,28.777522580963804],[80.29915849085144,28.777459429968292],[80.29881330047361,28.777360582288768],[80.2984673584132,28.777338506892118],[80.29803338096626,28.77744903150492],[80.29794590910998,28.777505047024736],[80.29725490060142,28.777422509902156],[80.29647585861944,28.77741618257066],[80.29578253315778,28.777484814533963],[80.29500405361576,28.777458105891856],[80.2941367249694,28.777584564893296],[80.29387743975066,28.777580933921335],[80.29344383862207,28.777635067241402],[80.29283666953216,28.7777424634614],[80.29264215977743,28.777721140632476],[80.29247009679989,28.77764355266064],[80.292278217651,28.777412356251926],[80.29223783279592,28.77718197568492],[80.29232943809205,28.776801052978247],[80.29263749963516,28.776461896727703],[80.29296487805829,28.776197262952685],[80.2935331024074,28.775742201963816],[80.29360075707261,28.77553270470945],[80.29345258268839,28.775283691518702],[80.29304549899162,28.774974656415456],[80.29289594619216,28.774838426383788],[80.29301180374524,28.77475102761112],[80.29268205812527,28.774645491085888],[80.29257570799919,28.774511825013263],[80.29221195375237,28.774182722123264],[80.29169238347916,28.774216097548834],[80.29110797544237,28.774228840610906],[80.29078404260505,28.77416844290314],[80.29052569723811,28.7740700343764],[80.29007265486185,28.773970684084652],[80.289427669283,28.77365808169014],[80.28904121680455,28.77342588200655],[80.28833076840259,28.773151351511654],[80.28806548400681,28.77302130855684],[80.28749333860898,28.772740778965773],[80.28691456600434,28.77239016592492],[80.2865937633146,28.772158279496225],[80.28569162114742,28.77176539845436],[80.28530648244707,28.771474493652214],[80.28466324956993,28.77110549891479],[80.28414668257352,28.770983204489568],[80.28330505558829,28.77091779521385],[80.28298181027553,28.770857396727408],[80.28240097087816,28.770678334104847],[80.28207885295721,28.770541225650856],[80.28188478091583,28.77050183588728],[80.28175504415927,28.770519151210856],[80.28147281101343,28.770630553506066],[80.28114862640508,28.770646927749763],[80.28097693877069,28.770566963388113],[80.28087002568397,28.770471621496842],[80.28052589843834,28.770370460194723],[80.28033120020268,28.7703875244479],[80.28013549857405,28.770481235575083],[80.27968026197802,28.77063002162278],[80.27817980564367,28.771378025917553],[80.2772675791969,28.771768061959975],[80.2764835849785,28.772258128265335],[80.27583220931137,28.772518630621832],[80.2755060828354,28.772686111529065],[80.27518064580626,28.772797200447553],[80.27439809250187,28.773169921234715],[80.2741708837372,28.773114525955474],[80.27388334389704,28.772878263951196],[80.27373441664459,28.772705960728505],[80.27361113067364,28.772244948837802],[80.27359457104691,28.77186346184853],[80.27364059383581,28.771633582542563],[80.2735982672424,28.771556621548587],[80.27332079333348,28.771304605520864],[80.27261954941541,28.77043877731806],[80.27219170887862,28.770127365238675],[80.27180525468242,28.7699514948809],[80.27148207277824,28.769870777842286],[80.27096381545309,28.76986570498649],[80.27024985751338,28.769952092013344],[80.26940873131267,28.76986636421797],[80.26889197771024,28.769728127080395],[80.26876411909859,28.76961240376876],[80.26870291543162,28.769343511348886],[80.2685964401159,28.769227850526853],[80.26844632350286,28.76913000701782],[80.2681886666011,28.769031598268832],[80.26760939378217,28.768719308619524],[80.2671385361149,28.76838951647849],[80.26700936430235,28.768350440428264],[80.266750454194,28.768346809524658],[80.26645097134198,28.768133054394063],[80.26610653154047,28.76803414361951],[80.26558814912906,28.76804713840543],[80.26530616681114,28.768122343113927],[80.2651117179474,28.76813934451435],[80.2646566696173,28.76824743022734],[80.26435180032506,28.76843535481084],[80.2641527171892,28.768797582202346],[80.26402060160048,28.768966192467595],[80.26399771488767,28.76908109994922],[80.26416445501648,28.769542425846602],[80.26415837940232,28.770000434719076],[80.26424234467993,28.770172361766743],[80.26421839339093,28.770346037236806],[80.26373563636523,28.770932387685825],[80.26338568438184,28.77125316255377],[80.26270666297658,28.771971611364318],[80.26253221916832,28.772103833837452],[80.26246519049336,28.772256877794856],[80.2619199138035,28.77267142721743],[80.26187551995412,28.772745635652466],[80.26139476732794,28.773180817057877],[80.26108820594703,28.773522160911163],[80.26073825223818,28.773978351045177],[80.26049583736464,28.774437355972417],[80.26032126713424,28.774625970406568],[80.26034014440494,28.774856288606117],[80.26072384169476,28.775244283905117],[80.26113092780467,28.77545635301893],[80.26147549409713,28.775498871607162],[80.2616481844571,28.775481744488342],[80.26184369786247,28.77536771502073],[80.26199556964067,28.77525343431446],[80.26210505223216,28.775120897396793],[80.26232226204442,28.77496866886197],[80.26249570376716,28.774892837990947],[80.26262644278877,28.77478074491012],[80.2628210794188,28.774743424865225],[80.2629898230352,28.775051267715597],[80.26298769413562,28.77522269302268],[80.2630505259005,28.775396869781453],[80.26304908481147,28.77551196662936],[80.26298111578767,28.775798173854923],[80.26287094403999,28.77602773883901],[80.26280184570273,28.77642904324415],[80.26255755462503,28.776935499413334],[80.26346189086036,28.77714357628972],[80.2639136211254,28.777242988337115],[80.26402078463505,28.777302257783504],[80.26419291146885,28.77732351704411],[80.265231495383,28.777062896933774],[80.2656639713506,28.777031332965567],[80.26600859841312,28.777109987567727],[80.26644001045756,28.777134877234054],[80.26799014615393,28.77753364704256],[80.26816352493185,28.77749851429334],[80.269027411915,28.777507657670625],[80.26928694774011,28.777470713863845],[80.26945988767959,28.7774739057595],[80.26999971482832,28.77747910409219],[80.27025831097224,28.77753912605521],[80.27066545860737,28.777791832762357],[80.27109618074496,28.77787311396433],[80.27115857488789,28.778065296738678],[80.27108929155432,28.778407895624067],[80.2710832160218,28.778868280505687],[80.27103531528226,28.77921094253359],[80.27096853580412,28.7793821786016],[80.27077214641524,28.779532281586782],[80.27066366631456,28.77957010336263],[80.27036111612763,28.779566221328203],[80.27023119105783,28.77960385502364],[80.27012152233446,28.779716073497397],[80.27001097608228,28.77990731510582],[80.26992024688485,28.780249851442512],[80.26986702161221,28.78099431867232],[80.26972626152549,28.781853317840273],[80.269723380153,28.782083447585837],[80.26987280765898,28.78223780794105],[80.2702604521884,28.782298457659422],[80.2704322024731,28.782376108151055],[80.27051648028309,28.782550348426582],[80.27062757890945,28.782781104946835],[80.27042261765905,28.78319978672465],[80.27037170797686,28.783890050549907],[80.27052069742668,28.78406235341407],[80.27141952089255,28.78466523327789],[80.27180422129939,28.784974268253862],[80.27227501634084,28.785283617304216],[80.27263789548282,28.785594714610784],[80.27355860272289,28.786177402371482],[80.27376142332119,28.786444796518623],[80.27385858431924,28.78647011769754],[80.27400782754206,28.786507006252005],[80.27441472394837,28.786759712601246],[80.27510166282131,28.787072629162477],[80.27544572716745,28.7871894823064],[80.27611003025731,28.787578920838687],[80.27688312479687,28.787950918522885],[80.27765703420755,28.78822807576129],[80.27826038334568,28.78836668915232],[80.2786258934215,28.788485980836207],[80.27899102590713,28.788661726374464],[80.27918478547396,28.788703367036973],[80.27942024476667,28.78887610954143],[80.27967783891785,28.78899483611346],[80.27993605944519,28.78907292618078],[80.28045312695185,28.789174965217814],[80.28096956736366,28.789333458433287],[80.28183245221388,28.789437316542557],[80.28269095273409,28.789868395338985],[80.28311935665918,28.790159488351158],[80.28337551025056,28.790391060535566],[80.28378215651519,28.79068202851213],[80.28408088740117,28.790972493478687],[80.28467972659591,28.79143826562134],[80.28519209619755,28.791901348412157],[80.28559893051754,28.79217431003748],[80.28579099785762,28.7923671197364],[80.28602263682357,28.792828758936498],[80.28617250415311,28.7929243526906],[80.28645198136999,28.79302507413227],[80.28743808852202,28.793626017603298],[80.28806519317631,28.79390236022791],[80.2887710760224,28.794215277103316],[80.28946070549502,28.794430977058195],[80.2900829296168,28.79485855129969],[80.2902510469002,28.795240790970283],[80.29034333004759,28.795329255508154],[80.29044587045448,28.795223726770935],[80.29060049635919,28.79499666288301],[80.29108344002557,28.794466578782853],[80.29140912709057,28.79437349539466],[80.29173663112365,28.794147309474347],[80.29238944503716,28.793886682210786],[80.29265079658497,28.793736831049397],[80.29369432164364,28.793383495624113],[80.29402126174658,28.79319563432775],[80.29486864855559,28.792936010705006],[80.2951955877845,28.792766217099437],[80.29597763745515,28.792526597809353],[80.29617352625041,28.79243282373082],[80.29630370012174,28.792415445862773],[80.29702172769726,28.792116809033004],[80.2978687392327,28.791875190783287],[80.29819511506544,28.79172571518197],[80.29858620175712,28.79161487768176],[80.29917405462693,28.791353873404464],[80.29976059165229,28.79116739229689],[80.30093642193252,28.790607061260783],[80.30165369694967,28.790364690934823],[80.30184908410106,28.790309365071323],[80.30197882055883,28.790309992574514],[80.30223985825762,28.790198527599028],[80.30289417560255,28.78980248568452],[80.3032201130939,28.78971165203718],[80.30341606432573,28.789617878244517],[80.30432822523777,28.78935850593221],[80.30485092781295,28.789097188555814],[80.30537256611453,28.788910267768703],[80.30550336644184,28.788834247714295],[80.30608984090797,28.788667959762826],[80.30648161762271,28.788500730047552],[80.30693754126872,28.788372200736827],[80.30719864272896,28.78825842245726],[80.30739384152321,28.78822335311146],[80.3079163558731,28.787998108283627],[80.3083723433045,28.787849198081265],[80.30863394484642,28.787699346287134],[80.30909037011354,28.78755049776827],[80.30961282197875,28.787327504730797],[80.31000353312452,28.787216666918162],[80.3105262983439,28.78695309851878],[80.3116994361216,28.78658213573996],[80.31193902879494,28.786470482029614],[80.31231029860488,28.786206098796153],[80.31244391865987,28.78590213693806],[80.31245957693547,28.78469715978164],[80.31250622610918,28.78441076435929],[80.31253184521519,28.78234828523107],[80.31249321483345,28.781946416917737],[80.31254650469577,28.781086916709384],[80.31252109243388,28.77953865064445],[80.31257024773124,28.779024375715668],[80.31253437329248,28.778392314901847],[80.31258703616767,28.77758920586002],[80.31256941273891,28.777246104522458],[80.31263894768635,28.776844801354027],[80.31264940992483,28.77592859564803],[80.31272038669103,28.77541219507663],[80.31273955594408,28.773751396988146],[80.31269910842245,28.77352101621601],[80.31279077798993,28.773063321480336]]]}},{"type":"Feature","properties":{"province":"Sudurpashchim Province","district":"Kanchanpur","municipality":"Beldandi Rural Municipality","ward":"2","wardNumber":2,"sourceMunicipality":"Beldandi","sourceType":"Gaunpalika"},"geometry":{"type":"Polygon","coordinates":[[[80.29034333004759,28.795329255508154],[80.2902510469002,28.795240790970283],[80.2900829296168,28.79485855129969],[80.28946070549502,28.794430977058195],[80.2887710760224,28.794215277103316],[80.28806519317631,28.79390236022791],[80.28743808852202,28.793626017603298],[80.28645198136999,28.79302507413227],[80.28617250415311,28.7929243526906],[80.28602263682357,28.792828758936498],[80.28579099785762,28.7923671197364],[80.28559893051754,28.79217431003748],[80.28519209619755,28.791901348412157],[80.28467972659591,28.79143826562134],[80.28408088740117,28.790972493478687],[80.28378215651519,28.79068202851213],[80.28337551025056,28.790391060535566],[80.28311935665918,28.790159488351158],[80.28269095273409,28.789868395338985],[80.28183245221388,28.789437316542557],[80.28096956736366,28.789333458433287],[80.28045312695185,28.789174965217814],[80.27993605944519,28.78907292618078],[80.27967783891785,28.78899483611346],[80.27942024476667,28.78887610954143],[80.27918478547396,28.788703367036973],[80.27899102590713,28.788661726374464],[80.2786258934215,28.788485980836207],[80.27826038334568,28.78836668915232],[80.27765703420755,28.78822807576129],[80.27688312479687,28.787950918522885],[80.27611003025731,28.787578920838687],[80.27544572716745,28.7871894823064],[80.27510166282131,28.787072629162477],[80.27441472394837,28.786759712601246],[80.27400782754206,28.786507006252005],[80.27385858431924,28.78647011769754],[80.27376142332119,28.786444796518623],[80.27355860272289,28.786177402371482],[80.27263789548282,28.785594714610784],[80.27227501634084,28.785283617304216],[80.27180422129939,28.784974268253862],[80.27141952089255,28.78466523327789],[80.27052069742668,28.78406235341407],[80.27037170797686,28.783890050549907],[80.27042261765905,28.78319978672465],[80.27062757890945,28.782781104946835],[80.27051648028309,28.782550348426582],[80.2704322024731,28.782376108151055],[80.2702604521884,28.782298457659422],[80.26987280765898,28.78223780794105],[80.269723380153,28.782083447585837],[80.26972626152549,28.781853317840273],[80.26986702161221,28.78099431867232],[80.26992024688485,28.780249851442512],[80.27001097608228,28.77990731510582],[80.27012152233446,28.779716073497397],[80.27023119105783,28.77960385502364],[80.27036111612763,28.779566221328203],[80.27066366631456,28.77957010336263],[80.27077214641524,28.779532281586782],[80.27096853580412,28.7793821786016],[80.27103531528226,28.77921094253359],[80.2710832160218,28.778868280505687],[80.27108929155432,28.778407895624067],[80.27115857488789,28.778065296738678],[80.27109618074496,28.77787311396433],[80.27066545860737,28.777791832762357],[80.27025831097224,28.77753912605521],[80.26999971482832,28.77747910409219],[80.26945988767959,28.7774739057595],[80.26928694774011,28.777470713863845],[80.269027411915,28.777507657670625],[80.26816352493185,28.77749851429334],[80.26799014615393,28.77753364704256],[80.26644001045756,28.777134877234054],[80.26600859841312,28.777109987567727],[80.2656639713506,28.777031332965567],[80.265231495383,28.777062896933774],[80.26419291146885,28.77732351704411],[80.26402078463505,28.777302257783504],[80.2639136211254,28.777242988337115],[80.26346189086036,28.77714357628972],[80.26255755462503,28.776935499413334],[80.261741752817,28.776745991460757],[80.26150491496617,28.776724418362296],[80.26107300118156,28.776778489390324],[80.26070523484844,28.776891515704907],[80.25987778212367,28.77763171773503],[80.259660572091,28.777784008413363],[80.25924578108165,28.778219503703927],[80.2584846680721,28.77880884953053],[80.25709136698077,28.780003987571977],[80.25671959184875,28.7804600516379],[80.25635732218664,28.780794330574025],[80.25617819533385,28.78068504495767],[80.2560707798295,28.78066635016587],[80.255725148905,28.780720985563047],[80.25494891905856,28.780732411784363],[80.25451876065702,28.78061493208031],[80.25408678369838,28.78070732651883],[80.25374140295855,28.78074158052484],[80.2527935485795,28.78065735120467],[80.25244873089444,28.780655469581646],[80.25184444079085,28.780706348939916],[80.25149968597952,28.78070434218471],[80.25072207877676,28.780812859530638],[80.25030492382129,28.780708947178805],[80.25024790017113,28.78080797465559],[80.25000786703887,28.781054855625065],[80.24983473734495,28.781130686764755],[80.24948929374453,28.781167128869637],[80.24905963544963,28.781029330381664],[80.24886737949647,28.780872531437176],[80.24867668953513,28.78058488166675],[80.24859429128506,28.780239153691497],[80.24842460832286,28.78000808286643],[80.2483617127401,28.779854224319394],[80.248063233001,28.779543439898614],[80.24780613978433,28.779408833392726],[80.24763357520825,28.779405641899316],[80.24743868720242,28.77948128619533],[80.24717664507578,28.779766427133325],[80.24704465184196,28.779995866622293],[80.24669645187056,28.780298574518202],[80.2465219370435,28.780825662810823],[80.24638282001932,28.78088805368543],[80.24630510284324,28.780921499934838],[80.24598052891726,28.781528984568624],[80.24572117598373,28.781757733640816],[80.24539704983036,28.781947720952516],[80.24498638636594,28.782365210786935],[80.2446625097878,28.78255519854274],[80.24438139599945,28.782916924363118],[80.2443376860063,28.783162682946926],[80.24442371217324,28.78344976840175],[80.24453118259962,28.78377299056104],[80.2446597208398,28.784193552925252],[80.24472366952253,28.784746778706904],[80.24485264773503,28.78507018803756],[80.24504583112204,28.785680557750347],[80.2451098429784,28.7862157780819],[80.2453251674042,28.786501303214095],[80.24541087880237,28.786883167064246],[80.24541049794053,28.78711104593573],[80.24521528577607,28.787721533563385],[80.24521369713351,28.788788845652608],[80.24529934639456,28.789168459115512],[80.24540662930129,28.789473800254466],[80.24562207952133,28.78970518385116],[80.24579514350816,28.789778334152356],[80.24607512122206,28.789897248838013],[80.2463826077783,28.7900681788364],[80.24664431968256,28.79055032509754],[80.24672966245889,28.790609468646004],[80.24717650659525,28.791131004998086],[80.24741202928818,28.791285741998863],[80.24764673695847,28.79151725083327],[80.2478588724028,28.791807277327454],[80.2481148378436,28.792059168154587],[80.24821899420829,28.79236669746357],[80.24821116309191,28.79305489895605],[80.24833620140987,28.793439263649002],[80.24833444686688,28.793592746032843],[80.24819894612216,28.79412902577533],[80.24821431512511,28.79466618321921],[80.24833766122359,28.79520171750096],[80.24845568278671,28.796199886366875],[80.24864192351826,28.796891404657373],[80.24885048815871,28.797506339241444],[80.24889024562493,28.797813491674628],[80.24884008780103,28.798427045877933],[80.2488807232346,28.798657426037728],[80.24900601175248,28.79900340544065],[80.24919833089517,28.799157891486153],[80.2495847222643,28.79931350660977],[80.24977691575292,28.799488311076956],[80.24986044167913,28.799719005099806],[80.24991901338703,28.80026541639178],[80.24991581971403,28.80048429277076],[80.24987086201907,28.80063752375217],[80.24986472396314,28.80109553302444],[80.24976917234537,28.80178329525804],[80.24963242102102,28.802317387027212],[80.24930939919864,28.803376252951644],[80.24927169551337,28.803500163806795],[80.2492276142205,28.803574310217428],[80.24913701008371,28.80388077290147],[80.24878386355026,28.80448806926871],[80.2486718143053,28.80479440670312],[80.24866893279392,28.805022286486256],[80.24860008766679,28.80532881268487],[80.24829239872939,28.805764872010165],[80.24800909986456,28.805973177482223],[80.24697095462163,28.806213416778277],[80.2463821686653,28.806273298585864],[80.24600783965116,28.80630955269296],[80.2459168681508,28.806309050603954],[80.24559154730376,28.806785684656226],[80.24544048876218,28.8068615794185],[80.2452033395474,28.806747416245337],[80.24507410896065,28.80649846647606],[80.24505304370734,28.80627039949133],[80.24498877307124,28.806116602612807],[80.24485947708712,28.80602107246526],[80.24466521661756,28.806001938487896],[80.24440592986828,28.80611559225214],[80.24397237451443,28.80686011481063],[80.24388533339118,28.807202650937512],[80.2438850793018,28.80737413915532],[80.24394941020617,28.807602456964798],[80.24414310342486,28.807831464470134],[80.24453124426533,28.80806153962278],[80.24479008948188,28.808139691602236],[80.24487649564463,28.80819658459597],[80.24500535060112,28.808445534988266],[80.24513464802743,28.808502679618986],[80.2453505422031,28.808501620354694],[80.24586924265877,28.808256307525777],[80.24621474919024,28.80817922911147],[80.246382124065,28.808193736697383],[80.2464048831358,28.808196112049274],[80.2466642308964,28.80815916899423],[80.24692445675718,28.808047766094802],[80.24737862934343,28.807955559349317],[80.2480282534062,28.807769579383585],[80.24841840353861,28.807620542404123],[80.24880748925632,28.80754602789653],[80.24906815225864,28.807414306502523],[80.2491977020709,28.80739699116687],[80.24958785241897,28.807247954196626],[80.25004233897162,28.807117361961527],[80.25049770163628,28.8069483210761],[80.2506279394748,28.80687461429125],[80.25095256323911,28.806799598100355],[80.25147288848954,28.80659492200729],[80.25270711154964,28.806202329853377],[80.25305468481648,28.80601471805594],[80.25333810871372,28.805806411973673],[80.25353431165465,28.805635991001623],[80.25370969416363,28.805429308869066],[80.25390577210992,28.805276955025477],[80.25422745216349,28.80539380755425],[80.25493690269481,28.80557149694488],[80.25506626342677,28.80557437507288],[80.2559034469127,28.80584759566539],[80.25616160564503,28.805887361559762],[80.2571987494195,28.805744150551448],[80.25765141960736,28.805766915598035],[80.25797416440356,28.80582737693624],[80.25848922910615,28.806003999888702],[80.25932290505803,28.806545611258667],[80.25964477268317,28.806682782095194],[80.25983959718441,28.806625205992862],[80.26049260334065,28.80617289821749],[80.26118724840836,28.805815618562907],[80.26129372304624,28.80593127954054],[80.26161864680465,28.806406986632975],[80.26191482474026,28.806241631513156],[80.2623049741877,28.806092469507636],[80.26353907191053,28.805720132782643],[80.26401844784533,28.80536166083943],[80.26434351146338,28.80523031575811],[80.2644734978694,28.80519268270297],[80.26505584246128,28.805177751118446],[80.26564019187582,28.805011713050725],[80.26681220770723,28.804447130850274],[80.26726688175881,28.804318664397094],[80.26765577934148,28.804264404892923],[80.26811064093114,28.80411561957505],[80.26902249505498,28.803644435567463],[80.26987114011561,28.80306002995708],[80.27052257983163,28.802738571815777],[80.27104234225375,28.80255183938955],[80.27136640280817,28.80251745994457],[80.27221066274714,28.802276028970446],[80.27240617664366,28.8021619994783],[80.27390225402044,28.801544908114263],[80.27474851807655,28.801150057807188],[80.27487875708862,28.801073975232544],[80.27526834297771,28.80096326192984],[80.27617800498925,28.80066575386992],[80.2769509923641,28.800265900436678],[80.2774151094918,28.800024650422774],[80.27916715510845,28.799521784154987],[80.28007763241418,28.79910686694758],[80.28072857239255,28.798749273538427],[80.28081554461299,28.79867300277299],[80.28148743011945,28.79835160824573],[80.28174746767742,28.798258210934783],[80.28220295660279,28.798014647614036],[80.28298256913264,28.797714136218662],[80.28324173055525,28.797656811540442],[80.28408674446999,28.79730022209517],[80.2849306297588,28.797058728538456],[80.28519116746737,28.79694726271407],[80.28551647972465,28.796854178746646],[80.28610358205582,28.796554914199092],[80.28727603255662,28.79612781044411],[80.2880649624508,28.79577315766054],[80.28818894864591,28.79571739344687],[80.28871046103686,28.795550854003825],[80.28903489512761,28.795554861313175],[80.2892931767003,28.795671275375813],[80.28942272565362,28.79569228303],[80.28981212149691,28.795696604283577],[80.29011692670203,28.79556500889803],[80.29034333004759,28.795329255508154]]]}},{"type":"Feature","properties":{"province":"Sudurpashchim Province","district":"Kanchanpur","municipality":"Beldandi Rural Municipality","ward":"5","wardNumber":5,"sourceMunicipality":"Beldandi","sourceType":"Gaunpalika"},"geometry":{"type":"Polygon","coordinates":[[[80.24513464802743,28.808502679618986],[80.24500535060112,28.808445534988266],[80.24487649564463,28.80819658459597],[80.24479008948188,28.808139691602236],[80.24453124426533,28.80806153962278],[80.24414310342486,28.807831464470134],[80.24394941020617,28.807602456964798],[80.2438850793018,28.80737413915532],[80.24388533339118,28.807202650937512],[80.24397237451443,28.80686011481063],[80.24440592986828,28.80611559225214],[80.24466521661756,28.806001938487896],[80.24485947708712,28.80602107246526],[80.24498877307124,28.806116602612807],[80.24505304370734,28.80627039949133],[80.24507410896065,28.80649846647606],[80.2452033395474,28.806747416245337],[80.24544048876218,28.8068615794185],[80.24559154730376,28.806785684656226],[80.2459168681508,28.806309050603954],[80.24600783965116,28.80630955269296],[80.2463821686653,28.806273298585864],[80.24697095462163,28.806213416778277],[80.24800909986456,28.805973177482223],[80.24829239872939,28.805764872010165],[80.24860008766679,28.80532881268487],[80.24866893279392,28.805022286486256],[80.2486718143053,28.80479440670312],[80.24878386355026,28.80448806926871],[80.24913701008371,28.80388077290147],[80.2492276142205,28.803574310217428],[80.24927169551337,28.803500163806795],[80.24930939919864,28.803376252951644],[80.24963242102102,28.802317387027212],[80.24976917234537,28.80178329525804],[80.24986472396314,28.80109553302444],[80.24987086201907,28.80063752375217],[80.24991581971403,28.80048429277076],[80.24991901338703,28.80026541639178],[80.24986044167913,28.799719005099806],[80.24977691575292,28.799488311076956],[80.2495847222643,28.79931350660977],[80.24919833089517,28.799157891486153],[80.24900601175248,28.79900340544065],[80.2488807232346,28.798657426037728],[80.24884008780103,28.798427045877933],[80.24889024562493,28.797813491674628],[80.24885048815871,28.797506339241444],[80.24864192351826,28.796891404657373],[80.24845568278671,28.796199886366875],[80.24833766122359,28.79520171750096],[80.24821431512511,28.79466618321921],[80.24819894612216,28.79412902577533],[80.24833444686688,28.793592746032843],[80.24833620140987,28.793439263649002],[80.24821116309191,28.79305489895605],[80.24821899420829,28.79236669746357],[80.2481148378436,28.792059168154587],[80.2478588724028,28.791807277327454],[80.24764673695847,28.79151725083327],[80.24741202928818,28.791285741998863],[80.24717650659525,28.791131004998086],[80.24672966245889,28.790609468646004],[80.24664431968256,28.79055032509754],[80.2463826077783,28.7900681788364],[80.24607512122206,28.789897248838013],[80.24579514350816,28.789778334152356],[80.24562207952133,28.78970518385116],[80.24540662930129,28.789473800254466],[80.24529934639456,28.789168459115512],[80.24521369713351,28.788788845652608],[80.24521528577607,28.787721533563385],[80.24541049794053,28.78711104593573],[80.24541087880237,28.786883167064246],[80.2453251674042,28.786501303214095],[80.2451098429784,28.7862157780819],[80.24504583112204,28.785680557750347],[80.24485264773503,28.78507018803756],[80.24472366952253,28.784746778706904],[80.2446597208398,28.784193552925252],[80.24453118259962,28.78377299056104],[80.24442371217324,28.78344976840175],[80.2443376860063,28.783162682946926],[80.24438139599945,28.782916924363118],[80.2446625097878,28.78255519854274],[80.24498638636594,28.782365210786935],[80.24539704983036,28.781947720952516],[80.24572117598373,28.781757733640816],[80.24598052891726,28.781528984568624],[80.24630510284324,28.780921499934838],[80.24638282001932,28.78088805368543],[80.2465219370435,28.780825662810823],[80.24669645187056,28.780298574518202],[80.24704465184196,28.779995866622293],[80.24717664507578,28.779766427133325],[80.24743868720242,28.77948128619533],[80.24763357520825,28.779405641899316],[80.24780613978433,28.779408833392726],[80.248063233001,28.779543439898614],[80.2483617127401,28.779854224319394],[80.24842460832286,28.78000808286643],[80.24859429128506,28.780239153691497],[80.24867668953513,28.78058488166675],[80.24886737949647,28.780872531437176],[80.24905963544963,28.781029330381664],[80.24948929374453,28.781167128869637],[80.24983473734495,28.781130686764755],[80.25000786703887,28.781054855625065],[80.25024790017113,28.78080797465559],[80.25030492382129,28.780708947178805],[80.2504018389871,28.78054258769693],[80.25044679706932,28.780389355685006],[80.25040541045279,28.78023568516591],[80.25027861817723,28.78000480259783],[80.25010837105525,28.77980980546539],[80.25002396772202,28.77965588378358],[80.24987836103357,28.77919468363457],[80.24962483871323,28.778732918514113],[80.24949986386274,28.77834861665169],[80.24952394067198,28.77811854978428],[80.24940065651104,28.77758301575253],[80.24951289517422,28.77720003038226],[80.24953697139011,28.776969963455077],[80.24960243592005,28.776893629429864],[80.24977593990765,28.776817860817868],[80.25012132105361,28.776783669465317],[80.25055097956694,28.776921467181893],[80.25138697148549,28.777330039151405],[80.25164544244828,28.777372056708],[80.25190510506167,28.777276470682345],[80.25214507609412,28.777029589981883],[80.25227800870339,28.776705310410637],[80.25230289955651,28.77639853312832],[80.25173277216311,28.77534152633122],[80.25134788317045,28.775088944717467],[80.25109179324332,28.774855059335007],[80.25070909753435,28.774374536553445],[80.25032884610212,28.773679638760495],[80.25011946713929,28.773141353099888],[80.24991441070104,28.77222176714465],[80.24989641121296,28.771914801749233],[80.24968671974986,28.771376516041084],[80.2495834398723,28.77099233848407],[80.24954719101135,28.77037828353162],[80.24940246080968,28.769840436265433],[80.24938452403099,28.76953340768572],[80.24909744674694,28.76822745787444],[80.24880272509155,28.767612022786203],[80.24878472518374,28.767304995158437],[80.24870264043749,28.76692088049446],[80.2487287845978,28.766539644951596],[80.24866982880147,28.766361091444672],[80.24821334173923,28.766489433308493],[80.24770415092763,28.766464041464374],[80.247302940799,28.76634218619553],[80.24692874114582,28.766197950161956],[80.2465953706895,28.765983943839032],[80.24638198144491,28.765829331876354],[80.24636022454118,28.765788569449565],[80.24623199138536,28.765674972024172],[80.24561370538302,28.76528340845075],[80.24507181987833,28.765041202913416],[80.2443877563833,28.76476204591254],[80.24393596560962,28.764590300723277],[80.24343221635355,28.764483697364955],[80.2429533493165,28.764469747201144],[80.24229335106206,28.764454730641795],[80.24174933312764,28.764508111584565],[80.24119262330404,28.764552364657302],[80.24066117041419,28.764684831427886],[80.24020806227665,28.764693638840985],[80.23953505876834,28.764701065786817],[80.23917217138849,28.7647689546473],[80.23864065635689,28.764867535980986],[80.23796658672511,28.76502394481621],[80.23729264272299,28.765155595802188],[80.2368390960157,28.765234298823998],[80.23634634482431,28.765366890710936],[80.23590542674165,28.76546816304717],[80.2357239828105,28.765501044427317],[80.23525736712668,28.765613443196667],[80.23468614799602,28.76583818680835],[80.23421859128479,28.76607474751278],[80.23401032234648,28.76623379050524],[80.23367168810675,28.766527494803242],[80.23333079534487,28.76713035294462],[80.23284722440053,28.767766217520748],[80.23253604306713,28.76785473828318],[80.23222542523945,28.767864235499456],[80.2315526108758,28.767837903411618],[80.23093169125357,28.767766621059973],[80.23051803687439,28.767719162584445],[80.22984097484883,28.767543785639802],[80.22943294812869,28.767437684891185],[80.22872249897534,28.76721698239714],[80.22838712629652,28.767068432999654],[80.22743114761155,28.76684622579388],[80.22715979691446,28.766786078290497],[80.22674677025795,28.766614458154685],[80.22604932538188,28.766416387384815],[80.22540346116098,28.766263768665887],[80.22483475059873,28.766145411405795],[80.22440859350864,28.766018866125727],[80.22403426739872,28.765901637922376],[80.2235041325802,28.765808350756316],[80.22312911771931,28.765783587129373],[80.22324165050162,28.76619270848766],[80.22334912310995,28.766421278091943],[80.22360727228939,28.766880854580002],[80.22395157763509,28.767338744270667],[80.22399465362534,28.767490102480014],[80.2240155269363,28.767871589256824],[80.2240357687695,28.768557728246783],[80.22399155033784,28.769169031152657],[80.22392626831413,28.769473306831316],[80.22405436323595,28.770160072202135],[80.22385927732627,28.770691536833745],[80.22383700904798,28.771149545639034],[80.22366355934179,28.771529904513145],[80.22361870851014,28.77244585893619],[80.22351003028804,28.772977825607754],[80.22344506733972,28.773054158987826],[80.2234017349346,28.773207327796502],[80.22299037351515,28.774024184382817],[80.22279573330259,28.774232930245017],[80.22244952904691,28.774727380641316],[80.22231997790834,28.774841724594232],[80.22212527565648,28.77501214550447],[80.22206031129191,28.775088479817406],[80.22197396621941,28.77512636428854],[80.221174399218,28.77583036810599],[80.2209368064406,28.775962027068065],[80.2207419786186,28.776152829408247],[80.22013686562863,28.776627707559584],[80.21994241174366,28.776856771583457],[80.21963884362134,28.77754334177359],[80.21957337515877,28.777829549571713],[80.21924905819643,28.778170706366833],[80.21916214491873,28.77840033416226],[80.21888084142202,28.778856900520054],[80.21868620052373,28.779067833819628],[80.21840483375314,28.779524336719533],[80.21816686351566,28.779791473061987],[80.21782040627737,28.78040102063699],[80.21773349278438,28.780628460633658],[80.21745200179377,28.781066896508623],[80.21725653705666,28.78177209922903],[80.21706151974485,28.782077872517746],[80.21706132780557,28.782229042175363],[80.21684397869441,28.782992824652272],[80.21677844300986,28.78345051930878],[80.2167995086791,28.78367858688989],[80.21675541816795,28.784136407474936],[80.216493156361,28.78581383099492],[80.21649226970445,28.78627196541804],[80.2165559066247,28.786807123496796],[80.216576909198,28.787035190194807],[80.21651162540681,28.78741617551715],[80.21659740068475,28.78772132878576],[80.21663965722362,28.788102941643082],[80.21663858183625,28.788637785700292],[80.21657298641536,28.789018771230996],[80.2166581267639,28.78970528602913],[80.21663529390305,28.790240005069126],[80.21674257474655,28.790621993908623],[80.21674105662774,28.79138471713075],[80.21684827709157,28.791689995608976],[80.21710655125653,28.79214957221442],[80.21729967531027,28.79260658445404],[80.21749279403781,28.79329366466527],[80.21770767874382,28.793676342406904],[80.21792249574658,28.794286837633187],[80.21835251083665,28.795203301643408],[80.21860977514704,28.796044240108884],[80.21876026212219,28.796349769986055],[80.21925549945375,28.796846861588943],[80.21944956957043,28.796981092366533],[80.2200321577186,28.79723042584433],[80.22067946120796,28.79730639721906],[80.22093849688292,28.79730783936415],[80.22152083722548,28.797462395385928],[80.221909482262,28.797482720535015],[80.22275091980848,28.797636468707168],[80.2236574469711,28.79769581479664],[80.22430462424317,28.797868814836235],[80.22508115806664,28.79823205994765],[80.22624589896924,28.798617881840798],[80.2265046813807,28.798750237260528],[80.22689288638797,28.79886752871439],[80.2276692323791,28.799251093230943],[80.22812239952823,28.79938457735],[80.22851054168939,28.79955600968354],[80.22902841934162,28.799730445246688],[80.22993475753701,28.799866501129678],[80.23122911013716,28.800266517426095],[80.23176830746563,28.800499782790506],[80.23191911171918,28.800595438243025],[80.23204846950902,28.800729355031145],[80.23215569200238,28.80095786119336],[80.23215531113992,28.80118574059754],[80.23204613088842,28.801796667732653],[80.23206631225447,28.802408346964594],[80.23213058118455,28.8026366651407],[80.23230251339676,28.802942320162874],[80.23232313778512,28.80332374409493],[80.23240909985226,28.803628897707046],[80.23255921211178,28.803934427304032],[80.23262354328537,28.804162683065965],[80.23262265937848,28.80454404460563],[80.23275100717842,28.805079641512062],[80.23294457120973,28.80546200627004],[80.23294393908905,28.805766720553386],[80.23307222658777,28.806225544976822],[80.2330932920328,28.806453612163455],[80.2332223332572,28.806758954143923],[80.23378133264829,28.80775281741911],[80.23386711004967,28.8079811982782],[80.23393055728972,28.808590878522903],[80.23423115190185,28.809355357281824],[80.23438164045899,28.80958411457359],[80.23455325552229,28.810119899589168],[80.23478844638827,28.81111194402934],[80.23478806552671,28.811339823617327],[80.23483082772923,28.811493557009697],[80.23487295767865,28.811951879557284],[80.2351539407916,28.811856418498497],[80.23595331104634,28.81155403182336],[80.23619134339448,28.811325219214567],[80.23638636500927,28.810886281866836],[80.23653817677945,28.810677223506534],[80.23673275219524,28.810563255879575],[80.23712146423583,28.810450355462258],[80.23763965902427,28.810450989684238],[80.2383521793828,28.810337719653724],[80.2385463143225,28.81037717229221],[80.23938844348676,28.810359307244237],[80.23964754200402,28.810322425421333],[80.23997172889013,28.810227215942483],[80.2403607550802,28.810017286922417],[80.24068494410221,28.809788976162903],[80.24133382719842,28.80921932034854],[80.2416580775562,28.80906771925253],[80.2424141131607,28.80898845970192],[80.24255128921156,28.809029849714435],[80.24349307398879,28.809321702364283],[80.24360073894395,28.80935846445013],[80.24429131271523,28.809263011395043],[80.24472322885453,28.80911197496435],[80.24487453876218,28.8089976945591],[80.24504773339866,28.808788823818407],[80.24513464802743,28.808502679618986]]]}}]}