{"type":"FeatureCollection","features":[{"type":"Feature","properties":{"province":"Sudurpashchim Province","district":"Bajhang","municipality":"Bitthadchir Rural Municipality","ward":"4","wardNumber":4,"sourceMunicipality":"Bithadchir","sourceType":"Gaunpalika"},"geometry":{"type":"Polygon","coordinates":[[[80.83150773456485,29.55516883939959],[80.83040808278241,29.554285125782158],[80.82908585839108,29.55281673763885],[80.82873544683575,29.551117108890555],[80.82940100258881,29.54858844118396],[80.829005105087,29.548414196045595],[80.82724019738028,29.547640191942346],[80.82618180683544,29.547022806881913],[80.8256534334827,29.54624813405142],[80.82477338275429,29.544550060993046],[80.8249511535525,29.54377858781252],[80.82460029840843,29.54238811241382],[80.82440192203875,29.541805625696497],[80.82460124753376,29.541846516269473],[80.82680852441452,29.541926135690893],[80.82768186316552,29.541654194602575],[80.82901713044143,29.541236217805736],[80.83078482726297,29.540078593684598],[80.83334783860808,29.53838494956909],[80.83582028399668,29.538232256059196],[80.83820527032823,29.537463442694346],[80.83979506986134,29.537156189625957],[80.84081383530484,29.537087497619062],[80.84079389033528,29.53705129912241],[80.84046764888912,29.536669620211246],[80.83989137161949,29.536416224739696],[80.83925757719996,29.53596189356405],[80.83919630729709,29.535765460708152],[80.83908527225708,29.535406541042743],[80.83897061058025,29.535104076013386],[80.83836001198078,29.534656560215854],[80.83810085169864,29.53457271915961],[80.83744710377131,29.53451775504235],[80.83718925850556,29.5343979036804],[80.83612349259234,29.533604529361277],[80.83585971072962,29.533333446442267],[80.83574316847289,29.533213722084678],[80.83536077877498,29.53289731092712],[80.83530832278095,29.532854359658607],[80.83493562454105,29.532544762968424],[80.83442837843675,29.532034168515604],[80.83430383442699,29.53186705520435],[80.8336224397979,29.53236262712065],[80.83256208449127,29.533056313615198],[80.83097272715791,29.5331310613435],[80.82858881601467,29.533283693680147],[80.82748812513812,29.534315791624554],[80.82743935598052,29.53436311754364],[80.82629059360967,29.534977654761224],[80.82443790295027,29.53420352423804],[80.82355532000759,29.53404890219975],[80.82161181720852,29.534662301575004],[80.8203386994141,29.53501719889958],[80.8206396823482,29.53535605278838],[80.82098997321607,29.536823300211033],[80.82169383632917,29.538290929157647],[80.82204412348142,29.539990557690658],[80.8231008693193,29.541535401414887],[80.8208946643028,29.54099320805936],[80.81868859006495,29.540218509271977],[80.81665768774491,29.540369146737223],[80.81624609675168,29.540188087459903],[80.81612779482336,29.54052412176955],[80.81453666979613,29.541447117412478],[80.81384683403854,29.541949378674033],[80.81347568767798,29.54221738884727],[80.81091508280815,29.542369455559477],[80.80932484306234,29.54282981606563],[80.80879324451733,29.543833226515584],[80.80746570609139,29.5454514922065],[80.80689334804106,29.546163692668628],[80.8073892771963,29.546624772636083],[80.80756002762568,29.54674456013842],[80.80759841389997,29.546898105827452],[80.80772183367827,29.546999825491845],[80.8079808664261,29.54721457944002],[80.8088302377694,29.547924301111202],[80.80917374017575,29.548085040888378],[80.80922375971181,29.54808960554189],[80.8096959383091,29.548137564304557],[80.80990513693112,29.548410959802162],[80.81019755300112,29.54880176677015],[80.810372182661,29.54880652117237],[80.81071337004475,29.549043971013816],[80.81117253208883,29.54966741028416],[80.81130114226251,29.54974656099842],[80.811614255874,29.550006579118755],[80.81168346948414,29.55006303456424],[80.8123140061974,29.55084689873567],[80.81243761263154,29.55100050893641],[80.81249819576338,29.551084096665935],[80.81268801289684,29.551350615355947],[80.81311254232784,29.551705475742217],[80.81340646023331,29.552055645669892],[80.81400868083284,29.5524694631098],[80.81404675744368,29.55249434588858],[80.8143943896919,29.552542178512418],[80.8147420837878,29.55258782194048],[80.81508602377237,29.55275075054511],[80.81561335126466,29.55264991611175],[80.81608928016126,29.552776961145977],[80.81639858784146,29.55267131018555],[80.81692966994488,29.55245544253175],[80.81708454219034,29.552419497025877],[80.8173109951564,29.552810239849627],[80.81751750431229,29.553160282983907],[80.81771613132051,29.553738205585663],[80.81784336503857,29.553855679262295],[80.81788031510125,29.553907633053058],[80.81801011131863,29.55408837501756],[80.81809345243501,29.554205786289845],[80.81812539525383,29.55455107467485],[80.81793556331984,29.555004392826394],[80.81781743764233,29.55591584535576],[80.81762385276133,29.556484258388203],[80.81761372245099,29.55655415366427],[80.81791776995192,29.556836678823498],[80.8181059637362,29.556965531955456],[80.81855806706767,29.557273004673945],[80.81866854468096,29.557376973760547],[80.81881184637724,29.55751032789045],[80.81916091759214,29.557517522674008],[80.81927739960827,29.55750864741109],[80.81951136374123,29.557488707289945],[80.81986556463659,29.557346984129026],[80.82160705852351,29.55646025078721],[80.82164282196115,29.556467066346038],[80.8220369709143,29.556537530062354],[80.82203146795734,29.556564663417607],[80.82220084257766,29.55672283744638],[80.82271934850654,29.55688820613057],[80.8232439874535,29.55686408268348],[80.82428337826727,29.55712042407677],[80.8248145223066,29.55690680664776],[80.82569361110586,29.55673870843476],[80.8263826172177,29.55702392833706],[80.8267354420801,29.556918277697616],[80.82690894480552,29.556961418209728],[80.82707938245898,29.557081205627526],[80.82730346562654,29.55715829452118],[80.8276839838808,29.557287337639952],[80.82817510411284,29.55747302472966],[80.8287503125329,29.558042388184486],[80.82887479275513,29.55823657171468],[80.8292111618382,29.558722157080144],[80.82930239831158,29.558004698718598],[80.82955031514591,29.557522123140394],[80.82979716406575,29.557305813575905],[80.83022889537709,29.55708975754603],[80.83078461681123,29.556603060286047],[80.830970508895,29.556174562562287],[80.83127976159845,29.55568754993181],[80.83140381497283,29.555367270691665],[80.83150773456485,29.55516883939959]]]}},{"type":"Feature","properties":{"province":"Sudurpashchim Province","district":"Bajhang","municipality":"Bitthadchir Rural Municipality","ward":"5","wardNumber":5,"sourceMunicipality":"Bithadchir","sourceType":"Gaunpalika"},"geometry":{"type":"Polygon","coordinates":[[[80.83430383442699,29.53186705520435],[80.83404186681517,29.53151694835757],[80.83375926668745,29.531137520301293],[80.83364392027362,29.530677008382487],[80.83367950163884,29.530401803413827],[80.83376179584855,29.52976330512178],[80.8336026200712,29.52930047990823],[80.8336127546323,29.52899589081525],[80.83420449430164,29.528285816444477],[80.83430203758982,29.52798360434559],[80.83447392369092,29.527606934585112],[80.83418637838109,29.52752309257022],[80.8337949174448,29.527472947503988],[80.83353031486287,29.52754258822847],[80.83195344427526,29.528515411494155],[80.83192437039882,29.52853347873854],[80.8312608005002,29.52878310388147],[80.8301188596299,29.529081799314923],[80.82989733793421,29.52905216201206],[80.82954595261515,29.52911942651915],[80.82936175656656,29.529150745091453],[80.82915073778494,29.529184313959576],[80.82885175322127,29.528985376112303],[80.82841946580464,29.528860707411418],[80.82793709396847,29.52892328109915],[80.82740995322473,29.52902417714906],[80.82645553060048,29.52884692292392],[80.82585005326483,29.528676864483728],[80.8252085674174,29.528278924693712],[80.8247031358669,29.52772988108871],[80.82456020930677,29.527553765015764],[80.82445173337189,29.52741816076804],[80.82428749022459,29.527108817812945],[80.82395787639447,29.52652620455917],[80.82357830213941,29.52613308383991],[80.82310475072975,29.525931641650974],[80.82293306182561,29.52585017831754],[80.8226895948391,29.52581147556624],[80.82262900985029,29.52580234655473],[80.82238004022341,29.525795278155687],[80.82223585985089,29.52579283806533],[80.82180013157296,29.52578095281556],[80.82146306499483,29.525789450226718],[80.82110117754186,29.525800322088834],[80.82044811717678,29.52574529641221],[80.8197131535115,29.52553447281649],[80.81960455084904,29.52549145828709],[80.81941179127772,29.525412182066315],[80.81875785657613,29.525339088566025],[80.8187149653831,29.525334523726837],[80.81863756104887,29.52532539524777],[80.8184982581606,29.525311701348393],[80.81823941132654,29.52522785971407],[80.81818557805254,29.525225546307173],[80.81692065926838,29.525192203754415],[80.8153237523941,29.52452435838065],[80.81455214055467,29.524755664034647],[80.81418800935333,29.524403180552266],[80.8132771771305,29.523700210625773],[80.81247582092638,29.52312584194104],[80.81152809007601,29.522837930579893],[80.80999689071108,29.522420596631363],[80.80926748885805,29.522356378592516],[80.80831956852683,29.52219481650357],[80.8073345677356,29.522224998160834],[80.80634956396537,29.522383778613968],[80.80572894870588,29.522606271793748],[80.80514528567797,29.52273179926791],[80.80455954108604,29.523784661684477],[80.80402577253085,29.52393963588112],[80.80378274071279,29.524009214920373],[80.80295417442339,29.52403733504833],[80.80186095745086,29.523460336246224],[80.80076811927843,29.522693719860325],[80.79993043720228,29.52208546615618],[80.79938423762555,29.52167171169542],[80.79854611370845,29.521286835675696],[80.79736116845244,29.5209849783009],[80.79694834760382,29.51982900780028],[80.79577632478545,29.520486119738276],[80.79513420160876,29.52065209596116],[80.79449188905193,29.520915162668313],[80.79434026534045,29.521079645952852],[80.79449005774816,29.521806486818054],[80.79448835146943,29.522697810292872],[80.79448753094125,29.523092738401573],[80.79486416724869,29.523425029155028],[80.79512674798984,29.52438212597236],[80.7954279136305,29.524910661025057],[80.79629542443098,29.52527521881661],[80.79674758658582,29.525772371254654],[80.79723820877508,29.525903980552997],[80.79803100677199,29.526072166804315],[80.79837000509501,29.52636825923832],[80.79844502551235,29.526765564392637],[80.79829283307384,29.527227884765406],[80.79814076236768,29.527855003236734],[80.79883838684734,29.528659312881118],[80.7988857161495,29.528700012264512],[80.80036425288698,29.530004230539802],[80.80043838914264,29.530864109033462],[80.80085215757735,29.53155744315598],[80.80107798412233,29.532020395087326],[80.80171896830844,29.532483915438206],[80.80198268625531,29.532879223298366],[80.80224564801794,29.533506911552916],[80.8029251522862,29.533740302998513],[80.80367974691012,29.534005454448547],[80.80420712165281,29.53466740687578],[80.8045445347463,29.536021809152352],[80.80446704697096,29.537077742461427],[80.8043140961287,29.537934990978346],[80.8041991583206,29.538859947879434],[80.80370670441343,29.53965129687411],[80.8031391009324,29.54024614943728],[80.80294914092562,29.54083938314628],[80.80287529603525,29.541053632218915],[80.80283502798744,29.541170916192957],[80.80298513536077,29.541798414883047],[80.8030469042269,29.542039986092544],[80.80303558015319,29.542385149950885],[80.80315324203771,29.54276895195687],[80.8031771256847,29.542784893870788],[80.80370900933563,29.543128565765105],[80.80522001232183,29.543627235517036],[80.80555500555793,29.544056428567632],[80.80596789886923,29.544754327041495],[80.80644132581628,29.544958081934745],[80.8067391218976,29.545195468266705],[80.80694037568487,29.54569668124698],[80.8069287390533,29.546039656793646],[80.80683889110654,29.546113989454454],[80.80689334804106,29.546163692668628],[80.80746570609139,29.5454514922065],[80.80879324451733,29.543833226515584],[80.80932484306234,29.54282981606563],[80.81091508280815,29.542369455559477],[80.81347568767798,29.54221738884727],[80.81384683403854,29.541949378674033],[80.81453666979613,29.541447117412478],[80.81612779482336,29.54052412176955],[80.81624609675168,29.540188087459903],[80.81665768774491,29.540369146737223],[80.81868859006495,29.540218509271977],[80.8208946643028,29.54099320805936],[80.8231008693193,29.541535401414887],[80.82204412348142,29.539990557690658],[80.82169383632917,29.538290929157647],[80.82098997321607,29.536823300211033],[80.8206396823482,29.53535605278838],[80.8203386994141,29.53501719889958],[80.82161181720852,29.534662301575004],[80.82355532000759,29.53404890219975],[80.82443790295027,29.53420352423804],[80.82629059360967,29.534977654761224],[80.82743935598052,29.53436311754364],[80.82748812513812,29.534315791624554],[80.82858881601467,29.533283693680147],[80.83097272715791,29.5331310613435],[80.83256208449127,29.533056313615198],[80.8336224397979,29.53236262712065],[80.83430383442699,29.53186705520435]]]}},{"type":"Feature","properties":{"province":"Sudurpashchim Province","district":"Bajhang","municipality":"Bitthadchir Rural Municipality","ward":"6","wardNumber":6,"sourceMunicipality":"Bithadchir","sourceType":"Gaunpalika"},"geometry":{"type":"Polygon","coordinates":[[[80.85733353171784,29.554411266582008],[80.85774333762981,29.553195478427348],[80.85774384469075,29.552856941894383],[80.85778413159248,29.55177612601556],[80.85790093700692,29.551234719391356],[80.85797872734867,29.550729322779752],[80.85836544007057,29.55056052880928],[80.85859740358546,29.550560782855637],[80.85913854498058,29.550696705981952],[80.85979503491767,29.551202864002637],[80.86041339363896,29.55127120582538],[80.86107058359484,29.551204196782198],[80.86176654140662,29.550936378672354],[80.86203752409935,29.550733573895982],[80.86277199504993,29.550531213210768],[80.86331351601953,29.550430253843416],[80.86416377609953,29.550532672375194],[80.86470466766632,29.550634710416],[80.86547764570793,29.55083859495333],[80.86632809510637,29.55080559782884],[80.86686911471749,29.550806168898674],[80.86707869711287,29.550670945352607],[80.86776190370648,29.550231639231395],[80.86827691993457,29.549875605085937],[80.86855384514378,29.549501312360384],[80.86871284719263,29.54928706494218],[80.86891111838094,29.548883324126237],[80.86904367866816,29.548411875329602],[80.86908407962368,29.547892911535826],[80.86900674452104,29.547534117563206],[80.86879537140467,29.546554515276092],[80.86875655186223,29.546139268342127],[80.86882283526013,29.545757970009497],[80.87091871705941,29.544758146280056],[80.87179614466507,29.54322902436079],[80.87289240255947,29.541826504839133],[80.87347676326769,29.54118851469401],[80.874170537379,29.540710760374484],[80.87548403615716,29.540775174501285],[80.876834502421,29.540106249080374],[80.87716395789212,29.53921292928984],[80.87716465772012,29.538608190210528],[80.87763998323554,29.53765185462566],[80.87767745134228,29.536821486421083],[80.87742362800678,29.535672708648306],[80.8772063869806,29.534205775148536],[80.8768064433871,29.533120013913564],[80.8767705010598,29.53267319485579],[80.87710052904626,29.531303798287343],[80.87721115543658,29.530218482326617],[80.87695670137983,29.52935628858413],[80.87677539740407,29.528591123716094],[80.87659384457241,29.52776056474889],[80.87655841040265,29.52690081296367],[80.87659019167295,29.525957599044364],[80.87549064224692,29.526261233417628],[80.87429050287001,29.525973568418575],[80.87178002710544,29.526925683825173],[80.87079694939304,29.527687454651165],[80.86948770068052,29.527686184291795],[80.86774381120247,29.526443355904103],[80.86618348784722,29.525381270820453],[80.86578134022015,29.525105559347065],[80.86130997572764,29.523765160304826],[80.85956380498672,29.52404996644403],[80.85465098066312,29.524775854098706],[80.8544348359037,29.52480942314031],[80.85279725900075,29.525570370676235],[80.85028558565652,29.526998187773536],[80.84821095936046,29.52814211567934],[80.84733533706151,29.530047973796435],[80.84765947887566,29.53224393445396],[80.84700295577892,29.53338719656666],[80.84536316302126,29.53548616145569],[80.84274238988216,29.53672192049473],[80.84079389033528,29.53705129912241],[80.84081383530484,29.537087497619062],[80.83979506986134,29.537156189625957],[80.83820527032823,29.537463442694346],[80.83582028399668,29.538232256059196],[80.83334783860808,29.53838494956909],[80.83078482726297,29.540078593684598],[80.82901713044143,29.541236217805736],[80.82768186316552,29.541654194602575],[80.82680852441452,29.541926135690893],[80.82460124753376,29.541846516269473],[80.82440192203875,29.541805625696497],[80.82460029840843,29.54238811241382],[80.8249511535525,29.54377858781252],[80.82477338275429,29.544550060993046],[80.8256534334827,29.54624813405142],[80.82618180683544,29.547022806881913],[80.82724019738028,29.547640191942346],[80.829005105087,29.548414196045595],[80.82940100258881,29.54858844118396],[80.82873544683575,29.551117108890555],[80.82908585839108,29.55281673763885],[80.83040808278241,29.554285125782158],[80.83150773456485,29.55516883939959],[80.8316957502859,29.554808049279238],[80.83177478119237,29.554772039610285],[80.83325541698738,29.55434512469079],[80.83374929558516,29.554183272548475],[80.83475236570395,29.55418228752039],[80.83493124901108,29.55406513177298],[80.83650022248696,29.554035459348214],[80.83719297960833,29.554388323655207],[80.83774012225149,29.554580826402532],[80.83835877789566,29.555441275313864],[80.83832112173491,29.556271643180146],[80.83875802690301,29.55684531772309],[80.83980604030049,29.55739261897927],[80.83987150270613,29.557376865592627],[80.84026446475737,29.557386437079504],[80.84198650695495,29.556860434725618],[80.84264413355518,29.556800302458146],[80.84304078687235,29.55669471497196],[80.84332589905443,29.55653929867029],[80.84357487184792,29.556404200337468],[80.84388711980445,29.556221839425135],[80.84411439898736,29.555960329188782],[80.84616214010241,29.554829967126356],[80.84643187250671,29.55460684336871],[80.84679639538179,29.55415821679544],[80.84689131099243,29.55393040229069],[80.84701154661234,29.553792926129987],[80.84711852766874,29.553671079023477],[80.84730347968896,29.553368994070002],[80.84864769917233,29.5523731600163],[80.84891474169574,29.552226808794824],[80.8488799794671,29.5521703547791],[80.84969684939145,29.55236298594327],[80.851108306122,29.55327627572181],[80.85167977646188,29.553193384677826],[80.85270122404673,29.553384081721894],[80.85302921835195,29.553673233782582],[80.85353908830409,29.554246972205338],[80.85448801359315,29.554216415414444],[80.85623924421935,29.55418668322765],[80.85733353171784,29.554411266582008]]]}},{"type":"Feature","properties":{"province":"Sudurpashchim Province","district":"Bajhang","municipality":"Bitthadchir Rural Municipality","ward":"2","wardNumber":2,"sourceMunicipality":"Bithadchir","sourceType":"Gaunpalika"},"geometry":{"type":"Polygon","coordinates":[[[80.82090370868158,29.575833666781506],[80.8209359714959,29.575804408308183],[80.82112798573608,29.57563317417783],[80.82206885820611,29.574932608284293],[80.82242443489586,29.57475031044616],[80.82246801397025,29.5747526242441],[80.82272967623051,29.574759755180427],[80.8235215446479,29.57458934250431],[80.82392207705264,29.57437097264535],[80.82486257422524,29.57367040689212],[80.82512698885996,29.57360082812369],[80.82537545952617,29.573580825942994],[80.82547749874912,29.573571949818692],[80.82586783304843,29.573660419720287],[80.8262539766019,29.573859546747034],[80.82644217384306,29.573837230497627],[80.82645999395876,29.57378534051604],[80.82652483462692,29.573600349749547],[80.82659900690125,29.572686583087155],[80.82674156745112,29.572346048235357],[80.82680196655593,29.57229647185608],[80.8269661567755,29.57216130997651],[80.8272805327321,29.571902176139616],[80.82750887513147,29.57160240466933],[80.82779124506251,29.571000232496864],[80.82829676607282,29.570249582681427],[80.82848665978368,29.569796140911347],[80.82863297475785,29.569342822234812],[80.82864830255173,29.568884751391273],[80.82833001296011,29.56795922517293],[80.82831195943332,29.567194188223556],[80.82854023926949,29.566896666469436],[80.82885361383437,29.566675919894312],[80.82882536233758,29.56621553460562],[80.82870963984338,29.56575508504433],[80.82854558318851,29.565445742037983],[80.8284349915592,29.56483181002299],[80.8281263875418,29.56413191311572],[80.82811025718809,29.56409583905795],[80.82812051768066,29.56379112562653],[80.82840288770299,29.5631890162192],[80.82855427048736,29.562582215726806],[80.82866201122597,29.56197310105146],[80.82864432100946,29.561781294328537],[80.8285977501833,29.56128477359024],[80.82857456708068,29.56067321851559],[80.8287259487551,29.560066418302537],[80.82904676827194,29.55961554138491],[80.82914474660933,29.559455433653092],[80.82923146932895,29.5593156437041],[80.82928555858187,29.55901111765281],[80.82929131474776,29.558837380049013],[80.8292111618382,29.558722157080144],[80.82887479275513,29.55823657171468],[80.8287503125329,29.558042388184486],[80.82817510411284,29.55747302472966],[80.8276839838808,29.557287337639952],[80.82730346562654,29.55715829452118],[80.82707938245898,29.557081205627526],[80.82690894480552,29.556961418209728],[80.8267354420801,29.556918277697616],[80.8263826172177,29.55702392833706],[80.82569361110586,29.55673870843476],[80.8248145223066,29.55690680664776],[80.82428337826727,29.55712042407677],[80.8232439874535,29.55686408268348],[80.82271934850654,29.55688820613057],[80.82220084257766,29.55672283744638],[80.82203146795734,29.556564663417607],[80.8220369709143,29.556537530062354],[80.82164282196115,29.556467066346038],[80.82160705852351,29.55646025078721],[80.81986556463659,29.557346984129026],[80.81951136374123,29.557488707289945],[80.81927739960827,29.55750864741109],[80.81916091759214,29.557517522674008],[80.81881184637724,29.55751032789045],[80.81866854468096,29.557376973760547],[80.81855806706767,29.557273004673945],[80.8181059637362,29.556965531955456],[80.81791776995192,29.556836678823498],[80.81761372245099,29.55655415366427],[80.81762385276133,29.556484258388203],[80.81781743764233,29.55591584535576],[80.81793556331984,29.555004392826394],[80.81812539525383,29.55455107467485],[80.81809345243501,29.554205786289845],[80.81801011131863,29.55408837501756],[80.81788031510125,29.553907633053058],[80.81784336503857,29.553855679262295],[80.81771613132051,29.553738205585663],[80.81751750431229,29.553160282983907],[80.8173109951564,29.552810239849627],[80.81708454219034,29.552419497025877],[80.81692966994488,29.55245544253175],[80.81639858784146,29.55267131018555],[80.81608928016126,29.552776961145977],[80.81561335126466,29.55264991611175],[80.81508602377237,29.55275075054511],[80.8147420837878,29.55258782194048],[80.8143943896919,29.552542178512418],[80.81404675744368,29.55249434588858],[80.81400868083284,29.5524694631098],[80.81340646023331,29.552055645669892],[80.81311254232784,29.551705475742217],[80.81268801289684,29.551350615355947],[80.81249819576338,29.551084096665935],[80.81243761263154,29.55100050893641],[80.8123140061974,29.55084689873567],[80.81168346948414,29.55006303456424],[80.811614255874,29.550006579118755],[80.81130114226251,29.54974656099842],[80.81117253208883,29.54966741028416],[80.81071337004475,29.549043971013816],[80.810372182661,29.54880652117237],[80.81019755300112,29.54880176677015],[80.80990513693112,29.548410959802162],[80.8096959383091,29.548137564304557],[80.80922375971181,29.54808960554189],[80.80917374017575,29.548085040888378],[80.8088302377694,29.547924301111202],[80.8079808664261,29.54721457944002],[80.80772183367827,29.546999825491845],[80.80759841389997,29.546898105827452],[80.80756002762568,29.54674456013842],[80.8073892771963,29.546624772636083],[80.80689334804106,29.546163692668628],[80.80683889110654,29.546113989454454],[80.8069287390533,29.546039656793646],[80.80694037568487,29.54569668124698],[80.8067391218976,29.545195468266705],[80.80644132581628,29.544958081934745],[80.80596789886923,29.544754327041495],[80.80555500555793,29.544056428567632],[80.80522001232183,29.543627235517036],[80.80370900933563,29.543128565765105],[80.8031771256847,29.542784893870788],[80.80315324203771,29.54276895195687],[80.80303558015319,29.542385149950885],[80.8030469042269,29.542039986092544],[80.80298513536077,29.541798414883047],[80.80283502798744,29.541170916192957],[80.80287529603525,29.541053632218915],[80.80265008570639,29.541053316020186],[80.8011981567837,29.541051167707916],[80.7994312216576,29.541628433958635],[80.79556830836002,29.5418143652747],[80.79247838497497,29.54161782229673],[80.79174660459731,29.541688894148557],[80.79137363995633,29.542193786277664],[80.78960456109232,29.543639681847168],[80.7892868744749,29.543747520811944],[80.78939428741614,29.543898816411048],[80.79073560129059,29.54439510844888],[80.79122827332895,29.545135958216814],[80.79164978501561,29.546310058581106],[80.79157471231295,29.54847169113642],[80.79114662855456,29.550693710282577],[80.79057724419516,29.552732673890375],[80.7907164009372,29.553782233285098],[80.79090013774412,29.55479790852795],[80.78836565332952,29.555701008341632],[80.78505098264584,29.557239157199078],[80.78312660595294,29.558107068846226],[80.78206769331393,29.558586004522088],[80.77698836560863,29.559349335702645],[80.77411549334751,29.5606961844007],[80.76990156469012,29.561126744034745],[80.77102058740915,29.56252317121133],[80.77138513779917,29.56381680604429],[80.77171349974843,29.564437868401228],[80.77263401403991,29.56560835018899],[80.77266720815602,29.56591525322919],[80.7726230606279,29.566190521105124],[80.77261192945146,29.566258165604854],[80.77250332050835,29.56650392312965],[80.77265962700702,29.566682478025694],[80.7727341511854,29.566865345435396],[80.77289045272643,29.567251523193434],[80.7735188070604,29.567764809162437],[80.7739891697417,29.567939304908588],[80.77406557324802,29.56796656414726],[80.77418180348172,29.56805471642084],[80.77439838290822,29.568217580349913],[80.77489393425694,29.56882539102267],[80.77501128429387,29.569164054489804],[80.77511450486553,29.569462144188407],[80.77516420821654,29.5696043737328],[80.77466482227393,29.56999841895844],[80.77471896451028,29.57016096731957],[80.77459921831182,29.570781271902174],[80.77480228219453,29.57144728342482],[80.77605738489473,29.571508070814804],[80.7765783309731,29.571596980132032],[80.77784262070583,29.571854075138372],[80.77787976009175,29.57186095318114],[80.77817299566837,29.571890716369946],[80.77827941104884,29.571902158702283],[80.7784023331498,29.571913664198142],[80.77879229245407,29.572000070068505],[80.77922370381731,29.57216325005719],[80.77948017272189,29.57232386350166],[80.77997148133258,29.57252324225456],[80.78008990433939,29.57237676397191],[80.78061910851227,29.572237731031166],[80.78083500380565,29.572242611673325],[80.78122990363143,29.572254558300244],[80.78210542592139,29.57220180693916],[80.78281157504475,29.57199081852859],[80.78298232810818,29.571950496645243],[80.78325193198448,29.571887733004257],[80.78343194211733,29.571739129813945],[80.78359919322557,29.57170781040908],[80.78356918508881,29.571552077042416],[80.78376089379815,29.571060436052978],[80.78385355706511,29.570909393317443],[80.7841217253434,29.57072478079286],[80.78486294257195,29.57086139521764],[80.78520507091106,29.570983811736802],[80.78607133462147,29.571197325115108],[80.78723683799149,29.571323255237136],[80.78794304343269,29.57139885064519],[80.78859635372984,29.571454064825517],[80.788904348438,29.57138454938211],[80.78900119919307,29.571319281930446],[80.78939610480353,29.57105371024636],[80.79006274019197,29.570727500399727],[80.79031840432741,29.570545138217412],[80.79042081946994,29.570470805935184],[80.79042607211144,29.570443798222065],[80.79067872845665,29.57059084522685],[80.79158750716864,29.57084499607405],[80.79209444703285,29.570985669846408],[80.79279908756415,29.57118080105163],[80.79294845613916,29.571217126522264],[80.7936657260859,29.571394252066447],[80.79423156571357,29.571449276855528],[80.79466948323447,29.571420650868006],[80.7947066225065,29.571418463081308],[80.79482566771716,29.571409587400556],[80.79506350859103,29.571394149315957],[80.79529153553301,29.5712861840003],[80.79537425511985,29.571247985808814],[80.79559371451327,29.571216730584116],[80.7960752113425,29.571190355670595],[80.79633824984974,29.571159162368374],[80.79651688281818,29.571048883739117],[80.7965683437247,29.570821067575338],[80.79670446128216,29.570672400772896],[80.79692398392082,29.57063883236603],[80.79709717345911,29.57068197246453],[80.79739484478118,29.570919359101257],[80.79765412952366,29.571003199944823],[80.79788784496054,29.570922305347416],[80.79796343702301,29.570895423489144],[80.79809442472629,29.570900051660505],[80.79839209601944,29.571137438902937],[80.79873609793248,29.571298178234525],[80.79917689169892,29.571278555001903],[80.79930469029777,29.571274243262273],[80.79974260789547,29.571247804548424],[80.80008392527134,29.57127988233666],[80.80030882294626,29.571300579447758],[80.8011751493234,29.57151396734726],[80.8015020204254,29.571658827911403],[80.80255203634843,29.572122979742186],[80.80263525501266,29.572168244358405],[80.80315294649303,29.572444271623862],[80.80330125239834,29.572487410767053],[80.80345574776547,29.572530488633962],[80.80398213726181,29.572465853035702],[80.80433640050124,29.572324192290697],[80.80482815714362,29.571993227608225],[80.8053596770276,29.57177736065734],[80.80540650651203,29.571775173044625],[80.80571406243143,29.57175754757325],[80.80584117327464,29.571750985337626],[80.80672044903113,29.57158301263186],[80.80711347410382,29.57159258396399],[80.80763717348115,29.571606908778218],[80.80775434363936,29.57158446613015],[80.8078130540879,29.57157327664068],[80.8078590104244,29.571496629419684],[80.80800275340091,29.57144042764244],[80.80812480092166,29.57139097780495],[80.80877842474776,29.571446066962864],[80.80965007008558,29.57139087706491],[80.81008235516579,29.571632891809323],[80.81023766241202,29.57175499261544],[80.8106352449334,29.572066965280165],[80.81113435738048,29.572805564668492],[80.81164128997315,29.57331622153739],[80.8119510921203,29.57349496675631],[80.81219830900237,29.57363744996403],[80.81284379860843,29.573920417347598],[80.81416434521947,29.574910603882863],[80.8143093942534,29.575186123621478],[80.81432871340714,29.575222259446846],[80.81461994049096,29.575649139678017],[80.81500376916745,29.575927226721596],[80.81565576584315,29.57602063953991],[80.81591473731058,29.576104543055884],[80.81629994228095,29.57634418155959],[80.81653265265929,29.57649791846145],[80.8165989271313,29.576543182409683],[80.81698388170788,29.576782883418627],[80.81737283962637,29.576907488702062],[80.81802859050615,29.57688586709735],[80.81828525241545,29.576809474483806],[80.81852609567233,29.576737581464766],[80.81873467623682,29.576676942429334],[80.81939555739771,29.57650183925391],[80.82000510261216,29.576493658031584],[80.82049673286377,29.57622577534239],[80.82058789500763,29.57611530658021],[80.82090370868158,29.575833666781506]]]}},{"type":"Feature","properties":{"province":"Sudurpashchim Province","district":"Bajhang","municipality":"Bitthadchir Rural Municipality","ward":"3","wardNumber":3,"sourceMunicipality":"Bithadchir","sourceType":"Gaunpalika"},"geometry":{"type":"Polygon","coordinates":[[[80.80287529603525,29.541053632218915],[80.80294914092562,29.54083938314628],[80.8031391009324,29.54024614943728],[80.80370670441343,29.53965129687411],[80.8041991583206,29.538859947879434],[80.8043140961287,29.537934990978346],[80.80446704697096,29.537077742461427],[80.8045445347463,29.536021809152352],[80.80420712165281,29.53466740687578],[80.80367974691012,29.534005454448547],[80.8029251522862,29.533740302998513],[80.80224564801794,29.533506911552916],[80.80198268625531,29.532879223298366],[80.80171896830844,29.532483915438206],[80.80107798412233,29.532020395087326],[80.80085215757735,29.53155744315598],[80.80043838914264,29.530864109033462],[80.80036425288698,29.530004230539802],[80.7988857161495,29.528700012264512],[80.79883838684734,29.528659312881118],[80.79814076236768,29.527855003236734],[80.79829283307384,29.527227884765406],[80.79844502551235,29.526765564392637],[80.79837000509501,29.52636825923832],[80.79803100677199,29.526072166804315],[80.79723820877508,29.525903980552997],[80.79674758658582,29.525772371254654],[80.79629542443098,29.52527521881661],[80.7954279136305,29.524910661025057],[80.79512674798984,29.52438212597236],[80.79486416724869,29.523425029155028],[80.79448753094125,29.523092738401573],[80.79448835146943,29.522697810292872],[80.79449005774816,29.521806486818054],[80.79434026534045,29.521079645952852],[80.79449188905193,29.520915162668313],[80.79513420160876,29.52065209596116],[80.79577632478545,29.520486119738276],[80.79694834760382,29.51982900780028],[80.79644078889187,29.519352548497803],[80.79587564779087,29.518764804178513],[80.79525255014626,29.518075343189157],[80.79359507498752,29.516527113392307],[80.79213740840744,29.515886215032545],[80.79089844621934,29.51537435848259],[80.79009601520559,29.515404666733783],[80.7877250477333,29.51552729056767],[80.78745738255283,29.515542666063386],[80.787278376382,29.515551415894386],[80.78659424017819,29.515590916572783],[80.78571783520525,29.51600471150924],[80.78498805174534,29.516290158155215],[80.78454956674764,29.51654441361857],[80.7844026241893,29.517085757226717],[80.78425580795549,29.517595466698236],[80.78443673981661,29.51820277275411],[80.78431006442553,29.518324431212942],[80.78405588243893,29.519400367574043],[80.78400348588056,29.519490580645098],[80.78367003454211,29.52005867962816],[80.78365609035141,29.520121822514785],[80.78361963605992,29.520281993691544],[80.78314040977145,29.52238879088346],[80.78306143968769,29.52252407988719],[80.78213630429111,29.52412015804438],[80.78133247819413,29.525068860712512],[80.78005908738791,29.526574094339125],[80.77978422176211,29.527074611530225],[80.77971169179175,29.527207648816795],[80.7797913948653,29.527916295431503],[80.77955479302732,29.52847101722832],[80.77937652912667,29.528888198982727],[80.77945242240253,29.529423106657845],[80.77955358211005,29.52961960355884],[80.77995346867327,29.530396462069618],[80.77983728871264,29.530881414776726],[80.77979714705667,29.530940056684617],[80.78081233596068,29.53148554498611],[80.78178086661116,29.53272142215932],[80.78160019746818,29.534573711756313],[80.78159786176286,29.53565459114272],[80.78195011059816,29.536119982669394],[80.78336321507769,29.535966585667158],[80.78459704121923,29.5368960024336],[80.78547791662677,29.537978333167324],[80.78750591432204,29.539215852947684],[80.78944594380224,29.540299825558552],[80.79006272829679,29.540919079015364],[80.79072446251335,29.541791095427882],[80.78861465512425,29.541997622928047],[80.78387042108388,29.54141012557716],[80.78056275482028,29.53986130708072],[80.77758179683153,29.540339275327106],[80.77581410542676,29.541205063361478],[80.77470588951768,29.543326605673528],[80.77282898271825,29.543515192981708],[80.7712823773558,29.544284269468044],[80.77083881492372,29.545152266719093],[80.76796764291493,29.54591907038178],[80.7655357445549,29.5475553245832],[80.76448533284446,29.54811534645759],[80.7648736620865,29.548427443794413],[80.77010134673506,29.548190519921157],[80.7723609499591,29.548564478152603],[80.77341890181683,29.549245506289935],[80.77483118335257,29.549556995120714],[80.7770230382339,29.54863325904994],[80.77878845549156,29.548884423318242],[80.78013236026561,29.54802012884123],[80.78066525412352,29.54786752935415],[80.78065606551563,29.547775002772248],[80.7818709115183,29.547391159493237],[80.78363967589655,29.546042354082843],[80.78517565639618,29.545070031220483],[80.78529419377209,29.54543576538075],[80.78543448715276,29.54593016243866],[80.78472575429727,29.547163387385705],[80.78444251501173,29.54747203543118],[80.78429906414125,29.548460135722312],[80.78394321569938,29.549693929315904],[80.78408193123636,29.550930668087158],[80.78379540889564,29.55278283152261],[80.78322760192547,29.554140345459963],[80.78336505694993,29.555808086541692],[80.78336196308821,29.557290645520954],[80.78312660595294,29.558107068846226],[80.78505098264584,29.557239157199078],[80.78836565332952,29.555701008341632],[80.79090013774412,29.55479790852795],[80.7907164009372,29.553782233285098],[80.79057724419516,29.552732673890375],[80.79114662855456,29.550693710282577],[80.79157471231295,29.54847169113642],[80.79164978501561,29.546310058581106],[80.79122827332895,29.545135958216814],[80.79073560129059,29.54439510844888],[80.78939428741614,29.543898816411048],[80.7892868744749,29.543747520811944],[80.78960456109232,29.543639681847168],[80.79137363995633,29.542193786277664],[80.79174660459731,29.541688894148557],[80.79247838497497,29.54161782229673],[80.79556830836002,29.5418143652747],[80.7994312216576,29.541628433958635],[80.8011981567837,29.541051167707916],[80.80265008570639,29.541053316020186],[80.80287529603525,29.541053632218915]]]}},{"type":"Feature","properties":{"province":"Sudurpashchim Province","district":"Bajhang","municipality":"Bitthadchir Rural Municipality","ward":"1","wardNumber":1,"sourceMunicipality":"Bithadchir","sourceType":"Gaunpalika"},"geometry":{"type":"Polygon","coordinates":[[[80.76990156469012,29.561126744034745],[80.77411549334751,29.5606961844007],[80.77698836560863,29.559349335702645],[80.78206769331393,29.558586004522088],[80.78312660595294,29.558107068846226],[80.78336196308821,29.557290645520954],[80.78336505694993,29.555808086541692],[80.78322760192547,29.554140345459963],[80.78379540889564,29.55278283152261],[80.78408193123636,29.550930668087158],[80.78394321569938,29.549693929315904],[80.78429906414125,29.548460135722312],[80.78444251501173,29.54747203543118],[80.78472575429727,29.547163387385705],[80.78543448715276,29.54593016243866],[80.78529419377209,29.54543576538075],[80.78517565639618,29.545070031220483],[80.78363967589655,29.546042354082843],[80.7818709115183,29.547391159493237],[80.78065606551563,29.547775002772248],[80.78066525412352,29.54786752935415],[80.78013236026561,29.54802012884123],[80.77878845549156,29.548884423318242],[80.7770230382339,29.54863325904994],[80.77483118335257,29.549556995120714],[80.77341890181683,29.549245506289935],[80.7723609499591,29.548564478152603],[80.77010134673506,29.548190519921157],[80.7648736620865,29.548427443794413],[80.76448533284446,29.54811534645759],[80.7655357445549,29.5475553245832],[80.76796764291493,29.54591907038178],[80.77083881492372,29.545152266719093],[80.7712823773558,29.544284269468044],[80.77282898271825,29.543515192981708],[80.77470588951768,29.543326605673528],[80.77581410542676,29.541205063361478],[80.77758179683153,29.540339275327106],[80.78056275482028,29.53986130708072],[80.78387042108388,29.54141012557716],[80.78861465512425,29.541997622928047],[80.79072446251335,29.541791095427882],[80.79006272829679,29.540919079015364],[80.78944594380224,29.540299825558552],[80.78750591432204,29.539215852947684],[80.78547791662677,29.537978333167324],[80.78459704121923,29.5368960024336],[80.78336321507769,29.535966585667158],[80.78195011059816,29.536119982669394],[80.78159786176286,29.53565459114272],[80.78160019746818,29.534573711756313],[80.78178086661116,29.53272142215932],[80.78081233596068,29.53148554498611],[80.77979714705667,29.530940056684617],[80.77973662229556,29.5310302066584],[80.77919727521652,29.53182136780791],[80.77894423699698,29.532035301801322],[80.77889771918981,29.53207356161485],[80.7768523048124,29.53255985975319],[80.77567278398209,29.532977588194658],[80.77535578575277,29.533110184965867],[80.7741728939082,29.53328421698486],[80.7734356130324,29.533242318231878],[80.77291160602692,29.53303387406801],[80.77228343052697,29.53296959468546],[80.77174972747822,29.53291450791289],[80.77093909729139,29.533384757671243],[80.76906188170065,29.533356719672703],[80.7684347650322,29.53351131752881],[80.76819535723003,29.533711748047697],[80.76787678439413,29.534372373655646],[80.76754828105732,29.534554547028314],[80.76675378113572,29.534995475965072],[80.76542626890497,29.53533386654857],[80.76415690798146,29.535408368679715],[80.76306806034255,29.535210105274157],[80.76262689204306,29.535204784747403],[80.76251522449189,29.535202344268907],[80.76199727499592,29.535307492347492],[80.76051844574584,29.536090135679853],[80.7588548558598,29.53696942952622],[80.75848865337915,29.53700262041763],[80.75841475006662,29.537009246990504],[80.75739705188343,29.53686518800214],[80.75719553812955,29.536837801513006],[80.75544774663372,29.536886538058127],[80.75485808115121,29.537034384808063],[80.75431161985175,29.5371732917033],[80.75354775718834,29.537609595316557],[80.7520582968787,29.5384598205715],[80.75199902523812,29.538434874458535],[80.75184508828258,29.538581290363894],[80.75134489493188,29.53873132618447],[80.75126924067622,29.53875395624671],[80.74929098489449,29.538854079323013],[80.7486336120404,29.538701649743263],[80.74838439090199,29.538786544932776],[80.74792221584377,29.538714266580097],[80.74743320614408,29.539264170456686],[80.74655561661645,29.539477093167708],[80.74639528112048,29.540676254390032],[80.74575221032369,29.5412982391646],[80.74546281418291,29.54304262027482],[80.7455289833363,29.54509928645516],[80.74509898807044,29.546033240853134],[80.74509381750516,29.54808978058507],[80.74445068383454,29.54877409580993],[80.74430277046646,29.55089265241305],[80.74494136397527,29.552077946497082],[80.74490226552103,29.553090430720687],[80.74484753674805,29.55409534931827],[80.74499949199641,29.55601422648005],[80.74510195160131,29.55683671850577],[80.74551847231552,29.557431399785948],[80.74530567256404,29.558938400167033],[80.74556368098943,29.56026373014607],[80.74655326936376,29.562092093997066],[80.74724440521229,29.562244524191026],[80.74905346287616,29.562547267008895],[80.74983537985177,29.562848055067764],[80.75130016593303,29.563919830016772],[80.75213129238733,29.564092393694576],[80.7525703871883,29.564563600963066],[80.75310726958078,29.565034997683906],[80.75398760397619,29.565079337856776],[80.75445615221416,29.565357301372032],[80.75497697945221,29.565161939788524],[80.75534749580636,29.565149066577955],[80.75594928849965,29.565129821238564],[80.75800789791278,29.56455143401103],[80.75839135792408,29.564493360299593],[80.75876387614814,29.56443547470356],[80.76012814341976,29.564562033825876],[80.76109770332086,29.56440806586832],[80.76155200416406,29.564282474014696],[80.76228923210171,29.563852797708662],[80.76382938877259,29.563503532054348],[80.7653039624588,29.562923947646865],[80.76567811075978,29.562683196438897],[80.76666623847484,29.562610440119077],[80.76791221557933,29.562520058671172],[80.76878975147409,29.56182887037051],[80.76915059017952,29.561188625503185],[80.76954506300618,29.56068160859979],[80.76971105976226,29.56088948455473],[80.76990156469012,29.561126744034745]]]}},{"type":"Feature","properties":{"province":"Sudurpashchim Province","district":"Bajhang","municipality":"Bitthadchir Rural Municipality","ward":"9","wardNumber":9,"sourceMunicipality":"Bithadchir","sourceType":"Gaunpalika"},"geometry":{"type":"Polygon","coordinates":[[[80.86312922096353,29.508705963222216],[80.86371769642379,29.508660208689935],[80.86428179255613,29.50835837890271],[80.86472922034265,29.50796845892921],[80.86599503088435,29.507161929662722],[80.8668637416416,29.50693712683139],[80.86741333254648,29.50659691073112],[80.86775984752552,29.506197861783196],[80.8680115760144,29.505816753922815],[80.86858838335343,29.504605594814212],[80.86892402003438,29.504120770822105],[80.87006466952758,29.502779145441835],[80.87068310132172,29.502312704841334],[80.87165785346579,29.502049642761218],[80.87222276501441,29.5015920799396],[80.87406128144015,29.50142005750691],[80.87561476162097,29.50070393429248],[80.87716273579339,29.500254138213403],[80.87785350584188,29.499922989790868],[80.87819320573678,29.49952162693057],[80.87840604859917,29.498923830447954],[80.87856167236971,29.498786354646217],[80.87914102346382,29.498549919518354],[80.8806634180847,29.498420405001035],[80.8809832950527,29.49817921400454],[80.88150120270797,29.49700631521981],[80.88165413782329,29.496893597756273],[80.8823679780775,29.496627968118506],[80.88271042573024,29.49637552424884],[80.88339112967542,29.4960195555746],[80.88420982226069,29.495726919466208],[80.88454332589079,29.495645963689846],[80.88455989131438,29.49581526309684],[80.88492931491493,29.497331962982358],[80.88575835219186,29.498738450773487],[80.88606970086873,29.49971580431133],[80.88601867444504,29.50008134784248],[80.88522698501174,29.50073502738778],[80.88501358575843,29.501003352761533],[80.88495887366602,29.50119965989594],[80.88505640139381,29.501651043704154],[80.88531437000009,29.501935631152385],[80.88566950136537,29.50210962449252],[80.88656333499605,29.50242629353818],[80.88713842703082,29.502555402675174],[80.88739658525711,29.502695572992717],[80.88768043931736,29.502907889434194],[80.88796278814296,29.50333914468856],[80.88834923919747,29.503752397174956],[80.89018435705604,29.50471970857815],[80.89053923901325,29.504848626391976],[80.8910560587083,29.50494603751178],[80.89148941056409,29.504980241915025],[80.89189382164417,29.504642086540553],[80.89231998761257,29.50445291242728],[80.89348638889638,29.503472205416173],[80.89422174123452,29.50299901568632],[80.89498818223191,29.50178329606066],[80.89522199123552,29.500156509841844],[80.89539525892779,29.49941648365934],[80.89542446830738,29.49887720114945],[80.8948081685973,29.4958732487363],[80.89477567046491,29.495119590137772],[80.89490172503758,29.494821816990495],[80.8956554663203,29.49399196042276],[80.89638838358687,29.493313334519655],[80.89658765369073,29.492961484500796],[80.89662867648096,29.49261851001111],[80.89664455999073,29.492485408651024],[80.89629195971436,29.490772401140962],[80.89584107337176,29.488964552227156],[80.89561702678478,29.48705536428146],[80.89567168156647,29.486561220030282],[80.89542653606385,29.48604656599432],[80.89407630347308,29.484465894620126],[80.89324418667331,29.48384244919915],[80.8931115789785,29.483553487613186],[80.89303612252023,29.4830953521256],[80.89312397861144,29.482547130304063],[80.89328705179005,29.4820034113719],[80.89402292308401,29.4805485583591],[80.89421671018705,29.479262372322804],[80.89421528135756,29.478779543387965],[80.89408293383158,29.478012253341696],[80.8940806393516,29.477087044736628],[80.89401381154744,29.476561201978136],[80.89405809928293,29.47548263702125],[80.89418090889588,29.47487120956417],[80.89468187383055,29.47362372672097],[80.89468144029895,29.4734364217982],[80.8950394682858,29.472558920493928],[80.89552529759858,29.471595770670888],[80.89587156800864,29.470910012119067],[80.89792651984075,29.468682140741134],[80.89817387287775,29.468242328156975],[80.89821689036548,29.46814529990705],[80.89828466880228,29.46803026720305],[80.89880838544252,29.46713707612867],[80.89904767302713,29.466728835057342],[80.8993273460933,29.46652365400749],[80.89972006702762,29.466059148720728],[80.90017355861225,29.465743563465118],[80.9003646989635,29.46547292433567],[80.90139023216406,29.46455748434169],[80.90182565991967,29.463977883731584],[80.9021802453774,29.4632876235879],[80.90274724639836,29.46152342789475],[80.9031895546064,29.460767776070487],[80.90343734128933,29.460517519212566],[80.9038642578895,29.460316966113435],[80.9047122108352,29.460062591799],[80.90525398482762,29.459758323658203],[80.90641224890152,29.459231124584026],[80.90658644390774,29.45907551896106],[80.90706119980763,29.458383073484992],[80.90770354115097,29.45665501426223],[80.90789843311056,29.456395627935606],[80.90837581089224,29.45597401176107],[80.90861403513387,29.455552204066578],[80.9087866097029,29.455053685618655],[80.90880612130532,29.45484156187001],[80.90888229185158,29.45401794645461],[80.90889730197846,29.453819325654493],[80.90896476798814,29.45367047072773],[80.90813876758308,29.453593185558066],[80.90735297468092,29.453279019220417],[80.90673893517338,29.452942349080626],[80.90663014516355,29.45283619101038],[80.90636799498306,29.452242575708034],[80.90636533379984,29.450881864707092],[80.90657673939984,29.45022536255245],[80.90612093998863,29.450247611906125],[80.90464230820234,29.450605382294192],[80.90372401339096,29.450988293418433],[80.90260608355344,29.45123797451275],[80.90239425081917,29.451332624325396],[80.90204711813472,29.45136394063079],[80.90150453289117,29.451537295374084],[80.9010737390094,29.451803241895984],[80.90051876586256,29.452387279562796],[80.90002888615315,29.452698363778886],[80.89924489711694,29.452857960891578],[80.89899448895493,29.45285783211841],[80.8987549593912,29.452938851679768],[80.89756750574216,29.453025984547033],[80.8958310331288,29.45294337154577],[80.89516203140319,29.45283457966057],[80.89456737338904,29.452540734233565],[80.89351979093759,29.45234134761793],[80.89209206121487,29.452277057321474],[80.89093737974345,29.451894739572843],[80.89004691763928,29.45177887990882],[80.88975343313378,29.45169522603815],[80.88868533795699,29.451721404966897],[80.88824967361606,29.451646563511158],[80.88725517846296,29.451235053358758],[80.88562081245732,29.450951632480454],[80.88365337935785,29.450794244370428],[80.88338515109587,29.450843629623108],[80.88268775591683,29.451084501808896],[80.88188025815812,29.45125528995247],[80.88153924792691,29.451512234980424],[80.8814170056949,29.451911537282452],[80.88141743974919,29.452085276485676],[80.88184727252198,29.453024370188796],[80.88200818805338,29.454087308836097],[80.88227064229086,29.455098547223013],[80.88227175899124,29.45554080138157],[80.88205522905098,29.45605057297186],[80.88172359178478,29.45659866598026],[80.88073907183212,29.45759969372818],[80.88002565759957,29.458508449611394],[80.87945166766961,29.459575253034266],[80.87918017151364,29.460484390735225],[80.87858480265604,29.461327816073194],[80.87788083619483,29.46192291713689],[80.87755838861077,29.46253865512629],[80.87719910675746,29.463531190986647],[80.87710274254853,29.46430735429711],[80.8770003229886,29.464548736036615],[80.87613096601889,29.465890553290922],[80.87595532649762,29.466389134471317],[80.87548369803166,29.466946040354227],[80.87516693798823,29.46766787193995],[80.87509207027036,29.469039773254803],[80.87443301806971,29.471598074478738],[80.87418566703738,29.471927292221157],[80.87375116862714,29.472953648826994],[80.87338614865378,29.473275925729673],[80.87321226791069,29.473372826584335],[80.87274339877878,29.473512297574025],[80.87197154103653,29.47361531596764],[80.87140951773245,29.47344557033001],[80.86996425227764,29.474820638182827],[80.86940534310098,29.475271449290428],[80.8691212335774,29.475363659916233],[80.86840714848698,29.475358459277658],[80.86670093363907,29.475530546662952],[80.86586105453365,29.47537848943672],[80.86586879813981,29.475843375620656],[80.86588022625828,29.476493253299658],[80.86608716043574,29.477513430566738],[80.86603025117273,29.47813392380569],[80.86536690317529,29.4797557012444],[80.86509291480316,29.480233837264127],[80.8640519266283,29.481688247614056],[80.86293128317371,29.483138030416733],[80.86248009426305,29.484019906798867],[80.86232008506721,29.484518425935054],[80.86225785375098,29.48554053632139],[80.86247561210165,29.486150030671013],[80.86264960913039,29.48645937436404],[80.86362852652238,29.487358465593182],[80.86477738347853,29.488271250110678],[80.86579569032894,29.48917265525668],[80.86611080341441,29.48955883557397],[80.86624390934065,29.48987486813069],[80.86617769023482,29.490215529022667],[80.86592946193366,29.4906462765576],[80.86561427223576,29.491034134987743],[80.86523311972526,29.49135641171913],[80.86446869534906,29.49180921942828],[80.86354201489247,29.492552923517472],[80.86228038564911,29.493740815129655],[80.86210968855978,29.49407465985137],[80.86200200331966,29.495026749397173],[80.86215529451583,29.49590919822731],[80.86237311573636,29.49648937164426],[80.86329999504287,29.49830460490516],[80.86364692988626,29.49877881237995],[80.86387688258039,29.499252891973697],[80.86325458876784,29.498976989242063],[80.86282061742928,29.498687710393384],[80.86223578005415,29.49817036166442],[80.86199700402314,29.498025691003217],[80.86143854627132,29.49780624297692],[80.8608421968516,29.49766344198569],[80.86046386397807,29.497733019136625],[80.8601504259741,29.49800571933849],[80.85998878673202,29.49878406987181],[80.86010232063492,29.499237767337082],[80.86070220456877,29.50081792699631],[80.86096583779559,29.502330061482912],[80.86073167141241,29.503072150734504],[80.85972595705947,29.503971523145616],[80.85966599141696,29.504231036217693],[80.85944683777711,29.504612081905947],[80.85857580457173,29.50534459523657],[80.85810962394685,29.50550432235784],[80.85825529374895,29.50603923179833],[80.85855771050741,29.506574331002195],[80.85912034713088,29.507305991539162],[80.85976157979692,29.507904739278313],[80.86089299391472,29.508720495598215],[80.86254305963436,29.508751529814337],[80.86312922096353,29.508705963222216]]]}},{"type":"Feature","properties":{"province":"Sudurpashchim Province","district":"Bajhang","municipality":"Bitthadchir Rural Municipality","ward":"8","wardNumber":8,"sourceMunicipality":"Bithadchir","sourceType":"Gaunpalika"},"geometry":{"type":"Polygon","coordinates":[[[80.87659019167295,29.525957599044364],[80.87659613472786,29.525783860816407],[80.87667742070185,29.525571800294642],[80.8768524339802,29.52511391860785],[80.87725555558049,29.523550528847995],[80.87692800674066,29.522913900213123],[80.8765273004322,29.522466700506126],[80.87558007963987,29.521667014391898],[80.87528898218724,29.52099662548217],[80.87525354867354,29.520168382800033],[80.87510831455171,29.519721499439754],[80.87503592498426,29.51908281052686],[80.87540157914191,29.518318217192164],[80.8759131617632,29.517680100903632],[80.876387661722,29.517330693259343],[80.87853979976593,29.51704389221428],[80.87919674368644,29.516757880565205],[80.88134925990042,29.516344605123038],[80.88306398675205,29.515772963643276],[80.88375731821635,29.515550159249873],[80.88412316409394,29.514562125332613],[80.88416063493295,29.513636979057946],[80.88441687715289,29.512614996799183],[80.88500142752828,29.511882102821478],[80.88613280920808,29.51121286178207],[80.88788424365164,29.510323002183338],[80.88796846472316,29.5102554218228],[80.88886994810487,29.509525033986755],[80.8894808191943,29.5088192112173],[80.88964857857293,29.50843810170651],[80.88995301285459,29.508167464907537],[80.8902277492976,29.507826994741333],[80.89051411921707,29.507256331581093],[80.89102057220603,29.506771572453026],[80.8911638836412,29.506417408360413],[80.89134102854504,29.505634556186795],[80.89138643310208,29.505065952508698],[80.89148941056409,29.504980241915025],[80.8910560587083,29.50494603751178],[80.89053923901325,29.504848626391976],[80.89018435705604,29.50471970857815],[80.88834923919747,29.503752397174956],[80.88796278814296,29.50333914468856],[80.88768043931736,29.502907889434194],[80.88739658525711,29.502695572992717],[80.88713842703082,29.502555402675174],[80.88656333499605,29.50242629353818],[80.88566950136537,29.50210962449252],[80.88531437000009,29.501935631152385],[80.88505640139381,29.501651043704154],[80.88495887366602,29.50119965989594],[80.88501358575843,29.501003352761533],[80.88522698501174,29.50073502738778],[80.88601867444504,29.50008134784248],[80.88606970086873,29.49971580431133],[80.88575835219186,29.498738450773487],[80.88492931491493,29.497331962982358],[80.88455989131438,29.49581526309684],[80.88454332589079,29.495645963689846],[80.88420982226069,29.495726919466208],[80.88339112967542,29.4960195555746],[80.88271042573024,29.49637552424884],[80.8823679780775,29.496627968118506],[80.88165413782329,29.496893597756273],[80.88150120270797,29.49700631521981],[80.8809832950527,29.49817921400454],[80.8806634180847,29.498420405001035],[80.87914102346382,29.498549919518354],[80.87856167236971,29.498786354646217],[80.87840604859917,29.498923830447954],[80.87819320573678,29.49952162693057],[80.87785350584188,29.499922989790868],[80.87716273579339,29.500254138213403],[80.87561476162097,29.50070393429248],[80.87406128144015,29.50142005750691],[80.87222276501441,29.5015920799396],[80.87165785346579,29.502049642761218],[80.87068310132172,29.502312704841334],[80.87006466952758,29.502779145441835],[80.86892402003438,29.504120770822105],[80.86858838335343,29.504605594814212],[80.8680115760144,29.505816753922815],[80.86775984752552,29.506197861783196],[80.86741333254648,29.50659691073112],[80.8668637416416,29.50693712683139],[80.86599503088435,29.507161929662722],[80.86472922034265,29.50796845892921],[80.86428179255613,29.50835837890271],[80.86371769642379,29.508660208689935],[80.86312922096353,29.508705963222216],[80.8630747606452,29.5088168067357],[80.86286561476214,29.509020738480277],[80.86264821552133,29.509210540533005],[80.86154627523415,29.5102173193049],[80.85931872755725,29.51080389391604],[80.85794507219957,29.511167979680554],[80.85434260073548,29.51297614147193],[80.8513281694064,29.51464939766306],[80.85073943804925,29.51497598421611],[80.84801138880466,29.51545126916355],[80.84659195428895,29.51640190123257],[80.84550091322244,29.51640069619742],[80.84484419902793,29.517735764871915],[80.84375011703004,29.51973827221691],[80.84287607871757,29.520597009947906],[80.84134741864712,29.52135789683457],[80.83851007596625,29.521927707693386],[80.83621908055846,29.521796258447424],[80.83621768707224,29.522687582414868],[80.83708862151792,29.523834994681216],[80.83763299895125,29.52469312926774],[80.83981483029821,29.524695726234075],[80.84188792967093,29.524795225656366],[80.84352468231738,29.524605382445777],[80.84548887198243,29.524415857465122],[80.8453777387726,29.52584858787188],[80.84395748658049,29.52699102528799],[80.84209885573729,29.529373944996895],[80.84144182051166,29.531090374949013],[80.84132961632154,29.532904530279815],[80.84209156865536,29.534146468779223],[80.84132619509144,29.535097860479485],[80.84034425686832,29.53519368572119],[80.83919630729709,29.535765460708152],[80.83925757719996,29.53596189356405],[80.83989137161949,29.536416224739696],[80.84046764888912,29.536669620211246],[80.84079389033528,29.53705129912241],[80.84274238988216,29.53672192049473],[80.84536316302126,29.53548616145569],[80.84700295577892,29.53338719656666],[80.84765947887566,29.53224393445396],[80.84733533706151,29.530047973796435],[80.84821095936046,29.52814211567934],[80.85028558565652,29.526998187773536],[80.85279725900075,29.525570370676235],[80.8544348359037,29.52480942314031],[80.85465098066312,29.524775854098706],[80.85956380498672,29.52404996644403],[80.86130997572764,29.523765160304826],[80.86578134022015,29.525105559347065],[80.86618348784722,29.525381270820453],[80.86774381120247,29.526443355904103],[80.86948770068052,29.527686184291795],[80.87079694939304,29.527687454651165],[80.87178002710544,29.526925683825173],[80.87429050287001,29.525973568418575],[80.87549064224692,29.526261233417628],[80.87659019167295,29.525957599044364]]]}},{"type":"Feature","properties":{"province":"Sudurpashchim Province","district":"Bajhang","municipality":"Bitthadchir Rural Municipality","ward":"7","wardNumber":7,"sourceMunicipality":"Bithadchir","sourceType":"Gaunpalika"},"geometry":{"type":"Polygon","coordinates":[[[80.86312922096353,29.508705963222216],[80.86254305963436,29.508751529814337],[80.86089299391472,29.508720495598215],[80.85976157979692,29.507904739278313],[80.85912034713088,29.507305991539162],[80.85855771050741,29.506574331002195],[80.85825529374895,29.50603923179833],[80.85810962394685,29.50550432235784],[80.85857580457173,29.50534459523657],[80.85944683777711,29.504612081905947],[80.85966599141696,29.504231036217693],[80.85972595705947,29.503971523145616],[80.86073167141241,29.503072150734504],[80.86096583779559,29.502330061482912],[80.86070220456877,29.50081792699631],[80.86010232063492,29.499237767337082],[80.85998878673202,29.49878406987181],[80.8601504259741,29.49800571933849],[80.86046386397807,29.497733019136625],[80.8608421968516,29.49766344198569],[80.86143854627132,29.49780624297692],[80.86199700402314,29.498025691003217],[80.86223578005415,29.49817036166442],[80.86282061742928,29.498687710393384],[80.86325458876784,29.498976989242063],[80.86387688258039,29.499252891973697],[80.86364692988626,29.49877881237995],[80.86329999504287,29.49830460490516],[80.86237311573636,29.49648937164426],[80.86215529451583,29.49590919822731],[80.86200200331966,29.495026749397173],[80.86210968855978,29.49407465985137],[80.86228038564911,29.493740815129655],[80.86354201489247,29.492552923517472],[80.86446869534906,29.49180921942828],[80.86523311972526,29.49135641171913],[80.86561427223576,29.491034134987743],[80.86592946193366,29.4906462765576],[80.86617769023482,29.490215529022667],[80.86624390934065,29.48987486813069],[80.86611080341441,29.48955883557397],[80.86579569032894,29.48917265525668],[80.86477738347853,29.488271250110678],[80.86362852652238,29.487358465593182],[80.86264960913039,29.48645937436404],[80.86247561210165,29.486150030671013],[80.86225785375098,29.48554053632139],[80.86232008506721,29.484518425935054],[80.86248009426305,29.484019906798867],[80.86293128317371,29.483138030416733],[80.8640519266283,29.481688247614056],[80.86509291480316,29.480233837264127],[80.86536690317529,29.4797557012444],[80.86603025117273,29.47813392380569],[80.86608716043574,29.477513430566738],[80.86588022625828,29.476493253299658],[80.86586879813981,29.475843375620656],[80.86586105453365,29.47537848943672],[80.86483322876984,29.475194606913423],[80.86406575020774,29.47514201693461],[80.86355093425901,29.47488418390334],[80.8631143388605,29.47446411674868],[80.86244890120726,29.474298683115084],[80.86156719044398,29.474320363567376],[80.86070029239794,29.474585740526326],[80.8600510359092,29.475056680821098],[80.85952708006815,29.475369764129503],[80.85776051871207,29.47605393816249],[80.85654010432074,29.476697982352242],[80.85513111344093,29.47752914183357],[80.85468637518021,29.47786710928849],[80.8541622235308,29.478595502595997],[80.85408644078333,29.478771365435797],[80.85404810514729,29.479218057696055],[80.85384957920249,29.47983842423652],[80.8531806645406,29.481570734056554],[80.85313613552032,29.482159655693795],[80.85329486454853,29.483145946856776],[80.853267283665,29.48353174781087],[80.85310633757511,29.484019012571455],[80.8517569242919,29.485238286465645],[80.85119257677496,29.485576126920968],[80.85064510964594,29.4860516954816],[80.85047860142629,29.486398982463996],[80.85044945923434,29.486692317496164],[80.85096818864517,29.488218272278203],[80.85096768587397,29.488346935765264],[80.8499852892549,29.489478627179228],[80.84848582654644,29.490282527023794],[80.84795955366499,29.490778351660204],[80.84591966439356,29.49329655764245],[80.84509956458422,29.495127956867705],[80.84474628061321,29.496350560122654],[80.844444152164,29.49698880463939],[80.84434173592466,29.49712634369757],[80.84410488934772,29.49744874683777],[80.84373968096408,29.497795842697307],[80.84318865068131,29.498190074534953],[80.83911631696297,29.49977610154318],[80.83600890989973,29.50156176438341],[80.83506541782126,29.50196455536733],[80.83380192747511,29.50241654291802],[80.83293258775649,29.50283971592961],[80.83112881552655,29.50394763752368],[80.82941344906463,29.50523392564651],[80.82788034760068,29.50607139692893],[80.82741316325419,29.506391233926763],[80.82648110367086,29.50722946502625],[80.82623169044595,29.507517983073697],[80.82546907733732,29.50805406543217],[80.82448269045437,29.508580767499076],[80.82415274802548,29.5088150178825],[80.82412880031909,29.508819581192828],[80.82199466772614,29.509222854462884],[80.82151485550584,29.5093982100524],[80.82088917580799,29.50962533018641],[80.8209368732984,29.510011256536647],[80.82102464194486,29.51071765227089],[80.82083678882049,29.512274417894293],[80.82113261942293,29.513890458743393],[80.82129861173247,29.514294579372752],[80.82136843304941,29.515136389791124],[80.82175357787499,29.515274560898213],[80.82189930835634,29.51586592383852],[80.82175217655802,29.516502108181353],[80.82207947902738,29.517014763301702],[80.82222395520328,29.517779926977667],[80.82211365178831,29.518352906205223],[80.82193063605747,29.51879947165084],[80.82123699011812,29.519118992036613],[80.82098037824034,29.5198203806157],[80.82032337016555,29.520200856958862],[80.81973920582038,29.52042347575224],[80.81911846236646,29.52074305994908],[80.81835229010342,29.52102863162583],[80.81656289744875,29.52217475198589],[80.8160511250596,29.522875824832084],[80.81594038372009,29.523448803203415],[80.8153237523941,29.52452435838065],[80.81692065926838,29.525192203754415],[80.81818557805254,29.525225546307173],[80.81823941132654,29.52522785971407],[80.8184982581606,29.525311701348393],[80.81863756104887,29.52532539524777],[80.8187149653831,29.525334523726837],[80.81875785657613,29.525339088566025],[80.81941179127772,29.525412182066315],[80.81960455084904,29.52549145828709],[80.8197131535115,29.52553447281649],[80.82044811717678,29.52574529641221],[80.82110117754186,29.525800322088834],[80.82146306499483,29.525789450226718],[80.82180013157296,29.52578095281556],[80.82223585985089,29.52579283806533],[80.82238004022341,29.525795278155687],[80.82262900985029,29.52580234655473],[80.8226895948391,29.52581147556624],[80.82293306182561,29.52585017831754],[80.82310475072975,29.525931641650974],[80.82357830213941,29.52613308383991],[80.82395787639447,29.52652620455917],[80.82428749022459,29.527108817812945],[80.82445173337189,29.52741816076804],[80.82456020930677,29.527553765015764],[80.8247031358669,29.52772988108871],[80.8252085674174,29.528278924693712],[80.82585005326483,29.528676864483728],[80.82645553060048,29.52884692292392],[80.82740995322473,29.52902417714906],[80.82793709396847,29.52892328109915],[80.82841946580464,29.528860707411418],[80.82885175322127,29.528985376112303],[80.82915073778494,29.529184313959576],[80.82936175656656,29.529150745091453],[80.82954595261515,29.52911942651915],[80.82989733793421,29.52905216201206],[80.8301188596299,29.529081799314923],[80.8312608005002,29.52878310388147],[80.83192437039882,29.52853347873854],[80.83195344427526,29.528515411494155],[80.83353031486287,29.52754258822847],[80.8337949174448,29.527472947503988],[80.83418637838109,29.52752309257022],[80.83447392369092,29.527606934585112],[80.83430203758982,29.52798360434559],[80.83420449430164,29.528285816444477],[80.8336127546323,29.52899589081525],[80.8336026200712,29.52930047990823],[80.83376179584855,29.52976330512178],[80.83367950163884,29.530401803413827],[80.83364392027362,29.530677008382487],[80.83375926668745,29.531137520301293],[80.83404186681517,29.53151694835757],[80.83430383442699,29.53186705520435],[80.83442837843675,29.532034168515604],[80.83493562454105,29.532544762968424],[80.83530832278095,29.532854359658607],[80.83536077877498,29.53289731092712],[80.83574316847289,29.533213722084678],[80.83585971072962,29.533333446442267],[80.83612349259234,29.533604529361277],[80.83718925850556,29.5343979036804],[80.83744710377131,29.53451775504235],[80.83810085169864,29.53457271915961],[80.83836001198078,29.534656560215854],[80.83897061058025,29.535104076013386],[80.83908527225708,29.535406541042743],[80.83919630729709,29.535765460708152],[80.84034425686832,29.53519368572119],[80.84132619509144,29.535097860479485],[80.84209156865536,29.534146468779223],[80.84132961632154,29.532904530279815],[80.84144182051166,29.531090374949013],[80.84209885573729,29.529373944996895],[80.84395748658049,29.52699102528799],[80.8453777387726,29.52584858787188],[80.84548887198243,29.524415857465122],[80.84352468231738,29.524605382445777],[80.84188792967093,29.524795225656366],[80.83981483029821,29.524695726234075],[80.83763299895125,29.52469312926774],[80.83708862151792,29.523834994681216],[80.83621768707224,29.522687582414868],[80.83621908055846,29.521796258447424],[80.83851007596625,29.521927707693386],[80.84134741864712,29.52135789683457],[80.84287607871757,29.520597009947906],[80.84375011703004,29.51973827221691],[80.84484419902793,29.517735764871915],[80.84550091322244,29.51640069619742],[80.84659195428895,29.51640190123257],[80.84801138880466,29.51545126916355],[80.85073943804925,29.51497598421611],[80.8513281694064,29.51464939766306],[80.85434260073548,29.51297614147193],[80.85794507219957,29.511167979680554],[80.85931872755725,29.51080389391604],[80.86154627523415,29.5102173193049],[80.86264821552133,29.509210540533005],[80.86286561476214,29.509020738480277],[80.8630747606452,29.5088168067357],[80.86312922096353,29.508705963222216]]]}}]}