{"type":"FeatureCollection","features":[{"type":"Feature","properties":{"province":"Sudurpashchim Province","district":"Bajhang","municipality":"Durgathali Rural Municipality","ward":"1","wardNumber":1,"sourceMunicipality":"Durgathali","sourceType":"Gaunpalika"},"geometry":{"type":"Polygon","coordinates":[[[81.03830862318667,29.53637868649569],[81.03836245611264,29.53636962162958],[81.03858210399925,29.53625671714467],[81.0392393595242,29.536033160944225],[81.03950283761421,29.535884120909973],[81.03989461786037,29.535550029107178],[81.04091264531228,29.534805075466313],[81.04141996566578,29.534701114580077],[81.0416589344441,29.53454307175953],[81.04265432925108,29.533739413397814],[81.04276299810564,29.533628882742917],[81.04362804370194,29.53214145945158],[81.0439861307354,29.531435069968325],[81.04407542913421,29.530652028904644],[81.04461234006966,29.529661246352532],[81.04491034500948,29.528823943069906],[81.04502915968202,29.527781388823758],[81.04574550990252,29.527022927146174],[81.04636400038459,29.526760984364184],[81.0466032201381,29.526587124016892],[81.04690984175407,29.526341056318984],[81.04740116177965,29.525905373722807],[81.04786846817024,29.525749521649757],[81.0481757152895,29.525469569599053],[81.04846477146675,29.525031695361875],[81.04845008523209,29.524632328259326],[81.04873439074916,29.524133498484787],[81.0489421029904,29.5237114399432],[81.04921246603024,29.52316528390456],[81.04947994996404,29.522815435027194],[81.0501172069209,29.52204340598588],[81.05016310769092,29.521619219910125],[81.05024139128336,29.521404782791183],[81.0502800332852,29.521330323858002],[81.0509367343841,29.52062600201221],[81.05138391761363,29.519919613647797],[81.05138373660553,29.519554006556422],[81.05093588677933,29.51913662779896],[81.05123400806143,29.518719135303005],[81.05099469022203,29.517491771340854],[81.05111374690618,29.516891409855226],[81.0512325598077,29.515952636460252],[81.05125470886311,29.51511095261531],[81.05126196732617,29.514828869892803],[81.05108240855674,29.51430771495439],[81.05090316159595,29.513863144192328],[81.05126124388953,29.51341851913327],[81.0518876153486,29.513000843168406],[81.05224563663394,29.51245237522967],[81.05227940364833,29.512244752354224],[81.05230510410983,29.51208676867312],[81.05227528489688,29.51182725507214],[81.05188683162591,29.51146189217381],[81.05152857815622,29.511017506763984],[81.05134896201217,29.510259344797646],[81.0510801762928,29.510024771753816],[81.0510730489996,29.509984197138976],[81.05086774239318,29.50881766532713],[81.05000123667637,29.508208724430236],[81.04947997945607,29.507974210755787],[81.04872032341547,29.50756607960561],[81.04833218344115,29.507160080552097],[81.04826891168524,29.506988591746595],[81.0482040758377,29.50692994812164],[81.04812011202726,29.5066411124549],[81.04812286696162,29.506413233645944],[81.04816857538363,29.50624168348625],[81.04815721230422,29.505379743647545],[81.04820354682836,29.505149551610927],[81.04824862909913,29.50503676946783],[81.04847034381795,29.504750000450862],[81.04880535767364,29.504122572054595],[81.04891934631662,29.503720893063278],[81.04871685706347,29.502398565006693],[81.04876657327264,29.501881851720807],[81.04899104330538,29.50136726634189],[81.04923683293244,29.500911387119444],[81.0496651423554,29.499767182915797],[81.04982696792746,29.499040409749416],[81.04908813054998,29.49872711905817],[81.04865334261433,29.498571567533993],[81.04778483128719,29.498181502736806],[81.04595626882337,29.497726343209546],[81.04482202553588,29.497638738773418],[81.0444733937108,29.497580279212457],[81.04434152952244,29.49767505538252],[81.04422666450243,29.498133124892412],[81.04413769032163,29.498284355380765],[81.04356177089046,29.498950292527624],[81.04331723239879,29.49932939978913],[81.04274099913027,29.500051791346134],[81.04238241098585,29.50081450923418],[81.0423730804389,29.501579483402747],[81.04272681314534,29.503037103189442],[81.04270023285841,29.503420715222127],[81.04256310832963,29.503955557289615],[81.04240554085597,29.5043369794242],[81.04229217869924,29.504680016219],[81.04229036286422,29.50483343603659],[81.04226591178642,29.5050613772847],[81.04217480801367,29.50536827822206],[81.04209719781234,29.506361193203865],[81.04223823277157,29.50735848807875],[81.04234126264221,29.507857197480714],[81.04212455756424,29.507721842919576],[81.04160549234697,29.507315840849238],[81.04082463989337,29.50688732911183],[81.04023698218904,29.50672958727218],[81.03938659734388,29.50662604452636],[81.0389292994987,29.50652688368872],[81.03847262837935,29.506389398933774],[81.03833395222439,29.506312687315386],[81.03808267180838,29.506175143036184],[81.03697738432791,29.505688047070507],[81.03619534028071,29.505469408956515],[81.03560843107226,29.505370246281988],[81.03532620084717,29.505291344365844],[81.03506065548905,29.50563219035375],[81.03501551067244,29.505747285812085],[81.0348827071093,29.50591877171741],[81.033869553695,29.506828461241003],[81.03362770799957,29.506997756874288],[81.03305328983684,29.507643250991915],[81.03245886595073,29.508173710113475],[81.03228154358206,29.508401648757786],[81.03216786810248,29.50881914489982],[81.03163851239985,29.510315450764896],[81.03055622617275,29.510270483996216],[81.02993779994932,29.51045115377244],[81.02973152657543,29.510812255759667],[81.02916473574278,29.51144424578726],[81.02901047846242,29.512028726936155],[81.02870122908004,29.512389828628926],[81.0279796950301,29.51288640141321],[81.02730974257943,29.513382974085815],[81.02684580390036,29.51401484034244],[81.02633060161651,29.514328675164418],[81.02574206093455,29.51451159499361],[81.02569935449034,29.514658137242627],[81.02569535288612,29.514671829116395],[81.0256173809615,29.514940344040287],[81.02568395782217,29.515504447952498],[81.02581594112571,29.51573464164751],[81.02646267767189,29.5162738089363],[81.02734675575915,29.516702322470252],[81.02766449998258,29.516812859999785],[81.02872584183571,29.51681937682617],[81.02890390754062,29.51694572948043],[81.02918975810663,29.51736535605196],[81.02925459446415,29.517405932062772],[81.02935525718524,29.517453322124233],[81.02951319067434,29.51751421727923],[81.02970001136859,29.517570548715703],[81.02985063085846,29.5175953711746],[81.02994547868781,29.517613377738897],[81.02999581037227,29.517622381014213],[81.0296335723564,29.519615022192625],[81.02954177873768,29.52007534341704],[81.02942641697948,29.52033035415684],[81.02938614949352,29.520420629564185],[81.02783555256363,29.52077977526431],[81.02775914825423,29.520797842055764],[81.02695751759778,29.52142082537609],[81.02610829825737,29.52250638102584],[81.02494521384304,29.523395625044632],[81.02470442740602,29.5237251550025],[81.02478331554445,29.52466611981471],[81.02494386010436,29.525525874019674],[81.02519494082505,29.52629078968456],[81.02514128068675,29.52705351195917],[81.02543218438487,29.528125267990323],[81.02641283798052,29.529812963955937],[81.02663109603265,29.530494417058225],[81.02670599481925,29.530729049274417],[81.02722312083205,29.53119375563954],[81.02769554036819,29.53173073287069],[81.02803634583364,29.53234441776075],[81.028204464156,29.532804742444636],[81.02830424508969,29.53317022616918],[81.02841747537003,29.533188295545646],[81.02959041636318,29.53354229103614],[81.03023790274872,29.534043072652402],[81.03062829849145,29.53420093705175],[81.03114611287529,29.534625068375153],[81.03141358744864,29.534794184216985],[81.0318813850894,29.53508977786826],[81.03305119436105,29.535671590283446],[81.03382779148814,29.536289657541847],[81.0343530490987,29.53656030760754],[81.03474013383692,29.53656468891431],[81.03513553927421,29.53633894106245],[81.03566092973315,29.536192218117296],[81.03683800214199,29.536241437252606],[81.03705602307015,29.536243628518182],[81.03715537291883,29.536268450034527],[81.03788183438381,29.5364419491166],[81.03830862318667,29.53637868649569]]]}},{"type":"Feature","properties":{"province":"Sudurpashchim Province","district":"Bajhang","municipality":"Durgathali Rural Municipality","ward":"2","wardNumber":2,"sourceMunicipality":"Durgathali","sourceType":"Gaunpalika"},"geometry":{"type":"Polygon","coordinates":[[[81.04982696792746,29.499040409749416],[81.05000541732988,29.498715441277145],[81.05029290736042,29.498412981932333],[81.05075546470783,29.498072076163943],[81.05115068173491,29.497864396690197],[81.05141403459872,29.49777168522662],[81.05220070964442,29.49770148899893],[81.05246349881097,29.497626845198074],[81.05292298774614,29.497554456076557],[81.05338147560938,29.49753845760008],[81.05364363754948,29.49754064938763],[81.05373899975578,29.496852324276436],[81.05385386441911,29.496394192033712],[81.05388100898124,29.495936120857568],[81.05379767126814,29.495590892917313],[81.05366981437017,29.49534050508125],[81.05345492499832,29.495051730435293],[81.05317394785165,29.494819470748748],[81.05284882762119,29.494607466323153],[81.05250151051119,29.494449664518253],[81.05215325440628,29.49437082431807],[81.05189265800941,29.494253598859657],[81.05119545716288,29.494113922881972],[81.05076073239469,29.49395843359465],[81.05034857868849,29.493744176976442],[81.04995987533776,29.493396819499186],[81.04896357128018,29.492717981170937],[81.04788298869724,29.491809012208744],[81.04766628354524,29.491673719159383],[81.04712727692366,29.49111423434617],[81.04641432987017,29.490475974915228],[81.0463717528753,29.49039926384035],[81.04617724380103,29.490225585482857],[81.04548323684786,29.489837711623476],[81.04485437948111,29.48948816240546],[81.04380835850894,29.48932603799944],[81.04267286268582,29.489355717552257],[81.04214822496758,29.489407849919928],[81.0419738462781,29.489387591290964],[81.0415369920805,29.48942153265069],[81.04092569611691,29.489417272339207],[81.04057681406657,29.489394760755296],[81.03987973794607,29.489273153061408],[81.03933478229374,29.489192058944937],[81.03878894927348,29.48920805594286],[81.03835115537177,29.489298450326558],[81.0383343992622,29.489298450686942],[81.03634701806209,29.489280978863423],[81.03547681262415,29.48919769234833],[81.03478192595439,29.489019629830175],[81.03244180471829,29.48796647482643],[81.03113818871321,29.487686998915002],[81.03061774376309,29.48749080894681],[81.03009604713488,29.487391647432368],[81.02835977097727,29.48685946612428],[81.02775135402497,29.486739984946396],[81.0273154386605,29.486735601482362],[81.02705364964326,29.486789801849074],[81.02635569497644,29.486862187959662],[81.02513504191151,29.486907558558123],[81.02426007769084,29.487205569829158],[81.02382353569496,29.487280148476078],[81.02294926126277,29.487501450604324],[81.02242374376088,29.487727196481053],[81.02233671125327,29.48772494438424],[81.02181219590581,29.48787398018405],[81.02032699949035,29.48818561311837],[81.01892739513477,29.4886145927743],[81.01840381910274,29.48868685622154],[81.01788118350987,29.488662153927873],[81.01735698198623,29.488772741513916],[81.01709450473166,29.48884725947266],[81.01674405660252,29.488996235213627],[81.01604447411245,29.489183655588246],[81.01545255543427,29.489483859628812],[81.01523077734599,29.48978850818728],[81.01516493843,29.48984489920896],[81.01457151772308,29.490260199481973],[81.01448417122228,29.490278265724623],[81.0141330967273,29.4904678163874],[81.01387030677759,29.49056040169766],[81.01325869690432,29.490650732351547],[81.01290981464211,29.490648476824806],[81.01247421262815,29.49058757695773],[81.01193025611325,29.490506420345294],[81.01190743333783,29.490601198162178],[81.01179363299912,29.491002876316156],[81.01170021153371,29.49153771943968],[81.01160704121874,29.49207249951146],[81.01118323919427,29.492909738713042],[81.01105074804165,29.49304290073203],[81.01093920166984,29.493270778332157],[81.010936633394,29.493500971411393],[81.011019532477,29.4938845851054],[81.01122928653604,29.494575040549474],[81.01129368482023,29.494651751445698],[81.01126923380954,29.494881943485208],[81.01111291831913,29.49518659270366],[81.01075858759225,29.49564240883335],[81.0103137159124,29.49638486941882],[81.0100390913112,29.497454491251027],[81.0099491147552,29.49768243216823],[81.00972771190597,29.497987080737996],[81.00961522619625,29.49827366334085],[81.00967880972426,29.498427084354027],[81.01028466006039,29.49875650219577],[81.0103484941423,29.498873849460526],[81.01049973684863,29.498988885287527],[81.01108019690241,29.499607137708956],[81.01170204227529,29.50043520247257],[81.0124543761165,29.501263268402994],[81.01254084490587,29.501321974217053],[81.01354995720983,29.502517776775242],[81.01363636373152,29.50257648325513],[81.01404469773992,29.503057067332488],[81.01449654805151,29.50352183514511],[81.01501160738353,29.50415815360931],[81.01563570872304,29.504774030753286],[81.01647300804278,29.505796155612124],[81.0167923050609,29.5064121529848],[81.0169639290591,29.506624280307037],[81.01732999984195,29.50697169972105],[81.01791308888507,29.507398146238405],[81.01830079182967,29.50778395229121],[81.01855850888386,29.508093046384758],[81.01875076383486,29.508399951652933],[81.01888012301899,29.508514987068605],[81.01920567942024,29.50880338882781],[81.01921111847496,29.508815268076592],[81.01921305632355,29.508819519258395],[81.01923093810157,29.50885884329613],[81.01993693843133,29.509838578223995],[81.02079543785302,29.510629009726742],[81.02226866541741,29.511754548607254],[81.02287001045546,29.512216068151787],[81.02288364097589,29.512187122088847],[81.02390753079207,29.51224096547746],[81.02419838958102,29.51234387416953],[81.0247350216935,29.512837902441063],[81.02504662802367,29.513487471996946],[81.02549759563112,29.514397245672185],[81.02569935449034,29.514658137242627],[81.02574206093455,29.51451159499361],[81.02633060161651,29.514328675164418],[81.02684580390036,29.51401484034244],[81.02730974257943,29.513382974085815],[81.0279796950301,29.51288640141321],[81.02870122908004,29.512389828628926],[81.02901047846242,29.512028726936155],[81.02916473574278,29.51144424578726],[81.02973152657543,29.510812255759667],[81.02993779994932,29.51045115377244],[81.03055622617275,29.510270483996216],[81.03163851239985,29.510315450764896],[81.03216786810248,29.50881914489982],[81.03228154358206,29.508401648757786],[81.03245886595073,29.508173710113475],[81.03305328983684,29.507643250991915],[81.03362770799957,29.506997756874288],[81.033869553695,29.506828461241003],[81.0348827071093,29.50591877171741],[81.03501551067244,29.505747285812085],[81.03506065548905,29.50563219035375],[81.03532620084717,29.505291344365844],[81.03560843107226,29.505370246281988],[81.03619534028071,29.505469408956515],[81.03697738432791,29.505688047070507],[81.03808267180838,29.506175143036184],[81.03833395222439,29.506312687315386],[81.03847262837935,29.506389398933774],[81.0389292994987,29.50652688368872],[81.03938659734388,29.50662604452636],[81.04023698218904,29.50672958727218],[81.04082463989337,29.50688732911183],[81.04160549234697,29.507315840849238],[81.04212455756424,29.507721842919576],[81.04234126264221,29.507857197480714],[81.04223823277157,29.50735848807875],[81.04209719781234,29.506361193203865],[81.04217480801367,29.50536827822206],[81.04226591178642,29.5050613772847],[81.04229036286422,29.50483343603659],[81.04229217869924,29.504680016219],[81.04240554085597,29.5043369794242],[81.04256310832963,29.503955557289615],[81.04270023285841,29.503420715222127],[81.04272681314534,29.503037103189442],[81.0423730804389,29.501579483402747],[81.04238241098585,29.50081450923418],[81.04274099913027,29.500051791346134],[81.04331723239879,29.49932939978913],[81.04356177089046,29.498950292527624],[81.04413769032163,29.498284355380765],[81.04422666450243,29.498133124892412],[81.04434152952244,29.49767505538252],[81.0444733937108,29.497580279212457],[81.04482202553588,29.497638738773418],[81.04595626882337,29.497726343209546],[81.04778483128719,29.498181502736806],[81.04865334261433,29.498571567533993],[81.04908813054998,29.49872711905817],[81.04982696792746,29.499040409749416]]]}},{"type":"Feature","properties":{"province":"Sudurpashchim Province","district":"Bajhang","municipality":"Durgathali Rural Municipality","ward":"4","wardNumber":4,"sourceMunicipality":"Durgathali","sourceType":"Gaunpalika"},"geometry":{"type":"Polygon","coordinates":[[[81.02470442740602,29.5237251550025],[81.02494521384304,29.523395625044632],[81.02610829825737,29.52250638102584],[81.02695751759778,29.52142082537609],[81.02775914825423,29.520797842055764],[81.02783555256363,29.52077977526431],[81.02938614949352,29.520420629564185],[81.02942641697948,29.52033035415684],[81.02954177873768,29.52007534341704],[81.0296335723564,29.519615022192625],[81.02999581037227,29.517622381014213],[81.02994547868781,29.517613377738897],[81.02985063085846,29.5175953711746],[81.02970001136859,29.517570548715703],[81.02951319067434,29.51751421727923],[81.02935525718524,29.517453322124233],[81.02925459446415,29.517405932062772],[81.02918975810663,29.51736535605196],[81.02890390754062,29.51694572948043],[81.02872584183571,29.51681937682617],[81.02766449998258,29.516812859999785],[81.02734675575915,29.516702322470252],[81.02646267767189,29.5162738089363],[81.02581594112571,29.51573464164751],[81.02568395782217,29.515504447952498],[81.0256173809615,29.514940344040287],[81.02569535288612,29.514671829116395],[81.02569935449034,29.514658137242627],[81.02549759563112,29.514397245672185],[81.02504662802367,29.513487471996946],[81.0247350216935,29.512837902441063],[81.02419838958102,29.51234387416953],[81.02390753079207,29.51224096547746],[81.02288364097589,29.512187122088847],[81.02287001045546,29.512216068151787],[81.02226866541741,29.511754548607254],[81.02079543785302,29.510629009726742],[81.01993693843133,29.509838578223995],[81.01923093810157,29.50885884329613],[81.01921305632355,29.508819519258395],[81.01921111847496,29.508815268076592],[81.01920567942024,29.50880338882781],[81.01888012301899,29.508514987068605],[81.01875076383486,29.508399951652933],[81.01855850888386,29.508093046384758],[81.01830079182967,29.50778395229121],[81.01791308888507,29.507398146238405],[81.01732999984195,29.50697169972105],[81.0169639290591,29.506624280307037],[81.0167923050609,29.5064121529848],[81.01647300804278,29.505796155612124],[81.01563570872304,29.504774030753286],[81.01501160738353,29.50415815360931],[81.01449654805151,29.50352183514511],[81.01404469773992,29.503057067332488],[81.01363636373152,29.50257648325513],[81.01354995720983,29.502517776775242],[81.01254084490587,29.501321974217053],[81.0124543761165,29.501263268402994],[81.01170204227529,29.50043520247257],[81.01108019690241,29.499607137708956],[81.01049973684863,29.498988885287527],[81.0103484941423,29.498873849460526],[81.01028466006039,29.49875650219577],[81.00967880972426,29.498427084354027],[81.00939626611463,29.498366186771356],[81.00857799819026,29.499336584577158],[81.00829138342712,29.4996209139459],[81.00807179799604,29.499751823473485],[81.00721796642905,29.50009041045238],[81.00682456429622,29.500200936911888],[81.0064973136111,29.500216749152035],[81.00479221785865,29.50069974061091],[81.00400547724249,29.500846459720627],[81.00321961517513,29.50089608815781],[81.00269466190446,29.50104506154598],[81.00249733495471,29.501139836521464],[81.00196981491354,29.501478365658347],[81.00157516079051,29.50166791478113],[81.00059040482788,29.501983805982906],[81.00026115100245,29.502153100216223],[80.99973626147052,29.502281692618027],[80.99914478135493,29.50250737575258],[80.99894745463234,29.502620155723577],[80.99870498214659,29.50284809414013],[80.99861726128572,29.502886478467452],[80.99857268004811,29.50296093758326],[80.99811005896828,29.503360298140056],[80.99788915740191,29.503606303958296],[80.99773640955982,29.503688825998765],[80.99765311963188,29.504153460751322],[80.99747709313036,29.505295292656346],[80.99632400103995,29.506738761361586],[80.99590201234413,29.507526299058274],[80.99539542934849,29.508287014658634],[80.9953617233167,29.50862017421787],[80.99536441145776,29.508613546851407],[80.99577819457872,29.508611302689655],[80.99608193534003,29.508609744339907],[80.99665146434587,29.508606751444038],[81.0028340035759,29.50881884213483],[81.0028652574387,29.509229525237735],[81.0026595459807,29.509649208043545],[81.00250673479974,29.50980943976908],[81.00252611678859,29.509822443913176],[81.00307106736282,29.510188496639028],[81.0038257183715,29.510788745947274],[81.00471741946838,29.51150853279507],[81.00554046941788,29.512228318515767],[81.00629511750242,29.513009058170717],[81.00711817397884,29.51336773763963],[81.00725528164725,29.513728782742643],[81.0073239803113,29.514507324754295],[81.00780427831099,29.515048865718935],[81.00787303213126,29.5161883882891],[81.00766743036576,29.517447504329038],[81.00779903749807,29.517747656498642],[81.00656968563057,29.51816751150117],[81.005335137239,29.518948285001137],[81.00478628730055,29.519787710290586],[81.0043747986123,29.520807690634662],[81.00382632106263,29.521766713690653],[81.0035518832733,29.522847588729913],[81.00314033587897,29.52368707861977],[81.00307172464207,29.524826599706735],[81.0031404791016,29.525966059079337],[81.00341494425064,29.52674691680505],[81.00365977684405,29.527281702881123],[81.0036988555091,29.52722524908041],[81.0036304718542,29.526306853550874],[81.00376939947543,29.526342929013417],[81.00415930670881,29.525860043592566],[81.00457734090324,29.52591419029797],[81.00519689347344,29.52569307168314],[81.00597000655655,29.52536579951167],[81.00670053815124,29.525230333492274],[81.00688723506462,29.525194262784996],[81.00728976467178,29.525117496406594],[81.00827308868593,29.52446532001823],[81.00891590056963,29.52425539235559],[81.00913485944666,29.524237327965473],[81.0093525680562,29.524221514370176],[81.0132839314368,29.52472659492622],[81.01361287127034,29.52460693960611],[81.01400125877787,29.525166546517685],[81.014389653981,29.52530640592259],[81.01470958717763,29.525387559329825],[81.01518920556786,29.525466463951137],[81.01660549347054,29.525565576668807],[81.01708505101496,29.52558583917654],[81.01733664447266,29.525705377871724],[81.01781632780954,29.52568506689671],[81.01911832392231,29.525684835204984],[81.01950671550033,29.52602556602003],[81.01975793729054,29.525984870691524],[81.02078583130596,29.52588541855718],[81.02126582943576,29.52574538506708],[81.02190107473466,29.525553525101124],[81.02192820976315,29.525544460228836],[81.0224077710559,29.52536610284137],[81.02295598518832,29.52512685338966],[81.02345843057302,29.52490560843698],[81.02384664946743,29.52448580348558],[81.024417688991,29.52394646612322],[81.02470442740602,29.5237251550025]]]}},{"type":"Feature","properties":{"province":"Sudurpashchim Province","district":"Bajhang","municipality":"Durgathali Rural Municipality","ward":"3","wardNumber":3,"sourceMunicipality":"Durgathali","sourceType":"Gaunpalika"},"geometry":{"type":"Polygon","coordinates":[[[81.00365977684405,29.527281702881123],[81.00341494425064,29.52674691680505],[81.0031404791016,29.525966059079337],[81.00307172464207,29.524826599706735],[81.00314033587897,29.52368707861977],[81.0035518832733,29.522847588729913],[81.00382632106263,29.521766713690653],[81.0043747986123,29.520807690634662],[81.00478628730055,29.519787710290586],[81.005335137239,29.518948285001137],[81.00656968563057,29.51816751150117],[81.00779903749807,29.517747656498642],[81.00766743036576,29.517447504329038],[81.00787303213126,29.5161883882891],[81.00780427831099,29.515048865718935],[81.0073239803113,29.514507324754295],[81.00725528164725,29.513728782742643],[81.00711817397884,29.51336773763963],[81.00629511750242,29.513009058170717],[81.00554046941788,29.512228318515767],[81.00471741946838,29.51150853279507],[81.0038257183715,29.510788745947274],[81.00307106736282,29.510188496639028],[81.00252611678859,29.509822443913176],[81.00250673479974,29.50980943976908],[81.0026595459807,29.509649208043545],[81.0028652574387,29.509229525237735],[81.0028340035759,29.50881884213483],[80.99665146434587,29.508606751444038],[80.99608193534003,29.508609744339907],[80.99577819457872,29.508611302689655],[80.99536441145776,29.508613546851407],[80.9953617233167,29.50862017421787],[80.99539542934849,29.508287014658634],[80.99590201234413,29.507526299058274],[80.99632400103995,29.506738761361586],[80.99747709313036,29.505295292656346],[80.99765311963188,29.504153460751322],[80.99773640955982,29.503688825998765],[80.99771371341842,29.503701079191856],[80.99762699409644,29.503660441105065],[80.9973902838592,29.50337160308255],[80.99719583806446,29.50319786180349],[80.99713231766083,29.503044378436535],[80.99691792943442,29.50273753528477],[80.99672348333942,29.50256373115484],[80.9966608476036,29.501848458270533],[80.99665159618908,29.501742365066328],[80.99635818795161,29.500936749241],[80.99606024109272,29.49873891282682],[80.99572626342778,29.49747978915514],[80.99546217024232,29.497080356084975],[80.99509460144932,29.49665610126043],[80.99487120641358,29.49650042720364],[80.99451776233556,29.4963491903409],[80.99304714018238,29.496313033041382],[80.99260184416472,29.496364916422344],[80.99233680222106,29.496597356087303],[80.99205275512998,29.496628923178175],[80.99010558473451,29.49619332991926],[80.98895965440923,29.495872781101085],[80.98839819091458,29.495832136406744],[80.98698353250388,29.49557929101965],[80.98604261741676,29.495270061880348],[80.98581821892982,29.495281312054132],[80.98539099379178,29.4953038744804],[80.98465452207924,29.495470787416288],[80.98354721723811,29.49591290044603],[80.98314737202365,29.496163343166327],[80.98305902531361,29.49621754515484],[80.98279648361328,29.496434105317505],[80.98212665200764,29.497162870778293],[80.98160457261056,29.497451635393364],[80.98084715491676,29.497623049370407],[80.98037471921717,29.497956952624406],[80.98036550782571,29.499019764340634],[80.98019674206311,29.499705712628817],[80.97985378179574,29.500606034188383],[80.97935995458185,29.50135512186661],[80.97908421821307,29.501648452970315],[80.97885812456946,29.502052318582372],[80.97864816792533,29.502167411363892],[80.97811120366246,29.50267273899939],[80.97727767081507,29.50410777206345],[80.97665648591327,29.50462891635262],[80.9764500245367,29.505057663793046],[80.97637223818006,29.50537581850659],[80.97619770327633,29.506966656506005],[80.97604375965776,29.50752169215677],[80.97571436113303,29.508710847996785],[80.97589310298923,29.509394614089583],[80.97589255496105,29.511865525563422],[80.97571556514377,29.514336434680015],[80.97565678774829,29.51457556593327],[80.97677458599485,29.514722438087887],[80.97792001767985,29.514986595257994],[80.97845171736334,29.51510857588745],[80.97942218544071,29.516498748241936],[80.98056946791712,29.518042404978743],[80.9809223246071,29.519509152686567],[80.98180495998412,29.52020424418803],[80.98454136580763,29.520822840584085],[80.9850708636306,29.521671347730297],[80.98560060525129,29.52282900713299],[80.98596754524702,29.52347213823399],[80.98625001866046,29.523966350199462],[80.98626933785798,29.52400023490039],[80.98637775245062,29.5240656934291],[80.9866821773882,29.524264256449186],[80.98680534818338,29.524343281009976],[80.98684404746501,29.524496701376243],[80.98695915148885,29.52460279673013],[80.98722912691238,29.524735964494752],[80.98757550685524,29.524819431495878],[80.98791707019157,29.525058694148353],[80.9881698487089,29.52533171616472],[80.98864615248287,29.525458134759035],[80.98877201071863,29.525613870291192],[80.98911482425123,29.52581243284414],[80.98928870217506,29.525864388596712],[80.98967665993924,29.52597949057204],[80.98996176713223,29.526092339868566],[80.99188211447448,29.5265933901011],[80.99366959765922,29.52710119003409],[80.99418560573122,29.527193724709054],[80.9948609865129,29.52724337437172],[80.99554962328358,29.527274956185096],[80.99603437370534,29.527119293142754],[80.99665111972408,29.52655513704458],[80.99787383523515,29.526586789147657],[80.99891048129675,29.52652128531333],[80.99976968477337,29.526467156604458],[81.00104916310202,29.526986140133502],[81.00152878034491,29.5271057450044],[81.00230544639673,29.527385525794298],[81.00294506249496,29.527505132622576],[81.00319603312201,29.52751413876459],[81.00349339640752,29.527525396298874],[81.00365977684405,29.527281702881123]]]}},{"type":"Feature","properties":{"province":"Sudurpashchim Province","district":"Bajhang","municipality":"Durgathali Rural Municipality","ward":"6","wardNumber":6,"sourceMunicipality":"Durgathali","sourceType":"Gaunpalika"},"geometry":{"type":"Polygon","coordinates":[[[80.99272223935485,29.556196766402614],[80.99142432060384,29.55548810175402],[80.98921707274572,29.55386553134512],[80.98621503530148,29.55155005808747],[80.98462570317118,29.550313359913822],[80.9827714431247,29.549850571571476],[80.98003436345566,29.5484601862887],[80.9780922779394,29.54691645528857],[80.97685618751457,29.54660709662172],[80.97641466143392,29.545758590831863],[80.97615035518892,29.543441032807173],[80.9758857810352,29.54205105900961],[80.9757978457237,29.5401983901601],[80.97562209194439,29.536955749521134],[80.97526909817019,29.536107245990284],[80.9750929975704,29.534640500420156],[80.97474014013434,29.53325040039539],[80.97481148634097,29.53287585428195],[80.97470507140399,29.532873540059157],[80.97469763181408,29.532835216016323],[80.97449812915796,29.53225748094367],[80.97438603516783,29.531682060368624],[80.97438797933995,29.53139772768476],[80.97438866922847,29.531269127598815],[80.97427526007166,29.530813241641876],[80.97422236367936,29.530867444702764],[80.97408068211989,29.531011797482083],[80.97388585056703,29.531352519428317],[80.97348031580395,29.53166604261296],[80.97329186386976,29.531896232130773],[80.97313141560517,29.532525726697997],[80.97335390929837,29.534006101791174],[80.97336616277667,29.53408731271389],[80.97357352719226,29.535463844090792],[80.97326807410495,29.536720645464587],[80.97305829963871,29.537072620533458],[80.97283983459522,29.537440413276734],[80.97209997528336,29.538214254173443],[80.97192083387664,29.53872196255487],[80.9719140172918,29.53883030639392],[80.97185797844438,29.539712502092126],[80.97157561026964,29.540281101538973],[80.97088470183357,29.54131220627622],[80.97017866604745,29.542131185890838],[80.97003404605174,29.542298107028053],[80.96908147373848,29.54340360472331],[80.96830888930914,29.545461384000433],[80.9681304422381,29.54567569422377],[80.96797650474748,29.545860683544824],[80.96754826492868,29.546607520955252],[80.96728484262464,29.547067777158347],[80.96706500145437,29.547451323339253],[80.96610617311512,29.54873055894296],[80.96580411315475,29.549134360646352],[80.96530759127953,29.550170031530982],[80.96518803502023,29.55070024755794],[80.96526822391009,29.552189560341027],[80.96518698982726,29.55298829361312],[80.96462175915806,29.55379377068711],[80.96460562743385,29.55381633963052],[80.96427912539187,29.55394262175571],[80.96408098639377,29.55401932874209],[80.96355503020038,29.55427864680851],[80.96330655359895,29.55466219335859],[80.96331854544594,29.55528725164993],[80.96261744695258,29.55623708242787],[80.96260938058683,29.55629797454549],[80.96251395543254,29.5570087447031],[80.96303086945267,29.558703560744625],[80.96302717629077,29.55894050562017],[80.96300801840184,29.560222193712928],[80.96300175791131,29.56063962800115],[80.96297141377772,29.561659551829464],[80.96295933909958,29.562065732926992],[80.96255206448753,29.564978767778992],[80.96247927719821,29.56550004512188],[80.96161836318271,29.56666868712707],[80.9615102223184,29.568568617223562],[80.96140724362562,29.568703967949197],[80.9616316320128,29.569177922406336],[80.9619818824904,29.56958642255353],[80.9621151178632,29.569742157323425],[80.9621227409041,29.570008423296994],[80.96181342570152,29.57051606705844],[80.96179473017727,29.570547638693064],[80.9613679969093,29.57094018460661],[80.96123656770453,29.57115899712457],[80.96133422366452,29.5714681518975],[80.96138943374771,29.571427578363785],[80.96175244780936,29.571366753121648],[80.9621657914596,29.57143002762935],[80.96246933862008,29.571743811598107],[80.96265652061402,29.57251328996355],[80.9628610329802,29.572662274553696],[80.96278393992023,29.57272541643485],[80.96269934214284,29.57286308071257],[80.96259823784412,29.573063888082366],[80.96140546203134,29.573494559187242],[80.96061252993958,29.573704171345682],[80.9605167431267,29.57373355324971],[80.96042588925283,29.57408096615785],[80.96032377925926,29.57453672316293],[80.96000314735252,29.574987975786044],[80.95980812821125,29.575355642914076],[80.95988622159255,29.57532188431061],[80.96021247036335,29.57536483929478],[80.96036790129692,29.575504820169694],[80.96033844652952,29.575813910316036],[80.96025164571739,29.57671873712634],[80.96101905079767,29.577413889100715],[80.9609237581322,29.577723104013167],[80.96029300646605,29.578280257512404],[80.9599133553708,29.578616413159665],[80.95934701250314,29.57871099483858],[80.95750130274295,29.57901955765863],[80.95708595173348,29.57925186964793],[80.95632646601848,29.579678108144975],[80.9561114449096,29.579797639920123],[80.95471590406555,29.5802326841635],[80.95366198997525,29.580837095526885],[80.95264708693992,29.58162649925401],[80.95148517358524,29.583307161813075],[80.95274706974253,29.584471959428377],[80.95379975352648,29.586029306494073],[80.95497325133937,29.586652506665438],[80.95882825408287,29.588212959057756],[80.96123573007259,29.58844837663514],[80.96208986401771,29.588710341308687],[80.96260085890853,29.58935584981106],[80.96292447827294,29.589549974370943],[80.96391709941761,29.58994966908388],[80.96521464677244,29.59047121549175],[80.96554029178984,29.589374649538357],[80.9660707168621,29.587598949346194],[80.96642469570561,29.585978854463043],[80.96766150638618,29.5845892156394],[80.96969354879913,29.58374112271794],[80.972520082091,29.582814330643874],[80.97375687273868,29.582505383717567],[80.97411039568473,29.581810435295566],[80.97181449465066,29.579880710139186],[80.97022524979116,29.57740958753398],[80.96987219817018,29.576328578137264],[80.97004921840808,29.57555685434314],[80.97093255822932,29.575403634824557],[80.97437687449985,29.57524857794783],[80.97685007743377,29.574786417363637],[80.97719633530393,29.574703022638325],[80.97879307763708,29.57432412274046],[80.97985324689375,29.57355034949864],[80.9819734927268,29.57030799335764],[80.98338668969504,29.568611266222415],[80.98409376206045,29.56590804760489],[80.98506523008601,29.564055581483935],[80.98700845203726,29.56181726676769],[80.98833335479645,29.560659821399426],[80.98974628752084,29.55965573546622],[80.98997118982409,29.5594594312385],[80.9910708151336,29.558498228504778],[80.99213081491772,29.556799121296734],[80.99272223935485,29.556196766402614]]]}},{"type":"Feature","properties":{"province":"Sudurpashchim Province","district":"Bajhang","municipality":"Durgathali Rural Municipality","ward":"5","wardNumber":5,"sourceMunicipality":"Durgathali","sourceType":"Gaunpalika"},"geometry":{"type":"Polygon","coordinates":[[[81.0140317434752,29.556026653681585],[81.01468861969711,29.555981462725896],[81.01484574643763,29.5557332673048],[81.01520313919274,29.55537216712997],[81.01531124591868,29.55526157339688],[81.01536245283562,29.555225438123536],[81.01538796440907,29.55515548052758],[81.01583308413954,29.554471724242866],[81.01605498649586,29.554207713016954],[81.01610231786032,29.554167076996713],[81.0161872269179,29.55409486894257],[81.01623624607961,29.554047418475776],[81.01647302878074,29.553819480531732],[81.01654074348063,29.553754087416383],[81.01671881614206,29.553490012348316],[81.01695397376866,29.553189865364093],[81.01698523622346,29.55314922893906],[81.01743073259466,29.55246547285267],[81.01746286977526,29.552415833468483],[81.01754221576894,29.552291672896793],[81.01769771653338,29.552047979231112],[81.01781926767023,29.551822289744994],[81.01792149813642,29.55163048479857],[81.01792531665394,29.551346151346532],[81.0179265688938,29.551249123235873],[81.0179297622062,29.551021243942735],[81.0178061588862,29.550712088874153],[81.01811065353294,29.550527039180995],[81.01863773394182,29.55026515765915],[81.01896742503612,29.550109429004294],[81.01907678100214,29.550057540491622],[81.01951557743145,29.549852111565798],[81.02017389588528,29.549554159046778],[81.02096545707693,29.549064339389172],[81.02227996716262,29.548619603409296],[81.02267856462029,29.548165976015355],[81.02299106939434,29.547633387388345],[81.02325586213018,29.547407637289734],[81.02369390690048,29.547258663083145],[81.02417778449055,29.546958457175304],[81.02426675851544,29.546845612718187],[81.02431791366475,29.54627244489074],[81.02449498475998,29.54608508093047],[81.02479916213427,29.546164045633272],[81.02519018318151,29.54628127322692],[81.02571281941759,29.546324043642816],[81.02676378822542,29.546028221419366],[81.02690215448104,29.54600340413228],[81.02759441987669,29.545883629440688],[81.02785764813295,29.545773038068127],[81.02838272555968,29.545623939805598],[81.0289062999665,29.545628386104507],[81.02930082852883,29.54547934758948],[81.02957562357767,29.545323555918642],[81.02969492026682,29.545255850325745],[81.02982816063056,29.545179080223992],[81.03018161427251,29.54484054880198],[81.0306294263407,29.54396717429428],[81.03098287958099,29.543626329473355],[81.03111418025453,29.543590195777647],[81.0313380179739,29.54350667468689],[81.03150864615807,29.543441157738116],[81.03190373860005,29.5432537963951],[81.03231302419756,29.543014481798664],[81.03252035692111,29.54280004687156],[81.03265841253048,29.542653380989258],[81.03269742772832,29.542612744816015],[81.03278608889697,29.542497650043053],[81.03301074604141,29.54200338288325],[81.03313717077639,29.54192211115967],[81.03336263466231,29.541777634176075],[81.03361873504848,29.5416421606134],[81.03371414776034,29.54159027260906],[81.03410798684409,29.541479558282685],[81.03450339243726,29.541256061161448],[81.0349158674865,29.540935535691553],[81.0349884595562,29.540879144392434],[81.03542832056966,29.540576624813028],[81.03591426446563,29.540122999250755],[81.03600605506307,29.539782150930606],[81.03605501816129,29.539439175570852],[81.03667226429425,29.538872581111196],[81.0378530319967,29.538615023217975],[81.03800878288145,29.538414153714033],[81.03803066605263,29.53838695863801],[81.03816791551185,29.537892815265526],[81.03838906669554,29.537667128001537],[81.03874026628762,29.53747970250889],[81.0388743846598,29.537251762799098],[81.0384457947271,29.536674212472512],[81.03830862318667,29.53637868649569],[81.03788183438381,29.5364419491166],[81.03715537291883,29.536268450034527],[81.03705602307015,29.536243628518182],[81.03683800214199,29.536241437252606],[81.03566092973315,29.536192218117296],[81.03513553927421,29.53633894106245],[81.03474013383692,29.53656468891431],[81.0343530490987,29.53656030760754],[81.03382779148814,29.536289657541847],[81.03305119436105,29.535671590283446],[81.0318813850894,29.53508977786826],[81.03141358744864,29.534794184216985],[81.03114611287529,29.534625068375153],[81.03062829849145,29.53420093705175],[81.03023790274872,29.534043072652402],[81.02959041636318,29.53354229103614],[81.02841747537003,29.533188295545646],[81.02830424508969,29.53317022616918],[81.028204464156,29.532804742444636],[81.02803634583364,29.53234441776075],[81.02769554036819,29.53173073287069],[81.02722312083205,29.53119375563954],[81.02670599481925,29.530729049274417],[81.02663109603265,29.530494417058225],[81.02641283798052,29.529812963955937],[81.02543218438487,29.528125267990323],[81.02514128068675,29.52705351195917],[81.02519494082505,29.52629078968456],[81.02494386010436,29.525525874019674],[81.02478331554445,29.52466611981471],[81.02470442740602,29.5237251550025],[81.024417688991,29.52394646612322],[81.02384664946743,29.52448580348558],[81.02345843057302,29.52490560843698],[81.02295598518832,29.52512685338966],[81.0224077710559,29.52536610284137],[81.02192820976315,29.525544460228836],[81.02190107473466,29.525553525101124],[81.02126582943576,29.52574538506708],[81.02078583130596,29.52588541855718],[81.01975793729054,29.525984870691524],[81.01950671550033,29.52602556602003],[81.01911832392231,29.525684835204984],[81.01781632780954,29.52568506689671],[81.01733664447266,29.525705377871724],[81.01708505101496,29.52558583917654],[81.01660549347054,29.525565576668807],[81.01518920556786,29.525466463951137],[81.01470958717763,29.525387559329825],[81.014389653981,29.52530640592259],[81.01400125877787,29.525166546517685],[81.01361287127034,29.52460693960611],[81.0132839314368,29.52472659492622],[81.0093525680562,29.524221514370176],[81.00913485944666,29.524237327965473],[81.00891590056963,29.52425539235559],[81.00827308868593,29.52446532001823],[81.00728976467178,29.525117496406594],[81.00688723506462,29.525194262784996],[81.00670053815124,29.525230333492274],[81.00597000655655,29.52536579951167],[81.00519689347344,29.52569307168314],[81.00457734090324,29.52591419029797],[81.00415930670881,29.525860043592566],[81.00376939947543,29.526342929013417],[81.0036304718542,29.526306853550874],[81.0036988555091,29.52722524908041],[81.00365977684405,29.527281702881123],[81.00349339640752,29.527525396298874],[81.00319603312201,29.52751413876459],[81.00294506249496,29.527505132622576],[81.00230544639673,29.527385525794298],[81.00152878034491,29.5271057450044],[81.00104916310202,29.526986140133502],[80.99976968477337,29.526467156604458],[80.99891048129675,29.52652128531333],[80.99787383523515,29.526586789147657],[80.99665111972408,29.52655513704458],[80.99603437370534,29.527119293142754],[80.99554962328358,29.527274956185096],[80.9948609865129,29.52724337437172],[80.99418560573122,29.527193724709054],[80.99366959765922,29.52710119003409],[80.99188211447448,29.5265933901011],[80.98996176713223,29.526092339868566],[80.98967665993924,29.52597949057204],[80.98928870217506,29.525864388596712],[80.98911482425123,29.52581243284414],[80.98877201071863,29.525613870291192],[80.98864615248287,29.525458134759035],[80.9881698487089,29.52533171616472],[80.98791707019157,29.525058694148353],[80.98757550685524,29.524819431495878],[80.98722912691238,29.524735964494752],[80.98695915148885,29.52460279673013],[80.98689112550645,29.524582477563914],[80.98667039657519,29.525629468200137],[80.98651305710924,29.527170667671754],[80.98637831735134,29.527222555853772],[80.9857113082982,29.527475245389123],[80.98471764747774,29.529126902267123],[80.983331921747,29.52965028490489],[80.98279607882743,29.530365486793304],[80.98219796530984,29.530916014154794],[80.98150468900978,29.53154775179339],[80.98068599468426,29.53187939894661],[80.979835420524,29.531906331771278],[80.97901617279194,29.531770905637917],[80.97829208463166,29.531795526483833],[80.97773105051155,29.532188071366374],[80.97759524609762,29.53233698761556],[80.9774594412507,29.53248590459583],[80.97715976185549,29.53262125182869],[80.97706072310257,29.53266632671688],[80.97661454696856,29.53295971804504],[80.97626166115353,29.533065618586832],[80.97539433378597,29.53289174285935],[80.97515111599633,29.532884924540905],[80.97504532627997,29.532882672625497],[80.97481148634097,29.53287585428195],[80.97474014013434,29.53325040039539],[80.9750929975704,29.534640500420156],[80.97526909817019,29.536107245990284],[80.97562209194439,29.536955749521134],[80.9757978457237,29.5401983901601],[80.9758857810352,29.54205105900961],[80.97615035518892,29.543441032807173],[80.97641466143392,29.545758590831863],[80.97685618751457,29.54660709662172],[80.9780922779394,29.54691645528857],[80.98003436345566,29.5484601862887],[80.9827714431247,29.549850571571476],[80.98462570317118,29.550313359913822],[80.98621503530148,29.55155005808747],[80.98921707274572,29.55386553134512],[80.99142432060384,29.55548810175402],[80.99272223935485,29.556196766402614],[80.9928374074733,29.55625984866309],[80.99522161635936,29.556876001946105],[80.99642844262283,29.557362724521],[80.9972615384188,29.55916901687985],[80.99761909924787,29.559816148420403],[80.99822012313659,29.56075499558136],[80.99859082490745,29.560836212290457],[80.9993322317228,29.560915183732373],[81.00016630288432,29.560754961389218],[81.00155622450134,29.559863658290176],[81.00248277441527,29.559376216794444],[81.00340938741003,29.55889102560577],[81.00415048712188,29.55864727677581],[81.00532068163103,29.558726192917593],[81.00544774749196,29.557837121199206],[81.00544769900516,29.557108282301787],[81.00563315766819,29.556460658013506],[81.00526240011004,29.555975510219977],[81.00526241136005,29.555406843549456],[81.00507685722091,29.554515579738084],[81.00526231823436,29.553705470281333],[81.00544740153798,29.55305784542989],[81.00572551556628,29.5526539811835],[81.00572546226287,29.552166463032748],[81.00516957256478,29.551681375522854],[81.0051695253969,29.550871263304085],[81.0049839713403,29.549979937126068],[81.00535462079156,29.549573760391077],[81.00609591771098,29.54884487079333],[81.00618840584852,29.54803475966569],[81.00618835837136,29.54722470986969],[81.00600280381198,29.546414656778605],[81.00603900927281,29.546148329477187],[81.00618831450619,29.54625436261867],[81.00665149556862,29.546010672856774],[81.00711468661842,29.545281778413983],[81.00692913557243,29.544227966619246],[81.00646584349902,29.54374288015081],[81.00646579212619,29.543174213699505],[81.00674379196603,29.542201620567038],[81.00674368491276,29.541231336053116],[81.00665110081366,29.540502496221396],[81.00665104982504,29.539933829529662],[81.00712900014423,29.538979306246294],[81.00878161949052,29.53952980458403],[81.01072747399172,29.54017727326319],[81.01211723826106,29.540987217822494],[81.01273953004288,29.541413602126326],[81.01258058538136,29.541878486342043],[81.01239513231498,29.542282414109017],[81.01248815699795,29.542851082797043],[81.01285859664695,29.543579863559863],[81.01313669183784,29.544146158634263],[81.01369275721368,29.545281187107648],[81.01415604312591,29.54609124421731],[81.01424881282787,29.546901295550416],[81.01360048591253,29.547792734117436],[81.0128592533343,29.548440413185354],[81.01276670597721,29.5490880395223],[81.0131374673354,29.549331679015342],[81.01378595825355,29.549654283130522],[81.01434222248747,29.550222895205945],[81.0141569426059,29.551355661759498],[81.01415705044464,29.55224698526787],[81.01415710211661,29.552813338755325],[81.01424980931344,29.553623452425413],[81.0142499785371,29.554596050408897],[81.01397235252932,29.555649854886727],[81.0140317434752,29.556026653681585]]]}},{"type":"Feature","properties":{"province":"Sudurpashchim Province","district":"Bajhang","municipality":"Durgathali Rural Municipality","ward":"7","wardNumber":7,"sourceMunicipality":"Durgathali","sourceType":"Gaunpalika"},"geometry":{"type":"Polygon","coordinates":[[[80.98575973483024,29.603388743730903],[80.98544744290415,29.60262826578533],[80.98531121466098,29.602050594642563],[80.98529196956886,29.60142328549307],[80.98496123142193,29.600707946412758],[80.98480574625304,29.600114520350836],[80.98470865485876,29.599688018434104],[80.98476719759033,29.598670346186744],[80.98537018653693,29.59817621003651],[80.98587563644361,29.59780167047289],[80.98626460414742,29.59749708687861],[80.98661486628664,29.59729178205498],[80.98684821063361,29.59703908653486],[80.98735434902649,29.596608155097115],[80.98766491001015,29.59634189452143],[80.98819005401165,29.5960192444259],[80.98859834302914,29.595610881135524],[80.9892984968914,29.595033221890215],[80.9902122282189,29.594591043599156],[80.99058181808972,29.5940133800811],[80.99085424440081,29.59350342164231],[80.99107277713003,29.59288518165342],[80.99251810732001,29.59143202699738],[80.99290770685052,29.59072576353657],[80.992927090093,29.590662619780524],[80.99328474896764,29.5894982843694],[80.99400417422002,29.588162465722625],[80.9943107969525,29.587902956557365],[80.99483875247546,29.58768183726179],[80.99519570859408,29.58726890858346],[80.99560789646691,29.58567132147175],[80.9963875960556,29.584294866906614],[80.9966500128313,29.584051174611552],[80.99706986064758,29.584066935464993],[80.99757362002505,29.58381874516636],[80.99785666774473,29.583708154310134],[80.99817131987258,29.582031667950076],[80.9982971380681,29.580957417187083],[80.99851755739459,29.5798021444784],[80.99908391494758,29.578949215480847],[80.99908392669798,29.57831740530018],[80.99914683477361,29.577877401682105],[80.99923499450384,29.577802881361144],[80.9999335218229,29.57721621944781],[81.00059440926081,29.57669495165558],[81.00087771629423,29.57609021587453],[81.00160151125004,29.57509956194699],[81.00213616133888,29.574659565564776],[81.00260823028457,29.57397130823463],[81.00358357968463,29.57185238932691],[81.00386688626382,29.571304045379247],[81.00402402335514,29.570561642327753],[81.0041549572159,29.57006068465881],[81.00434440680824,29.569936588550807],[81.00443982595793,29.569521405643105],[81.00431722545864,29.569072335225584],[81.0041781165776,29.568765492616652],[81.00424845523438,29.56875192720996],[81.00527516920447,29.56827574095883],[81.00546587296978,29.567935018317463],[81.005556533952,29.56786506202001],[81.00618372135152,29.567312158761784],[81.00654155227265,29.56692630149002],[81.00658963276292,29.566969189724315],[81.00662089574631,29.566935304758122],[81.0070942105695,29.56643441474257],[81.00717780607636,29.566382525887224],[81.0080604713564,29.565524912467357],[81.01079029623513,29.56377806584683],[81.01128261719771,29.563340319804226],[81.01194426358589,29.562340661522942],[81.01227709159137,29.561607264176768],[81.01292329007934,29.560871557437004],[81.01301038719356,29.56077221739689],[81.0129683786548,29.56040442133556],[81.01311333881522,29.55885646972332],[81.0131342883469,29.55863296734227],[81.0131410424983,29.558558570233714],[81.0131481089897,29.55848411159729],[81.01356804016955,29.557376105168775],[81.0140317434752,29.556026653681585],[81.01397235252932,29.555649854886727],[81.0142499785371,29.554596050408897],[81.01424980931344,29.553623452425413],[81.01415710211661,29.552813338755325],[81.01415705044464,29.55224698526787],[81.0141569426059,29.551355661759498],[81.01434222248747,29.550222895205945],[81.01378595825355,29.549654283130522],[81.0131374673354,29.549331679015342],[81.01276670597721,29.5490880395223],[81.0128592533343,29.548440413185354],[81.01360048591253,29.547792734117436],[81.01424881282787,29.546901295550416],[81.01415604312591,29.54609124421731],[81.01369275721368,29.545281187107648],[81.01313669183784,29.544146158634263],[81.01285859664695,29.543579863559863],[81.01248815699795,29.542851082797043],[81.01239513231498,29.542282414109017],[81.01258058538136,29.541878486342043],[81.01273953004288,29.541413602126326],[81.01211723826106,29.540987217822494],[81.01072747399172,29.54017727326319],[81.00878161949052,29.53952980458403],[81.00712900014423,29.538979306246294],[81.00665104982504,29.539933829529662],[81.00665110081366,29.540502496221396],[81.00674368491276,29.541231336053116],[81.00674379196603,29.542201620567038],[81.00646579212619,29.543174213699505],[81.00646584349902,29.54374288015081],[81.00692913557243,29.544227966619246],[81.00711468661842,29.545281778413983],[81.00665149556862,29.546010672856774],[81.00618831450619,29.54625436261867],[81.00603900927281,29.546148329477187],[81.00600280381198,29.546414656778605],[81.00618835837136,29.54722470986969],[81.00618840584852,29.54803475966569],[81.00609591771098,29.54884487079333],[81.00535462079156,29.549573760391077],[81.0049839713403,29.549979937126068],[81.0051695253969,29.550871263304085],[81.00516957256478,29.551681375522854],[81.00572546226287,29.552166463032748],[81.00572551556628,29.5526539811835],[81.00544740153798,29.55305784542989],[81.00526231823436,29.553705470281333],[81.00507685722091,29.554515579738084],[81.00526241136005,29.555406843549456],[81.00526240011004,29.555975510219977],[81.00563315766819,29.556460658013506],[81.00544769900516,29.557108282301787],[81.00544774749196,29.557837121199206],[81.00532068163103,29.558726192917593],[81.00415048712188,29.55864727677581],[81.00340938741003,29.55889102560577],[81.00248277441527,29.559376216794444],[81.00155622450134,29.559863658290176],[81.00016630288432,29.560754961389218],[80.9993322317228,29.560915183732373],[80.99859082490745,29.560836212290457],[80.99822012313659,29.56075499558136],[80.99761909924787,29.559816148420403],[80.9972615384188,29.55916901687985],[80.99642844262283,29.557362724521],[80.99522161635936,29.556876001946105],[80.9928374074733,29.55625984866309],[80.99272223935485,29.556196766402614],[80.99213081491772,29.556799121296734],[80.9910708151336,29.558498228504778],[80.98997118982409,29.5594594312385],[80.98974628752084,29.55965573546622],[80.98833335479645,29.560659821399426],[80.98700845203726,29.56181726676769],[80.98506523008601,29.564055581483935],[80.98409376206045,29.56590804760489],[80.98338668969504,29.568611266222415],[80.9819734927268,29.57030799335764],[80.97985324689375,29.57355034949864],[80.97879307763708,29.57432412274046],[80.97719633530393,29.574703022638325],[80.97685007743377,29.574786417363637],[80.97437687449985,29.57524857794783],[80.97093255822932,29.575403634824557],[80.97004921840808,29.57555685434314],[80.96987219817018,29.576328578137264],[80.97022524979116,29.57740958753398],[80.97181449465066,29.579880710139186],[80.97411039568473,29.581810435295566],[80.97375687273868,29.582505383717567],[80.972520082091,29.582814330643874],[80.96969354879913,29.58374112271794],[80.96766150638618,29.5845892156394],[80.96642469570561,29.585978854463043],[80.9660707168621,29.587598949346194],[80.96554029178984,29.589374649538357],[80.96521464677244,29.59047121549175],[80.96681899611937,29.591116991180005],[80.9674119069791,29.59122997085899],[80.96939416416038,29.591214620735457],[80.96954553213646,29.591293646742898],[80.96962074865405,29.591286895588585],[80.97361184083644,29.59093341381768],[80.97448898557249,29.5910463970676],[80.97515642661317,29.59113224453532],[80.9758889512292,29.591394144750442],[80.97620619442442,29.591507057844012],[80.97684711567271,29.592080360265637],[80.97729320936875,29.5927888872162],[80.97808747819109,29.59453328494189],[80.97980471208001,29.596963834875954],[80.98030651675099,29.59757764763337],[80.98100033389524,29.598080930251427],[80.98108711249185,29.598306622647186],[80.98152682056337,29.599457466576666],[80.98186493276644,29.600339792916337],[80.98207788071593,29.60075729316507],[80.9823176501832,29.601226683750905],[80.98225042539676,29.601867495585505],[80.98211691146042,29.603144680906365],[80.9821788690112,29.603336425123313],[80.98235180840503,29.603417701523473],[80.98293602594961,29.60369085254019],[80.9837829736302,29.603704494942875],[80.98420163612887,29.60360972248496],[80.98504221050906,29.603418053741642],[80.98543467145298,29.603481328091927],[80.98575973483024,29.603388743730903]]]}}]}